<?xml version="1.0" encoding="UTF-8" standalone="yes"?>
<gpx version="1.1" creator="OS Maps - Web" xmlns="http://www.topografix.com/GPX/1/1"
xmlns:xsi="http://www.w3.org/2001/XMLSchema-instance"
xsi:schemaLocation="http://www.topografix.com/GPX/1/1 http://www.topografix.com/GPX/1/1/gpx.xsd"
xmlns:gs="http://www.topografix.com/GPX/gpx_style/0/2"
xmlns:gh="https://graphhopper.com/public/schema/gpx/1.1"
xmlns:os="https://ordnancesurvey.co.uk/public/schema/route/0.1">
    <metadata>
        <name>SWCP01 MineHead-Porlock</name>
        <desc></desc>
        <bounds minlat="51.2110400" minlon="-3.5982800" maxlat="51.2296700" maxlon="-3.4736000"/>
        <extensions>
            <os:version>2.0</os:version>
            <os:point lat="51.2110400" lon="-3.4736000" type="start"/>
            <os:point lat="51.2182400" lon="-3.5982800" type="end"/>
            <os:activity>ON_FOOT_WALKING</os:activity>
            <os:difficulty>MODERATE</os:difficulty>
            <os:paths/>
            <os:distance>13332.9768176</os:distance>
            <os:elevation_ascent>530.4700000</os:elevation_ascent>
            <os:route_type>SINGLE</os:route_type>
        </extensions>
    </metadata>
    <wpt lat="51.2110400" lon="-3.4736000"/>
    <wpt lat="51.2123300" lon="-3.4738700"/>
    <wpt lat="51.2175500" lon="-3.4814400"/>
    <wpt lat="51.2202600" lon="-3.4919800"/>
    <wpt lat="51.2202400" lon="-3.5002800"/>
    <wpt lat="51.2195300" lon="-3.5137200"/>
    <wpt lat="51.2218800" lon="-3.5238900"/>
    <wpt lat="51.2260300" lon="-3.5295700"/>
    <wpt lat="51.2281800" lon="-3.5671900"/>
    <wpt lat="51.2199600" lon="-3.5863000"/>
    <wpt lat="51.2184500" lon="-3.5902300"/>
    <wpt lat="51.2189600" lon="-3.5945100"/>
    <wpt lat="51.2182400" lon="-3.5982800"/>
    <trk>
        <name>SWCP01 MineHead-Porlock</name>
        <trkseg>
            <trkpt lat="51.2110400" lon="-3.4736000"/>
            <trkpt lat="51.2112700" lon="-3.4737200"/>
            <trkpt lat="51.2114700" lon="-3.4737200"/>
            <trkpt lat="51.2123300" lon="-3.4738700"/>
            <trkpt lat="51.2124500" lon="-3.4738900"/>
            <trkpt lat="51.2124700" lon="-3.4739500"/>
            <trkpt lat="51.2126300" lon="-3.4739800"/>
            <trkpt lat="51.2127300" lon="-3.4740600"/>
            <trkpt lat="51.2130600" lon="-3.4744500"/>
            <trkpt lat="51.2133200" lon="-3.4747900"/>
            <trkpt lat="51.2133400" lon="-3.4748600"/>
            <trkpt lat="51.2145700" lon="-3.4762800"/>
            <trkpt lat="51.2147100" lon="-3.4763000"/>
            <trkpt lat="51.2153000" lon="-3.4771500"/>
            <trkpt lat="51.2154200" lon="-3.4774400"/>
            <trkpt lat="51.2155000" lon="-3.4774800"/>
            <trkpt lat="51.2155300" lon="-3.4775600"/>
            <trkpt lat="51.2155300" lon="-3.4776400"/>
            <trkpt lat="51.2160000" lon="-3.4781700"/>
            <trkpt lat="51.2162500" lon="-3.4790200"/>
            <trkpt lat="51.2168900" lon="-3.4801200"/>
            <trkpt lat="51.2171700" lon="-3.4809300"/>
            <trkpt lat="51.2172800" lon="-3.4811100"/>
            <trkpt lat="51.2174600" lon="-3.4811700"/>
            <trkpt lat="51.2175500" lon="-3.4814400"/>
            <trkpt lat="51.2176000" lon="-3.4815800"/>
            <trkpt lat="51.2177800" lon="-3.4819100"/>
            <trkpt lat="51.2177200" lon="-3.4819800"/>
            <trkpt lat="51.2177200" lon="-3.4820800"/>
            <trkpt lat="51.2176600" lon="-3.4821400"/>
            <trkpt lat="51.2178900" lon="-3.4824500"/>
            <trkpt lat="51.2180100" lon="-3.4827900"/>
            <trkpt lat="51.2183500" lon="-3.4831000"/>
            <trkpt lat="51.2184200" lon="-3.4832600"/>
            <trkpt lat="51.2185600" lon="-3.4833200"/>
            <trkpt lat="51.2188600" lon="-3.4838800"/>
            <trkpt lat="51.2189100" lon="-3.4841700"/>
            <trkpt lat="51.2188700" lon="-3.4846200"/>
            <trkpt lat="51.2187600" lon="-3.4849900"/>
            <trkpt lat="51.2186400" lon="-3.4856400"/>
            <trkpt lat="51.2188200" lon="-3.4859300"/>
            <trkpt lat="51.2190000" lon="-3.4863300"/>
            <trkpt lat="51.2190900" lon="-3.4866800"/>
            <trkpt lat="51.2192900" lon="-3.4873100"/>
            <trkpt lat="51.2195900" lon="-3.4880000"/>
            <trkpt lat="51.2197300" lon="-3.4883900"/>
            <trkpt lat="51.2198200" lon="-3.4888500"/>
            <trkpt lat="51.2200300" lon="-3.4896700"/>
            <trkpt lat="51.2202200" lon="-3.4913000"/>
            <trkpt lat="51.2202600" lon="-3.4919800"/>
            <trkpt lat="51.2202800" lon="-3.4926200"/>
            <trkpt lat="51.2204300" lon="-3.4932300"/>
            <trkpt lat="51.2207600" lon="-3.4941100"/>
            <trkpt lat="51.2208700" lon="-3.4945300"/>
            <trkpt lat="51.2209000" lon="-3.4948600"/>
            <trkpt lat="51.2208300" lon="-3.4950300"/>
            <trkpt lat="51.2208300" lon="-3.4958100"/>
            <trkpt lat="51.2206700" lon="-3.4954100"/>
            <trkpt lat="51.2205400" lon="-3.4948800"/>
            <trkpt lat="51.2204100" lon="-3.4945400"/>
            <trkpt lat="51.2201500" lon="-3.4941700"/>
            <trkpt lat="51.2198800" lon="-3.4938900"/>
            <trkpt lat="51.2196600" lon="-3.4935800"/>
            <trkpt lat="51.2193800" lon="-3.4934000"/>
            <trkpt lat="51.2190700" lon="-3.4930200"/>
            <trkpt lat="51.2188000" lon="-3.4926400"/>
            <trkpt lat="51.2187000" lon="-3.4922900"/>
            <trkpt lat="51.2186500" lon="-3.4923900"/>
            <trkpt lat="51.2186300" lon="-3.4926200"/>
            <trkpt lat="51.2187400" lon="-3.4930800"/>
            <trkpt lat="51.2191100" lon="-3.4939600"/>
            <trkpt lat="51.2192600" lon="-3.4944200"/>
            <trkpt lat="51.2194300" lon="-3.4948700"/>
            <trkpt lat="51.2195200" lon="-3.4952500"/>
            <trkpt lat="51.2194800" lon="-3.4955500"/>
            <trkpt lat="51.2193000" lon="-3.4961900"/>
            <trkpt lat="51.2193400" lon="-3.4964600"/>
            <trkpt lat="51.2193300" lon="-3.4968000"/>
            <trkpt lat="51.2193700" lon="-3.4970100"/>
            <trkpt lat="51.2195100" lon="-3.4971900"/>
            <trkpt lat="51.2196200" lon="-3.4975000"/>
            <trkpt lat="51.2196700" lon="-3.4978700"/>
            <trkpt lat="51.2197500" lon="-3.4982500"/>
            <trkpt lat="51.2198400" lon="-3.4985200"/>
            <trkpt lat="51.2200000" lon="-3.4992800"/>
            <trkpt lat="51.2200900" lon="-3.4995500"/>
            <trkpt lat="51.2202000" lon="-3.4999900"/>
            <trkpt lat="51.2202400" lon="-3.5002800"/>
            <trkpt lat="51.2203000" lon="-3.5006600"/>
            <trkpt lat="51.2202800" lon="-3.5010400"/>
            <trkpt lat="51.2201600" lon="-3.5015300"/>
            <trkpt lat="51.2200700" lon="-3.5017000"/>
            <trkpt lat="51.2199100" lon="-3.5018800"/>
            <trkpt lat="51.2198500" lon="-3.5021100"/>
            <trkpt lat="51.2198300" lon="-3.5023100"/>
            <trkpt lat="51.2198600" lon="-3.5027900"/>
            <trkpt lat="51.2201600" lon="-3.5036400"/>
            <trkpt lat="51.2202200" lon="-3.5039700"/>
            <trkpt lat="51.2202800" lon="-3.5045200"/>
            <trkpt lat="51.2203300" lon="-3.5056000"/>
            <trkpt lat="51.2203200" lon="-3.5060400"/>
            <trkpt lat="51.2202400" lon="-3.5063900"/>
            <trkpt lat="51.2200700" lon="-3.5068300"/>
            <trkpt lat="51.2200000" lon="-3.5071600"/>
            <trkpt lat="51.2199100" lon="-3.5075000"/>
            <trkpt lat="51.2196800" lon="-3.5081100"/>
            <trkpt lat="51.2196400" lon="-3.5080700"/>
            <trkpt lat="51.2196300" lon="-3.5078400"/>
            <trkpt lat="51.2194800" lon="-3.5077100"/>
            <trkpt lat="51.2193600" lon="-3.5076800"/>
            <trkpt lat="51.2192000" lon="-3.5076900"/>
            <trkpt lat="51.2190600" lon="-3.5077800"/>
            <trkpt lat="51.2187500" lon="-3.5081600"/>
            <trkpt lat="51.2186000" lon="-3.5082000"/>
            <trkpt lat="51.2186200" lon="-3.5085100"/>
            <trkpt lat="51.2187100" lon="-3.5091700"/>
            <trkpt lat="51.2188200" lon="-3.5102100"/>
            <trkpt lat="51.2188300" lon="-3.5105700"/>
            <trkpt lat="51.2189300" lon="-3.5122800"/>
            <trkpt lat="51.2195300" lon="-3.5137200"/>
            <trkpt lat="51.2195900" lon="-3.5138800"/>
            <trkpt lat="51.2199300" lon="-3.5143300"/>
            <trkpt lat="51.2201200" lon="-3.5145000"/>
            <trkpt lat="51.2202700" lon="-3.5145200"/>
            <trkpt lat="51.2206200" lon="-3.5144000"/>
            <trkpt lat="51.2207600" lon="-3.5143800"/>
            <trkpt lat="51.2209000" lon="-3.5144100"/>
            <trkpt lat="51.2209900" lon="-3.5145500"/>
            <trkpt lat="51.2210400" lon="-3.5147900"/>
            <trkpt lat="51.2210300" lon="-3.5151900"/>
            <trkpt lat="51.2209000" lon="-3.5166000"/>
            <trkpt lat="51.2209200" lon="-3.5171900"/>
            <trkpt lat="51.2209900" lon="-3.5176100"/>
            <trkpt lat="51.2211000" lon="-3.5178500"/>
            <trkpt lat="51.2211200" lon="-3.5180700"/>
            <trkpt lat="51.2210500" lon="-3.5183300"/>
            <trkpt lat="51.2208900" lon="-3.5185200"/>
            <trkpt lat="51.2208800" lon="-3.5187500"/>
            <trkpt lat="51.2209600" lon="-3.5191800"/>
            <trkpt lat="51.2210500" lon="-3.5194800"/>
            <trkpt lat="51.2210300" lon="-3.5195100"/>
            <trkpt lat="51.2210100" lon="-3.5195100"/>
            <trkpt lat="51.2209600" lon="-3.5194500"/>
            <trkpt lat="51.2209200" lon="-3.5195000"/>
            <trkpt lat="51.2209000" lon="-3.5195900"/>
            <trkpt lat="51.2209400" lon="-3.5199400"/>
            <trkpt lat="51.2210300" lon="-3.5203600"/>
            <trkpt lat="51.2210200" lon="-3.5207100"/>
            <trkpt lat="51.2210800" lon="-3.5210500"/>
            <trkpt lat="51.2211900" lon="-3.5214700"/>
            <trkpt lat="51.2211900" lon="-3.5218000"/>
            <trkpt lat="51.2214600" lon="-3.5225100"/>
            <trkpt lat="51.2215600" lon="-3.5226800"/>
            <trkpt lat="51.2215600" lon="-3.5227500"/>
            <trkpt lat="51.2214400" lon="-3.5230400"/>
            <trkpt lat="51.2213200" lon="-3.5235100"/>
            <trkpt lat="51.2213100" lon="-3.5236800"/>
            <trkpt lat="51.2213500" lon="-3.5237900"/>
            <trkpt lat="51.2214000" lon="-3.5237500"/>
            <trkpt lat="51.2217200" lon="-3.5238000"/>
            <trkpt lat="51.2216700" lon="-3.5239000"/>
            <trkpt lat="51.2216800" lon="-3.5239200"/>
            <trkpt lat="51.2218800" lon="-3.5238900"/>
            <trkpt lat="51.2221400" lon="-3.5239200"/>
            <trkpt lat="51.2227800" lon="-3.5236600"/>
            <trkpt lat="51.2229200" lon="-3.5236700"/>
            <trkpt lat="51.2231900" lon="-3.5235300"/>
            <trkpt lat="51.2235500" lon="-3.5232700"/>
            <trkpt lat="51.2238000" lon="-3.5232400"/>
            <trkpt lat="51.2242200" lon="-3.5229300"/>
            <trkpt lat="51.2244800" lon="-3.5228600"/>
            <trkpt lat="51.2247400" lon="-3.5227400"/>
            <trkpt lat="51.2249100" lon="-3.5227800"/>
            <trkpt lat="51.2250400" lon="-3.5229600"/>
            <trkpt lat="51.2253100" lon="-3.5235400"/>
            <trkpt lat="51.2253300" lon="-3.5236500"/>
            <trkpt lat="51.2253700" lon="-3.5237200"/>
            <trkpt lat="51.2255400" lon="-3.5247400"/>
            <trkpt lat="51.2255600" lon="-3.5252500"/>
            <trkpt lat="51.2256200" lon="-3.5256400"/>
            <trkpt lat="51.2256300" lon="-3.5258500"/>
            <trkpt lat="51.2255600" lon="-3.5261700"/>
            <trkpt lat="51.2255300" lon="-3.5264300"/>
            <trkpt lat="51.2255000" lon="-3.5268700"/>
            <trkpt lat="51.2255100" lon="-3.5271800"/>
            <trkpt lat="51.2255800" lon="-3.5275100"/>
            <trkpt lat="51.2256400" lon="-3.5276700"/>
            <trkpt lat="51.2256400" lon="-3.5277900"/>
            <trkpt lat="51.2257100" lon="-3.5279700"/>
            <trkpt lat="51.2257300" lon="-3.5282700"/>
            <trkpt lat="51.2258000" lon="-3.5287100"/>
            <trkpt lat="51.2258600" lon="-3.5288200"/>
            <trkpt lat="51.2259100" lon="-3.5289800"/>
            <trkpt lat="51.2259400" lon="-3.5293200"/>
            <trkpt lat="51.2260300" lon="-3.5295700"/>
            <trkpt lat="51.2262400" lon="-3.5304200"/>
            <trkpt lat="51.2264200" lon="-3.5305800"/>
            <trkpt lat="51.2266400" lon="-3.5312000"/>
            <trkpt lat="51.2266500" lon="-3.5315400"/>
            <trkpt lat="51.2267000" lon="-3.5319400"/>
            <trkpt lat="51.2267000" lon="-3.5320700"/>
            <trkpt lat="51.2268300" lon="-3.5325800"/>
            <trkpt lat="51.2268900" lon="-3.5326800"/>
            <trkpt lat="51.2269400" lon="-3.5328400"/>
            <trkpt lat="51.2270100" lon="-3.5329400"/>
            <trkpt lat="51.2270700" lon="-3.5331000"/>
            <trkpt lat="51.2271300" lon="-3.5331300"/>
            <trkpt lat="51.2272100" lon="-3.5333500"/>
            <trkpt lat="51.2272900" lon="-3.5333700"/>
            <trkpt lat="51.2273100" lon="-3.5334300"/>
            <trkpt lat="51.2273500" lon="-3.5334200"/>
            <trkpt lat="51.2273900" lon="-3.5334600"/>
            <trkpt lat="51.2274200" lon="-3.5335600"/>
            <trkpt lat="51.2274200" lon="-3.5337300"/>
            <trkpt lat="51.2274900" lon="-3.5339600"/>
            <trkpt lat="51.2274800" lon="-3.5341200"/>
            <trkpt lat="51.2276900" lon="-3.5345500"/>
            <trkpt lat="51.2277100" lon="-3.5347000"/>
            <trkpt lat="51.2277600" lon="-3.5348100"/>
            <trkpt lat="51.2279400" lon="-3.5355900"/>
            <trkpt lat="51.2282500" lon="-3.5367500"/>
            <trkpt lat="51.2284300" lon="-3.5372700"/>
            <trkpt lat="51.2285100" lon="-3.5377100"/>
            <trkpt lat="51.2285700" lon="-3.5379100"/>
            <trkpt lat="51.2286200" lon="-3.5382400"/>
            <trkpt lat="51.2286600" lon="-3.5383000"/>
            <trkpt lat="51.2286800" lon="-3.5383900"/>
            <trkpt lat="51.2286900" lon="-3.5385200"/>
            <trkpt lat="51.2288700" lon="-3.5388600"/>
            <trkpt lat="51.2289500" lon="-3.5394800"/>
            <trkpt lat="51.2291500" lon="-3.5398200"/>
            <trkpt lat="51.2292300" lon="-3.5400600"/>
            <trkpt lat="51.2292500" lon="-3.5403100"/>
            <trkpt lat="51.2292200" lon="-3.5405200"/>
            <trkpt lat="51.2292100" lon="-3.5407600"/>
            <trkpt lat="51.2291900" lon="-3.5408500"/>
            <trkpt lat="51.2292700" lon="-3.5419100"/>
            <trkpt lat="51.2293300" lon="-3.5425200"/>
            <trkpt lat="51.2292900" lon="-3.5432300"/>
            <trkpt lat="51.2291600" lon="-3.5447500"/>
            <trkpt lat="51.2292000" lon="-3.5452100"/>
            <trkpt lat="51.2293400" lon="-3.5460800"/>
            <trkpt lat="51.2293100" lon="-3.5464300"/>
            <trkpt lat="51.2292100" lon="-3.5468300"/>
            <trkpt lat="51.2292500" lon="-3.5472000"/>
            <trkpt lat="51.2294700" lon="-3.5481900"/>
            <trkpt lat="51.2296300" lon="-3.5490000"/>
            <trkpt lat="51.2296700" lon="-3.5493000"/>
            <trkpt lat="51.2295600" lon="-3.5502900"/>
            <trkpt lat="51.2295200" lon="-3.5504200"/>
            <trkpt lat="51.2293200" lon="-3.5503600"/>
            <trkpt lat="51.2292500" lon="-3.5503800"/>
            <trkpt lat="51.2291000" lon="-3.5503000"/>
            <trkpt lat="51.2290300" lon="-3.5503200"/>
            <trkpt lat="51.2289100" lon="-3.5502700"/>
            <trkpt lat="51.2287900" lon="-3.5502500"/>
            <trkpt lat="51.2283800" lon="-3.5503500"/>
            <trkpt lat="51.2281300" lon="-3.5503400"/>
            <trkpt lat="51.2280200" lon="-3.5502900"/>
            <trkpt lat="51.2278300" lon="-3.5502500"/>
            <trkpt lat="51.2277500" lon="-3.5501800"/>
            <trkpt lat="51.2276700" lon="-3.5501700"/>
            <trkpt lat="51.2274500" lon="-3.5500000"/>
            <trkpt lat="51.2271900" lon="-3.5495700"/>
            <trkpt lat="51.2269900" lon="-3.5493400"/>
            <trkpt lat="51.2269700" lon="-3.5492800"/>
            <trkpt lat="51.2269300" lon="-3.5492700"/>
            <trkpt lat="51.2268800" lon="-3.5492100"/>
            <trkpt lat="51.2268400" lon="-3.5491300"/>
            <trkpt lat="51.2267600" lon="-3.5490600"/>
            <trkpt lat="51.2265400" lon="-3.5487700"/>
            <trkpt lat="51.2262700" lon="-3.5486300"/>
            <trkpt lat="51.2261300" lon="-3.5485400"/>
            <trkpt lat="51.2261000" lon="-3.5484900"/>
            <trkpt lat="51.2260400" lon="-3.5484900"/>
            <trkpt lat="51.2258000" lon="-3.5485700"/>
            <trkpt lat="51.2257200" lon="-3.5488400"/>
            <trkpt lat="51.2257300" lon="-3.5491000"/>
            <trkpt lat="51.2257100" lon="-3.5494100"/>
            <trkpt lat="51.2257300" lon="-3.5499800"/>
            <trkpt lat="51.2258200" lon="-3.5505200"/>
            <trkpt lat="51.2258800" lon="-3.5510900"/>
            <trkpt lat="51.2262200" lon="-3.5518000"/>
            <trkpt lat="51.2263200" lon="-3.5519200"/>
            <trkpt lat="51.2263600" lon="-3.5521200"/>
            <trkpt lat="51.2263400" lon="-3.5523100"/>
            <trkpt lat="51.2263000" lon="-3.5524500"/>
            <trkpt lat="51.2261500" lon="-3.5526700"/>
            <trkpt lat="51.2268200" lon="-3.5530900"/>
            <trkpt lat="51.2271900" lon="-3.5531800"/>
            <trkpt lat="51.2272800" lon="-3.5532700"/>
            <trkpt lat="51.2273900" lon="-3.5534500"/>
            <trkpt lat="51.2276200" lon="-3.5540100"/>
            <trkpt lat="51.2276700" lon="-3.5542000"/>
            <trkpt lat="51.2277100" lon="-3.5546900"/>
            <trkpt lat="51.2277400" lon="-3.5548000"/>
            <trkpt lat="51.2278000" lon="-3.5548800"/>
            <trkpt lat="51.2278900" lon="-3.5549500"/>
            <trkpt lat="51.2279500" lon="-3.5550800"/>
            <trkpt lat="51.2280600" lon="-3.5562200"/>
            <trkpt lat="51.2283100" lon="-3.5571000"/>
            <trkpt lat="51.2285300" lon="-3.5576400"/>
            <trkpt lat="51.2286700" lon="-3.5579000"/>
            <trkpt lat="51.2286900" lon="-3.5580300"/>
            <trkpt lat="51.2286800" lon="-3.5581700"/>
            <trkpt lat="51.2285300" lon="-3.5586300"/>
            <trkpt lat="51.2283800" lon="-3.5587300"/>
            <trkpt lat="51.2278300" lon="-3.5588500"/>
            <trkpt lat="51.2274100" lon="-3.5588000"/>
            <trkpt lat="51.2273100" lon="-3.5588800"/>
            <trkpt lat="51.2272200" lon="-3.5590100"/>
            <trkpt lat="51.2270100" lon="-3.5595800"/>
            <trkpt lat="51.2269000" lon="-3.5597500"/>
            <trkpt lat="51.2268900" lon="-3.5598900"/>
            <trkpt lat="51.2269400" lon="-3.5600700"/>
            <trkpt lat="51.2269400" lon="-3.5602300"/>
            <trkpt lat="51.2268700" lon="-3.5604700"/>
            <trkpt lat="51.2266100" lon="-3.5607500"/>
            <trkpt lat="51.2268100" lon="-3.5613000"/>
            <trkpt lat="51.2272700" lon="-3.5621900"/>
            <trkpt lat="51.2273600" lon="-3.5625500"/>
            <trkpt lat="51.2277100" lon="-3.5630300"/>
            <trkpt lat="51.2278400" lon="-3.5631700"/>
            <trkpt lat="51.2280200" lon="-3.5633200"/>
            <trkpt lat="51.2281100" lon="-3.5635000"/>
            <trkpt lat="51.2281800" lon="-3.5637300"/>
            <trkpt lat="51.2281200" lon="-3.5641300"/>
            <trkpt lat="51.2281000" lon="-3.5649300"/>
            <trkpt lat="51.2281800" lon="-3.5662500"/>
            <trkpt lat="51.2282500" lon="-3.5667400"/>
            <trkpt lat="51.2281800" lon="-3.5671900"/>
            <trkpt lat="51.2281400" lon="-3.5675000"/>
            <trkpt lat="51.2281100" lon="-3.5682000"/>
            <trkpt lat="51.2284000" lon="-3.5696800"/>
            <trkpt lat="51.2283900" lon="-3.5698000"/>
            <trkpt lat="51.2283000" lon="-3.5699500"/>
            <trkpt lat="51.2281900" lon="-3.5700100"/>
            <trkpt lat="51.2280400" lon="-3.5700300"/>
            <trkpt lat="51.2278200" lon="-3.5699300"/>
            <trkpt lat="51.2276300" lon="-3.5697800"/>
            <trkpt lat="51.2275500" lon="-3.5696800"/>
            <trkpt lat="51.2274900" lon="-3.5695500"/>
            <trkpt lat="51.2273500" lon="-3.5694800"/>
            <trkpt lat="51.2272500" lon="-3.5696000"/>
            <trkpt lat="51.2271100" lon="-3.5698700"/>
            <trkpt lat="51.2269400" lon="-3.5701300"/>
            <trkpt lat="51.2270500" lon="-3.5704400"/>
            <trkpt lat="51.2270000" lon="-3.5706600"/>
            <trkpt lat="51.2271100" lon="-3.5713200"/>
            <trkpt lat="51.2271800" lon="-3.5719400"/>
            <trkpt lat="51.2272300" lon="-3.5721400"/>
            <trkpt lat="51.2272500" lon="-3.5724400"/>
            <trkpt lat="51.2272500" lon="-3.5728800"/>
            <trkpt lat="51.2272700" lon="-3.5731900"/>
            <trkpt lat="51.2269400" lon="-3.5745200"/>
            <trkpt lat="51.2268400" lon="-3.5747900"/>
            <trkpt lat="51.2267000" lon="-3.5749600"/>
            <trkpt lat="51.2264000" lon="-3.5751800"/>
            <trkpt lat="51.2261600" lon="-3.5752300"/>
            <trkpt lat="51.2258700" lon="-3.5752400"/>
            <trkpt lat="51.2257700" lon="-3.5752000"/>
            <trkpt lat="51.2256700" lon="-3.5752000"/>
            <trkpt lat="51.2254000" lon="-3.5752400"/>
            <trkpt lat="51.2251300" lon="-3.5753700"/>
            <trkpt lat="51.2247200" lon="-3.5754600"/>
            <trkpt lat="51.2245100" lon="-3.5754400"/>
            <trkpt lat="51.2241200" lon="-3.5761800"/>
            <trkpt lat="51.2239100" lon="-3.5763300"/>
            <trkpt lat="51.2237200" lon="-3.5766100"/>
            <trkpt lat="51.2234400" lon="-3.5778100"/>
            <trkpt lat="51.2233100" lon="-3.5781200"/>
            <trkpt lat="51.2227900" lon="-3.5770600"/>
            <trkpt lat="51.2225300" lon="-3.5763800"/>
            <trkpt lat="51.2221600" lon="-3.5757700"/>
            <trkpt lat="51.2222300" lon="-3.5773400"/>
            <trkpt lat="51.2221600" lon="-3.5781800"/>
            <trkpt lat="51.2218900" lon="-3.5792200"/>
            <trkpt lat="51.2215200" lon="-3.5790500"/>
            <trkpt lat="51.2211500" lon="-3.5785800"/>
            <trkpt lat="51.2210200" lon="-3.5785400"/>
            <trkpt lat="51.2209000" lon="-3.5785400"/>
            <trkpt lat="51.2207900" lon="-3.5789000"/>
            <trkpt lat="51.2208000" lon="-3.5790000"/>
            <trkpt lat="51.2207300" lon="-3.5790800"/>
            <trkpt lat="51.2206200" lon="-3.5793000"/>
            <trkpt lat="51.2205900" lon="-3.5794100"/>
            <trkpt lat="51.2205500" lon="-3.5794100"/>
            <trkpt lat="51.2204400" lon="-3.5795400"/>
            <trkpt lat="51.2203100" lon="-3.5794800"/>
            <trkpt lat="51.2202200" lon="-3.5794800"/>
            <trkpt lat="51.2201700" lon="-3.5796700"/>
            <trkpt lat="51.2201500" lon="-3.5798400"/>
            <trkpt lat="51.2201900" lon="-3.5801300"/>
            <trkpt lat="51.2204000" lon="-3.5805200"/>
            <trkpt lat="51.2206300" lon="-3.5810100"/>
            <trkpt lat="51.2207300" lon="-3.5813200"/>
            <trkpt lat="51.2207900" lon="-3.5816300"/>
            <trkpt lat="51.2209800" lon="-3.5820600"/>
            <trkpt lat="51.2210800" lon="-3.5823500"/>
            <trkpt lat="51.2211000" lon="-3.5824600"/>
            <trkpt lat="51.2212400" lon="-3.5828400"/>
            <trkpt lat="51.2214800" lon="-3.5833800"/>
            <trkpt lat="51.2213200" lon="-3.5837600"/>
            <trkpt lat="51.2209900" lon="-3.5843500"/>
            <trkpt lat="51.2199600" lon="-3.5863000"/>
            <trkpt lat="51.2193700" lon="-3.5873700"/>
            <trkpt lat="51.2191600" lon="-3.5876600"/>
            <trkpt lat="51.2187200" lon="-3.5883600"/>
            <trkpt lat="51.2182400" lon="-3.5891700"/>
            <trkpt lat="51.2182800" lon="-3.5892800"/>
            <trkpt lat="51.2181500" lon="-3.5897900"/>
            <trkpt lat="51.2180900" lon="-3.5899400"/>
            <trkpt lat="51.2181800" lon="-3.5899900"/>
            <trkpt lat="51.2184500" lon="-3.5902300"/>
            <trkpt lat="51.2187700" lon="-3.5905400"/>
            <trkpt lat="51.2187800" lon="-3.5906600"/>
            <trkpt lat="51.2187200" lon="-3.5910400"/>
            <trkpt lat="51.2186700" lon="-3.5914700"/>
            <trkpt lat="51.2188000" lon="-3.5925200"/>
            <trkpt lat="51.2188100" lon="-3.5928700"/>
            <trkpt lat="51.2187900" lon="-3.5933500"/>
            <trkpt lat="51.2190200" lon="-3.5936000"/>
            <trkpt lat="51.2190600" lon="-3.5936900"/>
            <trkpt lat="51.2190500" lon="-3.5939500"/>
            <trkpt lat="51.2189600" lon="-3.5945100"/>
            <trkpt lat="51.2188100" lon="-3.5953000"/>
            <trkpt lat="51.2187600" lon="-3.5956800"/>
            <trkpt lat="51.2187200" lon="-3.5960800"/>
            <trkpt lat="51.2187400" lon="-3.5964100"/>
            <trkpt lat="51.2186000" lon="-3.5970600"/>
            <trkpt lat="51.2184800" lon="-3.5975500"/>
            <trkpt lat="51.2184100" lon="-3.5980500"/>
            <trkpt lat="51.2183500" lon="-3.5982100"/>
            <trkpt lat="51.2182400" lon="-3.5982800"/>
        </trkseg>
    </trk>
</gpx>
