<?xml version="1.0" encoding="UTF-8"?>
<gpx version="1.1" creator="swcp-walk sample" xmlns="http://www.topografix.com/GPX/1/1">
  <metadata>
    <name>Minehead to Porlock Weir (sample)</name>
  </metadata>
  <trk>
    <name>Minehead to Porlock Weir (sample)</name>
    <trkseg>
      <trkpt lat="51.2103" lon="-3.4770"></trkpt>
      <trkpt lat="51.2158" lon="-3.4839"></trkpt>
      <trkpt lat="51.2216" lon="-3.4972"></trkpt>
      <trkpt lat="51.2249" lon="-3.5138"></trkpt>
      <trkpt lat="51.2260" lon="-3.5361"></trkpt>
      <trkpt lat="51.2255" lon="-3.5590"></trkpt>
      <trkpt lat="51.2270" lon="-3.5811"></trkpt>
      <trkpt lat="51.2247" lon="-3.6008"></trkpt>
      <trkpt lat="51.2205" lon="-3.6237"></trkpt>
    </trkseg>
  </trk>
</gpx>
