<?xml version="1.0" encoding="UTF-8"?>
<gpx version="1.1" creator="swcp-walk (imported from OS Maps route 33803015)"
     xmlns="http://www.topografix.com/GPX/1/1">
  <metadata>
    <name>SWCP02-PorlockWeir-Lynmouth</name>
  </metadata>
  <trk>
    <name>SWCP02-PorlockWeir-Lynmouth</name>
    <trkseg>
      <trkpt lat="51.21917" lon="-3.62814"></trkpt>
      <trkpt lat="51.21913" lon="-3.62818"></trkpt>
      <trkpt lat="51.21918" lon="-3.62833"></trkpt>
      <trkpt lat="51.21934" lon="-3.62855"></trkpt>
      <trkpt lat="51.21952" lon="-3.62875"></trkpt>
      <trkpt lat="51.22" lon="-3.62921"></trkpt>
      <trkpt lat="51.22007" lon="-3.62935"></trkpt>
      <trkpt lat="51.22028" lon="-3.62961"></trkpt>
      <trkpt lat="51.22041" lon="-3.62972"></trkpt>
      <trkpt lat="51.22095" lon="-3.63003"></trkpt>
      <trkpt lat="51.22157" lon="-3.63074"></trkpt>
      <trkpt lat="51.22211" lon="-3.63144"></trkpt>
      <trkpt lat="51.22321" lon="-3.63308"></trkpt>
      <trkpt lat="51.2233" lon="-3.63318"></trkpt>
      <trkpt lat="51.22334" lon="-3.63346"></trkpt>
      <trkpt lat="51.22335" lon="-3.63352"></trkpt>
      <trkpt lat="51.22327" lon="-3.63443"></trkpt>
      <trkpt lat="51.22313" lon="-3.63503"></trkpt>
      <trkpt lat="51.22297" lon="-3.63562"></trkpt>
      <trkpt lat="51.22287" lon="-3.63627"></trkpt>
      <trkpt lat="51.22274" lon="-3.63629"></trkpt>
      <trkpt lat="51.22264" lon="-3.63625"></trkpt>
      <trkpt lat="51.22272" lon="-3.63644"></trkpt>
      <trkpt lat="51.22274" lon="-3.63659"></trkpt>
      <trkpt lat="51.22274" lon="-3.63712"></trkpt>
      <trkpt lat="51.2227" lon="-3.63744"></trkpt>
      <trkpt lat="51.22264" lon="-3.6376"></trkpt>
      <trkpt lat="51.22256" lon="-3.6377"></trkpt>
      <trkpt lat="51.22247" lon="-3.63776"></trkpt>
      <trkpt lat="51.22232" lon="-3.63769"></trkpt>
      <trkpt lat="51.22215" lon="-3.63748"></trkpt>
      <trkpt lat="51.22209" lon="-3.63746"></trkpt>
      <trkpt lat="51.22208" lon="-3.63765"></trkpt>
      <trkpt lat="51.2221" lon="-3.63818"></trkpt>
      <trkpt lat="51.22218" lon="-3.6387"></trkpt>
      <trkpt lat="51.22213" lon="-3.63895"></trkpt>
      <trkpt lat="51.22203" lon="-3.63931"></trkpt>
      <trkpt lat="51.22208" lon="-3.63954"></trkpt>
      <trkpt lat="51.22148" lon="-3.63961"></trkpt>
      <trkpt lat="51.22149" lon="-3.63986"></trkpt>
      <trkpt lat="51.22159" lon="-3.64026"></trkpt>
      <trkpt lat="51.22162" lon="-3.64049"></trkpt>
      <trkpt lat="51.22164" lon="-3.64074"></trkpt>
      <trkpt lat="51.22164" lon="-3.64153"></trkpt>
      <trkpt lat="51.2217" lon="-3.64189"></trkpt>
      <trkpt lat="51.22185" lon="-3.64195"></trkpt>
      <trkpt lat="51.22189" lon="-3.64206"></trkpt>
      <trkpt lat="51.22193" lon="-3.64234"></trkpt>
      <trkpt lat="51.22203" lon="-3.64291"></trkpt>
      <trkpt lat="51.22202" lon="-3.64325"></trkpt>
      <trkpt lat="51.22194" lon="-3.64351"></trkpt>
      <trkpt lat="51.2219" lon="-3.64379"></trkpt>
      <trkpt lat="51.22191" lon="-3.64395"></trkpt>
      <trkpt lat="51.22187" lon="-3.64431"></trkpt>
      <trkpt lat="51.22177" lon="-3.6447"></trkpt>
      <trkpt lat="51.2216" lon="-3.64515"></trkpt>
      <trkpt lat="51.22162" lon="-3.6453"></trkpt>
      <trkpt lat="51.22166" lon="-3.64542"></trkpt>
      <trkpt lat="51.22167" lon="-3.64577"></trkpt>
      <trkpt lat="51.22192" lon="-3.64691"></trkpt>
      <trkpt lat="51.22221" lon="-3.64775"></trkpt>
      <trkpt lat="51.2224" lon="-3.64844"></trkpt>
      <trkpt lat="51.22248" lon="-3.64885"></trkpt>
      <trkpt lat="51.22252" lon="-3.64936"></trkpt>
      <trkpt lat="51.22251" lon="-3.64963"></trkpt>
      <trkpt lat="51.22246" lon="-3.65013"></trkpt>
      <trkpt lat="51.22239" lon="-3.6504"></trkpt>
      <trkpt lat="51.22214" lon="-3.6508"></trkpt>
      <trkpt lat="51.22204" lon="-3.6512"></trkpt>
      <trkpt lat="51.22202" lon="-3.65136"></trkpt>
      <trkpt lat="51.22203" lon="-3.6515"></trkpt>
      <trkpt lat="51.22206" lon="-3.65161"></trkpt>
      <trkpt lat="51.22208" lon="-3.65165"></trkpt>
      <trkpt lat="51.22213" lon="-3.65175"></trkpt>
      <trkpt lat="51.22215" lon="-3.65185"></trkpt>
      <trkpt lat="51.22215" lon="-3.65195"></trkpt>
      <trkpt lat="51.2222" lon="-3.65201"></trkpt>
      <trkpt lat="51.22227" lon="-3.65204"></trkpt>
      <trkpt lat="51.22231" lon="-3.65212"></trkpt>
      <trkpt lat="51.22237" lon="-3.65232"></trkpt>
      <trkpt lat="51.2225" lon="-3.65291"></trkpt>
      <trkpt lat="51.22253" lon="-3.65311"></trkpt>
      <trkpt lat="51.22256" lon="-3.65348"></trkpt>
      <trkpt lat="51.22254" lon="-3.65388"></trkpt>
      <trkpt lat="51.22256" lon="-3.65512"></trkpt>
      <trkpt lat="51.22255" lon="-3.65551"></trkpt>
      <trkpt lat="51.2225" lon="-3.65577"></trkpt>
      <trkpt lat="51.22234" lon="-3.65601"></trkpt>
      <trkpt lat="51.2222" lon="-3.65614"></trkpt>
      <trkpt lat="51.22201" lon="-3.65644"></trkpt>
      <trkpt lat="51.22193" lon="-3.65666"></trkpt>
      <trkpt lat="51.22186" lon="-3.65692"></trkpt>
      <trkpt lat="51.22182" lon="-3.6573"></trkpt>
      <trkpt lat="51.22173" lon="-3.65765"></trkpt>
      <trkpt lat="51.22164" lon="-3.65789"></trkpt>
      <trkpt lat="51.22118" lon="-3.65886"></trkpt>
      <trkpt lat="51.2211" lon="-3.65919"></trkpt>
      <trkpt lat="51.22106" lon="-3.65946"></trkpt>
      <trkpt lat="51.22098" lon="-3.65983"></trkpt>
      <trkpt lat="51.22105" lon="-3.66001"></trkpt>
      <trkpt lat="51.22115" lon="-3.66006"></trkpt>
      <trkpt lat="51.22125" lon="-3.66008"></trkpt>
      <trkpt lat="51.22182" lon="-3.65943"></trkpt>
      <trkpt lat="51.22214" lon="-3.65913"></trkpt>
      <trkpt lat="51.22229" lon="-3.65905"></trkpt>
      <trkpt lat="51.22248" lon="-3.659"></trkpt>
      <trkpt lat="51.22262" lon="-3.659"></trkpt>
      <trkpt lat="51.22292" lon="-3.65906"></trkpt>
      <trkpt lat="51.22319" lon="-3.65926"></trkpt>
      <trkpt lat="51.22327" lon="-3.65938"></trkpt>
      <trkpt lat="51.22331" lon="-3.6595"></trkpt>
      <trkpt lat="51.22333" lon="-3.65964"></trkpt>
      <trkpt lat="51.22334" lon="-3.65989"></trkpt>
      <trkpt lat="51.22342" lon="-3.65998"></trkpt>
      <trkpt lat="51.22362" lon="-3.66088"></trkpt>
      <trkpt lat="51.22378" lon="-3.66194"></trkpt>
      <trkpt lat="51.22417" lon="-3.66318"></trkpt>
      <trkpt lat="51.22417" lon="-3.66353"></trkpt>
      <trkpt lat="51.22431" lon="-3.66369"></trkpt>
      <trkpt lat="51.22459" lon="-3.66503"></trkpt>
      <trkpt lat="51.22464" lon="-3.66556"></trkpt>
      <trkpt lat="51.22464" lon="-3.66613"></trkpt>
      <trkpt lat="51.22455" lon="-3.66678"></trkpt>
      <trkpt lat="51.22433" lon="-3.66735"></trkpt>
      <trkpt lat="51.22435" lon="-3.66765"></trkpt>
      <trkpt lat="51.22424" lon="-3.66808"></trkpt>
      <trkpt lat="51.22426" lon="-3.66818"></trkpt>
      <trkpt lat="51.22473" lon="-3.66884"></trkpt>
      <trkpt lat="51.22505" lon="-3.66985"></trkpt>
      <trkpt lat="51.22527" lon="-3.67096"></trkpt>
      <trkpt lat="51.22537" lon="-3.673"></trkpt>
      <trkpt lat="51.22556" lon="-3.67501"></trkpt>
      <trkpt lat="51.2256" lon="-3.67636"></trkpt>
      <trkpt lat="51.22543" lon="-3.67683"></trkpt>
      <trkpt lat="51.22544" lon="-3.67696"></trkpt>
      <trkpt lat="51.22545" lon="-3.67708"></trkpt>
      <trkpt lat="51.22553" lon="-3.67741"></trkpt>
      <trkpt lat="51.22581" lon="-3.67828"></trkpt>
      <trkpt lat="51.22583" lon="-3.67883"></trkpt>
      <trkpt lat="51.22583" lon="-3.6802"></trkpt>
      <trkpt lat="51.226" lon="-3.6815"></trkpt>
      <trkpt lat="51.22598" lon="-3.68196"></trkpt>
      <trkpt lat="51.22612" lon="-3.6831"></trkpt>
      <trkpt lat="51.2262" lon="-3.68331"></trkpt>
      <trkpt lat="51.22625" lon="-3.68399"></trkpt>
      <trkpt lat="51.22636" lon="-3.68494"></trkpt>
      <trkpt lat="51.22641" lon="-3.68564"></trkpt>
      <trkpt lat="51.22637" lon="-3.68607"></trkpt>
      <trkpt lat="51.2263" lon="-3.68636"></trkpt>
      <trkpt lat="51.22616" lon="-3.68655"></trkpt>
      <trkpt lat="51.22596" lon="-3.68668"></trkpt>
      <trkpt lat="51.22561" lon="-3.68674"></trkpt>
      <trkpt lat="51.22533" lon="-3.68694"></trkpt>
      <trkpt lat="51.22602" lon="-3.68773"></trkpt>
      <trkpt lat="51.22645" lon="-3.68828"></trkpt>
      <trkpt lat="51.22721" lon="-3.68993"></trkpt>
      <trkpt lat="51.22799" lon="-3.6927"></trkpt>
      <trkpt lat="51.22827" lon="-3.69381"></trkpt>
      <trkpt lat="51.2285" lon="-3.69523"></trkpt>
      <trkpt lat="51.22855" lon="-3.69608"></trkpt>
      <trkpt lat="51.22841" lon="-3.69708"></trkpt>
      <trkpt lat="51.22874" lon="-3.69777"></trkpt>
      <trkpt lat="51.22907" lon="-3.69888"></trkpt>
      <trkpt lat="51.22933" lon="-3.70065"></trkpt>
      <trkpt lat="51.22957" lon="-3.70256"></trkpt>
      <trkpt lat="51.22975" lon="-3.70426"></trkpt>
      <trkpt lat="51.22991" lon="-3.70489"></trkpt>
      <trkpt lat="51.22977" lon="-3.70526"></trkpt>
      <trkpt lat="51.22983" lon="-3.7058"></trkpt>
      <trkpt lat="51.22988" lon="-3.70597"></trkpt>
      <trkpt lat="51.22998" lon="-3.70611"></trkpt>
      <trkpt lat="51.23022" lon="-3.70638"></trkpt>
      <trkpt lat="51.23024" lon="-3.70642"></trkpt>
      <trkpt lat="51.23022" lon="-3.70643"></trkpt>
      <trkpt lat="51.23004" lon="-3.70632"></trkpt>
      <trkpt lat="51.22981" lon="-3.70628"></trkpt>
      <trkpt lat="51.22995" lon="-3.7065"></trkpt>
      <trkpt lat="51.23006" lon="-3.70679"></trkpt>
      <trkpt lat="51.23014" lon="-3.70714"></trkpt>
      <trkpt lat="51.23017" lon="-3.70835"></trkpt>
      <trkpt lat="51.23004" lon="-3.70959"></trkpt>
      <trkpt lat="51.22987" lon="-3.7105"></trkpt>
      <trkpt lat="51.22975" lon="-3.71068"></trkpt>
      <trkpt lat="51.22975" lon="-3.71076"></trkpt>
      <trkpt lat="51.22969" lon="-3.71106"></trkpt>
      <trkpt lat="51.22969" lon="-3.71133"></trkpt>
      <trkpt lat="51.22971" lon="-3.71147"></trkpt>
      <trkpt lat="51.22985" lon="-3.7118"></trkpt>
      <trkpt lat="51.22991" lon="-3.71229"></trkpt>
      <trkpt lat="51.2299" lon="-3.71246"></trkpt>
      <trkpt lat="51.22996" lon="-3.71271"></trkpt>
      <trkpt lat="51.22997" lon="-3.71288"></trkpt>
      <trkpt lat="51.23006" lon="-3.71317"></trkpt>
      <trkpt lat="51.23007" lon="-3.71353"></trkpt>
      <trkpt lat="51.2302" lon="-3.71371"></trkpt>
      <trkpt lat="51.23027" lon="-3.71386"></trkpt>
      <trkpt lat="51.23031" lon="-3.71522"></trkpt>
      <trkpt lat="51.23036" lon="-3.71596"></trkpt>
      <trkpt lat="51.23033" lon="-3.71623"></trkpt>
      <trkpt lat="51.23024" lon="-3.71668"></trkpt>
      <trkpt lat="51.23024" lon="-3.71682"></trkpt>
      <trkpt lat="51.23013" lon="-3.71672"></trkpt>
      <trkpt lat="51.23001" lon="-3.71665"></trkpt>
      <trkpt lat="51.22993" lon="-3.71654"></trkpt>
      <trkpt lat="51.22973" lon="-3.71636"></trkpt>
      <trkpt lat="51.2296" lon="-3.71628"></trkpt>
      <trkpt lat="51.22948" lon="-3.71628"></trkpt>
      <trkpt lat="51.22942" lon="-3.71632"></trkpt>
      <trkpt lat="51.22941" lon="-3.71651"></trkpt>
      <trkpt lat="51.2295" lon="-3.71662"></trkpt>
      <trkpt lat="51.22964" lon="-3.71702"></trkpt>
      <trkpt lat="51.22968" lon="-3.71717"></trkpt>
      <trkpt lat="51.22966" lon="-3.71768"></trkpt>
      <trkpt lat="51.22972" lon="-3.71808"></trkpt>
      <trkpt lat="51.22988" lon="-3.71856"></trkpt>
      <trkpt lat="51.22989" lon="-3.71873"></trkpt>
      <trkpt lat="51.23" lon="-3.71899"></trkpt>
      <trkpt lat="51.23011" lon="-3.71919"></trkpt>
      <trkpt lat="51.23028" lon="-3.7194"></trkpt>
      <trkpt lat="51.23047" lon="-3.71951"></trkpt>
      <trkpt lat="51.23056" lon="-3.71963"></trkpt>
      <trkpt lat="51.23074" lon="-3.72"></trkpt>
      <trkpt lat="51.23081" lon="-3.7201"></trkpt>
      <trkpt lat="51.2312" lon="-3.72045"></trkpt>
      <trkpt lat="51.23191" lon="-3.7208"></trkpt>
      <trkpt lat="51.23201" lon="-3.72088"></trkpt>
      <trkpt lat="51.23202" lon="-3.72113"></trkpt>
      <trkpt lat="51.23201" lon="-3.72124"></trkpt>
      <trkpt lat="51.23196" lon="-3.72131"></trkpt>
      <trkpt lat="51.23183" lon="-3.72141"></trkpt>
      <trkpt lat="51.23129" lon="-3.72171"></trkpt>
      <trkpt lat="51.23085" lon="-3.72189"></trkpt>
      <trkpt lat="51.23047" lon="-3.72197"></trkpt>
      <trkpt lat="51.23025" lon="-3.72225"></trkpt>
      <trkpt lat="51.22967" lon="-3.72271"></trkpt>
      <trkpt lat="51.22954" lon="-3.72285"></trkpt>
      <trkpt lat="51.22946" lon="-3.72299"></trkpt>
      <trkpt lat="51.22942" lon="-3.72313"></trkpt>
      <trkpt lat="51.22941" lon="-3.72389"></trkpt>
      <trkpt lat="51.22927" lon="-3.72697"></trkpt>
      <trkpt lat="51.22929" lon="-3.72713"></trkpt>
      <trkpt lat="51.22936" lon="-3.72725"></trkpt>
      <trkpt lat="51.22949" lon="-3.72735"></trkpt>
      <trkpt lat="51.22939" lon="-3.72787"></trkpt>
      <trkpt lat="51.22929" lon="-3.72815"></trkpt>
      <trkpt lat="51.23001" lon="-3.72706"></trkpt>
      <trkpt lat="51.23025" lon="-3.72664"></trkpt>
      <trkpt lat="51.23031" lon="-3.72667"></trkpt>
      <trkpt lat="51.23045" lon="-3.72643"></trkpt>
      <trkpt lat="51.23052" lon="-3.72623"></trkpt>
      <trkpt lat="51.23063" lon="-3.72568"></trkpt>
      <trkpt lat="51.23093" lon="-3.72487"></trkpt>
      <trkpt lat="51.2311" lon="-3.72459"></trkpt>
      <trkpt lat="51.23122" lon="-3.72453"></trkpt>
      <trkpt lat="51.2313" lon="-3.72453"></trkpt>
      <trkpt lat="51.23161" lon="-3.72453"></trkpt>
      <trkpt lat="51.23182" lon="-3.72459"></trkpt>
      <trkpt lat="51.23196" lon="-3.72479"></trkpt>
      <trkpt lat="51.23208" lon="-3.72506"></trkpt>
      <trkpt lat="51.23215" lon="-3.72547"></trkpt>
      <trkpt lat="51.23219" lon="-3.72658"></trkpt>
      <trkpt lat="51.23222" lon="-3.72658"></trkpt>
      <trkpt lat="51.23231" lon="-3.72634"></trkpt>
      <trkpt lat="51.23233" lon="-3.72635"></trkpt>
      <trkpt lat="51.23237" lon="-3.72647"></trkpt>
      <trkpt lat="51.2324" lon="-3.72674"></trkpt>
      <trkpt lat="51.23237" lon="-3.72701"></trkpt>
      <trkpt lat="51.23243" lon="-3.72731"></trkpt>
      <trkpt lat="51.23248" lon="-3.72737"></trkpt>
      <trkpt lat="51.23256" lon="-3.72737"></trkpt>
      <trkpt lat="51.23308" lon="-3.72688"></trkpt>
      <trkpt lat="51.23324" lon="-3.72684"></trkpt>
      <trkpt lat="51.23349" lon="-3.72684"></trkpt>
      <trkpt lat="51.23378" lon="-3.72693"></trkpt>
      <trkpt lat="51.23391" lon="-3.72704"></trkpt>
      <trkpt lat="51.23406" lon="-3.72736"></trkpt>
      <trkpt lat="51.23404" lon="-3.72749"></trkpt>
      <trkpt lat="51.23422" lon="-3.72789"></trkpt>
      <trkpt lat="51.23432" lon="-3.72828"></trkpt>
      <trkpt lat="51.23436" lon="-3.72835"></trkpt>
      <trkpt lat="51.23436" lon="-3.72841"></trkpt>
      <trkpt lat="51.23439" lon="-3.72845"></trkpt>
      <trkpt lat="51.23439" lon="-3.7286"></trkpt>
      <trkpt lat="51.23442" lon="-3.72873"></trkpt>
      <trkpt lat="51.23439" lon="-3.72896"></trkpt>
      <trkpt lat="51.23429" lon="-3.72926"></trkpt>
      <trkpt lat="51.23424" lon="-3.7296"></trkpt>
      <trkpt lat="51.23421" lon="-3.73014"></trkpt>
      <trkpt lat="51.23423" lon="-3.73085"></trkpt>
      <trkpt lat="51.23419" lon="-3.73104"></trkpt>
      <trkpt lat="51.23421" lon="-3.73146"></trkpt>
      <trkpt lat="51.23424" lon="-3.73178"></trkpt>
      <trkpt lat="51.23422" lon="-3.73222"></trkpt>
      <trkpt lat="51.23418" lon="-3.73242"></trkpt>
      <trkpt lat="51.23422" lon="-3.73299"></trkpt>
      <trkpt lat="51.23429" lon="-3.73342"></trkpt>
      <trkpt lat="51.23438" lon="-3.73369"></trkpt>
      <trkpt lat="51.23435" lon="-3.73409"></trkpt>
      <trkpt lat="51.23428" lon="-3.73429"></trkpt>
      <trkpt lat="51.23427" lon="-3.73443"></trkpt>
      <trkpt lat="51.23431" lon="-3.7348"></trkpt>
      <trkpt lat="51.23424" lon="-3.73574"></trkpt>
      <trkpt lat="51.23421" lon="-3.73573"></trkpt>
      <trkpt lat="51.23418" lon="-3.73519"></trkpt>
      <trkpt lat="51.23415" lon="-3.73517"></trkpt>
      <trkpt lat="51.2341" lon="-3.73542"></trkpt>
      <trkpt lat="51.23414" lon="-3.73587"></trkpt>
      <trkpt lat="51.23406" lon="-3.73618"></trkpt>
      <trkpt lat="51.23412" lon="-3.73666"></trkpt>
      <trkpt lat="51.23404" lon="-3.73718"></trkpt>
      <trkpt lat="51.23394" lon="-3.73756"></trkpt>
      <trkpt lat="51.23398" lon="-3.73801"></trkpt>
      <trkpt lat="51.23394" lon="-3.73829"></trkpt>
      <trkpt lat="51.23392" lon="-3.73878"></trkpt>
      <trkpt lat="51.23388" lon="-3.73887"></trkpt>
      <trkpt lat="51.23374" lon="-3.739"></trkpt>
      <trkpt lat="51.23366" lon="-3.73921"></trkpt>
      <trkpt lat="51.23367" lon="-3.73932"></trkpt>
      <trkpt lat="51.23382" lon="-3.73988"></trkpt>
      <trkpt lat="51.23385" lon="-3.74016"></trkpt>
      <trkpt lat="51.23383" lon="-3.74031"></trkpt>
      <trkpt lat="51.2337" lon="-3.74061"></trkpt>
      <trkpt lat="51.23368" lon="-3.74075"></trkpt>
      <trkpt lat="51.23369" lon="-3.74096"></trkpt>
      <trkpt lat="51.23362" lon="-3.74138"></trkpt>
      <trkpt lat="51.23359" lon="-3.74175"></trkpt>
      <trkpt lat="51.23364" lon="-3.74241"></trkpt>
      <trkpt lat="51.23356" lon="-3.74293"></trkpt>
      <trkpt lat="51.23362" lon="-3.74317"></trkpt>
      <trkpt lat="51.23385" lon="-3.74453"></trkpt>
      <trkpt lat="51.23384" lon="-3.74514"></trkpt>
      <trkpt lat="51.23382" lon="-3.74527"></trkpt>
      <trkpt lat="51.23376" lon="-3.74557"></trkpt>
      <trkpt lat="51.23379" lon="-3.74614"></trkpt>
      <trkpt lat="51.23378" lon="-3.74658"></trkpt>
      <trkpt lat="51.23385" lon="-3.74734"></trkpt>
      <trkpt lat="51.23381" lon="-3.74778"></trkpt>
      <trkpt lat="51.23378" lon="-3.74797"></trkpt>
      <trkpt lat="51.23372" lon="-3.74812"></trkpt>
      <trkpt lat="51.23346" lon="-3.74844"></trkpt>
      <trkpt lat="51.23302" lon="-3.74884"></trkpt>
      <trkpt lat="51.2326" lon="-3.74909"></trkpt>
      <trkpt lat="51.23239" lon="-3.7493"></trkpt>
      <trkpt lat="51.23273" lon="-3.74963"></trkpt>
      <trkpt lat="51.23306" lon="-3.74981"></trkpt>
      <trkpt lat="51.23327" lon="-3.74988"></trkpt>
      <trkpt lat="51.23389" lon="-3.7499"></trkpt>
      <trkpt lat="51.23407" lon="-3.74995"></trkpt>
      <trkpt lat="51.23416" lon="-3.75006"></trkpt>
      <trkpt lat="51.23402" lon="-3.7505"></trkpt>
      <trkpt lat="51.23387" lon="-3.75144"></trkpt>
      <trkpt lat="51.23372" lon="-3.75192"></trkpt>
      <trkpt lat="51.23357" lon="-3.75231"></trkpt>
      <trkpt lat="51.23377" lon="-3.75238"></trkpt>
      <trkpt lat="51.23394" lon="-3.75248"></trkpt>
      <trkpt lat="51.23424" lon="-3.75293"></trkpt>
      <trkpt lat="51.23427" lon="-3.75292"></trkpt>
      <trkpt lat="51.23428" lon="-3.75286"></trkpt>
      <trkpt lat="51.23437" lon="-3.75271"></trkpt>
      <trkpt lat="51.2345" lon="-3.75256"></trkpt>
      <trkpt lat="51.23476" lon="-3.75242"></trkpt>
      <trkpt lat="51.23481" lon="-3.75244"></trkpt>
      <trkpt lat="51.23487" lon="-3.75258"></trkpt>
      <trkpt lat="51.23483" lon="-3.75275"></trkpt>
      <trkpt lat="51.23475" lon="-3.75297"></trkpt>
      <trkpt lat="51.23474" lon="-3.75322"></trkpt>
      <trkpt lat="51.23461" lon="-3.75348"></trkpt>
      <trkpt lat="51.23459" lon="-3.75371"></trkpt>
      <trkpt lat="51.23465" lon="-3.75413"></trkpt>
      <trkpt lat="51.2346" lon="-3.75441"></trkpt>
      <trkpt lat="51.23468" lon="-3.75481"></trkpt>
      <trkpt lat="51.23468" lon="-3.75556"></trkpt>
      <trkpt lat="51.23508" lon="-3.7567"></trkpt>
      <trkpt lat="51.2353" lon="-3.75778"></trkpt>
      <trkpt lat="51.23552" lon="-3.75875"></trkpt>
      <trkpt lat="51.23561" lon="-3.75923"></trkpt>
      <trkpt lat="51.23562" lon="-3.7595"></trkpt>
      <trkpt lat="51.23554" lon="-3.75984"></trkpt>
      <trkpt lat="51.23554" lon="-3.76006"></trkpt>
      <trkpt lat="51.23559" lon="-3.76052"></trkpt>
      <trkpt lat="51.23554" lon="-3.76151"></trkpt>
      <trkpt lat="51.23541" lon="-3.76215"></trkpt>
      <trkpt lat="51.23526" lon="-3.76252"></trkpt>
      <trkpt lat="51.23521" lon="-3.76268"></trkpt>
      <trkpt lat="51.23521" lon="-3.76281"></trkpt>
      <trkpt lat="51.2353" lon="-3.76326"></trkpt>
      <trkpt lat="51.23531" lon="-3.7635"></trkpt>
      <trkpt lat="51.2353" lon="-3.76379"></trkpt>
      <trkpt lat="51.2352" lon="-3.76424"></trkpt>
      <trkpt lat="51.2353" lon="-3.76482"></trkpt>
      <trkpt lat="51.2354" lon="-3.76509"></trkpt>
      <trkpt lat="51.2355" lon="-3.76593"></trkpt>
      <trkpt lat="51.23555" lon="-3.76617"></trkpt>
      <trkpt lat="51.23568" lon="-3.7664"></trkpt>
      <trkpt lat="51.2358" lon="-3.76672"></trkpt>
      <trkpt lat="51.23587" lon="-3.7672"></trkpt>
      <trkpt lat="51.23587" lon="-3.76749"></trkpt>
      <trkpt lat="51.23574" lon="-3.76792"></trkpt>
      <trkpt lat="51.23559" lon="-3.76818"></trkpt>
      <trkpt lat="51.23554" lon="-3.76839"></trkpt>
      <trkpt lat="51.23536" lon="-3.76855"></trkpt>
      <trkpt lat="51.2354" lon="-3.76875"></trkpt>
      <trkpt lat="51.23561" lon="-3.769"></trkpt>
      <trkpt lat="51.23578" lon="-3.76936"></trkpt>
      <trkpt lat="51.23598" lon="-3.76988"></trkpt>
      <trkpt lat="51.23608" lon="-3.77035"></trkpt>
      <trkpt lat="51.23614" lon="-3.7705"></trkpt>
      <trkpt lat="51.23637" lon="-3.77111"></trkpt>
      <trkpt lat="51.2364" lon="-3.77123"></trkpt>
      <trkpt lat="51.23638" lon="-3.77141"></trkpt>
      <trkpt lat="51.23625" lon="-3.77192"></trkpt>
      <trkpt lat="51.23621" lon="-3.77238"></trkpt>
      <trkpt lat="51.23622" lon="-3.77244"></trkpt>
      <trkpt lat="51.23631" lon="-3.77257"></trkpt>
      <trkpt lat="51.23667" lon="-3.77342"></trkpt>
      <trkpt lat="51.23694" lon="-3.77432"></trkpt>
      <trkpt lat="51.23719" lon="-3.77488"></trkpt>
      <trkpt lat="51.23737" lon="-3.77519"></trkpt>
      <trkpt lat="51.23763" lon="-3.77607"></trkpt>
      <trkpt lat="51.23774" lon="-3.7767"></trkpt>
      <trkpt lat="51.23783" lon="-3.77697"></trkpt>
      <trkpt lat="51.23815" lon="-3.77758"></trkpt>
      <trkpt lat="51.23853" lon="-3.77818"></trkpt>
      <trkpt lat="51.23858" lon="-3.7783"></trkpt>
      <trkpt lat="51.23858" lon="-3.77835"></trkpt>
      <trkpt lat="51.23852" lon="-3.77855"></trkpt>
      <trkpt lat="51.23855" lon="-3.77859"></trkpt>
      <trkpt lat="51.23861" lon="-3.77855"></trkpt>
      <trkpt lat="51.23864" lon="-3.7786"></trkpt>
      <trkpt lat="51.23883" lon="-3.77869"></trkpt>
      <trkpt lat="51.2389" lon="-3.77875"></trkpt>
      <trkpt lat="51.23893" lon="-3.77892"></trkpt>
      <trkpt lat="51.23891" lon="-3.77941"></trkpt>
      <trkpt lat="51.23889" lon="-3.77957"></trkpt>
      <trkpt lat="51.2388" lon="-3.77983"></trkpt>
      <trkpt lat="51.23881" lon="-3.77993"></trkpt>
      <trkpt lat="51.2387" lon="-3.78021"></trkpt>
      <trkpt lat="51.23868" lon="-3.78035"></trkpt>
      <trkpt lat="51.23868" lon="-3.78055"></trkpt>
      <trkpt lat="51.23877" lon="-3.78095"></trkpt>
      <trkpt lat="51.23971" lon="-3.78362"></trkpt>
      <trkpt lat="51.23967" lon="-3.78375"></trkpt>
      <trkpt lat="51.23951" lon="-3.78382"></trkpt>
      <trkpt lat="51.23947" lon="-3.78405"></trkpt>
      <trkpt lat="51.23925" lon="-3.78428"></trkpt>
      <trkpt lat="51.23964" lon="-3.78455"></trkpt>
      <trkpt lat="51.24007" lon="-3.78489"></trkpt>
      <trkpt lat="51.24027" lon="-3.78499"></trkpt>
      <trkpt lat="51.24039" lon="-3.78516"></trkpt>
      <trkpt lat="51.24047" lon="-3.78532"></trkpt>
      <trkpt lat="51.24046" lon="-3.78587"></trkpt>
      <trkpt lat="51.24039" lon="-3.78664"></trkpt>
      <trkpt lat="51.24029" lon="-3.78708"></trkpt>
      <trkpt lat="51.24028" lon="-3.78761"></trkpt>
      <trkpt lat="51.24023" lon="-3.788"></trkpt>
      <trkpt lat="51.24024" lon="-3.78818"></trkpt>
      <trkpt lat="51.24022" lon="-3.7884"></trkpt>
      <trkpt lat="51.24017" lon="-3.78881"></trkpt>
      <trkpt lat="51.24007" lon="-3.78929"></trkpt>
      <trkpt lat="51.24006" lon="-3.78958"></trkpt>
      <trkpt lat="51.24015" lon="-3.78974"></trkpt>
      <trkpt lat="51.24048" lon="-3.79003"></trkpt>
      <trkpt lat="51.24059" lon="-3.79026"></trkpt>
      <trkpt lat="51.24072" lon="-3.79038"></trkpt>
      <trkpt lat="51.24085" lon="-3.79052"></trkpt>
      <trkpt lat="51.24094" lon="-3.79112"></trkpt>
      <trkpt lat="51.24087" lon="-3.79148"></trkpt>
      <trkpt lat="51.24061" lon="-3.79168"></trkpt>
      <trkpt lat="51.24019" lon="-3.79174"></trkpt>
      <trkpt lat="51.2396" lon="-3.79162"></trkpt>
      <trkpt lat="51.23889" lon="-3.79174"></trkpt>
      <trkpt lat="51.2388" lon="-3.79208"></trkpt>
      <trkpt lat="51.23835" lon="-3.79211"></trkpt>
      <trkpt lat="51.23823" lon="-3.7922"></trkpt>
      <trkpt lat="51.23807" lon="-3.79223"></trkpt>
      <trkpt lat="51.23792" lon="-3.79221"></trkpt>
      <trkpt lat="51.23778" lon="-3.79222"></trkpt>
      <trkpt lat="51.23762" lon="-3.79227"></trkpt>
      <trkpt lat="51.23753" lon="-3.79224"></trkpt>
      <trkpt lat="51.23732" lon="-3.79236"></trkpt>
      <trkpt lat="51.23664" lon="-3.79323"></trkpt>
      <trkpt lat="51.23637" lon="-3.79363"></trkpt>
      <trkpt lat="51.23622" lon="-3.79378"></trkpt>
      <trkpt lat="51.23607" lon="-3.79388"></trkpt>
      <trkpt lat="51.23604" lon="-3.79407"></trkpt>
      <trkpt lat="51.23534" lon="-3.79485"></trkpt>
      <trkpt lat="51.23503" lon="-3.79508"></trkpt>
      <trkpt lat="51.23471" lon="-3.79526"></trkpt>
      <trkpt lat="51.23452" lon="-3.79528"></trkpt>
      <trkpt lat="51.2344" lon="-3.79537"></trkpt>
      <trkpt lat="51.23429" lon="-3.79535"></trkpt>
      <trkpt lat="51.23401" lon="-3.79573"></trkpt>
      <trkpt lat="51.23351" lon="-3.79702"></trkpt>
      <trkpt lat="51.23348" lon="-3.79774"></trkpt>
      <trkpt lat="51.23325" lon="-3.79798"></trkpt>
      <trkpt lat="51.23292" lon="-3.79825"></trkpt>
      <trkpt lat="51.23241" lon="-3.79918"></trkpt>
      <trkpt lat="51.23241" lon="-3.79932"></trkpt>
      <trkpt lat="51.23236" lon="-3.79998"></trkpt>
      <trkpt lat="51.23231" lon="-3.80015"></trkpt>
      <trkpt lat="51.23202" lon="-3.80089"></trkpt>
      <trkpt lat="51.23199" lon="-3.80118"></trkpt>
      <trkpt lat="51.23198" lon="-3.80146"></trkpt>
      <trkpt lat="51.23194" lon="-3.80159"></trkpt>
      <trkpt lat="51.23169" lon="-3.80237"></trkpt>
      <trkpt lat="51.23141" lon="-3.80295"></trkpt>
      <trkpt lat="51.23112" lon="-3.80343"></trkpt>
      <trkpt lat="51.23109" lon="-3.80365"></trkpt>
      <trkpt lat="51.23099" lon="-3.80378"></trkpt>
      <trkpt lat="51.23067" lon="-3.80478"></trkpt>
      <trkpt lat="51.23051" lon="-3.80553"></trkpt>
      <trkpt lat="51.23039" lon="-3.80639"></trkpt>
      <trkpt lat="51.23042" lon="-3.80692"></trkpt>
      <trkpt lat="51.23043" lon="-3.80759"></trkpt>
      <trkpt lat="51.2304" lon="-3.80797"></trkpt>
      <trkpt lat="51.23038" lon="-3.80825"></trkpt>
      <trkpt lat="51.23041" lon="-3.80911"></trkpt>
      <trkpt lat="51.23048" lon="-3.80956"></trkpt>
      <trkpt lat="51.23051" lon="-3.81014"></trkpt>
      <trkpt lat="51.23059" lon="-3.81101"></trkpt>
      <trkpt lat="51.23054" lon="-3.81124"></trkpt>
      <trkpt lat="51.23009" lon="-3.81192"></trkpt>
      <trkpt lat="51.22997" lon="-3.81223"></trkpt>
      <trkpt lat="51.23002" lon="-3.81278"></trkpt>
      <trkpt lat="51.23012" lon="-3.81332"></trkpt>
      <trkpt lat="51.23029" lon="-3.81393"></trkpt>
      <trkpt lat="51.23041" lon="-3.81487"></trkpt>
      <trkpt lat="51.23054" lon="-3.81616"></trkpt>
      <trkpt lat="51.2307" lon="-3.81858"></trkpt>
      <trkpt lat="51.23077" lon="-3.81926"></trkpt>
      <trkpt lat="51.2307" lon="-3.81947"></trkpt>
      <trkpt lat="51.23075" lon="-3.81982"></trkpt>
      <trkpt lat="51.23077" lon="-3.8201"></trkpt>
      <trkpt lat="51.23082" lon="-3.82018"></trkpt>
      <trkpt lat="51.23082" lon="-3.82188"></trkpt>
      <trkpt lat="51.23093" lon="-3.82295"></trkpt>
      <trkpt lat="51.23094" lon="-3.82324"></trkpt>
      <trkpt lat="51.23113" lon="-3.82334"></trkpt>
      <trkpt lat="51.23133" lon="-3.82351"></trkpt>
      <trkpt lat="51.23139" lon="-3.82369"></trkpt>
      <trkpt lat="51.23138" lon="-3.82399"></trkpt>
      <trkpt lat="51.23129" lon="-3.82452"></trkpt>
      <trkpt lat="51.23129" lon="-3.82468"></trkpt>
      <trkpt lat="51.23126" lon="-3.82491"></trkpt>
      <trkpt lat="51.23128" lon="-3.82506"></trkpt>
      <trkpt lat="51.23125" lon="-3.82537"></trkpt>
      <trkpt lat="51.2313" lon="-3.826"></trkpt>
      <trkpt lat="51.23128" lon="-3.82639"></trkpt>
      <trkpt lat="51.23123" lon="-3.82695"></trkpt>
      <trkpt lat="51.23122" lon="-3.82741"></trkpt>
      <trkpt lat="51.23114" lon="-3.82754"></trkpt>
      <trkpt lat="51.23092" lon="-3.82763"></trkpt>
      <trkpt lat="51.2308" lon="-3.82777"></trkpt>
      <trkpt lat="51.2306" lon="-3.82805"></trkpt>
      <trkpt lat="51.23031" lon="-3.82878"></trkpt>
      <trkpt lat="51.23074" lon="-3.82988"></trkpt>
      <trkpt lat="51.2309" lon="-3.83024"></trkpt>
      <trkpt lat="51.2309" lon="-3.83029"></trkpt>
      <trkpt lat="51.2308" lon="-3.83058"></trkpt>
    </trkseg>
  </trk>
</gpx>
