<?xml version="1.0" encoding="UTF-8"?>
<gpx version="1.1" creator="swcp-walk (imported from OS Maps route 33814092)"
     xmlns="http://www.topografix.com/GPX/1/1">
  <metadata>
    <name>SWCP03-Lynmouth-CombeMartin</name>
  </metadata>
  <trk>
    <name>SWCP03-Lynmouth-CombeMartin</name>
    <trkseg>
      <trkpt lat="51.23012" lon="-3.82883"></trkpt>
      <trkpt lat="51.22992" lon="-3.82903"></trkpt>
      <trkpt lat="51.22963" lon="-3.82912"></trkpt>
      <trkpt lat="51.22956" lon="-3.82917"></trkpt>
      <trkpt lat="51.22954" lon="-3.82927"></trkpt>
      <trkpt lat="51.22956" lon="-3.82969"></trkpt>
      <trkpt lat="51.2296" lon="-3.82979"></trkpt>
      <trkpt lat="51.22967" lon="-3.82987"></trkpt>
      <trkpt lat="51.2298" lon="-3.82997"></trkpt>
      <trkpt lat="51.22985" lon="-3.83005"></trkpt>
      <trkpt lat="51.22986" lon="-3.83021"></trkpt>
      <trkpt lat="51.22984" lon="-3.8303"></trkpt>
      <trkpt lat="51.22981" lon="-3.83034"></trkpt>
      <trkpt lat="51.22977" lon="-3.83036"></trkpt>
      <trkpt lat="51.22967" lon="-3.83034"></trkpt>
      <trkpt lat="51.22947" lon="-3.83024"></trkpt>
      <trkpt lat="51.22934" lon="-3.83024"></trkpt>
      <trkpt lat="51.22916" lon="-3.83027"></trkpt>
      <trkpt lat="51.22898" lon="-3.83036"></trkpt>
      <trkpt lat="51.2292" lon="-3.83038"></trkpt>
      <trkpt lat="51.2293" lon="-3.83045"></trkpt>
      <trkpt lat="51.22951" lon="-3.83068"></trkpt>
      <trkpt lat="51.22959" lon="-3.83085"></trkpt>
      <trkpt lat="51.22984" lon="-3.8317"></trkpt>
      <trkpt lat="51.23028" lon="-3.83241"></trkpt>
      <trkpt lat="51.23026" lon="-3.83244"></trkpt>
      <trkpt lat="51.23016" lon="-3.83248"></trkpt>
      <trkpt lat="51.23013" lon="-3.83253"></trkpt>
      <trkpt lat="51.23013" lon="-3.83261"></trkpt>
      <trkpt lat="51.23035" lon="-3.83279"></trkpt>
      <trkpt lat="51.23043" lon="-3.8329"></trkpt>
      <trkpt lat="51.23048" lon="-3.833"></trkpt>
      <trkpt lat="51.23052" lon="-3.83332"></trkpt>
      <trkpt lat="51.23054" lon="-3.83339"></trkpt>
      <trkpt lat="51.23094" lon="-3.83407"></trkpt>
      <trkpt lat="51.23096" lon="-3.83421"></trkpt>
      <trkpt lat="51.23108" lon="-3.83433"></trkpt>
      <trkpt lat="51.23127" lon="-3.8347"></trkpt>
      <trkpt lat="51.23201" lon="-3.83657"></trkpt>
      <trkpt lat="51.23311" lon="-3.83852"></trkpt>
      <trkpt lat="51.23361" lon="-3.83936"></trkpt>
      <trkpt lat="51.23368" lon="-3.83953"></trkpt>
      <trkpt lat="51.23406" lon="-3.84097"></trkpt>
      <trkpt lat="51.2342" lon="-3.84178"></trkpt>
      <trkpt lat="51.23436" lon="-3.84314"></trkpt>
      <trkpt lat="51.23436" lon="-3.8439"></trkpt>
      <trkpt lat="51.23435" lon="-3.84431"></trkpt>
      <trkpt lat="51.23428" lon="-3.84543"></trkpt>
      <trkpt lat="51.23424" lon="-3.84663"></trkpt>
      <trkpt lat="51.23408" lon="-3.84797"></trkpt>
      <trkpt lat="51.23406" lon="-3.84834"></trkpt>
      <trkpt lat="51.23411" lon="-3.84938"></trkpt>
      <trkpt lat="51.23416" lon="-3.84949"></trkpt>
      <trkpt lat="51.23416" lon="-3.84956"></trkpt>
      <trkpt lat="51.2341" lon="-3.84975"></trkpt>
      <trkpt lat="51.23411" lon="-3.85072"></trkpt>
      <trkpt lat="51.23406" lon="-3.85126"></trkpt>
      <trkpt lat="51.23403" lon="-3.85146"></trkpt>
      <trkpt lat="51.23403" lon="-3.85167"></trkpt>
      <trkpt lat="51.23397" lon="-3.85232"></trkpt>
      <trkpt lat="51.23389" lon="-3.85272"></trkpt>
      <trkpt lat="51.23386" lon="-3.85301"></trkpt>
      <trkpt lat="51.23374" lon="-3.85343"></trkpt>
      <trkpt lat="51.23374" lon="-3.85356"></trkpt>
      <trkpt lat="51.23372" lon="-3.85366"></trkpt>
      <trkpt lat="51.23361" lon="-3.85388"></trkpt>
      <trkpt lat="51.23358" lon="-3.854"></trkpt>
      <trkpt lat="51.23352" lon="-3.85402"></trkpt>
      <trkpt lat="51.23347" lon="-3.85409"></trkpt>
      <trkpt lat="51.23346" lon="-3.85425"></trkpt>
      <trkpt lat="51.23322" lon="-3.85443"></trkpt>
      <trkpt lat="51.23305" lon="-3.85462"></trkpt>
      <trkpt lat="51.23298" lon="-3.85474"></trkpt>
      <trkpt lat="51.23292" lon="-3.85506"></trkpt>
      <trkpt lat="51.23282" lon="-3.85523"></trkpt>
      <trkpt lat="51.23273" lon="-3.8553"></trkpt>
      <trkpt lat="51.23262" lon="-3.85535"></trkpt>
      <trkpt lat="51.23243" lon="-3.85553"></trkpt>
      <trkpt lat="51.2323" lon="-3.85563"></trkpt>
      <trkpt lat="51.23188" lon="-3.85582"></trkpt>
      <trkpt lat="51.23157" lon="-3.8561"></trkpt>
      <trkpt lat="51.23131" lon="-3.85628"></trkpt>
      <trkpt lat="51.23098" lon="-3.85656"></trkpt>
      <trkpt lat="51.23082" lon="-3.85672"></trkpt>
      <trkpt lat="51.23074" lon="-3.85684"></trkpt>
      <trkpt lat="51.23046" lon="-3.85735"></trkpt>
      <trkpt lat="51.22992" lon="-3.85795"></trkpt>
      <trkpt lat="51.22972" lon="-3.85828"></trkpt>
      <trkpt lat="51.22961" lon="-3.85853"></trkpt>
      <trkpt lat="51.22953" lon="-3.85877"></trkpt>
      <trkpt lat="51.22952" lon="-3.85909"></trkpt>
      <trkpt lat="51.22961" lon="-3.85976"></trkpt>
      <trkpt lat="51.22969" lon="-3.8602"></trkpt>
      <trkpt lat="51.22969" lon="-3.86042"></trkpt>
      <trkpt lat="51.22857" lon="-3.86284"></trkpt>
      <trkpt lat="51.22723" lon="-3.86502"></trkpt>
      <trkpt lat="51.22712" lon="-3.86529"></trkpt>
      <trkpt lat="51.22705" lon="-3.86557"></trkpt>
      <trkpt lat="51.22702" lon="-3.86597"></trkpt>
      <trkpt lat="51.22676" lon="-3.86784"></trkpt>
      <trkpt lat="51.2266" lon="-3.86855"></trkpt>
      <trkpt lat="51.22648" lon="-3.86901"></trkpt>
      <trkpt lat="51.22626" lon="-3.86964"></trkpt>
      <trkpt lat="51.22605" lon="-3.87007"></trkpt>
      <trkpt lat="51.22589" lon="-3.87021"></trkpt>
      <trkpt lat="51.22569" lon="-3.87056"></trkpt>
      <trkpt lat="51.22565" lon="-3.87066"></trkpt>
      <trkpt lat="51.22595" lon="-3.87115"></trkpt>
      <trkpt lat="51.22643" lon="-3.87156"></trkpt>
      <trkpt lat="51.2266" lon="-3.87176"></trkpt>
      <trkpt lat="51.22666" lon="-3.87187"></trkpt>
      <trkpt lat="51.22669" lon="-3.87206"></trkpt>
      <trkpt lat="51.22669" lon="-3.87225"></trkpt>
      <trkpt lat="51.22653" lon="-3.87345"></trkpt>
      <trkpt lat="51.22681" lon="-3.87376"></trkpt>
      <trkpt lat="51.22701" lon="-3.8745"></trkpt>
      <trkpt lat="51.22707" lon="-3.87502"></trkpt>
      <trkpt lat="51.22706" lon="-3.8757"></trkpt>
      <trkpt lat="51.22705" lon="-3.87626"></trkpt>
      <trkpt lat="51.22711" lon="-3.87657"></trkpt>
      <trkpt lat="51.22713" lon="-3.87684"></trkpt>
      <trkpt lat="51.22722" lon="-3.8772"></trkpt>
      <trkpt lat="51.22729" lon="-3.87769"></trkpt>
      <trkpt lat="51.22741" lon="-3.87775"></trkpt>
      <trkpt lat="51.22752" lon="-3.87802"></trkpt>
      <trkpt lat="51.22764" lon="-3.87821"></trkpt>
      <trkpt lat="51.22779" lon="-3.87869"></trkpt>
      <trkpt lat="51.22782" lon="-3.87889"></trkpt>
      <trkpt lat="51.22781" lon="-3.87923"></trkpt>
      <trkpt lat="51.22843" lon="-3.87927"></trkpt>
      <trkpt lat="51.22857" lon="-3.87946"></trkpt>
      <trkpt lat="51.22869" lon="-3.87998"></trkpt>
      <trkpt lat="51.2287" lon="-3.88048"></trkpt>
      <trkpt lat="51.22852" lon="-3.88059"></trkpt>
      <trkpt lat="51.22838" lon="-3.8806"></trkpt>
      <trkpt lat="51.22827" lon="-3.88071"></trkpt>
      <trkpt lat="51.22814" lon="-3.88079"></trkpt>
      <trkpt lat="51.22788" lon="-3.88078"></trkpt>
      <trkpt lat="51.22779" lon="-3.88081"></trkpt>
      <trkpt lat="51.2277" lon="-3.88087"></trkpt>
      <trkpt lat="51.22758" lon="-3.88111"></trkpt>
      <trkpt lat="51.2274" lon="-3.88136"></trkpt>
      <trkpt lat="51.22724" lon="-3.88168"></trkpt>
      <trkpt lat="51.22694" lon="-3.88195"></trkpt>
      <trkpt lat="51.22683" lon="-3.88198"></trkpt>
      <trkpt lat="51.22678" lon="-3.88194"></trkpt>
      <trkpt lat="51.22674" lon="-3.88186"></trkpt>
      <trkpt lat="51.22677" lon="-3.8815"></trkpt>
      <trkpt lat="51.22676" lon="-3.88118"></trkpt>
      <trkpt lat="51.22672" lon="-3.88095"></trkpt>
      <trkpt lat="51.2266" lon="-3.88074"></trkpt>
      <trkpt lat="51.22657" lon="-3.88077"></trkpt>
      <trkpt lat="51.22651" lon="-3.88073"></trkpt>
      <trkpt lat="51.22628" lon="-3.88036"></trkpt>
      <trkpt lat="51.22621" lon="-3.88021"></trkpt>
      <trkpt lat="51.22621" lon="-3.88016"></trkpt>
      <trkpt lat="51.22597" lon="-3.87992"></trkpt>
      <trkpt lat="51.22593" lon="-3.87989"></trkpt>
      <trkpt lat="51.22592" lon="-3.8799"></trkpt>
      <trkpt lat="51.22585" lon="-3.87983"></trkpt>
      <trkpt lat="51.22568" lon="-3.87972"></trkpt>
      <trkpt lat="51.22561" lon="-3.8798"></trkpt>
      <trkpt lat="51.22532" lon="-3.87999"></trkpt>
      <trkpt lat="51.22521" lon="-3.88014"></trkpt>
      <trkpt lat="51.22504" lon="-3.88029"></trkpt>
      <trkpt lat="51.22491" lon="-3.88069"></trkpt>
      <trkpt lat="51.22478" lon="-3.88122"></trkpt>
      <trkpt lat="51.22465" lon="-3.88208"></trkpt>
      <trkpt lat="51.22461" lon="-3.8822"></trkpt>
      <trkpt lat="51.22457" lon="-3.88226"></trkpt>
      <trkpt lat="51.22454" lon="-3.8828"></trkpt>
      <trkpt lat="51.22458" lon="-3.8834"></trkpt>
      <trkpt lat="51.22454" lon="-3.88416"></trkpt>
      <trkpt lat="51.22439" lon="-3.88626"></trkpt>
      <trkpt lat="51.22438" lon="-3.88664"></trkpt>
      <trkpt lat="51.22436" lon="-3.88701"></trkpt>
      <trkpt lat="51.2243" lon="-3.8874"></trkpt>
      <trkpt lat="51.2241" lon="-3.88813"></trkpt>
      <trkpt lat="51.22398" lon="-3.88867"></trkpt>
      <trkpt lat="51.22392" lon="-3.88904"></trkpt>
      <trkpt lat="51.22388" lon="-3.88959"></trkpt>
      <trkpt lat="51.22382" lon="-3.8899"></trkpt>
      <trkpt lat="51.22366" lon="-3.89038"></trkpt>
      <trkpt lat="51.22347" lon="-3.89106"></trkpt>
      <trkpt lat="51.22337" lon="-3.89153"></trkpt>
      <trkpt lat="51.22328" lon="-3.8921"></trkpt>
      <trkpt lat="51.22323" lon="-3.8922"></trkpt>
      <trkpt lat="51.2232" lon="-3.89221"></trkpt>
      <trkpt lat="51.22266" lon="-3.8918"></trkpt>
      <trkpt lat="51.22266" lon="-3.89187"></trkpt>
      <trkpt lat="51.2226" lon="-3.89196"></trkpt>
      <trkpt lat="51.22254" lon="-3.89236"></trkpt>
      <trkpt lat="51.2224" lon="-3.89278"></trkpt>
      <trkpt lat="51.22231" lon="-3.89362"></trkpt>
      <trkpt lat="51.22225" lon="-3.89377"></trkpt>
      <trkpt lat="51.22193" lon="-3.89419"></trkpt>
      <trkpt lat="51.22186" lon="-3.89431"></trkpt>
      <trkpt lat="51.22176" lon="-3.89463"></trkpt>
      <trkpt lat="51.22175" lon="-3.89487"></trkpt>
      <trkpt lat="51.22182" lon="-3.89493"></trkpt>
      <trkpt lat="51.22206" lon="-3.89488"></trkpt>
      <trkpt lat="51.2222" lon="-3.89492"></trkpt>
      <trkpt lat="51.22243" lon="-3.89507"></trkpt>
      <trkpt lat="51.2226" lon="-3.89521"></trkpt>
      <trkpt lat="51.22267" lon="-3.89531"></trkpt>
      <trkpt lat="51.22298" lon="-3.89613"></trkpt>
      <trkpt lat="51.22307" lon="-3.89647"></trkpt>
      <trkpt lat="51.22311" lon="-3.89676"></trkpt>
      <trkpt lat="51.22315" lon="-3.89734"></trkpt>
      <trkpt lat="51.22327" lon="-3.89791"></trkpt>
      <trkpt lat="51.22346" lon="-3.89837"></trkpt>
      <trkpt lat="51.22377" lon="-3.89876"></trkpt>
      <trkpt lat="51.2238" lon="-3.89936"></trkpt>
      <trkpt lat="51.2238" lon="-3.90041"></trkpt>
      <trkpt lat="51.22388" lon="-3.90116"></trkpt>
      <trkpt lat="51.22422" lon="-3.90223"></trkpt>
      <trkpt lat="51.2244" lon="-3.9029"></trkpt>
      <trkpt lat="51.22448" lon="-3.90303"></trkpt>
      <trkpt lat="51.22448" lon="-3.90307"></trkpt>
      <trkpt lat="51.22444" lon="-3.90309"></trkpt>
      <trkpt lat="51.22454" lon="-3.90323"></trkpt>
      <trkpt lat="51.22491" lon="-3.90342"></trkpt>
      <trkpt lat="51.22503" lon="-3.90361"></trkpt>
      <trkpt lat="51.22517" lon="-3.90376"></trkpt>
      <trkpt lat="51.22538" lon="-3.90381"></trkpt>
      <trkpt lat="51.22563" lon="-3.90397"></trkpt>
      <trkpt lat="51.22591" lon="-3.90406"></trkpt>
      <trkpt lat="51.22619" lon="-3.90408"></trkpt>
      <trkpt lat="51.22648" lon="-3.90406"></trkpt>
      <trkpt lat="51.22711" lon="-3.90379"></trkpt>
      <trkpt lat="51.22733" lon="-3.90379"></trkpt>
      <trkpt lat="51.22756" lon="-3.90391"></trkpt>
      <trkpt lat="51.22787" lon="-3.90442"></trkpt>
      <trkpt lat="51.22795" lon="-3.90469"></trkpt>
      <trkpt lat="51.22801" lon="-3.90521"></trkpt>
      <trkpt lat="51.2281" lon="-3.90563"></trkpt>
      <trkpt lat="51.22823" lon="-3.90612"></trkpt>
      <trkpt lat="51.22841" lon="-3.90718"></trkpt>
      <trkpt lat="51.22844" lon="-3.90776"></trkpt>
      <trkpt lat="51.22842" lon="-3.9083"></trkpt>
      <trkpt lat="51.22832" lon="-3.90876"></trkpt>
      <trkpt lat="51.22828" lon="-3.9091"></trkpt>
      <trkpt lat="51.2282" lon="-3.90935"></trkpt>
      <trkpt lat="51.22805" lon="-3.90967"></trkpt>
      <trkpt lat="51.22797" lon="-3.91016"></trkpt>
      <trkpt lat="51.22789" lon="-3.91036"></trkpt>
      <trkpt lat="51.22769" lon="-3.91059"></trkpt>
      <trkpt lat="51.2276" lon="-3.91076"></trkpt>
      <trkpt lat="51.2276" lon="-3.91082"></trkpt>
      <trkpt lat="51.22766" lon="-3.91099"></trkpt>
      <trkpt lat="51.22785" lon="-3.91127"></trkpt>
      <trkpt lat="51.22807" lon="-3.91142"></trkpt>
      <trkpt lat="51.22854" lon="-3.91151"></trkpt>
      <trkpt lat="51.22897" lon="-3.91148"></trkpt>
      <trkpt lat="51.22905" lon="-3.91198"></trkpt>
      <trkpt lat="51.22916" lon="-3.91306"></trkpt>
      <trkpt lat="51.22918" lon="-3.91337"></trkpt>
      <trkpt lat="51.22922" lon="-3.91348"></trkpt>
      <trkpt lat="51.22928" lon="-3.91354"></trkpt>
      <trkpt lat="51.22895" lon="-3.91447"></trkpt>
      <trkpt lat="51.22873" lon="-3.91533"></trkpt>
      <trkpt lat="51.22866" lon="-3.91576"></trkpt>
      <trkpt lat="51.22865" lon="-3.91605"></trkpt>
      <trkpt lat="51.22868" lon="-3.9164"></trkpt>
      <trkpt lat="51.22888" lon="-3.91673"></trkpt>
      <trkpt lat="51.22882" lon="-3.91688"></trkpt>
      <trkpt lat="51.22872" lon="-3.91759"></trkpt>
      <trkpt lat="51.22877" lon="-3.91816"></trkpt>
      <trkpt lat="51.22874" lon="-3.91913"></trkpt>
      <trkpt lat="51.22876" lon="-3.9198"></trkpt>
      <trkpt lat="51.22882" lon="-3.92018"></trkpt>
      <trkpt lat="51.22892" lon="-3.92057"></trkpt>
      <trkpt lat="51.22908" lon="-3.921"></trkpt>
      <trkpt lat="51.22926" lon="-3.92168"></trkpt>
      <trkpt lat="51.22938" lon="-3.92207"></trkpt>
      <trkpt lat="51.22961" lon="-3.92304"></trkpt>
      <trkpt lat="51.22989" lon="-3.92405"></trkpt>
      <trkpt lat="51.22985" lon="-3.92427"></trkpt>
      <trkpt lat="51.22965" lon="-3.92455"></trkpt>
      <trkpt lat="51.2293" lon="-3.92483"></trkpt>
      <trkpt lat="51.22902" lon="-3.9251"></trkpt>
      <trkpt lat="51.22863" lon="-3.92535"></trkpt>
      <trkpt lat="51.2281" lon="-3.92576"></trkpt>
      <trkpt lat="51.22763" lon="-3.92604"></trkpt>
      <trkpt lat="51.22679" lon="-3.92641"></trkpt>
      <trkpt lat="51.2262" lon="-3.92656"></trkpt>
      <trkpt lat="51.2258" lon="-3.92675"></trkpt>
      <trkpt lat="51.22553" lon="-3.92674"></trkpt>
      <trkpt lat="51.22538" lon="-3.92655"></trkpt>
      <trkpt lat="51.22531" lon="-3.92657"></trkpt>
      <trkpt lat="51.22518" lon="-3.92669"></trkpt>
      <trkpt lat="51.22509" lon="-3.92706"></trkpt>
      <trkpt lat="51.225" lon="-3.92723"></trkpt>
      <trkpt lat="51.22483" lon="-3.92742"></trkpt>
      <trkpt lat="51.22399" lon="-3.92809"></trkpt>
      <trkpt lat="51.22384" lon="-3.92805"></trkpt>
      <trkpt lat="51.22367" lon="-3.92807"></trkpt>
      <trkpt lat="51.22299" lon="-3.92801"></trkpt>
      <trkpt lat="51.22281" lon="-3.92796"></trkpt>
      <trkpt lat="51.2226" lon="-3.92796"></trkpt>
      <trkpt lat="51.22253" lon="-3.92792"></trkpt>
      <trkpt lat="51.22252" lon="-3.92822"></trkpt>
      <trkpt lat="51.22313" lon="-3.92868"></trkpt>
      <trkpt lat="51.22312" lon="-3.92879"></trkpt>
      <trkpt lat="51.22262" lon="-3.9287"></trkpt>
      <trkpt lat="51.2213" lon="-3.92839"></trkpt>
      <trkpt lat="51.22084" lon="-3.92833"></trkpt>
      <trkpt lat="51.22086" lon="-3.92841"></trkpt>
      <trkpt lat="51.2217" lon="-3.92895"></trkpt>
      <trkpt lat="51.22209" lon="-3.92925"></trkpt>
      <trkpt lat="51.22222" lon="-3.92966"></trkpt>
      <trkpt lat="51.22228" lon="-3.92978"></trkpt>
      <trkpt lat="51.22269" lon="-3.93009"></trkpt>
      <trkpt lat="51.22274" lon="-3.93012"></trkpt>
      <trkpt lat="51.22283" lon="-3.93035"></trkpt>
      <trkpt lat="51.22287" lon="-3.93058"></trkpt>
      <trkpt lat="51.22283" lon="-3.93066"></trkpt>
      <trkpt lat="51.22249" lon="-3.9306"></trkpt>
      <trkpt lat="51.22246" lon="-3.93062"></trkpt>
      <trkpt lat="51.22247" lon="-3.93086"></trkpt>
      <trkpt lat="51.22257" lon="-3.93108"></trkpt>
      <trkpt lat="51.22269" lon="-3.93126"></trkpt>
      <trkpt lat="51.22283" lon="-3.93169"></trkpt>
      <trkpt lat="51.223" lon="-3.93179"></trkpt>
      <trkpt lat="51.22325" lon="-3.93219"></trkpt>
      <trkpt lat="51.22352" lon="-3.93221"></trkpt>
      <trkpt lat="51.22358" lon="-3.93197"></trkpt>
      <trkpt lat="51.22364" lon="-3.93162"></trkpt>
      <trkpt lat="51.22377" lon="-3.93119"></trkpt>
      <trkpt lat="51.22408" lon="-3.93106"></trkpt>
      <trkpt lat="51.22437" lon="-3.93102"></trkpt>
      <trkpt lat="51.22478" lon="-3.93113"></trkpt>
      <trkpt lat="51.22522" lon="-3.93103"></trkpt>
      <trkpt lat="51.2266" lon="-3.93114"></trkpt>
      <trkpt lat="51.22762" lon="-3.93141"></trkpt>
      <trkpt lat="51.22796" lon="-3.93142"></trkpt>
      <trkpt lat="51.22798" lon="-3.93159"></trkpt>
      <trkpt lat="51.228" lon="-3.93206"></trkpt>
      <trkpt lat="51.22794" lon="-3.93365"></trkpt>
      <trkpt lat="51.22777" lon="-3.9338"></trkpt>
      <trkpt lat="51.2276" lon="-3.93421"></trkpt>
      <trkpt lat="51.22749" lon="-3.93457"></trkpt>
      <trkpt lat="51.22746" lon="-3.93515"></trkpt>
      <trkpt lat="51.22738" lon="-3.93556"></trkpt>
      <trkpt lat="51.22734" lon="-3.93585"></trkpt>
      <trkpt lat="51.22705" lon="-3.93649"></trkpt>
      <trkpt lat="51.22691" lon="-3.93718"></trkpt>
      <trkpt lat="51.22676" lon="-3.93724"></trkpt>
      <trkpt lat="51.22651" lon="-3.93709"></trkpt>
      <trkpt lat="51.22625" lon="-3.937"></trkpt>
      <trkpt lat="51.22548" lon="-3.93616"></trkpt>
      <trkpt lat="51.22515" lon="-3.93707"></trkpt>
      <trkpt lat="51.22502" lon="-3.93755"></trkpt>
      <trkpt lat="51.22495" lon="-3.93791"></trkpt>
      <trkpt lat="51.22486" lon="-3.93817"></trkpt>
      <trkpt lat="51.22424" lon="-3.93924"></trkpt>
      <trkpt lat="51.22397" lon="-3.93968"></trkpt>
      <trkpt lat="51.22377" lon="-3.93996"></trkpt>
      <trkpt lat="51.22351" lon="-3.94047"></trkpt>
      <trkpt lat="51.22306" lon="-3.94113"></trkpt>
      <trkpt lat="51.22298" lon="-3.9413"></trkpt>
      <trkpt lat="51.2229" lon="-3.94154"></trkpt>
      <trkpt lat="51.22289" lon="-3.94173"></trkpt>
      <trkpt lat="51.22273" lon="-3.94233"></trkpt>
      <trkpt lat="51.22263" lon="-3.94252"></trkpt>
      <trkpt lat="51.22253" lon="-3.94262"></trkpt>
      <trkpt lat="51.22247" lon="-3.94276"></trkpt>
      <trkpt lat="51.22219" lon="-3.9431"></trkpt>
      <trkpt lat="51.2221" lon="-3.94315"></trkpt>
      <trkpt lat="51.22185" lon="-3.94345"></trkpt>
      <trkpt lat="51.22167" lon="-3.94377"></trkpt>
      <trkpt lat="51.22119" lon="-3.94445"></trkpt>
      <trkpt lat="51.22102" lon="-3.94475"></trkpt>
      <trkpt lat="51.22083" lon="-3.94526"></trkpt>
      <trkpt lat="51.22065" lon="-3.94563"></trkpt>
      <trkpt lat="51.22053" lon="-3.94579"></trkpt>
      <trkpt lat="51.22031" lon="-3.94602"></trkpt>
      <trkpt lat="51.2201" lon="-3.94614"></trkpt>
      <trkpt lat="51.21994" lon="-3.94628"></trkpt>
      <trkpt lat="51.2198" lon="-3.94644"></trkpt>
      <trkpt lat="51.21954" lon="-3.9468"></trkpt>
      <trkpt lat="51.21947" lon="-3.94702"></trkpt>
      <trkpt lat="51.21942" lon="-3.94708"></trkpt>
      <trkpt lat="51.21933" lon="-3.94701"></trkpt>
      <trkpt lat="51.21857" lon="-3.94683"></trkpt>
      <trkpt lat="51.21849" lon="-3.94678"></trkpt>
      <trkpt lat="51.21837" lon="-3.94722"></trkpt>
      <trkpt lat="51.2183" lon="-3.94739"></trkpt>
      <trkpt lat="51.21795" lon="-3.94787"></trkpt>
      <trkpt lat="51.21776" lon="-3.9482"></trkpt>
      <trkpt lat="51.21648" lon="-3.94999"></trkpt>
      <trkpt lat="51.21589" lon="-3.95092"></trkpt>
      <trkpt lat="51.21539" lon="-3.95183"></trkpt>
      <trkpt lat="51.21495" lon="-3.95275"></trkpt>
      <trkpt lat="51.21467" lon="-3.95373"></trkpt>
      <trkpt lat="51.21462" lon="-3.95402"></trkpt>
      <trkpt lat="51.21459" lon="-3.95444"></trkpt>
      <trkpt lat="51.21459" lon="-3.95479"></trkpt>
      <trkpt lat="51.21464" lon="-3.95563"></trkpt>
      <trkpt lat="51.21476" lon="-3.95563"></trkpt>
      <trkpt lat="51.21496" lon="-3.95584"></trkpt>
      <trkpt lat="51.21496" lon="-3.95607"></trkpt>
      <trkpt lat="51.21499" lon="-3.95623"></trkpt>
      <trkpt lat="51.21514" lon="-3.95676"></trkpt>
      <trkpt lat="51.21519" lon="-3.95723"></trkpt>
      <trkpt lat="51.21523" lon="-3.95742"></trkpt>
      <trkpt lat="51.215" lon="-3.95804"></trkpt>
      <trkpt lat="51.2149" lon="-3.95846"></trkpt>
      <trkpt lat="51.21478" lon="-3.95987"></trkpt>
      <trkpt lat="51.21477" lon="-3.96097"></trkpt>
      <trkpt lat="51.2148" lon="-3.96128"></trkpt>
      <trkpt lat="51.21477" lon="-3.96167"></trkpt>
      <trkpt lat="51.21479" lon="-3.96229"></trkpt>
      <trkpt lat="51.21482" lon="-3.96278"></trkpt>
      <trkpt lat="51.21483" lon="-3.96341"></trkpt>
      <trkpt lat="51.21491" lon="-3.96413"></trkpt>
      <trkpt lat="51.21468" lon="-3.96559"></trkpt>
      <trkpt lat="51.21402" lon="-3.96608"></trkpt>
      <trkpt lat="51.21412" lon="-3.96623"></trkpt>
      <trkpt lat="51.21419" lon="-3.96629"></trkpt>
      <trkpt lat="51.21426" lon="-3.96639"></trkpt>
      <trkpt lat="51.21431" lon="-3.96665"></trkpt>
      <trkpt lat="51.2143" lon="-3.96684"></trkpt>
      <trkpt lat="51.21442" lon="-3.96704"></trkpt>
      <trkpt lat="51.21446" lon="-3.96714"></trkpt>
      <trkpt lat="51.21445" lon="-3.96747"></trkpt>
      <trkpt lat="51.21442" lon="-3.96769"></trkpt>
      <trkpt lat="51.21443" lon="-3.96786"></trkpt>
      <trkpt lat="51.21442" lon="-3.96805"></trkpt>
      <trkpt lat="51.21446" lon="-3.96841"></trkpt>
      <trkpt lat="51.21463" lon="-3.96921"></trkpt>
      <trkpt lat="51.21462" lon="-3.96933"></trkpt>
      <trkpt lat="51.21454" lon="-3.96963"></trkpt>
      <trkpt lat="51.2146" lon="-3.96988"></trkpt>
      <trkpt lat="51.21457" lon="-3.97029"></trkpt>
      <trkpt lat="51.2147" lon="-3.97176"></trkpt>
      <trkpt lat="51.21508" lon="-3.97272"></trkpt>
      <trkpt lat="51.21533" lon="-3.97327"></trkpt>
      <trkpt lat="51.21556" lon="-3.97387"></trkpt>
      <trkpt lat="51.21572" lon="-3.9744"></trkpt>
      <trkpt lat="51.21594" lon="-3.97525"></trkpt>
      <trkpt lat="51.21629" lon="-3.97699"></trkpt>
      <trkpt lat="51.21617" lon="-3.97774"></trkpt>
      <trkpt lat="51.21578" lon="-3.97976"></trkpt>
      <trkpt lat="51.2157" lon="-3.98081"></trkpt>
      <trkpt lat="51.21569" lon="-3.98138"></trkpt>
      <trkpt lat="51.21577" lon="-3.98438"></trkpt>
      <trkpt lat="51.21575" lon="-3.98459"></trkpt>
      <trkpt lat="51.2152" lon="-3.9865"></trkpt>
      <trkpt lat="51.21468" lon="-3.98761"></trkpt>
      <trkpt lat="51.21456" lon="-3.98781"></trkpt>
      <trkpt lat="51.21451" lon="-3.988"></trkpt>
      <trkpt lat="51.21423" lon="-3.98861"></trkpt>
      <trkpt lat="51.2141" lon="-3.98881"></trkpt>
      <trkpt lat="51.21398" lon="-3.98882"></trkpt>
      <trkpt lat="51.21389" lon="-3.98877"></trkpt>
      <trkpt lat="51.2134" lon="-3.98829"></trkpt>
      <trkpt lat="51.21299" lon="-3.98781"></trkpt>
      <trkpt lat="51.21293" lon="-3.98778"></trkpt>
      <trkpt lat="51.21289" lon="-3.98779"></trkpt>
      <trkpt lat="51.21284" lon="-3.98784"></trkpt>
      <trkpt lat="51.21276" lon="-3.98801"></trkpt>
      <trkpt lat="51.21263" lon="-3.9882"></trkpt>
      <trkpt lat="51.21248" lon="-3.98833"></trkpt>
      <trkpt lat="51.21239" lon="-3.98836"></trkpt>
      <trkpt lat="51.21223" lon="-3.98832"></trkpt>
      <trkpt lat="51.21214" lon="-3.98825"></trkpt>
      <trkpt lat="51.21197" lon="-3.98823"></trkpt>
      <trkpt lat="51.21182" lon="-3.98819"></trkpt>
      <trkpt lat="51.21134" lon="-3.98818"></trkpt>
      <trkpt lat="51.21114" lon="-3.98814"></trkpt>
      <trkpt lat="51.21075" lon="-3.98802"></trkpt>
      <trkpt lat="51.21062" lon="-3.98802"></trkpt>
      <trkpt lat="51.21045" lon="-3.98812"></trkpt>
      <trkpt lat="51.21032" lon="-3.98807"></trkpt>
      <trkpt lat="51.21025" lon="-3.98811"></trkpt>
      <trkpt lat="51.21011" lon="-3.98826"></trkpt>
      <trkpt lat="51.20958" lon="-3.98818"></trkpt>
      <trkpt lat="51.20949" lon="-3.98827"></trkpt>
      <trkpt lat="51.20942" lon="-3.98841"></trkpt>
      <trkpt lat="51.20926" lon="-3.989"></trkpt>
      <trkpt lat="51.20924" lon="-3.9892"></trkpt>
      <trkpt lat="51.20903" lon="-3.98971"></trkpt>
      <trkpt lat="51.20898" lon="-3.98991"></trkpt>
      <trkpt lat="51.20898" lon="-3.99022"></trkpt>
      <trkpt lat="51.20896" lon="-3.99027"></trkpt>
      <trkpt lat="51.20895" lon="-3.9904"></trkpt>
      <trkpt lat="51.20897" lon="-3.9905"></trkpt>
      <trkpt lat="51.20905" lon="-3.99069"></trkpt>
      <trkpt lat="51.20904" lon="-3.99086"></trkpt>
      <trkpt lat="51.20901" lon="-3.99089"></trkpt>
      <trkpt lat="51.20901" lon="-3.99126"></trkpt>
      <trkpt lat="51.20906" lon="-3.99136"></trkpt>
      <trkpt lat="51.20904" lon="-3.99146"></trkpt>
      <trkpt lat="51.20906" lon="-3.99164"></trkpt>
      <trkpt lat="51.20907" lon="-3.99193"></trkpt>
      <trkpt lat="51.20913" lon="-3.99204"></trkpt>
      <trkpt lat="51.20911" lon="-3.99237"></trkpt>
      <trkpt lat="51.20912" lon="-3.99242"></trkpt>
      <trkpt lat="51.20932" lon="-3.99271"></trkpt>
      <trkpt lat="51.20921" lon="-3.99304"></trkpt>
      <trkpt lat="51.20922" lon="-3.99312"></trkpt>
      <trkpt lat="51.20931" lon="-3.99323"></trkpt>
      <trkpt lat="51.20926" lon="-3.99329"></trkpt>
      <trkpt lat="51.20914" lon="-3.99335"></trkpt>
      <trkpt lat="51.209" lon="-3.99338"></trkpt>
      <trkpt lat="51.20892" lon="-3.99344"></trkpt>
      <trkpt lat="51.20861" lon="-3.99388"></trkpt>
      <trkpt lat="51.20844" lon="-3.99419"></trkpt>
      <trkpt lat="51.20863" lon="-3.99441"></trkpt>
      <trkpt lat="51.209" lon="-3.99464"></trkpt>
      <trkpt lat="51.20937" lon="-3.99475"></trkpt>
      <trkpt lat="51.21011" lon="-3.99536"></trkpt>
      <trkpt lat="51.21044" lon="-3.99572"></trkpt>
      <trkpt lat="51.21089" lon="-3.99629"></trkpt>
      <trkpt lat="51.2112" lon="-3.99673"></trkpt>
      <trkpt lat="51.21131" lon="-3.99681"></trkpt>
      <trkpt lat="51.21138" lon="-3.99693"></trkpt>
      <trkpt lat="51.21183" lon="-4.00012"></trkpt>
      <trkpt lat="51.21191" lon="-4.00049"></trkpt>
      <trkpt lat="51.21205" lon="-4.00079"></trkpt>
      <trkpt lat="51.21212" lon="-4.00107"></trkpt>
      <trkpt lat="51.21247" lon="-4.00166"></trkpt>
      <trkpt lat="51.21272" lon="-4.00202"></trkpt>
      <trkpt lat="51.21314" lon="-4.00245"></trkpt>
      <trkpt lat="51.21334" lon="-4.00271"></trkpt>
      <trkpt lat="51.21388" lon="-4.00317"></trkpt>
      <trkpt lat="51.21407" lon="-4.00343"></trkpt>
      <trkpt lat="51.21432" lon="-4.00366"></trkpt>
      <trkpt lat="51.21442" lon="-4.00384"></trkpt>
      <trkpt lat="51.21452" lon="-4.00411"></trkpt>
      <trkpt lat="51.21465" lon="-4.00468"></trkpt>
      <trkpt lat="51.21441" lon="-4.00558"></trkpt>
      <trkpt lat="51.21417" lon="-4.00677"></trkpt>
      <trkpt lat="51.21412" lon="-4.00713"></trkpt>
      <trkpt lat="51.21402" lon="-4.00755"></trkpt>
      <trkpt lat="51.214" lon="-4.00781"></trkpt>
      <trkpt lat="51.21401" lon="-4.00802"></trkpt>
      <trkpt lat="51.21395" lon="-4.00864"></trkpt>
      <trkpt lat="51.21396" lon="-4.00897"></trkpt>
      <trkpt lat="51.21395" lon="-4.00929"></trkpt>
      <trkpt lat="51.21399" lon="-4.00958"></trkpt>
      <trkpt lat="51.21401" lon="-4.01017"></trkpt>
      <trkpt lat="51.21411" lon="-4.01049"></trkpt>
      <trkpt lat="51.21424" lon="-4.01149"></trkpt>
      <trkpt lat="51.21449" lon="-4.01165"></trkpt>
      <trkpt lat="51.21453" lon="-4.01171"></trkpt>
      <trkpt lat="51.21466" lon="-4.01215"></trkpt>
      <trkpt lat="51.21468" lon="-4.01252"></trkpt>
      <trkpt lat="51.21474" lon="-4.0131"></trkpt>
      <trkpt lat="51.21472" lon="-4.01318"></trkpt>
      <trkpt lat="51.21476" lon="-4.01371"></trkpt>
      <trkpt lat="51.21475" lon="-4.01406"></trkpt>
      <trkpt lat="51.21478" lon="-4.01425"></trkpt>
      <trkpt lat="51.21476" lon="-4.01467"></trkpt>
      <trkpt lat="51.21471" lon="-4.01507"></trkpt>
      <trkpt lat="51.2147" lon="-4.01534"></trkpt>
      <trkpt lat="51.21464" lon="-4.01587"></trkpt>
      <trkpt lat="51.2144" lon="-4.01619"></trkpt>
      <trkpt lat="51.21448" lon="-4.01635"></trkpt>
      <trkpt lat="51.2145" lon="-4.01656"></trkpt>
      <trkpt lat="51.21443" lon="-4.01789"></trkpt>
      <trkpt lat="51.21442" lon="-4.01836"></trkpt>
      <trkpt lat="51.21437" lon="-4.01871"></trkpt>
      <trkpt lat="51.21422" lon="-4.02004"></trkpt>
      <trkpt lat="51.21421" lon="-4.02061"></trkpt>
      <trkpt lat="51.21418" lon="-4.02102"></trkpt>
      <trkpt lat="51.21402" lon="-4.02165"></trkpt>
      <trkpt lat="51.214" lon="-4.02234"></trkpt>
      <trkpt lat="51.21402" lon="-4.02309"></trkpt>
      <trkpt lat="51.21395" lon="-4.02348"></trkpt>
      <trkpt lat="51.21369" lon="-4.02454"></trkpt>
      <trkpt lat="51.21373" lon="-4.02571"></trkpt>
      <trkpt lat="51.2137" lon="-4.02579"></trkpt>
      <trkpt lat="51.21354" lon="-4.02609"></trkpt>
      <trkpt lat="51.21338" lon="-4.02629"></trkpt>
      <trkpt lat="51.21318" lon="-4.02638"></trkpt>
      <trkpt lat="51.21296" lon="-4.02657"></trkpt>
      <trkpt lat="51.21282" lon="-4.02674"></trkpt>
      <trkpt lat="51.21281" lon="-4.02687"></trkpt>
      <trkpt lat="51.21274" lon="-4.02701"></trkpt>
      <trkpt lat="51.21272" lon="-4.02709"></trkpt>
      <trkpt lat="51.21261" lon="-4.02721"></trkpt>
      <trkpt lat="51.21247" lon="-4.02744"></trkpt>
      <trkpt lat="51.21236" lon="-4.02754"></trkpt>
      <trkpt lat="51.21223" lon="-4.02759"></trkpt>
      <trkpt lat="51.21201" lon="-4.02753"></trkpt>
      <trkpt lat="51.21148" lon="-4.02747"></trkpt>
      <trkpt lat="51.21133" lon="-4.0275"></trkpt>
      <trkpt lat="51.21115" lon="-4.02758"></trkpt>
      <trkpt lat="51.21093" lon="-4.02762"></trkpt>
      <trkpt lat="51.21076" lon="-4.02773"></trkpt>
      <trkpt lat="51.20998" lon="-4.02978"></trkpt>
      <trkpt lat="51.20991" lon="-4.03004"></trkpt>
      <trkpt lat="51.20983" lon="-4.03013"></trkpt>
      <trkpt lat="51.20979" lon="-4.03028"></trkpt>
      <trkpt lat="51.20982" lon="-4.03056"></trkpt>
      <trkpt lat="51.20963" lon="-4.03113"></trkpt>
      <trkpt lat="51.20952" lon="-4.03157"></trkpt>
      <trkpt lat="51.2096" lon="-4.03247"></trkpt>
      <trkpt lat="51.20944" lon="-4.03275"></trkpt>
      <trkpt lat="51.20934" lon="-4.03297"></trkpt>
      <trkpt lat="51.20926" lon="-4.03341"></trkpt>
      <trkpt lat="51.20932" lon="-4.03405"></trkpt>
      <trkpt lat="51.2093" lon="-4.03448"></trkpt>
      <trkpt lat="51.20931" lon="-4.03482"></trkpt>
      <trkpt lat="51.20926" lon="-4.03563"></trkpt>
      <trkpt lat="51.20923" lon="-4.03579"></trkpt>
      <trkpt lat="51.20917" lon="-4.03627"></trkpt>
      <trkpt lat="51.20922" lon="-4.03654"></trkpt>
      <trkpt lat="51.20945" lon="-4.03712"></trkpt>
      <trkpt lat="51.20956" lon="-4.03753"></trkpt>
      <trkpt lat="51.20961" lon="-4.03809"></trkpt>
      <trkpt lat="51.2097" lon="-4.03845"></trkpt>
      <trkpt lat="51.2097" lon="-4.03856"></trkpt>
      <trkpt lat="51.20968" lon="-4.03869"></trkpt>
      <trkpt lat="51.20964" lon="-4.03881"></trkpt>
      <trkpt lat="51.20957" lon="-4.03889"></trkpt>
      <trkpt lat="51.20936" lon="-4.03901"></trkpt>
      <trkpt lat="51.20931" lon="-4.03912"></trkpt>
      <trkpt lat="51.20926" lon="-4.03917"></trkpt>
      <trkpt lat="51.20919" lon="-4.03918"></trkpt>
      <trkpt lat="51.209" lon="-4.03914"></trkpt>
      <trkpt lat="51.2084" lon="-4.03916"></trkpt>
      <trkpt lat="51.20825" lon="-4.03922"></trkpt>
      <trkpt lat="51.20824" lon="-4.03926"></trkpt>
      <trkpt lat="51.20819" lon="-4.03927"></trkpt>
      <trkpt lat="51.20769" lon="-4.03777"></trkpt>
      <trkpt lat="51.20761" lon="-4.03759"></trkpt>
      <trkpt lat="51.20713" lon="-4.03747"></trkpt>
      <trkpt lat="51.20675" lon="-4.03756"></trkpt>
      <trkpt lat="51.20663" lon="-4.03764"></trkpt>
      <trkpt lat="51.20655" lon="-4.03776"></trkpt>
      <trkpt lat="51.20658" lon="-4.03783"></trkpt>
      <trkpt lat="51.20649" lon="-4.03805"></trkpt>
      <trkpt lat="51.20648" lon="-4.03828"></trkpt>
    </trkseg>
  </trk>
</gpx>
