<?xml version="1.0" encoding="UTF-8"?>
<gpx version="1.1" creator="swcp-walk (imported from OS Maps route 33814255)"
     xmlns="http://www.topografix.com/GPX/1/1">
  <metadata>
    <name>SWCP04-CoombeMartin-Woolacombe</name>
  </metadata>
  <trk>
    <name>SWCP04-CoombeMartin-Woolacombe</name>
    <trkseg>
      <trkpt lat="51.2065" lon="-4.03857"></trkpt>
      <trkpt lat="51.20671" lon="-4.03905"></trkpt>
      <trkpt lat="51.20678" lon="-4.03931"></trkpt>
      <trkpt lat="51.20682" lon="-4.03955"></trkpt>
      <trkpt lat="51.20682" lon="-4.03981"></trkpt>
      <trkpt lat="51.20673" lon="-4.04014"></trkpt>
      <trkpt lat="51.20643" lon="-4.04044"></trkpt>
      <trkpt lat="51.20644" lon="-4.04052"></trkpt>
      <trkpt lat="51.20635" lon="-4.04068"></trkpt>
      <trkpt lat="51.20622" lon="-4.04114"></trkpt>
      <trkpt lat="51.2061" lon="-4.04136"></trkpt>
      <trkpt lat="51.20588" lon="-4.04165"></trkpt>
      <trkpt lat="51.2057" lon="-4.04197"></trkpt>
      <trkpt lat="51.20558" lon="-4.04199"></trkpt>
      <trkpt lat="51.2055" lon="-4.042"></trkpt>
      <trkpt lat="51.20524" lon="-4.04216"></trkpt>
      <trkpt lat="51.20544" lon="-4.04252"></trkpt>
      <trkpt lat="51.20564" lon="-4.04281"></trkpt>
      <trkpt lat="51.20582" lon="-4.043"></trkpt>
      <trkpt lat="51.20591" lon="-4.04313"></trkpt>
      <trkpt lat="51.20598" lon="-4.04336"></trkpt>
      <trkpt lat="51.20603" lon="-4.04364"></trkpt>
      <trkpt lat="51.20606" lon="-4.04405"></trkpt>
      <trkpt lat="51.20603" lon="-4.04412"></trkpt>
      <trkpt lat="51.20605" lon="-4.04423"></trkpt>
      <trkpt lat="51.20612" lon="-4.04432"></trkpt>
      <trkpt lat="51.2062" lon="-4.04428"></trkpt>
      <trkpt lat="51.20619" lon="-4.04419"></trkpt>
      <trkpt lat="51.2062" lon="-4.04428"></trkpt>
      <trkpt lat="51.20612" lon="-4.04432"></trkpt>
      <trkpt lat="51.20614" lon="-4.04435"></trkpt>
      <trkpt lat="51.20615" lon="-4.04484"></trkpt>
      <trkpt lat="51.20613" lon="-4.04565"></trkpt>
      <trkpt lat="51.20617" lon="-4.04645"></trkpt>
      <trkpt lat="51.2062" lon="-4.04668"></trkpt>
      <trkpt lat="51.20621" lon="-4.04705"></trkpt>
      <trkpt lat="51.20617" lon="-4.0473"></trkpt>
      <trkpt lat="51.20603" lon="-4.04819"></trkpt>
      <trkpt lat="51.20601" lon="-4.04897"></trkpt>
      <trkpt lat="51.20608" lon="-4.04913"></trkpt>
      <trkpt lat="51.20633" lon="-4.04938"></trkpt>
      <trkpt lat="51.2063" lon="-4.04951"></trkpt>
      <trkpt lat="51.20644" lon="-4.04958"></trkpt>
      <trkpt lat="51.20653" lon="-4.04946"></trkpt>
      <trkpt lat="51.20644" lon="-4.04958"></trkpt>
      <trkpt lat="51.20676" lon="-4.04973"></trkpt>
      <trkpt lat="51.20688" lon="-4.04992"></trkpt>
      <trkpt lat="51.20691" lon="-4.05001"></trkpt>
      <trkpt lat="51.20691490346516" lon="-4.051285467054612"></trkpt>
      <trkpt lat="51.20708308078983" lon="-4.052861649537704"></trkpt>
      <trkpt lat="51.20706" lon="-4.05282"></trkpt>
      <trkpt lat="51.20702" lon="-4.05281"></trkpt>
      <trkpt lat="51.20717" lon="-4.05344"></trkpt>
      <trkpt lat="51.20731" lon="-4.05375"></trkpt>
      <trkpt lat="51.20739" lon="-4.05383"></trkpt>
      <trkpt lat="51.20774" lon="-4.05411"></trkpt>
      <trkpt lat="51.20849" lon="-4.05453"></trkpt>
      <trkpt lat="51.20894" lon="-4.05483"></trkpt>
      <trkpt lat="51.2091" lon="-4.05507"></trkpt>
      <trkpt lat="51.20955" lon="-4.05599"></trkpt>
      <trkpt lat="51.21005" lon="-4.0565"></trkpt>
      <trkpt lat="51.21081" lon="-4.05733"></trkpt>
      <trkpt lat="51.21086" lon="-4.05742"></trkpt>
      <trkpt lat="51.21093" lon="-4.05758"></trkpt>
      <trkpt lat="51.21104" lon="-4.05785"></trkpt>
      <trkpt lat="51.2111" lon="-4.05813"></trkpt>
      <trkpt lat="51.21108" lon="-4.05859"></trkpt>
      <trkpt lat="51.21109" lon="-4.05879"></trkpt>
      <trkpt lat="51.21111" lon="-4.05889"></trkpt>
      <trkpt lat="51.21133" lon="-4.05953"></trkpt>
      <trkpt lat="51.21137" lon="-4.05989"></trkpt>
      <trkpt lat="51.21145" lon="-4.06062"></trkpt>
      <trkpt lat="51.21146" lon="-4.06099"></trkpt>
      <trkpt lat="51.21156" lon="-4.06108"></trkpt>
      <trkpt lat="51.21157" lon="-4.06136"></trkpt>
      <trkpt lat="51.21173" lon="-4.06134"></trkpt>
      <trkpt lat="51.21201" lon="-4.06127"></trkpt>
      <trkpt lat="51.21221" lon="-4.0613"></trkpt>
      <trkpt lat="51.21234" lon="-4.06138"></trkpt>
      <trkpt lat="51.21241" lon="-4.06149"></trkpt>
      <trkpt lat="51.21258" lon="-4.06185"></trkpt>
      <trkpt lat="51.21262" lon="-4.06202"></trkpt>
      <trkpt lat="51.21267" lon="-4.06254"></trkpt>
      <trkpt lat="51.21274" lon="-4.0626"></trkpt>
      <trkpt lat="51.21273" lon="-4.06329"></trkpt>
      <trkpt lat="51.21275" lon="-4.06345"></trkpt>
      <trkpt lat="51.21294" lon="-4.06391"></trkpt>
      <trkpt lat="51.21328" lon="-4.06442"></trkpt>
      <trkpt lat="51.21334" lon="-4.06473"></trkpt>
      <trkpt lat="51.21335" lon="-4.06486"></trkpt>
      <trkpt lat="51.2133" lon="-4.06509"></trkpt>
      <trkpt lat="51.2132" lon="-4.0652"></trkpt>
      <trkpt lat="51.21314" lon="-4.06558"></trkpt>
      <trkpt lat="51.21308" lon="-4.06582"></trkpt>
      <trkpt lat="51.21304" lon="-4.06616"></trkpt>
      <trkpt lat="51.21296" lon="-4.06634"></trkpt>
      <trkpt lat="51.21338" lon="-4.06674"></trkpt>
      <trkpt lat="51.21349" lon="-4.06678"></trkpt>
      <trkpt lat="51.21387" lon="-4.06737"></trkpt>
      <trkpt lat="51.21401" lon="-4.06791"></trkpt>
      <trkpt lat="51.21408" lon="-4.06853"></trkpt>
      <trkpt lat="51.21405" lon="-4.06895"></trkpt>
      <trkpt lat="51.21403" lon="-4.06898"></trkpt>
      <trkpt lat="51.21401" lon="-4.06907"></trkpt>
      <trkpt lat="51.21398" lon="-4.06961"></trkpt>
      <trkpt lat="51.21395" lon="-4.06966"></trkpt>
      <trkpt lat="51.21394" lon="-4.0698"></trkpt>
      <trkpt lat="51.21396" lon="-4.07038"></trkpt>
      <trkpt lat="51.21403" lon="-4.07082"></trkpt>
      <trkpt lat="51.21422" lon="-4.07139"></trkpt>
      <trkpt lat="51.21433" lon="-4.07161"></trkpt>
      <trkpt lat="51.21454" lon="-4.07224"></trkpt>
      <trkpt lat="51.21455" lon="-4.07222"></trkpt>
      <trkpt lat="51.21478" lon="-4.07287"></trkpt>
      <trkpt lat="51.21511" lon="-4.07368"></trkpt>
      <trkpt lat="51.21528" lon="-4.07427"></trkpt>
      <trkpt lat="51.21531" lon="-4.07509"></trkpt>
      <trkpt lat="51.21523" lon="-4.07592"></trkpt>
      <trkpt lat="51.2151" lon="-4.07655"></trkpt>
      <trkpt lat="51.21499" lon="-4.07699"></trkpt>
      <trkpt lat="51.21499" lon="-4.077"></trkpt>
      <trkpt lat="51.21481" lon="-4.07765"></trkpt>
      <trkpt lat="51.21538" lon="-4.07875"></trkpt>
      <trkpt lat="51.21541" lon="-4.07878"></trkpt>
      <trkpt lat="51.21545" lon="-4.07878"></trkpt>
      <trkpt lat="51.21581" lon="-4.07812"></trkpt>
      <trkpt lat="51.21583" lon="-4.07793"></trkpt>
      <trkpt lat="51.21592" lon="-4.0778"></trkpt>
      <trkpt lat="51.21598" lon="-4.07775"></trkpt>
      <trkpt lat="51.21607" lon="-4.07774"></trkpt>
      <trkpt lat="51.21617" lon="-4.07785"></trkpt>
      <trkpt lat="51.21624" lon="-4.07788"></trkpt>
      <trkpt lat="51.21636" lon="-4.07816"></trkpt>
      <trkpt lat="51.21639" lon="-4.07818"></trkpt>
      <trkpt lat="51.2166" lon="-4.07831"></trkpt>
      <trkpt lat="51.21663" lon="-4.07852"></trkpt>
      <trkpt lat="51.21673" lon="-4.07864"></trkpt>
      <trkpt lat="51.21682" lon="-4.07867"></trkpt>
      <trkpt lat="51.21694" lon="-4.07858"></trkpt>
      <trkpt lat="51.21703" lon="-4.07865"></trkpt>
      <trkpt lat="51.21728" lon="-4.07933"></trkpt>
      <trkpt lat="51.21755" lon="-4.07975"></trkpt>
      <trkpt lat="51.21752" lon="-4.08026"></trkpt>
      <trkpt lat="51.21755" lon="-4.08066"></trkpt>
      <trkpt lat="51.21714" lon="-4.08181"></trkpt>
      <trkpt lat="51.21699" lon="-4.08194"></trkpt>
      <trkpt lat="51.21683" lon="-4.08208"></trkpt>
      <trkpt lat="51.21672" lon="-4.08206"></trkpt>
      <trkpt lat="51.21659" lon="-4.08185"></trkpt>
      <trkpt lat="51.2164" lon="-4.08188"></trkpt>
      <trkpt lat="51.2162" lon="-4.08141"></trkpt>
      <trkpt lat="51.2158" lon="-4.08104"></trkpt>
      <trkpt lat="51.21573" lon="-4.08127"></trkpt>
      <trkpt lat="51.21571" lon="-4.08142"></trkpt>
      <trkpt lat="51.21572" lon="-4.08179"></trkpt>
      <trkpt lat="51.2156" lon="-4.08247"></trkpt>
      <trkpt lat="51.21549" lon="-4.08282"></trkpt>
      <trkpt lat="51.21538" lon="-4.08305"></trkpt>
      <trkpt lat="51.21553" lon="-4.08362"></trkpt>
      <trkpt lat="51.21555" lon="-4.0838"></trkpt>
      <trkpt lat="51.21563" lon="-4.08388"></trkpt>
      <trkpt lat="51.21565" lon="-4.08406"></trkpt>
      <trkpt lat="51.21562" lon="-4.08423"></trkpt>
      <trkpt lat="51.21565" lon="-4.08441"></trkpt>
      <trkpt lat="51.21596" lon="-4.0851"></trkpt>
      <trkpt lat="51.21619" lon="-4.08589"></trkpt>
      <trkpt lat="51.21628" lon="-4.08617"></trkpt>
      <trkpt lat="51.21636" lon="-4.08655"></trkpt>
      <trkpt lat="51.21647" lon="-4.08673"></trkpt>
      <trkpt lat="51.21668" lon="-4.08767"></trkpt>
      <trkpt lat="51.21667" lon="-4.08784"></trkpt>
      <trkpt lat="51.21664" lon="-4.08794"></trkpt>
      <trkpt lat="51.21654" lon="-4.08802"></trkpt>
      <trkpt lat="51.21633" lon="-4.08813"></trkpt>
      <trkpt lat="51.21624" lon="-4.08811"></trkpt>
      <trkpt lat="51.21608" lon="-4.08802"></trkpt>
      <trkpt lat="51.21599" lon="-4.08803"></trkpt>
      <trkpt lat="51.21587" lon="-4.08799"></trkpt>
      <trkpt lat="51.21544" lon="-4.08772"></trkpt>
      <trkpt lat="51.21524" lon="-4.08765"></trkpt>
      <trkpt lat="51.21521" lon="-4.08766"></trkpt>
      <trkpt lat="51.21517" lon="-4.08773"></trkpt>
      <trkpt lat="51.21507" lon="-4.0877"></trkpt>
      <trkpt lat="51.21498" lon="-4.08771"></trkpt>
      <trkpt lat="51.21493" lon="-4.08766"></trkpt>
      <trkpt lat="51.2149" lon="-4.08767"></trkpt>
      <trkpt lat="51.2146" lon="-4.0882"></trkpt>
      <trkpt lat="51.2146" lon="-4.08821"></trkpt>
      <trkpt lat="51.21393" lon="-4.08914"></trkpt>
      <trkpt lat="51.21385" lon="-4.08931"></trkpt>
      <trkpt lat="51.21382" lon="-4.08943"></trkpt>
      <trkpt lat="51.21376" lon="-4.08954"></trkpt>
      <trkpt lat="51.21372" lon="-4.0895"></trkpt>
      <trkpt lat="51.21368" lon="-4.08955"></trkpt>
      <trkpt lat="51.21353" lon="-4.09006"></trkpt>
      <trkpt lat="51.21335" lon="-4.09101"></trkpt>
      <trkpt lat="51.2133" lon="-4.09104"></trkpt>
      <trkpt lat="51.21307" lon="-4.0916"></trkpt>
      <trkpt lat="51.21281" lon="-4.09194"></trkpt>
      <trkpt lat="51.21247" lon="-4.0925"></trkpt>
      <trkpt lat="51.21233" lon="-4.09291"></trkpt>
      <trkpt lat="51.21224" lon="-4.09334"></trkpt>
      <trkpt lat="51.21226" lon="-4.09351"></trkpt>
      <trkpt lat="51.21232" lon="-4.0938"></trkpt>
      <trkpt lat="51.2123" lon="-4.09439"></trkpt>
      <trkpt lat="51.21216" lon="-4.09501"></trkpt>
      <trkpt lat="51.21213" lon="-4.09507"></trkpt>
      <trkpt lat="51.21197" lon="-4.09503"></trkpt>
      <trkpt lat="51.2118" lon="-4.09526"></trkpt>
      <trkpt lat="51.21159" lon="-4.09549"></trkpt>
      <trkpt lat="51.21093" lon="-4.09607"></trkpt>
      <trkpt lat="51.21029" lon="-4.09658"></trkpt>
      <trkpt lat="51.20998" lon="-4.09687"></trkpt>
      <trkpt lat="51.20977" lon="-4.09712"></trkpt>
      <trkpt lat="51.20906" lon="-4.09831"></trkpt>
      <trkpt lat="51.2091" lon="-4.09835"></trkpt>
      <trkpt lat="51.20915" lon="-4.09837"></trkpt>
      <trkpt lat="51.20937" lon="-4.0983"></trkpt>
      <trkpt lat="51.20963" lon="-4.09812"></trkpt>
      <trkpt lat="51.20989" lon="-4.098"></trkpt>
      <trkpt lat="51.21024" lon="-4.09778"></trkpt>
      <trkpt lat="51.21049" lon="-4.09772"></trkpt>
      <trkpt lat="51.21055" lon="-4.09796"></trkpt>
      <trkpt lat="51.21059" lon="-4.09802"></trkpt>
      <trkpt lat="51.21082" lon="-4.09807"></trkpt>
      <trkpt lat="51.21093" lon="-4.09832"></trkpt>
      <trkpt lat="51.2112" lon="-4.09845"></trkpt>
      <trkpt lat="51.21124" lon="-4.09847"></trkpt>
      <trkpt lat="51.21135" lon="-4.09875"></trkpt>
      <trkpt lat="51.2115" lon="-4.09902"></trkpt>
      <trkpt lat="51.21157" lon="-4.09921"></trkpt>
      <trkpt lat="51.21204" lon="-4.10023"></trkpt>
      <trkpt lat="51.21206" lon="-4.10038"></trkpt>
      <trkpt lat="51.21194" lon="-4.10032"></trkpt>
      <trkpt lat="51.21225" lon="-4.10083"></trkpt>
      <trkpt lat="51.21229" lon="-4.10109"></trkpt>
      <trkpt lat="51.21232" lon="-4.10143"></trkpt>
      <trkpt lat="51.2123" lon="-4.10144"></trkpt>
      <trkpt lat="51.21216" lon="-4.10126"></trkpt>
      <trkpt lat="51.21206" lon="-4.10108"></trkpt>
      <trkpt lat="51.2119" lon="-4.101"></trkpt>
      <trkpt lat="51.212" lon="-4.10119"></trkpt>
      <trkpt lat="51.21185" lon="-4.10113"></trkpt>
      <trkpt lat="51.21201" lon="-4.10143"></trkpt>
      <trkpt lat="51.212" lon="-4.10145"></trkpt>
      <trkpt lat="51.21175" lon="-4.10123"></trkpt>
      <trkpt lat="51.21177" lon="-4.10133"></trkpt>
      <trkpt lat="51.21202" lon="-4.10198"></trkpt>
      <trkpt lat="51.21201" lon="-4.10199"></trkpt>
      <trkpt lat="51.21154" lon="-4.10161"></trkpt>
      <trkpt lat="51.21121" lon="-4.10151"></trkpt>
      <trkpt lat="51.21115" lon="-4.10154"></trkpt>
      <trkpt lat="51.21095" lon="-4.10174"></trkpt>
      <trkpt lat="51.21072" lon="-4.10194"></trkpt>
      <trkpt lat="51.21062" lon="-4.10195"></trkpt>
      <trkpt lat="51.21041" lon="-4.10177"></trkpt>
      <trkpt lat="51.21029" lon="-4.10181"></trkpt>
      <trkpt lat="51.21014" lon="-4.10198"></trkpt>
      <trkpt lat="51.21004" lon="-4.10218"></trkpt>
      <trkpt lat="51.21" lon="-4.10231"></trkpt>
      <trkpt lat="51.21005" lon="-4.1026"></trkpt>
      <trkpt lat="51.21014" lon="-4.10293"></trkpt>
      <trkpt lat="51.21021" lon="-4.10319"></trkpt>
      <trkpt lat="51.21025" lon="-4.10367"></trkpt>
      <trkpt lat="51.21017" lon="-4.10477"></trkpt>
      <trkpt lat="51.2101" lon="-4.10499"></trkpt>
      <trkpt lat="51.20989" lon="-4.10532"></trkpt>
      <trkpt lat="51.20965" lon="-4.10538"></trkpt>
      <trkpt lat="51.20934" lon="-4.10553"></trkpt>
      <trkpt lat="51.20934" lon="-4.10581"></trkpt>
      <trkpt lat="51.20926" lon="-4.10623"></trkpt>
      <trkpt lat="51.20925" lon="-4.10641"></trkpt>
      <trkpt lat="51.20934" lon="-4.10662"></trkpt>
      <trkpt lat="51.20932" lon="-4.10669"></trkpt>
      <trkpt lat="51.20956" lon="-4.10699"></trkpt>
      <trkpt lat="51.20964" lon="-4.10704"></trkpt>
      <trkpt lat="51.20974" lon="-4.10732"></trkpt>
      <trkpt lat="51.20991" lon="-4.10741"></trkpt>
      <trkpt lat="51.20994" lon="-4.10746"></trkpt>
      <trkpt lat="51.20993" lon="-4.10753"></trkpt>
      <trkpt lat="51.20971" lon="-4.10748"></trkpt>
      <trkpt lat="51.20958" lon="-4.10748"></trkpt>
      <trkpt lat="51.20955" lon="-4.1075"></trkpt>
      <trkpt lat="51.20947" lon="-4.10778"></trkpt>
      <trkpt lat="51.20937" lon="-4.108"></trkpt>
      <trkpt lat="51.20936" lon="-4.10809"></trkpt>
      <trkpt lat="51.20935" lon="-4.10837"></trkpt>
      <trkpt lat="51.20939" lon="-4.10844"></trkpt>
      <trkpt lat="51.20949" lon="-4.10852"></trkpt>
      <trkpt lat="51.20955" lon="-4.10865"></trkpt>
      <trkpt lat="51.20971" lon="-4.10879"></trkpt>
      <trkpt lat="51.20975" lon="-4.10919"></trkpt>
      <trkpt lat="51.20976" lon="-4.10919"></trkpt>
      <trkpt lat="51.20978" lon="-4.10957"></trkpt>
      <trkpt lat="51.20969" lon="-4.10971"></trkpt>
      <trkpt lat="51.2096" lon="-4.10977"></trkpt>
      <trkpt lat="51.20949" lon="-4.10995"></trkpt>
      <trkpt lat="51.20934" lon="-4.10999"></trkpt>
      <trkpt lat="51.20909" lon="-4.10999"></trkpt>
      <trkpt lat="51.20897" lon="-4.1101"></trkpt>
      <trkpt lat="51.20883" lon="-4.11003"></trkpt>
      <trkpt lat="51.20869" lon="-4.11027"></trkpt>
      <trkpt lat="51.20865" lon="-4.11038"></trkpt>
      <trkpt lat="51.20865" lon="-4.11056"></trkpt>
      <trkpt lat="51.20885" lon="-4.11096"></trkpt>
      <trkpt lat="51.20884" lon="-4.11105"></trkpt>
      <trkpt lat="51.20907" lon="-4.11133"></trkpt>
      <trkpt lat="51.20913" lon="-4.11149"></trkpt>
      <trkpt lat="51.20915" lon="-4.11165"></trkpt>
      <trkpt lat="51.20914" lon="-4.11194"></trkpt>
      <trkpt lat="51.20917" lon="-4.11197"></trkpt>
      <trkpt lat="51.20911" lon="-4.11236"></trkpt>
      <trkpt lat="51.20915" lon="-4.11307"></trkpt>
      <trkpt lat="51.20917" lon="-4.11344"></trkpt>
      <trkpt lat="51.2091" lon="-4.11346"></trkpt>
      <trkpt lat="51.20922" lon="-4.11447"></trkpt>
      <trkpt lat="51.20931" lon="-4.11483"></trkpt>
      <trkpt lat="51.20949" lon="-4.11533"></trkpt>
      <trkpt lat="51.20951" lon="-4.11533"></trkpt>
      <trkpt lat="51.20957" lon="-4.1155"></trkpt>
      <trkpt lat="51.20961" lon="-4.11572"></trkpt>
      <trkpt lat="51.20972" lon="-4.11578"></trkpt>
      <trkpt lat="51.2099" lon="-4.11581"></trkpt>
      <trkpt lat="51.20998" lon="-4.11586"></trkpt>
      <trkpt lat="51.21006" lon="-4.11622"></trkpt>
      <trkpt lat="51.21037" lon="-4.116"></trkpt>
      <trkpt lat="51.21058" lon="-4.1159"></trkpt>
      <trkpt lat="51.21063" lon="-4.116"></trkpt>
      <trkpt lat="51.21069" lon="-4.11604"></trkpt>
      <trkpt lat="51.21073" lon="-4.11611"></trkpt>
      <trkpt lat="51.21077" lon="-4.11634"></trkpt>
      <trkpt lat="51.21076" lon="-4.11648"></trkpt>
      <trkpt lat="51.21084" lon="-4.11756"></trkpt>
      <trkpt lat="51.21086" lon="-4.11791"></trkpt>
      <trkpt lat="51.21088" lon="-4.11799"></trkpt>
      <trkpt lat="51.21117" lon="-4.11787"></trkpt>
      <trkpt lat="51.21126" lon="-4.11787"></trkpt>
      <trkpt lat="51.21135" lon="-4.11795"></trkpt>
      <trkpt lat="51.21151" lon="-4.1186"></trkpt>
      <trkpt lat="51.21159" lon="-4.11884"></trkpt>
      <trkpt lat="51.21168" lon="-4.11902"></trkpt>
      <trkpt lat="51.2118" lon="-4.11912"></trkpt>
      <trkpt lat="51.21197" lon="-4.11932"></trkpt>
      <trkpt lat="51.21203" lon="-4.11952"></trkpt>
      <trkpt lat="51.21223" lon="-4.12038"></trkpt>
      <trkpt lat="51.21218" lon="-4.12042"></trkpt>
      <trkpt lat="51.2122" lon="-4.1205"></trkpt>
      <trkpt lat="51.21225" lon="-4.12047"></trkpt>
      <trkpt lat="51.21228" lon="-4.1206"></trkpt>
      <trkpt lat="51.21238" lon="-4.12085"></trkpt>
      <trkpt lat="51.21246" lon="-4.12116"></trkpt>
      <trkpt lat="51.21242" lon="-4.12142"></trkpt>
      <trkpt lat="51.2122" lon="-4.12166"></trkpt>
      <trkpt lat="51.21209" lon="-4.12172"></trkpt>
      <trkpt lat="51.21195" lon="-4.12163"></trkpt>
      <trkpt lat="51.21184" lon="-4.12147"></trkpt>
      <trkpt lat="51.21179" lon="-4.12131"></trkpt>
      <trkpt lat="51.21149" lon="-4.12116"></trkpt>
      <trkpt lat="51.21134" lon="-4.121"></trkpt>
      <trkpt lat="51.21128" lon="-4.12096"></trkpt>
      <trkpt lat="51.21092" lon="-4.1209"></trkpt>
      <trkpt lat="51.21073" lon="-4.12091"></trkpt>
      <trkpt lat="51.21044" lon="-4.12123"></trkpt>
      <trkpt lat="51.21019" lon="-4.12139"></trkpt>
      <trkpt lat="51.21014" lon="-4.1216"></trkpt>
      <trkpt lat="51.21001" lon="-4.12184"></trkpt>
      <trkpt lat="51.21018" lon="-4.12201"></trkpt>
      <trkpt lat="51.21029" lon="-4.12208"></trkpt>
      <trkpt lat="51.21042" lon="-4.12221"></trkpt>
      <trkpt lat="51.21055" lon="-4.12234"></trkpt>
      <trkpt lat="51.21057" lon="-4.12245"></trkpt>
      <trkpt lat="51.21053" lon="-4.12251"></trkpt>
      <trkpt lat="51.21053" lon="-4.12275"></trkpt>
      <trkpt lat="51.21055" lon="-4.12287"></trkpt>
      <trkpt lat="51.21057" lon="-4.12357"></trkpt>
      <trkpt lat="51.21053" lon="-4.12384"></trkpt>
      <trkpt lat="51.21054" lon="-4.12416"></trkpt>
      <trkpt lat="51.21058" lon="-4.12438"></trkpt>
      <trkpt lat="51.21051" lon="-4.12446"></trkpt>
      <trkpt lat="51.21047" lon="-4.12458"></trkpt>
      <trkpt lat="51.21049" lon="-4.12466"></trkpt>
      <trkpt lat="51.21045" lon="-4.12473"></trkpt>
      <trkpt lat="51.21045" lon="-4.12479"></trkpt>
      <trkpt lat="51.2105" lon="-4.12483"></trkpt>
      <trkpt lat="51.21046" lon="-4.12501"></trkpt>
      <trkpt lat="51.21054" lon="-4.12502"></trkpt>
      <trkpt lat="51.21057" lon="-4.12507"></trkpt>
      <trkpt lat="51.21059" lon="-4.12516"></trkpt>
      <trkpt lat="51.21057" lon="-4.1256"></trkpt>
      <trkpt lat="51.21052" lon="-4.12605"></trkpt>
      <trkpt lat="51.21043" lon="-4.1264"></trkpt>
      <trkpt lat="51.21027" lon="-4.12683"></trkpt>
      <trkpt lat="51.20999" lon="-4.12728"></trkpt>
      <trkpt lat="51.20979" lon="-4.12754"></trkpt>
      <trkpt lat="51.2097" lon="-4.12763"></trkpt>
      <trkpt lat="51.20952" lon="-4.12773"></trkpt>
      <trkpt lat="51.20882" lon="-4.12857"></trkpt>
      <trkpt lat="51.20856" lon="-4.12896"></trkpt>
      <trkpt lat="51.20822" lon="-4.12954"></trkpt>
      <trkpt lat="51.20769" lon="-4.13041"></trkpt>
      <trkpt lat="51.20758" lon="-4.13062"></trkpt>
      <trkpt lat="51.20757" lon="-4.13068"></trkpt>
      <trkpt lat="51.20761" lon="-4.13072"></trkpt>
      <trkpt lat="51.20802" lon="-4.13092"></trkpt>
      <trkpt lat="51.20806" lon="-4.13104"></trkpt>
      <trkpt lat="51.20807" lon="-4.13115"></trkpt>
      <trkpt lat="51.20779" lon="-4.13122"></trkpt>
      <trkpt lat="51.20797" lon="-4.13157"></trkpt>
      <trkpt lat="51.20805" lon="-4.13181"></trkpt>
      <trkpt lat="51.20821" lon="-4.13214"></trkpt>
      <trkpt lat="51.20826" lon="-4.13254"></trkpt>
      <trkpt lat="51.20819" lon="-4.13323"></trkpt>
      <trkpt lat="51.20819" lon="-4.13324"></trkpt>
      <trkpt lat="51.20826" lon="-4.13254"></trkpt>
      <trkpt lat="51.20821" lon="-4.13214"></trkpt>
      <trkpt lat="51.20805" lon="-4.13181"></trkpt>
      <trkpt lat="51.20797" lon="-4.13157"></trkpt>
      <trkpt lat="51.20779" lon="-4.13122"></trkpt>
      <trkpt lat="51.20733" lon="-4.1313"></trkpt>
      <trkpt lat="51.20727" lon="-4.13133"></trkpt>
      <trkpt lat="51.20705" lon="-4.13175"></trkpt>
      <trkpt lat="51.20702" lon="-4.13186"></trkpt>
      <trkpt lat="51.20687" lon="-4.13215"></trkpt>
      <trkpt lat="51.20673" lon="-4.13228"></trkpt>
      <trkpt lat="51.20658" lon="-4.1325"></trkpt>
      <trkpt lat="51.20629" lon="-4.13307"></trkpt>
      <trkpt lat="51.20631" lon="-4.13311"></trkpt>
      <trkpt lat="51.20631" lon="-4.13316"></trkpt>
      <trkpt lat="51.20611" lon="-4.13353"></trkpt>
      <trkpt lat="51.20583" lon="-4.13424"></trkpt>
      <trkpt lat="51.20571" lon="-4.13447"></trkpt>
      <trkpt lat="51.2056" lon="-4.1346"></trkpt>
      <trkpt lat="51.20539" lon="-4.13494"></trkpt>
      <trkpt lat="51.20532" lon="-4.13499"></trkpt>
      <trkpt lat="51.20534" lon="-4.13503"></trkpt>
      <trkpt lat="51.20539" lon="-4.13506"></trkpt>
      <trkpt lat="51.20559" lon="-4.13506"></trkpt>
      <trkpt lat="51.20561" lon="-4.13556"></trkpt>
      <trkpt lat="51.20576" lon="-4.13716"></trkpt>
      <trkpt lat="51.20576" lon="-4.13753"></trkpt>
      <trkpt lat="51.20566" lon="-4.13792"></trkpt>
      <trkpt lat="51.20559" lon="-4.13803"></trkpt>
      <trkpt lat="51.20502" lon="-4.13962"></trkpt>
      <trkpt lat="51.20502" lon="-4.13963"></trkpt>
      <trkpt lat="51.20495" lon="-4.13974"></trkpt>
      <trkpt lat="51.20472" lon="-4.14053"></trkpt>
      <trkpt lat="51.20472" lon="-4.1408"></trkpt>
      <trkpt lat="51.20476" lon="-4.1409"></trkpt>
      <trkpt lat="51.2048" lon="-4.14131"></trkpt>
      <trkpt lat="51.20479" lon="-4.14145"></trkpt>
      <trkpt lat="51.20469" lon="-4.14171"></trkpt>
      <trkpt lat="51.20451" lon="-4.14199"></trkpt>
      <trkpt lat="51.20442" lon="-4.14203"></trkpt>
      <trkpt lat="51.2044" lon="-4.14215"></trkpt>
      <trkpt lat="51.20433" lon="-4.14226"></trkpt>
      <trkpt lat="51.20426" lon="-4.14282"></trkpt>
      <trkpt lat="51.20423" lon="-4.14331"></trkpt>
      <trkpt lat="51.20427" lon="-4.14349"></trkpt>
      <trkpt lat="51.20423" lon="-4.1439"></trkpt>
      <trkpt lat="51.20417" lon="-4.1441"></trkpt>
      <trkpt lat="51.20412" lon="-4.14414"></trkpt>
      <trkpt lat="51.20404" lon="-4.14417"></trkpt>
      <trkpt lat="51.20395" lon="-4.14421"></trkpt>
      <trkpt lat="51.20384" lon="-4.14431"></trkpt>
      <trkpt lat="51.20369" lon="-4.14432"></trkpt>
      <trkpt lat="51.20356" lon="-4.14428"></trkpt>
      <trkpt lat="51.20346" lon="-4.14421"></trkpt>
      <trkpt lat="51.2034" lon="-4.14411"></trkpt>
      <trkpt lat="51.20326" lon="-4.1438"></trkpt>
      <trkpt lat="51.20322" lon="-4.14379"></trkpt>
      <trkpt lat="51.20292" lon="-4.14412"></trkpt>
      <trkpt lat="51.20289" lon="-4.14433"></trkpt>
      <trkpt lat="51.20269" lon="-4.14468"></trkpt>
      <trkpt lat="51.20263" lon="-4.14487"></trkpt>
      <trkpt lat="51.20266" lon="-4.14515"></trkpt>
      <trkpt lat="51.20267" lon="-4.14546"></trkpt>
      <trkpt lat="51.20255" lon="-4.14624"></trkpt>
      <trkpt lat="51.20256" lon="-4.14642"></trkpt>
      <trkpt lat="51.20253" lon="-4.14664"></trkpt>
      <trkpt lat="51.20246" lon="-4.14683"></trkpt>
      <trkpt lat="51.2024" lon="-4.14701"></trkpt>
      <trkpt lat="51.20221" lon="-4.1477"></trkpt>
      <trkpt lat="51.20176" lon="-4.14883"></trkpt>
      <trkpt lat="51.20165" lon="-4.14956"></trkpt>
      <trkpt lat="51.20163" lon="-4.15022"></trkpt>
      <trkpt lat="51.20163" lon="-4.1511"></trkpt>
      <trkpt lat="51.20165" lon="-4.15134"></trkpt>
      <trkpt lat="51.20163" lon="-4.1516"></trkpt>
      <trkpt lat="51.20155" lon="-4.15197"></trkpt>
      <trkpt lat="51.20136" lon="-4.15265"></trkpt>
      <trkpt lat="51.20122" lon="-4.15326"></trkpt>
      <trkpt lat="51.20122" lon="-4.15327"></trkpt>
      <trkpt lat="51.20098" lon="-4.15417"></trkpt>
      <trkpt lat="51.20071" lon="-4.15502"></trkpt>
      <trkpt lat="51.20062" lon="-4.15567"></trkpt>
      <trkpt lat="51.20057" lon="-4.15575"></trkpt>
      <trkpt lat="51.2001" lon="-4.15597"></trkpt>
      <trkpt lat="51.20003" lon="-4.1561"></trkpt>
      <trkpt lat="51.19983" lon="-4.1568"></trkpt>
      <trkpt lat="51.19956" lon="-4.1582"></trkpt>
      <trkpt lat="51.19954" lon="-4.15854"></trkpt>
      <trkpt lat="51.19958" lon="-4.15901"></trkpt>
      <trkpt lat="51.19961" lon="-4.15981"></trkpt>
      <trkpt lat="51.19957" lon="-4.16066"></trkpt>
      <trkpt lat="51.19952" lon="-4.16091"></trkpt>
      <trkpt lat="51.19946" lon="-4.16122"></trkpt>
      <trkpt lat="51.19944" lon="-4.16155"></trkpt>
      <trkpt lat="51.19944" lon="-4.16177"></trkpt>
      <trkpt lat="51.19948" lon="-4.1621"></trkpt>
      <trkpt lat="51.19948" lon="-4.16231"></trkpt>
      <trkpt lat="51.19931" lon="-4.16329"></trkpt>
      <trkpt lat="51.19936" lon="-4.16464"></trkpt>
      <trkpt lat="51.19933" lon="-4.16511"></trkpt>
      <trkpt lat="51.19917" lon="-4.1666"></trkpt>
      <trkpt lat="51.1992" lon="-4.16685"></trkpt>
      <trkpt lat="51.19914" lon="-4.16764"></trkpt>
      <trkpt lat="51.19904" lon="-4.1682"></trkpt>
      <trkpt lat="51.19906" lon="-4.1684"></trkpt>
      <trkpt lat="51.19907" lon="-4.1684"></trkpt>
      <trkpt lat="51.19908" lon="-4.16864"></trkpt>
      <trkpt lat="51.199" lon="-4.16894"></trkpt>
      <trkpt lat="51.19855" lon="-4.17031"></trkpt>
      <trkpt lat="51.19835" lon="-4.17087"></trkpt>
      <trkpt lat="51.19825" lon="-4.17107"></trkpt>
      <trkpt lat="51.19812" lon="-4.17161"></trkpt>
      <trkpt lat="51.1981" lon="-4.17198"></trkpt>
      <trkpt lat="51.19819" lon="-4.17343"></trkpt>
      <trkpt lat="51.19817" lon="-4.17374"></trkpt>
      <trkpt lat="51.19821" lon="-4.17438"></trkpt>
      <trkpt lat="51.19828" lon="-4.1749"></trkpt>
      <trkpt lat="51.19829" lon="-4.17513"></trkpt>
      <trkpt lat="51.19827" lon="-4.17518"></trkpt>
      <trkpt lat="51.19801" lon="-4.17538"></trkpt>
      <trkpt lat="51.19783" lon="-4.17545"></trkpt>
      <trkpt lat="51.19738" lon="-4.17554"></trkpt>
      <trkpt lat="51.19753" lon="-4.17593"></trkpt>
      <trkpt lat="51.19766" lon="-4.17648"></trkpt>
      <trkpt lat="51.19766" lon="-4.17667"></trkpt>
      <trkpt lat="51.19764" lon="-4.17676"></trkpt>
      <trkpt lat="51.19747" lon="-4.177"></trkpt>
      <trkpt lat="51.19727" lon="-4.17744"></trkpt>
      <trkpt lat="51.19725" lon="-4.17758"></trkpt>
      <trkpt lat="51.19728" lon="-4.17792"></trkpt>
      <trkpt lat="51.19733" lon="-4.17811"></trkpt>
      <trkpt lat="51.19743" lon="-4.17849"></trkpt>
      <trkpt lat="51.19741" lon="-4.17882"></trkpt>
      <trkpt lat="51.19748" lon="-4.17939"></trkpt>
      <trkpt lat="51.1976" lon="-4.17982"></trkpt>
      <trkpt lat="51.19773" lon="-4.18016"></trkpt>
      <trkpt lat="51.19779" lon="-4.18039"></trkpt>
      <trkpt lat="51.19781" lon="-4.18057"></trkpt>
      <trkpt lat="51.19777" lon="-4.18097"></trkpt>
      <trkpt lat="51.19777" lon="-4.18114"></trkpt>
      <trkpt lat="51.19777" lon="-4.18123"></trkpt>
      <trkpt lat="51.19773" lon="-4.18132"></trkpt>
      <trkpt lat="51.19778" lon="-4.18135"></trkpt>
      <trkpt lat="51.19793" lon="-4.18159"></trkpt>
      <trkpt lat="51.19814" lon="-4.18209"></trkpt>
      <trkpt lat="51.19827" lon="-4.18218"></trkpt>
      <trkpt lat="51.19839" lon="-4.18233"></trkpt>
      <trkpt lat="51.19845" lon="-4.18245"></trkpt>
      <trkpt lat="51.19851" lon="-4.1827"></trkpt>
      <trkpt lat="51.19866" lon="-4.18303"></trkpt>
      <trkpt lat="51.19871" lon="-4.18323"></trkpt>
      <trkpt lat="51.19915" lon="-4.1838"></trkpt>
      <trkpt lat="51.19928" lon="-4.18388"></trkpt>
      <trkpt lat="51.19936" lon="-4.18389"></trkpt>
      <trkpt lat="51.19946" lon="-4.18403"></trkpt>
      <trkpt lat="51.19956" lon="-4.18428"></trkpt>
      <trkpt lat="51.19956" lon="-4.18458"></trkpt>
      <trkpt lat="51.19945" lon="-4.18504"></trkpt>
      <trkpt lat="51.19944" lon="-4.18537"></trkpt>
      <trkpt lat="51.1995" lon="-4.18564"></trkpt>
      <trkpt lat="51.19948" lon="-4.18572"></trkpt>
      <trkpt lat="51.19951" lon="-4.18582"></trkpt>
      <trkpt lat="51.1995" lon="-4.18588"></trkpt>
      <trkpt lat="51.19932" lon="-4.18646"></trkpt>
      <trkpt lat="51.19909" lon="-4.18673"></trkpt>
      <trkpt lat="51.19883" lon="-4.18698"></trkpt>
      <trkpt lat="51.19883" lon="-4.18703"></trkpt>
      <trkpt lat="51.19902" lon="-4.18718"></trkpt>
      <trkpt lat="51.19918" lon="-4.18725"></trkpt>
      <trkpt lat="51.19926" lon="-4.18737"></trkpt>
      <trkpt lat="51.19927" lon="-4.18748"></trkpt>
      <trkpt lat="51.19924" lon="-4.18766"></trkpt>
      <trkpt lat="51.1991" lon="-4.18788"></trkpt>
      <trkpt lat="51.19899" lon="-4.1879"></trkpt>
      <trkpt lat="51.19901" lon="-4.18799"></trkpt>
      <trkpt lat="51.19889" lon="-4.18805"></trkpt>
      <trkpt lat="51.19885" lon="-4.18811"></trkpt>
      <trkpt lat="51.19887" lon="-4.18822"></trkpt>
      <trkpt lat="51.19892" lon="-4.18832"></trkpt>
      <trkpt lat="51.19896" lon="-4.18852"></trkpt>
      <trkpt lat="51.19903" lon="-4.18873"></trkpt>
      <trkpt lat="51.19915" lon="-4.19006"></trkpt>
      <trkpt lat="51.199" lon="-4.19095"></trkpt>
      <trkpt lat="51.19894" lon="-4.19109"></trkpt>
      <trkpt lat="51.19891" lon="-4.1912"></trkpt>
      <trkpt lat="51.19891" lon="-4.19121"></trkpt>
      <trkpt lat="51.19868" lon="-4.19172"></trkpt>
      <trkpt lat="51.19851" lon="-4.19196"></trkpt>
      <trkpt lat="51.19842" lon="-4.19261"></trkpt>
      <trkpt lat="51.19829" lon="-4.19318"></trkpt>
      <trkpt lat="51.19829" lon="-4.19329"></trkpt>
      <trkpt lat="51.19842" lon="-4.19329"></trkpt>
      <trkpt lat="51.19855" lon="-4.19323"></trkpt>
      <trkpt lat="51.19868" lon="-4.19309"></trkpt>
      <trkpt lat="51.19868" lon="-4.19318"></trkpt>
      <trkpt lat="51.19872" lon="-4.19334"></trkpt>
      <trkpt lat="51.19881" lon="-4.19343"></trkpt>
      <trkpt lat="51.19882" lon="-4.19355"></trkpt>
      <trkpt lat="51.19886" lon="-4.19361"></trkpt>
      <trkpt lat="51.19892" lon="-4.19362"></trkpt>
      <trkpt lat="51.19887" lon="-4.19384"></trkpt>
      <trkpt lat="51.19887" lon="-4.19394"></trkpt>
      <trkpt lat="51.19894" lon="-4.19391"></trkpt>
      <trkpt lat="51.19894" lon="-4.19405"></trkpt>
      <trkpt lat="51.1989" lon="-4.19418"></trkpt>
      <trkpt lat="51.19893" lon="-4.19419"></trkpt>
      <trkpt lat="51.1989" lon="-4.19428"></trkpt>
      <trkpt lat="51.19899" lon="-4.19433"></trkpt>
      <trkpt lat="51.19904" lon="-4.19439"></trkpt>
      <trkpt lat="51.19902" lon="-4.19444"></trkpt>
      <trkpt lat="51.19894" lon="-4.19448"></trkpt>
      <trkpt lat="51.19891" lon="-4.19452"></trkpt>
      <trkpt lat="51.19894" lon="-4.19459"></trkpt>
      <trkpt lat="51.19888" lon="-4.1946"></trkpt>
      <trkpt lat="51.19888" lon="-4.19475"></trkpt>
      <trkpt lat="51.1988" lon="-4.19486"></trkpt>
      <trkpt lat="51.19875" lon="-4.19505"></trkpt>
      <trkpt lat="51.19878" lon="-4.19517"></trkpt>
      <trkpt lat="51.19876" lon="-4.1954"></trkpt>
      <trkpt lat="51.19879" lon="-4.19552"></trkpt>
      <trkpt lat="51.19877" lon="-4.19564"></trkpt>
      <trkpt lat="51.1988" lon="-4.19574"></trkpt>
      <trkpt lat="51.19879" lon="-4.19582"></trkpt>
      <trkpt lat="51.1988" lon="-4.19615"></trkpt>
      <trkpt lat="51.19878" lon="-4.19625"></trkpt>
      <trkpt lat="51.1988" lon="-4.19659"></trkpt>
      <trkpt lat="51.19879" lon="-4.19687"></trkpt>
      <trkpt lat="51.19876" lon="-4.19711"></trkpt>
      <trkpt lat="51.19875" lon="-4.19741"></trkpt>
      <trkpt lat="51.19874" lon="-4.1979"></trkpt>
      <trkpt lat="51.19884" lon="-4.19856"></trkpt>
      <trkpt lat="51.1989" lon="-4.19883"></trkpt>
      <trkpt lat="51.19901" lon="-4.1991"></trkpt>
      <trkpt lat="51.19905" lon="-4.19927"></trkpt>
      <trkpt lat="51.19906" lon="-4.19955"></trkpt>
      <trkpt lat="51.19899" lon="-4.20003"></trkpt>
      <trkpt lat="51.19889" lon="-4.20035"></trkpt>
      <trkpt lat="51.19866" lon="-4.20121"></trkpt>
      <trkpt lat="51.1987" lon="-4.2018"></trkpt>
      <trkpt lat="51.19866" lon="-4.2019"></trkpt>
      <trkpt lat="51.19847" lon="-4.20201"></trkpt>
      <trkpt lat="51.1984" lon="-4.20216"></trkpt>
      <trkpt lat="51.19711" lon="-4.20267"></trkpt>
      <trkpt lat="51.197" lon="-4.2028"></trkpt>
      <trkpt lat="51.19688" lon="-4.20278"></trkpt>
      <trkpt lat="51.19663" lon="-4.20261"></trkpt>
      <trkpt lat="51.19646" lon="-4.20264"></trkpt>
      <trkpt lat="51.19641" lon="-4.20271"></trkpt>
      <trkpt lat="51.19633" lon="-4.20272"></trkpt>
      <trkpt lat="51.1963" lon="-4.20274"></trkpt>
      <trkpt lat="51.19628" lon="-4.20279"></trkpt>
      <trkpt lat="51.19623" lon="-4.2028"></trkpt>
      <trkpt lat="51.19624" lon="-4.20288"></trkpt>
      <trkpt lat="51.19622" lon="-4.20285"></trkpt>
      <trkpt lat="51.19616" lon="-4.20295"></trkpt>
      <trkpt lat="51.19619" lon="-4.20307"></trkpt>
      <trkpt lat="51.19605" lon="-4.20333"></trkpt>
      <trkpt lat="51.19601" lon="-4.20336"></trkpt>
      <trkpt lat="51.19588" lon="-4.20333"></trkpt>
      <trkpt lat="51.19578" lon="-4.20346"></trkpt>
      <trkpt lat="51.19553" lon="-4.20355"></trkpt>
      <trkpt lat="51.1953" lon="-4.2034"></trkpt>
      <trkpt lat="51.19484" lon="-4.20381"></trkpt>
      <trkpt lat="51.19477" lon="-4.204"></trkpt>
      <trkpt lat="51.19475" lon="-4.20429"></trkpt>
      <trkpt lat="51.19477" lon="-4.20446"></trkpt>
      <trkpt lat="51.19471" lon="-4.20505"></trkpt>
      <trkpt lat="51.19473" lon="-4.20545"></trkpt>
      <trkpt lat="51.1947" lon="-4.20556"></trkpt>
      <trkpt lat="51.19455" lon="-4.20564"></trkpt>
      <trkpt lat="51.19449" lon="-4.20561"></trkpt>
      <trkpt lat="51.19429" lon="-4.20537"></trkpt>
      <trkpt lat="51.19423" lon="-4.20534"></trkpt>
      <trkpt lat="51.19374" lon="-4.20563"></trkpt>
      <trkpt lat="51.19349" lon="-4.20569"></trkpt>
      <trkpt lat="51.19344" lon="-4.20568"></trkpt>
      <trkpt lat="51.19333" lon="-4.20573"></trkpt>
      <trkpt lat="51.19328" lon="-4.20579"></trkpt>
      <trkpt lat="51.19325" lon="-4.20589"></trkpt>
      <trkpt lat="51.19289" lon="-4.20638"></trkpt>
      <trkpt lat="51.19275" lon="-4.20639"></trkpt>
      <trkpt lat="51.19228" lon="-4.20665"></trkpt>
      <trkpt lat="51.19217" lon="-4.2069"></trkpt>
      <trkpt lat="51.19202" lon="-4.20715"></trkpt>
      <trkpt lat="51.19193" lon="-4.20743"></trkpt>
      <trkpt lat="51.19176" lon="-4.20743"></trkpt>
      <trkpt lat="51.1916" lon="-4.20774"></trkpt>
      <trkpt lat="51.19156" lon="-4.20779"></trkpt>
      <trkpt lat="51.19162" lon="-4.20838"></trkpt>
      <trkpt lat="51.19166" lon="-4.20855"></trkpt>
      <trkpt lat="51.19167" lon="-4.20867"></trkpt>
      <trkpt lat="51.19165" lon="-4.20884"></trkpt>
      <trkpt lat="51.19159" lon="-4.2091"></trkpt>
      <trkpt lat="51.19159" lon="-4.20911"></trkpt>
      <trkpt lat="51.19146" lon="-4.20959"></trkpt>
      <trkpt lat="51.19113" lon="-4.20974"></trkpt>
      <trkpt lat="51.19064" lon="-4.20976"></trkpt>
      <trkpt lat="51.19048" lon="-4.20973"></trkpt>
      <trkpt lat="51.19034" lon="-4.20987"></trkpt>
      <trkpt lat="51.19028" lon="-4.21002"></trkpt>
      <trkpt lat="51.19028" lon="-4.21016"></trkpt>
      <trkpt lat="51.19025" lon="-4.21014"></trkpt>
      <trkpt lat="51.19012" lon="-4.21014"></trkpt>
      <trkpt lat="51.19016" lon="-4.21031"></trkpt>
      <trkpt lat="51.19008" lon="-4.21029"></trkpt>
      <trkpt lat="51.19017" lon="-4.21049"></trkpt>
      <trkpt lat="51.19016" lon="-4.21064"></trkpt>
      <trkpt lat="51.19011" lon="-4.21069"></trkpt>
      <trkpt lat="51.19" lon="-4.21074"></trkpt>
      <trkpt lat="51.18958" lon="-4.21215"></trkpt>
      <trkpt lat="51.18953" lon="-4.21218"></trkpt>
      <trkpt lat="51.18941" lon="-4.21273"></trkpt>
      <trkpt lat="51.18938" lon="-4.21292"></trkpt>
      <trkpt lat="51.18918" lon="-4.21353"></trkpt>
      <trkpt lat="51.18901" lon="-4.21395"></trkpt>
      <trkpt lat="51.18893" lon="-4.21448"></trkpt>
      <trkpt lat="51.18893" lon="-4.21471"></trkpt>
      <trkpt lat="51.18875" lon="-4.21513"></trkpt>
      <trkpt lat="51.18877" lon="-4.21555"></trkpt>
      <trkpt lat="51.18887" lon="-4.21572"></trkpt>
      <trkpt lat="51.18887" lon="-4.21614"></trkpt>
      <trkpt lat="51.18883" lon="-4.21699"></trkpt>
      <trkpt lat="51.18875" lon="-4.21748"></trkpt>
      <trkpt lat="51.18883" lon="-4.21808"></trkpt>
      <trkpt lat="51.18878" lon="-4.21837"></trkpt>
      <trkpt lat="51.18878" lon="-4.2188"></trkpt>
      <trkpt lat="51.18887" lon="-4.21917"></trkpt>
      <trkpt lat="51.1889" lon="-4.21939"></trkpt>
      <trkpt lat="51.18904" lon="-4.21982"></trkpt>
      <trkpt lat="51.18898" lon="-4.22005"></trkpt>
      <trkpt lat="51.18899" lon="-4.22007"></trkpt>
      <trkpt lat="51.18906" lon="-4.22008"></trkpt>
      <trkpt lat="51.18907" lon="-4.2201"></trkpt>
      <trkpt lat="51.18902" lon="-4.2202"></trkpt>
      <trkpt lat="51.18904" lon="-4.22022"></trkpt>
      <trkpt lat="51.18914" lon="-4.22022"></trkpt>
      <trkpt lat="51.18914" lon="-4.2203"></trkpt>
      <trkpt lat="51.18908" lon="-4.22041"></trkpt>
      <trkpt lat="51.18905" lon="-4.22053"></trkpt>
      <trkpt lat="51.18896" lon="-4.22107"></trkpt>
      <trkpt lat="51.18894" lon="-4.22142"></trkpt>
      <trkpt lat="51.18894" lon="-4.22192"></trkpt>
      <trkpt lat="51.18895" lon="-4.22266"></trkpt>
      <trkpt lat="51.18883" lon="-4.22333"></trkpt>
      <trkpt lat="51.1887" lon="-4.2239"></trkpt>
      <trkpt lat="51.18846" lon="-4.22532"></trkpt>
      <trkpt lat="51.18845" lon="-4.22557"></trkpt>
      <trkpt lat="51.18848" lon="-4.22578"></trkpt>
      <trkpt lat="51.18845" lon="-4.22602"></trkpt>
      <trkpt lat="51.18844" lon="-4.22629"></trkpt>
      <trkpt lat="51.18849" lon="-4.22656"></trkpt>
      <trkpt lat="51.1885" lon="-4.22677"></trkpt>
      <trkpt lat="51.18845" lon="-4.22737"></trkpt>
      <trkpt lat="51.18841" lon="-4.22746"></trkpt>
      <trkpt lat="51.18832" lon="-4.22752"></trkpt>
      <trkpt lat="51.18827" lon="-4.22761"></trkpt>
      <trkpt lat="51.18824" lon="-4.22777"></trkpt>
      <trkpt lat="51.18823" lon="-4.22865"></trkpt>
      <trkpt lat="51.18821" lon="-4.22875"></trkpt>
      <trkpt lat="51.18804" lon="-4.22916"></trkpt>
      <trkpt lat="51.18794" lon="-4.22987"></trkpt>
      <trkpt lat="51.18784" lon="-4.23013"></trkpt>
      <trkpt lat="51.18779" lon="-4.23011"></trkpt>
      <trkpt lat="51.1877" lon="-4.2297"></trkpt>
      <trkpt lat="51.18753" lon="-4.22943"></trkpt>
      <trkpt lat="51.18749" lon="-4.22932"></trkpt>
      <trkpt lat="51.18743" lon="-4.22917"></trkpt>
      <trkpt lat="51.1874" lon="-4.22902"></trkpt>
      <trkpt lat="51.18743" lon="-4.22843"></trkpt>
      <trkpt lat="51.18742" lon="-4.22815"></trkpt>
      <trkpt lat="51.18744" lon="-4.22774"></trkpt>
      <trkpt lat="51.18743" lon="-4.22751"></trkpt>
      <trkpt lat="51.18734" lon="-4.22715"></trkpt>
      <trkpt lat="51.18722" lon="-4.22686"></trkpt>
      <trkpt lat="51.18705" lon="-4.22654"></trkpt>
      <trkpt lat="51.18692" lon="-4.22614"></trkpt>
      <trkpt lat="51.18692" lon="-4.22571"></trkpt>
      <trkpt lat="51.18681" lon="-4.22568"></trkpt>
      <trkpt lat="51.18669" lon="-4.22538"></trkpt>
      <trkpt lat="51.18657" lon="-4.22409"></trkpt>
      <trkpt lat="51.1864" lon="-4.223"></trkpt>
      <trkpt lat="51.18636" lon="-4.22251"></trkpt>
      <trkpt lat="51.18625" lon="-4.22206"></trkpt>
      <trkpt lat="51.18555" lon="-4.22109"></trkpt>
      <trkpt lat="51.18536" lon="-4.22077"></trkpt>
      <trkpt lat="51.18493" lon="-4.21987"></trkpt>
      <trkpt lat="51.18464" lon="-4.21935"></trkpt>
      <trkpt lat="51.18457" lon="-4.21923"></trkpt>
      <trkpt lat="51.1845" lon="-4.21896"></trkpt>
      <trkpt lat="51.18445" lon="-4.2186"></trkpt>
      <trkpt lat="51.18446" lon="-4.21842"></trkpt>
      <trkpt lat="51.18441" lon="-4.21819"></trkpt>
      <trkpt lat="51.18431" lon="-4.21794"></trkpt>
      <trkpt lat="51.18415" lon="-4.21764"></trkpt>
      <trkpt lat="51.18385" lon="-4.21692"></trkpt>
      <trkpt lat="51.18367" lon="-4.21635"></trkpt>
      <trkpt lat="51.18356" lon="-4.21592"></trkpt>
      <trkpt lat="51.18342" lon="-4.2156"></trkpt>
      <trkpt lat="51.18327" lon="-4.21544"></trkpt>
      <trkpt lat="51.1831" lon="-4.21519"></trkpt>
      <trkpt lat="51.18293" lon="-4.21481"></trkpt>
      <trkpt lat="51.18287" lon="-4.21464"></trkpt>
      <trkpt lat="51.18284" lon="-4.21449"></trkpt>
      <trkpt lat="51.18281" lon="-4.21427"></trkpt>
      <trkpt lat="51.1828" lon="-4.21401"></trkpt>
      <trkpt lat="51.18271" lon="-4.21376"></trkpt>
      <trkpt lat="51.18261" lon="-4.21361"></trkpt>
      <trkpt lat="51.18253" lon="-4.21343"></trkpt>
      <trkpt lat="51.18244" lon="-4.21293"></trkpt>
      <trkpt lat="51.18237" lon="-4.21274"></trkpt>
      <trkpt lat="51.18129761383494" lon="-4.213333359613017"></trkpt>
      <trkpt lat="51.18050565080355" lon="-4.213292047425313"></trkpt>
      <trkpt lat="51.179605201958" lon="-4.212370702473265"></trkpt>
      <trkpt lat="51.17891200025829" lon="-4.210004424785609"></trkpt>
      <trkpt lat="51.17891" lon="-4.20999"></trkpt>
      <trkpt lat="51.17888" lon="-4.20998"></trkpt>
      <trkpt lat="51.17881" lon="-4.21002"></trkpt>
      <trkpt lat="51.17871" lon="-4.21022"></trkpt>
      <trkpt lat="51.17828" lon="-4.21082"></trkpt>
      <trkpt lat="51.17818" lon="-4.21082"></trkpt>
      <trkpt lat="51.17773" lon="-4.2113"></trkpt>
      <trkpt lat="51.17772" lon="-4.21138"></trkpt>
      <trkpt lat="51.17764" lon="-4.21164"></trkpt>
      <trkpt lat="51.1775" lon="-4.21192"></trkpt>
      <trkpt lat="51.17743" lon="-4.21187"></trkpt>
      <trkpt lat="51.17724" lon="-4.21211"></trkpt>
      <trkpt lat="51.17688" lon="-4.21232"></trkpt>
      <trkpt lat="51.17669" lon="-4.21238"></trkpt>
      <trkpt lat="51.17636" lon="-4.21242"></trkpt>
      <trkpt lat="51.17618" lon="-4.21241"></trkpt>
      <trkpt lat="51.17545" lon="-4.21231"></trkpt>
      <trkpt lat="51.1751" lon="-4.21217"></trkpt>
      <trkpt lat="51.1749" lon="-4.21205"></trkpt>
      <trkpt lat="51.17426" lon="-4.21147"></trkpt>
      <trkpt lat="51.17385" lon="-4.21105"></trkpt>
      <trkpt lat="51.17366" lon="-4.21149"></trkpt>
      <trkpt lat="51.17347" lon="-4.21123"></trkpt>
      <trkpt lat="51.17335" lon="-4.21099"></trkpt>
      <trkpt lat="51.17325" lon="-4.2108"></trkpt>
      <trkpt lat="51.17313" lon="-4.21069"></trkpt>
      <trkpt lat="51.17298" lon="-4.21029"></trkpt>
      <trkpt lat="51.17287" lon="-4.20986"></trkpt>
      <trkpt lat="51.17283" lon="-4.20982"></trkpt>
      <trkpt lat="51.17282" lon="-4.2097"></trkpt>
      <trkpt lat="51.17258" lon="-4.20882"></trkpt>
      <trkpt lat="51.17254" lon="-4.20844"></trkpt>
      <trkpt lat="51.1725" lon="-4.20842"></trkpt>
      <trkpt lat="51.17245" lon="-4.20821"></trkpt>
      <trkpt lat="51.17238" lon="-4.20803"></trkpt>
      <trkpt lat="51.17231" lon="-4.20778"></trkpt>
      <trkpt lat="51.17231" lon="-4.20769"></trkpt>
      <trkpt lat="51.17244" lon="-4.20757"></trkpt>
    </trkseg>
  </trk>
</gpx>
