<?xml version="1.0" encoding="UTF-8"?>
<gpx version="1.1" creator="swcp-walk (imported from OS Maps route 33816658)"
     xmlns="http://www.topografix.com/GPX/1/1">
  <metadata>
    <name>SWCP05-woolacombe-Braunton</name>
  </metadata>
  <trk>
    <name>SWCP05-woolacombe-Braunton</name>
    <trkseg>
      <trkpt lat="51.17236355743378" lon="-4.2077097117744415"></trkpt>
      <trkpt lat="51.17237" lon="-4.20774"></trkpt>
      <trkpt lat="51.1722" lon="-4.20784"></trkpt>
      <trkpt lat="51.17194" lon="-4.20809"></trkpt>
      <trkpt lat="51.17175" lon="-4.20821"></trkpt>
      <trkpt lat="51.17146" lon="-4.2082"></trkpt>
      <trkpt lat="51.17091" lon="-4.20801"></trkpt>
      <trkpt lat="51.1708" lon="-4.20796"></trkpt>
      <trkpt lat="51.17069" lon="-4.20787"></trkpt>
      <trkpt lat="51.17009" lon="-4.20726"></trkpt>
      <trkpt lat="51.16996" lon="-4.20718"></trkpt>
      <trkpt lat="51.16992" lon="-4.20721"></trkpt>
      <trkpt lat="51.16964" lon="-4.207"></trkpt>
      <trkpt lat="51.16899" lon="-4.20643"></trkpt>
      <trkpt lat="51.16891" lon="-4.20638"></trkpt>
      <trkpt lat="51.16867" lon="-4.20635"></trkpt>
      <trkpt lat="51.16826" lon="-4.20645"></trkpt>
      <trkpt lat="51.16814" lon="-4.20652"></trkpt>
      <trkpt lat="51.16783" lon="-4.20679"></trkpt>
      <trkpt lat="51.16774" lon="-4.20698"></trkpt>
      <trkpt lat="51.16779" lon="-4.20712"></trkpt>
      <trkpt lat="51.16774" lon="-4.20698"></trkpt>
      <trkpt lat="51.16768" lon="-4.20716"></trkpt>
      <trkpt lat="51.16757" lon="-4.20738"></trkpt>
      <trkpt lat="51.16751" lon="-4.20766"></trkpt>
      <trkpt lat="51.1674" lon="-4.20789"></trkpt>
      <trkpt lat="51.16731" lon="-4.20796"></trkpt>
      <trkpt lat="51.16735" lon="-4.20779"></trkpt>
      <trkpt lat="51.16727" lon="-4.20768"></trkpt>
      <trkpt lat="51.167" lon="-4.2074"></trkpt>
      <trkpt lat="51.16689" lon="-4.20754"></trkpt>
      <trkpt lat="51.1667" lon="-4.2077"></trkpt>
      <trkpt lat="51.16652" lon="-4.20781"></trkpt>
      <trkpt lat="51.16616" lon="-4.20795"></trkpt>
      <trkpt lat="51.16591" lon="-4.208"></trkpt>
      <trkpt lat="51.16553" lon="-4.20804"></trkpt>
      <trkpt lat="51.16504" lon="-4.20802"></trkpt>
      <trkpt lat="51.16505" lon="-4.20815"></trkpt>
      <trkpt lat="51.16479" lon="-4.20839"></trkpt>
      <trkpt lat="51.16448" lon="-4.20883"></trkpt>
      <trkpt lat="51.1644" lon="-4.20891"></trkpt>
      <trkpt lat="51.16394" lon="-4.209"></trkpt>
      <trkpt lat="51.16393" lon="-4.20903"></trkpt>
      <trkpt lat="51.16375" lon="-4.20923"></trkpt>
      <trkpt lat="51.16366" lon="-4.20922"></trkpt>
      <trkpt lat="51.16322" lon="-4.20948"></trkpt>
      <trkpt lat="51.16305" lon="-4.20961"></trkpt>
      <trkpt lat="51.16296" lon="-4.20965"></trkpt>
      <trkpt lat="51.16289" lon="-4.20981"></trkpt>
      <trkpt lat="51.16268" lon="-4.21002"></trkpt>
      <trkpt lat="51.16261" lon="-4.21011"></trkpt>
      <trkpt lat="51.16255" lon="-4.21012"></trkpt>
      <trkpt lat="51.16251" lon="-4.21017"></trkpt>
      <trkpt lat="51.16211" lon="-4.21043"></trkpt>
      <trkpt lat="51.16122" lon="-4.21077"></trkpt>
      <trkpt lat="51.16097" lon="-4.21082"></trkpt>
      <trkpt lat="51.16079" lon="-4.21094"></trkpt>
      <trkpt lat="51.16067" lon="-4.21105"></trkpt>
      <trkpt lat="51.16064" lon="-4.21111"></trkpt>
      <trkpt lat="51.16058" lon="-4.21114"></trkpt>
      <trkpt lat="51.16001" lon="-4.21121"></trkpt>
      <trkpt lat="51.15979" lon="-4.21127"></trkpt>
      <trkpt lat="51.15944" lon="-4.21132"></trkpt>
      <trkpt lat="51.15909" lon="-4.21143"></trkpt>
      <trkpt lat="51.15887" lon="-4.21146"></trkpt>
      <trkpt lat="51.15861" lon="-4.21146"></trkpt>
      <trkpt lat="51.15857" lon="-4.21141"></trkpt>
      <trkpt lat="51.15844" lon="-4.21145"></trkpt>
      <trkpt lat="51.15827" lon="-4.21146"></trkpt>
      <trkpt lat="51.15824" lon="-4.21154"></trkpt>
      <trkpt lat="51.15807" lon="-4.21164"></trkpt>
      <trkpt lat="51.15796" lon="-4.21165"></trkpt>
      <trkpt lat="51.15792" lon="-4.2117"></trkpt>
      <trkpt lat="51.15784" lon="-4.21173"></trkpt>
      <trkpt lat="51.15775" lon="-4.21173"></trkpt>
      <trkpt lat="51.15773" lon="-4.21176"></trkpt>
      <trkpt lat="51.15769" lon="-4.21163"></trkpt>
      <trkpt lat="51.15752" lon="-4.2117"></trkpt>
      <trkpt lat="51.15741" lon="-4.2117"></trkpt>
      <trkpt lat="51.15733" lon="-4.21161"></trkpt>
      <trkpt lat="51.15703" lon="-4.21142"></trkpt>
      <trkpt lat="51.15689" lon="-4.21136"></trkpt>
      <trkpt lat="51.15644" lon="-4.21126"></trkpt>
      <trkpt lat="51.15579" lon="-4.21128"></trkpt>
      <trkpt lat="51.15551" lon="-4.21131"></trkpt>
      <trkpt lat="51.15546" lon="-4.21128"></trkpt>
      <trkpt lat="51.15543" lon="-4.21121"></trkpt>
      <trkpt lat="51.15511" lon="-4.21134"></trkpt>
      <trkpt lat="51.15415" lon="-4.21182"></trkpt>
      <trkpt lat="51.15286" lon="-4.21237"></trkpt>
      <trkpt lat="51.1526" lon="-4.21244"></trkpt>
      <trkpt lat="51.1523" lon="-4.21249"></trkpt>
      <trkpt lat="51.15196" lon="-4.21247"></trkpt>
      <trkpt lat="51.15187" lon="-4.21244"></trkpt>
      <trkpt lat="51.15177" lon="-4.21237"></trkpt>
      <trkpt lat="51.15153" lon="-4.21224"></trkpt>
      <trkpt lat="51.15147" lon="-4.21229"></trkpt>
      <trkpt lat="51.15138" lon="-4.21245"></trkpt>
      <trkpt lat="51.15134" lon="-4.21233"></trkpt>
      <trkpt lat="51.15127" lon="-4.21232"></trkpt>
      <trkpt lat="51.15099" lon="-4.21249"></trkpt>
      <trkpt lat="51.15069" lon="-4.21301"></trkpt>
      <trkpt lat="51.15014" lon="-4.21425"></trkpt>
      <trkpt lat="51.14968" lon="-4.21507"></trkpt>
      <trkpt lat="51.14934" lon="-4.215"></trkpt>
      <trkpt lat="51.14914" lon="-4.21517"></trkpt>
      <trkpt lat="51.14876" lon="-4.21545"></trkpt>
      <trkpt lat="51.14856" lon="-4.21554"></trkpt>
      <trkpt lat="51.14817" lon="-4.2156"></trkpt>
      <trkpt lat="51.14803" lon="-4.21558"></trkpt>
      <trkpt lat="51.14794" lon="-4.21553"></trkpt>
      <trkpt lat="51.14785" lon="-4.21554"></trkpt>
      <trkpt lat="51.14749" lon="-4.21569"></trkpt>
      <trkpt lat="51.14737" lon="-4.21577"></trkpt>
      <trkpt lat="51.1473" lon="-4.21585"></trkpt>
      <trkpt lat="51.14697" lon="-4.21693"></trkpt>
      <trkpt lat="51.14684" lon="-4.21727"></trkpt>
      <trkpt lat="51.14632" lon="-4.21835"></trkpt>
      <trkpt lat="51.14613" lon="-4.21871"></trkpt>
      <trkpt lat="51.14559" lon="-4.22002"></trkpt>
      <trkpt lat="51.14521" lon="-4.22013"></trkpt>
      <trkpt lat="51.14459" lon="-4.22038"></trkpt>
      <trkpt lat="51.14463" lon="-4.22046"></trkpt>
      <trkpt lat="51.14375" lon="-4.22087"></trkpt>
      <trkpt lat="51.14354" lon="-4.22092"></trkpt>
      <trkpt lat="51.14337" lon="-4.22088"></trkpt>
      <trkpt lat="51.14327" lon="-4.22081"></trkpt>
      <trkpt lat="51.14311" lon="-4.22066"></trkpt>
      <trkpt lat="51.14289" lon="-4.22019"></trkpt>
      <trkpt lat="51.14279" lon="-4.22029"></trkpt>
      <trkpt lat="51.1426" lon="-4.22051"></trkpt>
      <trkpt lat="51.14262" lon="-4.22054"></trkpt>
      <trkpt lat="51.14262" lon="-4.22058"></trkpt>
      <trkpt lat="51.14214" lon="-4.22127"></trkpt>
      <trkpt lat="51.14203" lon="-4.22138"></trkpt>
      <trkpt lat="51.142" lon="-4.22133"></trkpt>
      <trkpt lat="51.14194" lon="-4.22138"></trkpt>
      <trkpt lat="51.14193" lon="-4.22138"></trkpt>
      <trkpt lat="51.142" lon="-4.22133"></trkpt>
      <trkpt lat="51.14203" lon="-4.22138"></trkpt>
      <trkpt lat="51.14201" lon="-4.22143"></trkpt>
      <trkpt lat="51.14215" lon="-4.22187"></trkpt>
      <trkpt lat="51.14222" lon="-4.22342"></trkpt>
      <trkpt lat="51.14225" lon="-4.22421"></trkpt>
      <trkpt lat="51.14237" lon="-4.22433"></trkpt>
      <trkpt lat="51.14243" lon="-4.22442"></trkpt>
      <trkpt lat="51.14265" lon="-4.22524"></trkpt>
      <trkpt lat="51.14319" lon="-4.22671"></trkpt>
      <trkpt lat="51.14396" lon="-4.22827"></trkpt>
      <trkpt lat="51.14426" lon="-4.22912"></trkpt>
      <trkpt lat="51.14438" lon="-4.22977"></trkpt>
      <trkpt lat="51.14447" lon="-4.23041"></trkpt>
      <trkpt lat="51.14446" lon="-4.23067"></trkpt>
      <trkpt lat="51.14428" lon="-4.23128"></trkpt>
      <trkpt lat="51.14423" lon="-4.23132"></trkpt>
      <trkpt lat="51.14418" lon="-4.23155"></trkpt>
      <trkpt lat="51.14415" lon="-4.23191"></trkpt>
      <trkpt lat="51.14415" lon="-4.23245"></trkpt>
      <trkpt lat="51.14428" lon="-4.23359"></trkpt>
      <trkpt lat="51.14427" lon="-4.23411"></trkpt>
      <trkpt lat="51.14432" lon="-4.23434"></trkpt>
      <trkpt lat="51.14431" lon="-4.23479"></trkpt>
      <trkpt lat="51.14437" lon="-4.23537"></trkpt>
      <trkpt lat="51.14452" lon="-4.23616"></trkpt>
      <trkpt lat="51.14456" lon="-4.23631"></trkpt>
      <trkpt lat="51.14461" lon="-4.23735"></trkpt>
      <trkpt lat="51.14459" lon="-4.23842"></trkpt>
      <trkpt lat="51.14451" lon="-4.23952"></trkpt>
      <trkpt lat="51.14464" lon="-4.24065"></trkpt>
      <trkpt lat="51.14465" lon="-4.24098"></trkpt>
      <trkpt lat="51.14457" lon="-4.24146"></trkpt>
      <trkpt lat="51.14458" lon="-4.24301"></trkpt>
      <trkpt lat="51.14459" lon="-4.24345"></trkpt>
      <trkpt lat="51.14451" lon="-4.24401"></trkpt>
      <trkpt lat="51.14455" lon="-4.24453"></trkpt>
      <trkpt lat="51.14471" lon="-4.24602"></trkpt>
      <trkpt lat="51.14473" lon="-4.24637"></trkpt>
      <trkpt lat="51.14464" lon="-4.24695"></trkpt>
      <trkpt lat="51.14464" lon="-4.24725"></trkpt>
      <trkpt lat="51.14461" lon="-4.24747"></trkpt>
      <trkpt lat="51.14455" lon="-4.24768"></trkpt>
      <trkpt lat="51.14454" lon="-4.24785"></trkpt>
      <trkpt lat="51.14445" lon="-4.24814"></trkpt>
      <trkpt lat="51.14459" lon="-4.24897"></trkpt>
      <trkpt lat="51.14472" lon="-4.24951"></trkpt>
      <trkpt lat="51.14482" lon="-4.25003"></trkpt>
      <trkpt lat="51.14497" lon="-4.25055"></trkpt>
      <trkpt lat="51.145" lon="-4.25084"></trkpt>
      <trkpt lat="51.14537" lon="-4.25316"></trkpt>
      <trkpt lat="51.14536" lon="-4.25343"></trkpt>
      <trkpt lat="51.14531" lon="-4.25384"></trkpt>
      <trkpt lat="51.14524" lon="-4.25416"></trkpt>
      <trkpt lat="51.14493" lon="-4.25609"></trkpt>
      <trkpt lat="51.14428" lon="-4.25676"></trkpt>
      <trkpt lat="51.14374" lon="-4.25733"></trkpt>
      <trkpt lat="51.14339" lon="-4.25755"></trkpt>
      <trkpt lat="51.14288" lon="-4.25804"></trkpt>
      <trkpt lat="51.14275" lon="-4.25827"></trkpt>
      <trkpt lat="51.14265" lon="-4.25852"></trkpt>
      <trkpt lat="51.14261" lon="-4.25874"></trkpt>
      <trkpt lat="51.1426" lon="-4.25912"></trkpt>
      <trkpt lat="51.14254" lon="-4.2592"></trkpt>
      <trkpt lat="51.14245" lon="-4.25927"></trkpt>
      <trkpt lat="51.14249" lon="-4.25937"></trkpt>
      <trkpt lat="51.14257" lon="-4.25943"></trkpt>
      <trkpt lat="51.14265" lon="-4.25962"></trkpt>
      <trkpt lat="51.14274" lon="-4.26007"></trkpt>
      <trkpt lat="51.1427" lon="-4.2599"></trkpt>
      <trkpt lat="51.14266" lon="-4.25987"></trkpt>
      <trkpt lat="51.14259" lon="-4.25976"></trkpt>
      <trkpt lat="51.14253" lon="-4.2597"></trkpt>
      <trkpt lat="51.14249" lon="-4.25967"></trkpt>
      <trkpt lat="51.14243" lon="-4.25968"></trkpt>
      <trkpt lat="51.14237" lon="-4.25972"></trkpt>
      <trkpt lat="51.14232" lon="-4.25972"></trkpt>
      <trkpt lat="51.14191" lon="-4.25944"></trkpt>
      <trkpt lat="51.14177" lon="-4.2592"></trkpt>
      <trkpt lat="51.14168" lon="-4.259"></trkpt>
      <trkpt lat="51.1416" lon="-4.25891"></trkpt>
      <trkpt lat="51.1414" lon="-4.25852"></trkpt>
      <trkpt lat="51.14126" lon="-4.25816"></trkpt>
      <trkpt lat="51.14072" lon="-4.25698"></trkpt>
      <trkpt lat="51.14068" lon="-4.25685"></trkpt>
      <trkpt lat="51.14064" lon="-4.25677"></trkpt>
      <trkpt lat="51.14061" lon="-4.25672"></trkpt>
      <trkpt lat="51.14049" lon="-4.25664"></trkpt>
      <trkpt lat="51.14027" lon="-4.2563"></trkpt>
      <trkpt lat="51.14015" lon="-4.25601"></trkpt>
      <trkpt lat="51.14006" lon="-4.25566"></trkpt>
      <trkpt lat="51.14002" lon="-4.25541"></trkpt>
      <trkpt lat="51.14" lon="-4.25504"></trkpt>
      <trkpt lat="51.13998" lon="-4.25492"></trkpt>
      <trkpt lat="51.13951" lon="-4.25358"></trkpt>
      <trkpt lat="51.1393" lon="-4.25303"></trkpt>
      <trkpt lat="51.13916" lon="-4.25261"></trkpt>
      <trkpt lat="51.13899" lon="-4.25197"></trkpt>
      <trkpt lat="51.13883" lon="-4.25115"></trkpt>
      <trkpt lat="51.13848" lon="-4.24994"></trkpt>
      <trkpt lat="51.13847" lon="-4.24963"></trkpt>
      <trkpt lat="51.13849" lon="-4.24946"></trkpt>
      <trkpt lat="51.13854" lon="-4.24926"></trkpt>
      <trkpt lat="51.13864" lon="-4.24904"></trkpt>
      <trkpt lat="51.13866" lon="-4.24882"></trkpt>
      <trkpt lat="51.13864" lon="-4.24875"></trkpt>
      <trkpt lat="51.13851" lon="-4.24861"></trkpt>
      <trkpt lat="51.13833" lon="-4.24848"></trkpt>
      <trkpt lat="51.13744" lon="-4.24753"></trkpt>
      <trkpt lat="51.13736" lon="-4.24743"></trkpt>
      <trkpt lat="51.13708" lon="-4.24687"></trkpt>
      <trkpt lat="51.13701" lon="-4.24678"></trkpt>
      <trkpt lat="51.13669" lon="-4.24635"></trkpt>
      <trkpt lat="51.13667" lon="-4.2463"></trkpt>
      <trkpt lat="51.13639" lon="-4.24605"></trkpt>
      <trkpt lat="51.13616" lon="-4.24581"></trkpt>
      <trkpt lat="51.13588" lon="-4.24543"></trkpt>
      <trkpt lat="51.13576" lon="-4.24523"></trkpt>
      <trkpt lat="51.13568" lon="-4.24518"></trkpt>
      <trkpt lat="51.1356" lon="-4.24503"></trkpt>
      <trkpt lat="51.13554" lon="-4.24479"></trkpt>
      <trkpt lat="51.13552" lon="-4.24453"></trkpt>
      <trkpt lat="51.13554" lon="-4.24444"></trkpt>
      <trkpt lat="51.13552" lon="-4.24422"></trkpt>
      <trkpt lat="51.13554" lon="-4.24409"></trkpt>
      <trkpt lat="51.13547" lon="-4.24385"></trkpt>
      <trkpt lat="51.13492" lon="-4.24245"></trkpt>
      <trkpt lat="51.13467" lon="-4.24195"></trkpt>
      <trkpt lat="51.13455" lon="-4.24165"></trkpt>
      <trkpt lat="51.13447" lon="-4.24135"></trkpt>
      <trkpt lat="51.13446" lon="-4.24124"></trkpt>
      <trkpt lat="51.1345" lon="-4.24105"></trkpt>
      <trkpt lat="51.1346" lon="-4.24093"></trkpt>
      <trkpt lat="51.13463" lon="-4.24082"></trkpt>
      <trkpt lat="51.13455" lon="-4.24035"></trkpt>
      <trkpt lat="51.13436" lon="-4.23832"></trkpt>
      <trkpt lat="51.13434" lon="-4.2382"></trkpt>
      <trkpt lat="51.13419" lon="-4.23785"></trkpt>
      <trkpt lat="51.1341" lon="-4.23733"></trkpt>
      <trkpt lat="51.13412" lon="-4.23664"></trkpt>
      <trkpt lat="51.13387" lon="-4.23661"></trkpt>
      <trkpt lat="51.13356" lon="-4.23712"></trkpt>
      <trkpt lat="51.13329" lon="-4.23745"></trkpt>
      <trkpt lat="51.13315" lon="-4.23765"></trkpt>
      <trkpt lat="51.13307" lon="-4.23787"></trkpt>
      <trkpt lat="51.133" lon="-4.23795"></trkpt>
      <trkpt lat="51.13229" lon="-4.238"></trkpt>
      <trkpt lat="51.13215" lon="-4.23796"></trkpt>
      <trkpt lat="51.13206" lon="-4.23793"></trkpt>
      <trkpt lat="51.13129" lon="-4.23755"></trkpt>
      <trkpt lat="51.13099" lon="-4.23726"></trkpt>
      <trkpt lat="51.13087" lon="-4.23706"></trkpt>
      <trkpt lat="51.13081" lon="-4.23683"></trkpt>
      <trkpt lat="51.13081" lon="-4.23654"></trkpt>
      <trkpt lat="51.13094" lon="-4.23599"></trkpt>
      <trkpt lat="51.13089" lon="-4.23589"></trkpt>
      <trkpt lat="51.13086" lon="-4.23589"></trkpt>
      <trkpt lat="51.13052" lon="-4.23642"></trkpt>
      <trkpt lat="51.13029" lon="-4.23692"></trkpt>
      <trkpt lat="51.13012" lon="-4.2372"></trkpt>
      <trkpt lat="51.12996" lon="-4.23735"></trkpt>
      <trkpt lat="51.12982" lon="-4.23743"></trkpt>
      <trkpt lat="51.12956" lon="-4.23754"></trkpt>
      <trkpt lat="51.12887" lon="-4.23763"></trkpt>
      <trkpt lat="51.12837" lon="-4.2377"></trkpt>
      <trkpt lat="51.1274" lon="-4.23794"></trkpt>
      <trkpt lat="51.12734" lon="-4.23864"></trkpt>
      <trkpt lat="51.12722" lon="-4.23873"></trkpt>
      <trkpt lat="51.12696" lon="-4.23878"></trkpt>
      <trkpt lat="51.12687" lon="-4.23886"></trkpt>
      <trkpt lat="51.12678" lon="-4.23903"></trkpt>
      <trkpt lat="51.12663" lon="-4.23909"></trkpt>
      <trkpt lat="51.12655" lon="-4.23907"></trkpt>
      <trkpt lat="51.12648" lon="-4.23932"></trkpt>
      <trkpt lat="51.12626" lon="-4.23952"></trkpt>
      <trkpt lat="51.1261" lon="-4.23978"></trkpt>
      <trkpt lat="51.12606" lon="-4.24002"></trkpt>
      <trkpt lat="51.12607" lon="-4.24026"></trkpt>
      <trkpt lat="51.12604" lon="-4.24048"></trkpt>
      <trkpt lat="51.12592" lon="-4.24063"></trkpt>
      <trkpt lat="51.12566" lon="-4.24078"></trkpt>
      <trkpt lat="51.12521" lon="-4.24152"></trkpt>
      <trkpt lat="51.12509" lon="-4.24191"></trkpt>
      <trkpt lat="51.12495" lon="-4.24197"></trkpt>
      <trkpt lat="51.1248" lon="-4.24197"></trkpt>
      <trkpt lat="51.1245" lon="-4.24192"></trkpt>
      <trkpt lat="51.12442" lon="-4.24195"></trkpt>
      <trkpt lat="51.12427" lon="-4.24211"></trkpt>
      <trkpt lat="51.12413" lon="-4.24213"></trkpt>
      <trkpt lat="51.12398" lon="-4.24204"></trkpt>
      <trkpt lat="51.12392" lon="-4.242"></trkpt>
      <trkpt lat="51.12357" lon="-4.24194"></trkpt>
      <trkpt lat="51.1233" lon="-4.24199"></trkpt>
      <trkpt lat="51.12313" lon="-4.24212"></trkpt>
      <trkpt lat="51.12299" lon="-4.24204"></trkpt>
      <trkpt lat="51.12294" lon="-4.24206"></trkpt>
      <trkpt lat="51.12291" lon="-4.24213"></trkpt>
      <trkpt lat="51.12289" lon="-4.24247"></trkpt>
      <trkpt lat="51.12276" lon="-4.24248"></trkpt>
      <trkpt lat="51.1227" lon="-4.24192"></trkpt>
      <trkpt lat="51.12259" lon="-4.24141"></trkpt>
      <trkpt lat="51.12257" lon="-4.24106"></trkpt>
      <trkpt lat="51.12264" lon="-4.24069"></trkpt>
      <trkpt lat="51.12256" lon="-4.24062"></trkpt>
      <trkpt lat="51.12235" lon="-4.24028"></trkpt>
      <trkpt lat="51.12206" lon="-4.2397"></trkpt>
      <trkpt lat="51.12186" lon="-4.23926"></trkpt>
      <trkpt lat="51.12194" lon="-4.23926"></trkpt>
      <trkpt lat="51.12198" lon="-4.23931"></trkpt>
      <trkpt lat="51.1219" lon="-4.23911"></trkpt>
      <trkpt lat="51.12176" lon="-4.23832"></trkpt>
      <trkpt lat="51.12158" lon="-4.23765"></trkpt>
      <trkpt lat="51.1214" lon="-4.23704"></trkpt>
      <trkpt lat="51.12097" lon="-4.23534"></trkpt>
      <trkpt lat="51.12071" lon="-4.23418"></trkpt>
      <trkpt lat="51.12029" lon="-4.23189"></trkpt>
      <trkpt lat="51.11995" lon="-4.23006"></trkpt>
      <trkpt lat="51.11975" lon="-4.22775"></trkpt>
      <trkpt lat="51.11962" lon="-4.22608"></trkpt>
      <trkpt lat="51.11972" lon="-4.22547"></trkpt>
      <trkpt lat="51.11971" lon="-4.22518"></trkpt>
      <trkpt lat="51.11959" lon="-4.2246"></trkpt>
      <trkpt lat="51.11931" lon="-4.22344"></trkpt>
      <trkpt lat="51.11907" lon="-4.22204"></trkpt>
      <trkpt lat="51.119" lon="-4.22134"></trkpt>
      <trkpt lat="51.11895" lon="-4.22107"></trkpt>
      <trkpt lat="51.11893" lon="-4.22076"></trkpt>
      <trkpt lat="51.11888" lon="-4.22042"></trkpt>
      <trkpt lat="51.11889" lon="-4.22007"></trkpt>
      <trkpt lat="51.11886" lon="-4.21983"></trkpt>
      <trkpt lat="51.11881" lon="-4.21965"></trkpt>
      <trkpt lat="51.11864" lon="-4.21927"></trkpt>
      <trkpt lat="51.11857" lon="-4.21928"></trkpt>
      <trkpt lat="51.11796" lon="-4.21915"></trkpt>
      <trkpt lat="51.11761" lon="-4.21925"></trkpt>
      <trkpt lat="51.11758" lon="-4.2193"></trkpt>
      <trkpt lat="51.11756" lon="-4.21942"></trkpt>
      <trkpt lat="51.11778" lon="-4.22015"></trkpt>
      <trkpt lat="51.11789" lon="-4.22033"></trkpt>
      <trkpt lat="51.11795" lon="-4.22052"></trkpt>
      <trkpt lat="51.11792" lon="-4.22081"></trkpt>
      <trkpt lat="51.11791" lon="-4.22112"></trkpt>
      <trkpt lat="51.11787" lon="-4.22131"></trkpt>
      <trkpt lat="51.11784" lon="-4.22134"></trkpt>
      <trkpt lat="51.11779" lon="-4.2213"></trkpt>
      <trkpt lat="51.11776" lon="-4.22124"></trkpt>
      <trkpt lat="51.11746" lon="-4.22058"></trkpt>
      <trkpt lat="51.11739" lon="-4.22046"></trkpt>
      <trkpt lat="51.11734" lon="-4.22042"></trkpt>
      <trkpt lat="51.11717" lon="-4.22036"></trkpt>
      <trkpt lat="51.11724" lon="-4.21931"></trkpt>
      <trkpt lat="51.11726" lon="-4.21924"></trkpt>
      <trkpt lat="51.11734" lon="-4.21853"></trkpt>
      <trkpt lat="51.11741" lon="-4.21756"></trkpt>
      <trkpt lat="51.11736" lon="-4.21711"></trkpt>
      <trkpt lat="51.11731" lon="-4.21706"></trkpt>
      <trkpt lat="51.11708" lon="-4.21645"></trkpt>
      <trkpt lat="51.11696" lon="-4.21547"></trkpt>
      <trkpt lat="51.11695" lon="-4.2152"></trkpt>
      <trkpt lat="51.11698" lon="-4.21496"></trkpt>
      <trkpt lat="51.11704" lon="-4.21468"></trkpt>
      <trkpt lat="51.11713" lon="-4.21393"></trkpt>
      <trkpt lat="51.11722" lon="-4.21352"></trkpt>
      <trkpt lat="51.11731" lon="-4.2129"></trkpt>
      <trkpt lat="51.11726" lon="-4.2128"></trkpt>
      <trkpt lat="51.11731" lon="-4.21206"></trkpt>
      <trkpt lat="51.11738" lon="-4.21204"></trkpt>
      <trkpt lat="51.11743" lon="-4.21158"></trkpt>
      <trkpt lat="51.1175" lon="-4.21142"></trkpt>
      <trkpt lat="51.11754" lon="-4.21077"></trkpt>
      <trkpt lat="51.11758" lon="-4.21075"></trkpt>
      <trkpt lat="51.11755" lon="-4.20981"></trkpt>
      <trkpt lat="51.11745" lon="-4.2085"></trkpt>
      <trkpt lat="51.11743" lon="-4.20805"></trkpt>
      <trkpt lat="51.11743" lon="-4.20598"></trkpt>
      <trkpt lat="51.11735" lon="-4.20499"></trkpt>
      <trkpt lat="51.11653" lon="-4.20474"></trkpt>
      <trkpt lat="51.11649" lon="-4.20465"></trkpt>
      <trkpt lat="51.11646" lon="-4.20465"></trkpt>
      <trkpt lat="51.11643" lon="-4.20462"></trkpt>
      <trkpt lat="51.11617" lon="-4.20393"></trkpt>
      <trkpt lat="51.11574" lon="-4.20351"></trkpt>
      <trkpt lat="51.11557" lon="-4.20304"></trkpt>
      <trkpt lat="51.11548" lon="-4.20272"></trkpt>
      <trkpt lat="51.11544" lon="-4.20246"></trkpt>
      <trkpt lat="51.11539" lon="-4.20234"></trkpt>
      <trkpt lat="51.11532" lon="-4.20227"></trkpt>
      <trkpt lat="51.11504" lon="-4.20211"></trkpt>
      <trkpt lat="51.11464" lon="-4.20133"></trkpt>
      <trkpt lat="51.11434" lon="-4.20099"></trkpt>
      <trkpt lat="51.11354" lon="-4.1996"></trkpt>
      <trkpt lat="51.11348" lon="-4.19954"></trkpt>
      <trkpt lat="51.11335" lon="-4.19949"></trkpt>
      <trkpt lat="51.11321" lon="-4.19938"></trkpt>
      <trkpt lat="51.11283" lon="-4.19919"></trkpt>
      <trkpt lat="51.11269" lon="-4.19903"></trkpt>
      <trkpt lat="51.11261" lon="-4.19897"></trkpt>
      <trkpt lat="51.11151" lon="-4.19865"></trkpt>
      <trkpt lat="51.11128" lon="-4.19863"></trkpt>
      <trkpt lat="51.11116" lon="-4.19858"></trkpt>
      <trkpt lat="51.11095" lon="-4.19836"></trkpt>
      <trkpt lat="51.11076" lon="-4.19824"></trkpt>
      <trkpt lat="51.11068" lon="-4.19823"></trkpt>
      <trkpt lat="51.11029" lon="-4.19828"></trkpt>
      <trkpt lat="51.1094" lon="-4.19825"></trkpt>
      <trkpt lat="51.10911" lon="-4.19832"></trkpt>
      <trkpt lat="51.10866" lon="-4.19813"></trkpt>
      <trkpt lat="51.1085" lon="-4.19799"></trkpt>
      <trkpt lat="51.10842" lon="-4.19784"></trkpt>
      <trkpt lat="51.1083" lon="-4.19744"></trkpt>
      <trkpt lat="51.10797" lon="-4.1971"></trkpt>
      <trkpt lat="51.10782" lon="-4.1971"></trkpt>
      <trkpt lat="51.10777" lon="-4.19716"></trkpt>
      <trkpt lat="51.1073" lon="-4.19711"></trkpt>
      <trkpt lat="51.10695" lon="-4.19717"></trkpt>
      <trkpt lat="51.10679" lon="-4.19718"></trkpt>
      <trkpt lat="51.10662" lon="-4.19716"></trkpt>
      <trkpt lat="51.10644" lon="-4.19737"></trkpt>
      <trkpt lat="51.10621" lon="-4.19737"></trkpt>
      <trkpt lat="51.10612" lon="-4.19734"></trkpt>
      <trkpt lat="51.10601" lon="-4.19735"></trkpt>
      <trkpt lat="51.10583" lon="-4.19744"></trkpt>
      <trkpt lat="51.10566" lon="-4.19736"></trkpt>
      <trkpt lat="51.10533" lon="-4.19733"></trkpt>
      <trkpt lat="51.10489" lon="-4.19745"></trkpt>
      <trkpt lat="51.10453" lon="-4.1971"></trkpt>
      <trkpt lat="51.10442" lon="-4.19686"></trkpt>
      <trkpt lat="51.10431" lon="-4.19674"></trkpt>
      <trkpt lat="51.10413" lon="-4.19647"></trkpt>
      <trkpt lat="51.10389" lon="-4.19646"></trkpt>
      <trkpt lat="51.10376" lon="-4.19649"></trkpt>
      <trkpt lat="51.10332" lon="-4.19642"></trkpt>
      <trkpt lat="51.10283" lon="-4.19638"></trkpt>
      <trkpt lat="51.10257" lon="-4.19626"></trkpt>
      <trkpt lat="51.10213" lon="-4.19618"></trkpt>
      <trkpt lat="51.10201" lon="-4.1962"></trkpt>
      <trkpt lat="51.10194" lon="-4.19628"></trkpt>
      <trkpt lat="51.10168" lon="-4.19672"></trkpt>
      <trkpt lat="51.10162" lon="-4.19688"></trkpt>
      <trkpt lat="51.10156" lon="-4.19716"></trkpt>
      <trkpt lat="51.10151" lon="-4.19728"></trkpt>
      <trkpt lat="51.10143" lon="-4.19736"></trkpt>
      <trkpt lat="51.10131" lon="-4.19738"></trkpt>
      <trkpt lat="51.10105" lon="-4.19752"></trkpt>
      <trkpt lat="51.10068" lon="-4.19786"></trkpt>
      <trkpt lat="51.10024" lon="-4.1979"></trkpt>
      <trkpt lat="51.1001" lon="-4.198"></trkpt>
      <trkpt lat="51.0996" lon="-4.19809"></trkpt>
      <trkpt lat="51.09919" lon="-4.19824"></trkpt>
      <trkpt lat="51.09871" lon="-4.19864"></trkpt>
      <trkpt lat="51.09834" lon="-4.19867"></trkpt>
      <trkpt lat="51.09787" lon="-4.19885"></trkpt>
      <trkpt lat="51.09773" lon="-4.199"></trkpt>
      <trkpt lat="51.09729" lon="-4.19911"></trkpt>
      <trkpt lat="51.0971" lon="-4.19918"></trkpt>
      <trkpt lat="51.09691" lon="-4.19915"></trkpt>
      <trkpt lat="51.0966" lon="-4.19924"></trkpt>
      <trkpt lat="51.09664" lon="-4.19934"></trkpt>
      <trkpt lat="51.09664" lon="-4.19954"></trkpt>
      <trkpt lat="51.09678" lon="-4.20016"></trkpt>
      <trkpt lat="51.09681" lon="-4.20042"></trkpt>
      <trkpt lat="51.09681" lon="-4.20053"></trkpt>
      <trkpt lat="51.09671" lon="-4.20039"></trkpt>
      <trkpt lat="51.09645" lon="-4.20021"></trkpt>
      <trkpt lat="51.096" lon="-4.20017"></trkpt>
      <trkpt lat="51.09584" lon="-4.20023"></trkpt>
      <trkpt lat="51.09566" lon="-4.20029"></trkpt>
      <trkpt lat="51.09536" lon="-4.20032"></trkpt>
      <trkpt lat="51.09517" lon="-4.20054"></trkpt>
      <trkpt lat="51.09493" lon="-4.2005"></trkpt>
      <trkpt lat="51.09476" lon="-4.20009"></trkpt>
      <trkpt lat="51.09462" lon="-4.19967"></trkpt>
      <trkpt lat="51.09445" lon="-4.19816"></trkpt>
      <trkpt lat="51.09442" lon="-4.19776"></trkpt>
      <trkpt lat="51.09442" lon="-4.19704"></trkpt>
      <trkpt lat="51.09433" lon="-4.1967"></trkpt>
      <trkpt lat="51.09419" lon="-4.19654"></trkpt>
      <trkpt lat="51.09411" lon="-4.19637"></trkpt>
      <trkpt lat="51.09408" lon="-4.19616"></trkpt>
      <trkpt lat="51.09291" lon="-4.19607"></trkpt>
      <trkpt lat="51.09271" lon="-4.19589"></trkpt>
      <trkpt lat="51.09258" lon="-4.19563"></trkpt>
      <trkpt lat="51.09257" lon="-4.19546"></trkpt>
      <trkpt lat="51.09114" lon="-4.19523"></trkpt>
      <trkpt lat="51.08819" lon="-4.19484"></trkpt>
      <trkpt lat="51.08698" lon="-4.19464"></trkpt>
      <trkpt lat="51.08618" lon="-4.19456"></trkpt>
      <trkpt lat="51.08469" lon="-4.19436"></trkpt>
      <trkpt lat="51.08414" lon="-4.19421"></trkpt>
      <trkpt lat="51.08392" lon="-4.19408"></trkpt>
      <trkpt lat="51.08228" lon="-4.19279"></trkpt>
      <trkpt lat="51.08192" lon="-4.1926"></trkpt>
      <trkpt lat="51.08139" lon="-4.19242"></trkpt>
      <trkpt lat="51.08117" lon="-4.19238"></trkpt>
      <trkpt lat="51.07929" lon="-4.19232"></trkpt>
      <trkpt lat="51.07854" lon="-4.19247"></trkpt>
      <trkpt lat="51.07767" lon="-4.19268"></trkpt>
      <trkpt lat="51.07756" lon="-4.19271"></trkpt>
      <trkpt lat="51.07625" lon="-4.19334"></trkpt>
      <trkpt lat="51.07508" lon="-4.19381"></trkpt>
      <trkpt lat="51.07437" lon="-4.19394"></trkpt>
      <trkpt lat="51.07403" lon="-4.19393"></trkpt>
      <trkpt lat="51.07401" lon="-4.19395"></trkpt>
      <trkpt lat="51.07376" lon="-4.1939"></trkpt>
      <trkpt lat="51.07315" lon="-4.19373"></trkpt>
      <trkpt lat="51.07245" lon="-4.19323"></trkpt>
      <trkpt lat="51.07213" lon="-4.19289"></trkpt>
      <trkpt lat="51.07214" lon="-4.19272"></trkpt>
      <trkpt lat="51.07219" lon="-4.19253"></trkpt>
      <trkpt lat="51.07231" lon="-4.19223"></trkpt>
      <trkpt lat="51.07251" lon="-4.19186"></trkpt>
      <trkpt lat="51.07324" lon="-4.19027"></trkpt>
      <trkpt lat="51.07391" lon="-4.18889"></trkpt>
      <trkpt lat="51.07437" lon="-4.18818"></trkpt>
      <trkpt lat="51.07453" lon="-4.188"></trkpt>
      <trkpt lat="51.07444" lon="-4.18757"></trkpt>
      <trkpt lat="51.07447" lon="-4.18743"></trkpt>
      <trkpt lat="51.07455" lon="-4.18732"></trkpt>
      <trkpt lat="51.07476" lon="-4.18728"></trkpt>
      <trkpt lat="51.07504" lon="-4.18699"></trkpt>
      <trkpt lat="51.07538" lon="-4.18678"></trkpt>
      <trkpt lat="51.07551" lon="-4.18662"></trkpt>
      <trkpt lat="51.07545" lon="-4.1865"></trkpt>
      <trkpt lat="51.07626" lon="-4.18568"></trkpt>
      <trkpt lat="51.07635" lon="-4.1857"></trkpt>
      <trkpt lat="51.07642" lon="-4.18579"></trkpt>
      <trkpt lat="51.07649" lon="-4.1856"></trkpt>
      <trkpt lat="51.0766" lon="-4.18537"></trkpt>
      <trkpt lat="51.0766" lon="-4.18538"></trkpt>
      <trkpt lat="51.07894536103254" lon="-4.175254077370539"></trkpt>
      <trkpt lat="51.08054852900156" lon="-4.169182037318279"></trkpt>
      <trkpt lat="51.081097295285105" lon="-4.167899146935895"></trkpt>
      <trkpt lat="51.0825919761416" lon="-4.167804401371029"></trkpt>
      <trkpt lat="51.084131705785126" lon="-4.1675539855006605"></trkpt>
      <trkpt lat="51.08719819838154" lon="-4.170720293664402"></trkpt>
      <trkpt lat="51.088720614272546" lon="-4.170890633332988"></trkpt>
      <trkpt lat="51.08872" lon="-4.17091"></trkpt>
      <trkpt lat="51.08935" lon="-4.17024"></trkpt>
      <trkpt lat="51.09013" lon="-4.16969"></trkpt>
      <trkpt lat="51.09046" lon="-4.16957"></trkpt>
      <trkpt lat="51.09192" lon="-4.1694"></trkpt>
      <trkpt lat="51.09232" lon="-4.16926"></trkpt>
      <trkpt lat="51.09286" lon="-4.16897"></trkpt>
      <trkpt lat="51.09309" lon="-4.16868"></trkpt>
      <trkpt lat="51.09323" lon="-4.16836"></trkpt>
      <trkpt lat="51.09365" lon="-4.16795"></trkpt>
      <trkpt lat="51.09412" lon="-4.16763"></trkpt>
      <trkpt lat="51.09499" lon="-4.16697"></trkpt>
      <trkpt lat="51.09641" lon="-4.1659"></trkpt>
      <trkpt lat="51.09653" lon="-4.16572"></trkpt>
      <trkpt lat="51.09665" lon="-4.16564"></trkpt>
      <trkpt lat="51.09724" lon="-4.1654"></trkpt>
      <trkpt lat="51.09767" lon="-4.16535"></trkpt>
      <trkpt lat="51.09786" lon="-4.16547"></trkpt>
      <trkpt lat="51.098" lon="-4.16539"></trkpt>
      <trkpt lat="51.09817" lon="-4.16546"></trkpt>
      <trkpt lat="51.09835" lon="-4.16538"></trkpt>
      <trkpt lat="51.09856" lon="-4.16536"></trkpt>
      <trkpt lat="51.09855" lon="-4.16536"></trkpt>
      <trkpt lat="51.09904" lon="-4.16527"></trkpt>
      <trkpt lat="51.09925" lon="-4.16526"></trkpt>
      <trkpt lat="51.09947" lon="-4.16528"></trkpt>
      <trkpt lat="51.09967" lon="-4.16524"></trkpt>
      <trkpt lat="51.09975" lon="-4.16519"></trkpt>
      <trkpt lat="51.10004" lon="-4.16478"></trkpt>
      <trkpt lat="51.10047" lon="-4.16433"></trkpt>
      <trkpt lat="51.10049" lon="-4.16432"></trkpt>
      <trkpt lat="51.10054" lon="-4.16434"></trkpt>
      <trkpt lat="51.10059" lon="-4.16439"></trkpt>
      <trkpt lat="51.10059" lon="-4.16444"></trkpt>
      <trkpt lat="51.10062" lon="-4.16451"></trkpt>
      <trkpt lat="51.10074" lon="-4.16436"></trkpt>
      <trkpt lat="51.10092" lon="-4.16401"></trkpt>
      <trkpt lat="51.10135" lon="-4.16258"></trkpt>
      <trkpt lat="51.10131" lon="-4.16254"></trkpt>
      <trkpt lat="51.1013" lon="-4.16234"></trkpt>
      <trkpt lat="51.10128" lon="-4.16228"></trkpt>
      <trkpt lat="51.10122" lon="-4.16221"></trkpt>
      <trkpt lat="51.10128" lon="-4.16208"></trkpt>
      <trkpt lat="51.10136" lon="-4.16216"></trkpt>
    </trkseg>
  </trk>
</gpx>
