<?xml version="1.0" encoding="UTF-8"?>
<gpx version="1.1" creator="swcp-walk (imported from OS Maps route 33817442)"
     xmlns="http://www.topografix.com/GPX/1/1">
  <metadata>
    <name>SWCP06-Braunton-Instow</name>
  </metadata>
  <trk>
    <name>SWCP06-Braunton-Instow</name>
    <trkseg>
      <trkpt lat="51.10149" lon="-4.16224"></trkpt>
      <trkpt lat="51.10144" lon="-4.16221"></trkpt>
      <trkpt lat="51.10138" lon="-4.16227"></trkpt>
      <trkpt lat="51.10133" lon="-4.16224"></trkpt>
      <trkpt lat="51.10126" lon="-4.16213"></trkpt>
      <trkpt lat="51.10122" lon="-4.16221"></trkpt>
      <trkpt lat="51.10048" lon="-4.16157"></trkpt>
      <trkpt lat="51.09996" lon="-4.161"></trkpt>
      <trkpt lat="51.0991" lon="-4.15992"></trkpt>
      <trkpt lat="51.09822" lon="-4.15864"></trkpt>
      <trkpt lat="51.09761" lon="-4.1576"></trkpt>
      <trkpt lat="51.09696" lon="-4.15639"></trkpt>
      <trkpt lat="51.09679" lon="-4.15648"></trkpt>
      <trkpt lat="51.09635" lon="-4.15555"></trkpt>
      <trkpt lat="51.09626" lon="-4.1553"></trkpt>
      <trkpt lat="51.09611" lon="-4.15476"></trkpt>
      <trkpt lat="51.09601" lon="-4.15429"></trkpt>
      <trkpt lat="51.09548" lon="-4.15284"></trkpt>
      <trkpt lat="51.09527" lon="-4.15217"></trkpt>
      <trkpt lat="51.09471" lon="-4.15028"></trkpt>
      <trkpt lat="51.09446" lon="-4.14928"></trkpt>
      <trkpt lat="51.09409" lon="-4.14755"></trkpt>
      <trkpt lat="51.09391" lon="-4.14644"></trkpt>
      <trkpt lat="51.09378" lon="-4.14541"></trkpt>
      <trkpt lat="51.09356" lon="-4.1435"></trkpt>
      <trkpt lat="51.09349" lon="-4.14216"></trkpt>
      <trkpt lat="51.09349" lon="-4.13983"></trkpt>
      <trkpt lat="51.09341" lon="-4.13691"></trkpt>
      <trkpt lat="51.09342" lon="-4.13602"></trkpt>
      <trkpt lat="51.09344" lon="-4.13093"></trkpt>
      <trkpt lat="51.09347" lon="-4.12976"></trkpt>
      <trkpt lat="51.09353" lon="-4.12886"></trkpt>
      <trkpt lat="51.09396" lon="-4.12636"></trkpt>
      <trkpt lat="51.09405" lon="-4.12575"></trkpt>
      <trkpt lat="51.09416" lon="-4.12442"></trkpt>
      <trkpt lat="51.0942" lon="-4.12352"></trkpt>
      <trkpt lat="51.09431" lon="-4.12252"></trkpt>
      <trkpt lat="51.09458" lon="-4.12059"></trkpt>
      <trkpt lat="51.09472" lon="-4.11897"></trkpt>
      <trkpt lat="51.09476" lon="-4.11729"></trkpt>
      <trkpt lat="51.09473" lon="-4.11516"></trkpt>
      <trkpt lat="51.09462" lon="-4.11285"></trkpt>
      <trkpt lat="51.09457" lon="-4.11211"></trkpt>
      <trkpt lat="51.09449" lon="-4.11144"></trkpt>
      <trkpt lat="51.09427" lon="-4.10968"></trkpt>
      <trkpt lat="51.09414" lon="-4.10892"></trkpt>
      <trkpt lat="51.09395" lon="-4.10805"></trkpt>
      <trkpt lat="51.09375" lon="-4.10737"></trkpt>
      <trkpt lat="51.0937" lon="-4.10718"></trkpt>
      <trkpt lat="51.09329" lon="-4.10608"></trkpt>
      <trkpt lat="51.09305" lon="-4.10559"></trkpt>
      <trkpt lat="51.09274" lon="-4.10504"></trkpt>
      <trkpt lat="51.09234" lon="-4.10443"></trkpt>
      <trkpt lat="51.09196" lon="-4.10397"></trkpt>
      <trkpt lat="51.09115" lon="-4.1028"></trkpt>
      <trkpt lat="51.09085" lon="-4.10226"></trkpt>
      <trkpt lat="51.09045" lon="-4.10144"></trkpt>
      <trkpt lat="51.08795" lon="-4.09588"></trkpt>
      <trkpt lat="51.08748" lon="-4.09469"></trkpt>
      <trkpt lat="51.08725" lon="-4.09402"></trkpt>
      <trkpt lat="51.08682" lon="-4.0926"></trkpt>
      <trkpt lat="51.08654" lon="-4.0914"></trkpt>
      <trkpt lat="51.0862" lon="-4.08934"></trkpt>
      <trkpt lat="51.08611" lon="-4.08895"></trkpt>
      <trkpt lat="51.08589" lon="-4.08824"></trkpt>
      <trkpt lat="51.08569" lon="-4.08767"></trkpt>
      <trkpt lat="51.08561" lon="-4.08747"></trkpt>
      <trkpt lat="51.08483" lon="-4.08592"></trkpt>
      <trkpt lat="51.08459" lon="-4.08538"></trkpt>
      <trkpt lat="51.08422" lon="-4.08442"></trkpt>
      <trkpt lat="51.08407" lon="-4.08396"></trkpt>
      <trkpt lat="51.08384" lon="-4.08301"></trkpt>
      <trkpt lat="51.08286" lon="-4.07863"></trkpt>
      <trkpt lat="51.08269" lon="-4.07803"></trkpt>
      <trkpt lat="51.0825" lon="-4.0775"></trkpt>
      <trkpt lat="51.08239" lon="-4.07723"></trkpt>
      <trkpt lat="51.08222" lon="-4.07694"></trkpt>
      <trkpt lat="51.08189" lon="-4.07643"></trkpt>
      <trkpt lat="51.08163" lon="-4.07598"></trkpt>
      <trkpt lat="51.08145" lon="-4.0756"></trkpt>
      <trkpt lat="51.08133" lon="-4.07526"></trkpt>
      <trkpt lat="51.0811" lon="-4.07452"></trkpt>
      <trkpt lat="51.08102" lon="-4.07414"></trkpt>
      <trkpt lat="51.08095" lon="-4.07368"></trkpt>
      <trkpt lat="51.08091" lon="-4.07318"></trkpt>
      <trkpt lat="51.0809" lon="-4.07254"></trkpt>
      <trkpt lat="51.08096" lon="-4.07174"></trkpt>
      <trkpt lat="51.08107" lon="-4.07104"></trkpt>
      <trkpt lat="51.08116" lon="-4.07067"></trkpt>
      <trkpt lat="51.08129" lon="-4.07003"></trkpt>
      <trkpt lat="51.0814" lon="-4.06915"></trkpt>
      <trkpt lat="51.0814" lon="-4.06867"></trkpt>
      <trkpt lat="51.08136" lon="-4.06795"></trkpt>
      <trkpt lat="51.08128" lon="-4.06711"></trkpt>
      <trkpt lat="51.08111" lon="-4.06653"></trkpt>
      <trkpt lat="51.08119" lon="-4.06648"></trkpt>
      <trkpt lat="51.08116" lon="-4.06626"></trkpt>
      <trkpt lat="51.08119" lon="-4.06648"></trkpt>
      <trkpt lat="51.08111" lon="-4.06653"></trkpt>
      <trkpt lat="51.08107" lon="-4.06647"></trkpt>
      <trkpt lat="51.081" lon="-4.06621"></trkpt>
      <trkpt lat="51.0802" lon="-4.06426"></trkpt>
      <trkpt lat="51.08002" lon="-4.06393"></trkpt>
      <trkpt lat="51.07984" lon="-4.06354"></trkpt>
      <trkpt lat="51.07985" lon="-4.06341"></trkpt>
      <trkpt lat="51.07976" lon="-4.0632"></trkpt>
      <trkpt lat="51.07969" lon="-4.06326"></trkpt>
      <trkpt lat="51.0796" lon="-4.06322"></trkpt>
      <trkpt lat="51.0794" lon="-4.06275"></trkpt>
      <trkpt lat="51.07914" lon="-4.06199"></trkpt>
      <trkpt lat="51.07895" lon="-4.06156"></trkpt>
      <trkpt lat="51.07886" lon="-4.06132"></trkpt>
      <trkpt lat="51.07884" lon="-4.06115"></trkpt>
      <trkpt lat="51.07838" lon="-4.06025"></trkpt>
      <trkpt lat="51.0781" lon="-4.05977"></trkpt>
      <trkpt lat="51.07806" lon="-4.05958"></trkpt>
      <trkpt lat="51.07808" lon="-4.05955"></trkpt>
      <trkpt lat="51.07804" lon="-4.05938"></trkpt>
      <trkpt lat="51.07744" lon="-4.06021"></trkpt>
      <trkpt lat="51.07697" lon="-4.06078"></trkpt>
      <trkpt lat="51.07684" lon="-4.06112"></trkpt>
      <trkpt lat="51.07688" lon="-4.06115"></trkpt>
      <trkpt lat="51.07686" lon="-4.06123"></trkpt>
      <trkpt lat="51.07694" lon="-4.06126"></trkpt>
      <trkpt lat="51.07699" lon="-4.06124"></trkpt>
      <trkpt lat="51.07716" lon="-4.06106"></trkpt>
      <trkpt lat="51.07723" lon="-4.06106"></trkpt>
      <trkpt lat="51.07782" lon="-4.06232"></trkpt>
      <trkpt lat="51.07809" lon="-4.06299"></trkpt>
      <trkpt lat="51.0782" lon="-4.06344"></trkpt>
      <trkpt lat="51.07831" lon="-4.06371"></trkpt>
      <trkpt lat="51.0785" lon="-4.06425"></trkpt>
      <trkpt lat="51.07864" lon="-4.06479"></trkpt>
      <trkpt lat="51.07868" lon="-4.06521"></trkpt>
      <trkpt lat="51.0787" lon="-4.06592"></trkpt>
      <trkpt lat="51.0787" lon="-4.06665"></trkpt>
      <trkpt lat="51.07841" lon="-4.06859"></trkpt>
      <trkpt lat="51.07829" lon="-4.06923"></trkpt>
      <trkpt lat="51.07788" lon="-4.07026"></trkpt>
      <trkpt lat="51.07776" lon="-4.07029"></trkpt>
      <trkpt lat="51.07749" lon="-4.07011"></trkpt>
      <trkpt lat="51.07734" lon="-4.07014"></trkpt>
      <trkpt lat="51.07728" lon="-4.07018"></trkpt>
      <trkpt lat="51.0772" lon="-4.07034"></trkpt>
      <trkpt lat="51.07662" lon="-4.07223"></trkpt>
      <trkpt lat="51.07629" lon="-4.0732"></trkpt>
      <trkpt lat="51.07618" lon="-4.07364"></trkpt>
      <trkpt lat="51.07696" lon="-4.07778"></trkpt>
      <trkpt lat="51.07798" lon="-4.08323"></trkpt>
      <trkpt lat="51.07959" lon="-4.09159"></trkpt>
      <trkpt lat="51.07982" lon="-4.09313"></trkpt>
      <trkpt lat="51.08013" lon="-4.09622"></trkpt>
      <trkpt lat="51.08028" lon="-4.09745"></trkpt>
      <trkpt lat="51.08063" lon="-4.09984"></trkpt>
      <trkpt lat="51.08083" lon="-4.10125"></trkpt>
      <trkpt lat="51.08114" lon="-4.10328"></trkpt>
      <trkpt lat="51.08128" lon="-4.10404"></trkpt>
      <trkpt lat="51.08185" lon="-4.10684"></trkpt>
      <trkpt lat="51.082" lon="-4.10788"></trkpt>
      <trkpt lat="51.08206" lon="-4.10871"></trkpt>
      <trkpt lat="51.08208" lon="-4.10918"></trkpt>
      <trkpt lat="51.08203" lon="-4.11085"></trkpt>
      <trkpt lat="51.08197" lon="-4.11175"></trkpt>
      <trkpt lat="51.08179" lon="-4.11348"></trkpt>
      <trkpt lat="51.08161" lon="-4.11562"></trkpt>
      <trkpt lat="51.08141" lon="-4.11669"></trkpt>
      <trkpt lat="51.08099" lon="-4.11802"></trkpt>
      <trkpt lat="51.08049" lon="-4.11907"></trkpt>
      <trkpt lat="51.08043" lon="-4.11927"></trkpt>
      <trkpt lat="51.07947" lon="-4.12068"></trkpt>
      <trkpt lat="51.07895" lon="-4.12161"></trkpt>
      <trkpt lat="51.07875" lon="-4.1221"></trkpt>
      <trkpt lat="51.07844" lon="-4.12308"></trkpt>
      <trkpt lat="51.07839" lon="-4.12335"></trkpt>
      <trkpt lat="51.07837" lon="-4.12358"></trkpt>
      <trkpt lat="51.07723" lon="-4.12936"></trkpt>
      <trkpt lat="51.07643" lon="-4.13354"></trkpt>
      <trkpt lat="51.07572" lon="-4.13715"></trkpt>
      <trkpt lat="51.07487" lon="-4.14166"></trkpt>
      <trkpt lat="51.07466" lon="-4.14275"></trkpt>
      <trkpt lat="51.07334" lon="-4.14941"></trkpt>
      <trkpt lat="51.07101" lon="-4.16135"></trkpt>
      <trkpt lat="51.07182" lon="-4.16204"></trkpt>
      <trkpt lat="51.07188" lon="-4.16205"></trkpt>
      <trkpt lat="51.07202" lon="-4.16196"></trkpt>
      <trkpt lat="51.07235" lon="-4.16155"></trkpt>
      <trkpt lat="51.07244" lon="-4.16135"></trkpt>
      <trkpt lat="51.07258" lon="-4.16074"></trkpt>
      <trkpt lat="51.07263" lon="-4.16058"></trkpt>
      <trkpt lat="51.07269" lon="-4.16052"></trkpt>
      <trkpt lat="51.07275" lon="-4.16049"></trkpt>
      <trkpt lat="51.07283" lon="-4.1605"></trkpt>
      <trkpt lat="51.07335" lon="-4.16083"></trkpt>
      <trkpt lat="51.07344" lon="-4.16091"></trkpt>
      <trkpt lat="51.07362" lon="-4.16163"></trkpt>
      <trkpt lat="51.07382" lon="-4.16221"></trkpt>
      <trkpt lat="51.0742" lon="-4.16355"></trkpt>
      <trkpt lat="51.07422" lon="-4.16381"></trkpt>
      <trkpt lat="51.07421" lon="-4.16431"></trkpt>
      <trkpt lat="51.07414" lon="-4.16471"></trkpt>
      <trkpt lat="51.07401" lon="-4.16514"></trkpt>
      <trkpt lat="51.07286" lon="-4.16845"></trkpt>
      <trkpt lat="51.07201" lon="-4.17075"></trkpt>
      <trkpt lat="51.07188" lon="-4.17102"></trkpt>
      <trkpt lat="51.0717" lon="-4.17129"></trkpt>
      <trkpt lat="51.07147" lon="-4.17145"></trkpt>
      <trkpt lat="51.07097" lon="-4.17156"></trkpt>
      <trkpt lat="51.07051" lon="-4.17153"></trkpt>
      <trkpt lat="51.06974" lon="-4.17141"></trkpt>
      <trkpt lat="51.06953" lon="-4.17142"></trkpt>
      <trkpt lat="51.06941" lon="-4.17152"></trkpt>
      <trkpt lat="51.06925" lon="-4.17185"></trkpt>
      <trkpt lat="51.06891" lon="-4.17274"></trkpt>
      <trkpt lat="51.06865" lon="-4.17347"></trkpt>
      <trkpt lat="51.0687" lon="-4.17385"></trkpt>
      <trkpt lat="51.06864" lon="-4.17422"></trkpt>
      <trkpt lat="51.06863" lon="-4.17464"></trkpt>
      <trkpt lat="51.06841" lon="-4.17673"></trkpt>
      <trkpt lat="51.06833" lon="-4.17705"></trkpt>
      <trkpt lat="51.06819" lon="-4.17736"></trkpt>
      <trkpt lat="51.06779" lon="-4.17805"></trkpt>
      <trkpt lat="51.06758" lon="-4.17848"></trkpt>
      <trkpt lat="51.06727" lon="-4.1791"></trkpt>
      <trkpt lat="51.06718" lon="-4.17917"></trkpt>
      <trkpt lat="51.06702" lon="-4.17892"></trkpt>
      <trkpt lat="51.06638" lon="-4.17912"></trkpt>
      <trkpt lat="51.06627" lon="-4.17911"></trkpt>
      <trkpt lat="51.06613" lon="-4.17903"></trkpt>
      <trkpt lat="51.06602" lon="-4.17893"></trkpt>
      <trkpt lat="51.06561" lon="-4.17823"></trkpt>
      <trkpt lat="51.06533" lon="-4.1779"></trkpt>
      <trkpt lat="51.06507" lon="-4.17749"></trkpt>
      <trkpt lat="51.06485" lon="-4.17728"></trkpt>
      <trkpt lat="51.0646" lon="-4.17699"></trkpt>
      <trkpt lat="51.06424" lon="-4.17673"></trkpt>
      <trkpt lat="51.06371" lon="-4.17676"></trkpt>
      <trkpt lat="51.06335" lon="-4.17698"></trkpt>
      <trkpt lat="51.06309" lon="-4.17722"></trkpt>
      <trkpt lat="51.06273" lon="-4.17769"></trkpt>
      <trkpt lat="51.0626" lon="-4.17793"></trkpt>
      <trkpt lat="51.06247" lon="-4.17825"></trkpt>
      <trkpt lat="51.06245" lon="-4.17835"></trkpt>
      <trkpt lat="51.06252" lon="-4.17839"></trkpt>
      <trkpt lat="51.06257" lon="-4.17849"></trkpt>
      <trkpt lat="51.06241" lon="-4.17885"></trkpt>
      <trkpt lat="51.06227" lon="-4.17903"></trkpt>
      <trkpt lat="51.06209" lon="-4.17916"></trkpt>
      <trkpt lat="51.06201" lon="-4.17925"></trkpt>
      <trkpt lat="51.06177" lon="-4.17928"></trkpt>
      <trkpt lat="51.06145" lon="-4.17972"></trkpt>
      <trkpt lat="51.06138" lon="-4.17984"></trkpt>
      <trkpt lat="51.06084" lon="-4.17913"></trkpt>
      <trkpt lat="51.06066" lon="-4.17885"></trkpt>
      <trkpt lat="51.06045" lon="-4.17871"></trkpt>
      <trkpt lat="51.05969" lon="-4.17879"></trkpt>
      <trkpt lat="51.05885" lon="-4.17903"></trkpt>
      <trkpt lat="51.05876" lon="-4.17912"></trkpt>
      <trkpt lat="51.05867" lon="-4.17916"></trkpt>
      <trkpt lat="51.0584" lon="-4.17928"></trkpt>
      <trkpt lat="51.05783" lon="-4.17964"></trkpt>
      <trkpt lat="51.05739" lon="-4.17988"></trkpt>
      <trkpt lat="51.05709" lon="-4.18"></trkpt>
      <trkpt lat="51.05686" lon="-4.17995"></trkpt>
      <trkpt lat="51.05679" lon="-4.17989"></trkpt>
      <trkpt lat="51.05637" lon="-4.1804"></trkpt>
      <trkpt lat="51.05614" lon="-4.18063"></trkpt>
      <trkpt lat="51.05582" lon="-4.18085"></trkpt>
      <trkpt lat="51.0556" lon="-4.18097"></trkpt>
      <trkpt lat="51.0551" lon="-4.18119"></trkpt>
      <trkpt lat="51.05461" lon="-4.18127"></trkpt>
      <trkpt lat="51.05391" lon="-4.18134"></trkpt>
      <trkpt lat="51.05191" lon="-4.1815"></trkpt>
      <trkpt lat="51.05138" lon="-4.18137"></trkpt>
    </trkseg>
  </trk>
</gpx>
