<?xml version="1.0" encoding="UTF-8"?>
<gpx version="1.1" creator="swcp-walk (imported from OS Maps route 33817707)"
     xmlns="http://www.topografix.com/GPX/1/1">
  <metadata>
    <name>SWCP07-Instow-WestwardHo</name>
  </metadata>
  <trk>
    <name>SWCP07-Instow-WestwardHo</name>
    <trkseg>
      <trkpt lat="51.05133" lon="-4.18174"></trkpt>
      <trkpt lat="51.0514" lon="-4.18139"></trkpt>
      <trkpt lat="51.05127" lon="-4.18127"></trkpt>
      <trkpt lat="51.05113" lon="-4.18109"></trkpt>
      <trkpt lat="51.05025" lon="-4.17934"></trkpt>
      <trkpt lat="51.0501" lon="-4.17928"></trkpt>
      <trkpt lat="51.04984" lon="-4.17925"></trkpt>
      <trkpt lat="51.04963" lon="-4.17927"></trkpt>
      <trkpt lat="51.04963" lon="-4.17912"></trkpt>
      <trkpt lat="51.04943" lon="-4.17911"></trkpt>
      <trkpt lat="51.04924" lon="-4.17913"></trkpt>
      <trkpt lat="51.04844" lon="-4.17936"></trkpt>
      <trkpt lat="51.04814" lon="-4.17953"></trkpt>
      <trkpt lat="51.04755" lon="-4.17998"></trkpt>
      <trkpt lat="51.0462" lon="-4.18127"></trkpt>
      <trkpt lat="51.04504" lon="-4.18217"></trkpt>
      <trkpt lat="51.0444" lon="-4.18275"></trkpt>
      <trkpt lat="51.04398" lon="-4.1832"></trkpt>
      <trkpt lat="51.04337" lon="-4.18389"></trkpt>
      <trkpt lat="51.04274" lon="-4.1848"></trkpt>
      <trkpt lat="51.04213" lon="-4.18554"></trkpt>
      <trkpt lat="51.04164" lon="-4.18592"></trkpt>
      <trkpt lat="51.04128" lon="-4.1862"></trkpt>
      <trkpt lat="51.04076" lon="-4.18646"></trkpt>
      <trkpt lat="51.03987" lon="-4.18676"></trkpt>
      <trkpt lat="51.03925" lon="-4.18711"></trkpt>
      <trkpt lat="51.03905" lon="-4.18727"></trkpt>
      <trkpt lat="51.03874" lon="-4.18751"></trkpt>
      <trkpt lat="51.03817" lon="-4.18806"></trkpt>
      <trkpt lat="51.0379" lon="-4.18843"></trkpt>
      <trkpt lat="51.03744" lon="-4.18915"></trkpt>
      <trkpt lat="51.03646" lon="-4.19093"></trkpt>
      <trkpt lat="51.03491" lon="-4.19392"></trkpt>
      <trkpt lat="51.03425" lon="-4.19503"></trkpt>
      <trkpt lat="51.03372" lon="-4.19565"></trkpt>
      <trkpt lat="51.03324" lon="-4.1961"></trkpt>
      <trkpt lat="51.03263" lon="-4.19656"></trkpt>
      <trkpt lat="51.03192" lon="-4.19694"></trkpt>
      <trkpt lat="51.03092" lon="-4.19729"></trkpt>
      <trkpt lat="51.02816" lon="-4.19839"></trkpt>
      <trkpt lat="51.02771" lon="-4.19846"></trkpt>
      <trkpt lat="51.02726" lon="-4.19845"></trkpt>
      <trkpt lat="51.02695" lon="-4.19839"></trkpt>
      <trkpt lat="51.02652" lon="-4.19824"></trkpt>
      <trkpt lat="51.02616" lon="-4.19805"></trkpt>
      <trkpt lat="51.02481" lon="-4.1971"></trkpt>
      <trkpt lat="51.02445" lon="-4.19694"></trkpt>
      <trkpt lat="51.02383" lon="-4.19683"></trkpt>
      <trkpt lat="51.02338" lon="-4.19686"></trkpt>
      <trkpt lat="51.02263" lon="-4.19707"></trkpt>
      <trkpt lat="51.02195" lon="-4.19739"></trkpt>
      <trkpt lat="51.02194" lon="-4.19737"></trkpt>
      <trkpt lat="51.02188" lon="-4.19734"></trkpt>
      <trkpt lat="51.0218" lon="-4.19736"></trkpt>
      <trkpt lat="51.02176" lon="-4.19726"></trkpt>
      <trkpt lat="51.02133" lon="-4.1976"></trkpt>
      <trkpt lat="51.02099" lon="-4.19791"></trkpt>
      <trkpt lat="51.02049" lon="-4.19852"></trkpt>
      <trkpt lat="51.02005" lon="-4.19901"></trkpt>
      <trkpt lat="51.01983" lon="-4.19921"></trkpt>
      <trkpt lat="51.01971" lon="-4.19929"></trkpt>
      <trkpt lat="51.01905" lon="-4.19956"></trkpt>
      <trkpt lat="51.01882" lon="-4.19969"></trkpt>
      <trkpt lat="51.01874" lon="-4.19975"></trkpt>
      <trkpt lat="51.01851" lon="-4.20005"></trkpt>
      <trkpt lat="51.01843" lon="-4.20009"></trkpt>
      <trkpt lat="51.01809" lon="-4.20013"></trkpt>
      <trkpt lat="51.01796" lon="-4.20019"></trkpt>
      <trkpt lat="51.01759" lon="-4.20045"></trkpt>
      <trkpt lat="51.01626" lon="-4.20123"></trkpt>
      <trkpt lat="51.01608" lon="-4.20142"></trkpt>
      <trkpt lat="51.01616" lon="-4.20177"></trkpt>
      <trkpt lat="51.01676" lon="-4.20472"></trkpt>
      <trkpt lat="51.01676" lon="-4.20479"></trkpt>
      <trkpt lat="51.01687" lon="-4.20492"></trkpt>
      <trkpt lat="51.01762" lon="-4.2048"></trkpt>
      <trkpt lat="51.01779" lon="-4.20473"></trkpt>
      <trkpt lat="51.01782" lon="-4.2048"></trkpt>
      <trkpt lat="51.01793" lon="-4.20476"></trkpt>
      <trkpt lat="51.01794" lon="-4.20469"></trkpt>
      <trkpt lat="51.0185" lon="-4.20455"></trkpt>
      <trkpt lat="51.01867" lon="-4.20448"></trkpt>
      <trkpt lat="51.01868" lon="-4.20443"></trkpt>
      <trkpt lat="51.01879" lon="-4.20441"></trkpt>
      <trkpt lat="51.01877" lon="-4.20426"></trkpt>
      <trkpt lat="51.01897" lon="-4.20417"></trkpt>
      <trkpt lat="51.02035" lon="-4.20382"></trkpt>
      <trkpt lat="51.02059" lon="-4.20377"></trkpt>
      <trkpt lat="51.02065" lon="-4.20378"></trkpt>
      <trkpt lat="51.0207" lon="-4.20363"></trkpt>
      <trkpt lat="51.02184" lon="-4.20306"></trkpt>
      <trkpt lat="51.02238" lon="-4.20284"></trkpt>
      <trkpt lat="51.02308" lon="-4.20256"></trkpt>
      <trkpt lat="51.02319" lon="-4.20261"></trkpt>
      <trkpt lat="51.02323" lon="-4.20279"></trkpt>
      <trkpt lat="51.0239" lon="-4.20261"></trkpt>
      <trkpt lat="51.02392" lon="-4.20266"></trkpt>
      <trkpt lat="51.02424" lon="-4.20262"></trkpt>
      <trkpt lat="51.02455" lon="-4.20265"></trkpt>
      <trkpt lat="51.02554" lon="-4.20289"></trkpt>
      <trkpt lat="51.02622" lon="-4.20312"></trkpt>
      <trkpt lat="51.02635" lon="-4.20318"></trkpt>
      <trkpt lat="51.02638" lon="-4.20325"></trkpt>
      <trkpt lat="51.02644" lon="-4.2032"></trkpt>
      <trkpt lat="51.02653" lon="-4.20319"></trkpt>
      <trkpt lat="51.02675" lon="-4.20328"></trkpt>
      <trkpt lat="51.02687" lon="-4.20337"></trkpt>
      <trkpt lat="51.02727" lon="-4.20356"></trkpt>
      <trkpt lat="51.02756" lon="-4.20366"></trkpt>
      <trkpt lat="51.02769" lon="-4.20367"></trkpt>
      <trkpt lat="51.02792" lon="-4.20365"></trkpt>
      <trkpt lat="51.02812" lon="-4.20358"></trkpt>
      <trkpt lat="51.02822" lon="-4.2036"></trkpt>
      <trkpt lat="51.02844" lon="-4.20386"></trkpt>
      <trkpt lat="51.02842" lon="-4.20396"></trkpt>
      <trkpt lat="51.02844" lon="-4.204"></trkpt>
      <trkpt lat="51.02848" lon="-4.20404"></trkpt>
      <trkpt lat="51.02854" lon="-4.20399"></trkpt>
      <trkpt lat="51.02864" lon="-4.20413"></trkpt>
      <trkpt lat="51.02867" lon="-4.20422"></trkpt>
      <trkpt lat="51.02873" lon="-4.20462"></trkpt>
      <trkpt lat="51.02885" lon="-4.20466"></trkpt>
      <trkpt lat="51.02911" lon="-4.20466"></trkpt>
      <trkpt lat="51.02932" lon="-4.20474"></trkpt>
      <trkpt lat="51.02967" lon="-4.20494"></trkpt>
      <trkpt lat="51.02984" lon="-4.20496"></trkpt>
      <trkpt lat="51.03015" lon="-4.20513"></trkpt>
      <trkpt lat="51.03009" lon="-4.2051"></trkpt>
      <trkpt lat="51.03014" lon="-4.20448"></trkpt>
      <trkpt lat="51.03027" lon="-4.20361"></trkpt>
      <trkpt lat="51.03036" lon="-4.20361"></trkpt>
      <trkpt lat="51.0307" lon="-4.20329"></trkpt>
      <trkpt lat="51.03116" lon="-4.2034"></trkpt>
      <trkpt lat="51.03138" lon="-4.20357"></trkpt>
      <trkpt lat="51.0315" lon="-4.20384"></trkpt>
      <trkpt lat="51.03154" lon="-4.20402"></trkpt>
      <trkpt lat="51.03158" lon="-4.20412"></trkpt>
      <trkpt lat="51.03195" lon="-4.20419"></trkpt>
      <trkpt lat="51.03208" lon="-4.20415"></trkpt>
      <trkpt lat="51.03235" lon="-4.20396"></trkpt>
      <trkpt lat="51.03293" lon="-4.20373"></trkpt>
      <trkpt lat="51.03355" lon="-4.20371"></trkpt>
      <trkpt lat="51.03384" lon="-4.20364"></trkpt>
      <trkpt lat="51.03392" lon="-4.20366"></trkpt>
      <trkpt lat="51.03421" lon="-4.20393"></trkpt>
      <trkpt lat="51.03432" lon="-4.20431"></trkpt>
      <trkpt lat="51.03438" lon="-4.20481"></trkpt>
      <trkpt lat="51.03443" lon="-4.20492"></trkpt>
      <trkpt lat="51.03463" lon="-4.2051"></trkpt>
      <trkpt lat="51.03479" lon="-4.20484"></trkpt>
      <trkpt lat="51.03495" lon="-4.20471"></trkpt>
      <trkpt lat="51.035" lon="-4.20463"></trkpt>
      <trkpt lat="51.03503" lon="-4.20455"></trkpt>
      <trkpt lat="51.03498" lon="-4.2036"></trkpt>
      <trkpt lat="51.035" lon="-4.20344"></trkpt>
      <trkpt lat="51.03506" lon="-4.20329"></trkpt>
      <trkpt lat="51.03531" lon="-4.20286"></trkpt>
      <trkpt lat="51.03565" lon="-4.20224"></trkpt>
      <trkpt lat="51.03611" lon="-4.20156"></trkpt>
      <trkpt lat="51.03636" lon="-4.20102"></trkpt>
      <trkpt lat="51.03668" lon="-4.19992"></trkpt>
      <trkpt lat="51.03679" lon="-4.19971"></trkpt>
      <trkpt lat="51.03722" lon="-4.19918"></trkpt>
      <trkpt lat="51.03775" lon="-4.19842"></trkpt>
      <trkpt lat="51.03784" lon="-4.19832"></trkpt>
      <trkpt lat="51.03806" lon="-4.19815"></trkpt>
      <trkpt lat="51.03815" lon="-4.19803"></trkpt>
      <trkpt lat="51.03823" lon="-4.19785"></trkpt>
      <trkpt lat="51.03843" lon="-4.19757"></trkpt>
      <trkpt lat="51.03859" lon="-4.1972"></trkpt>
      <trkpt lat="51.03862" lon="-4.19716"></trkpt>
      <trkpt lat="51.03871" lon="-4.19715"></trkpt>
      <trkpt lat="51.03876" lon="-4.19719"></trkpt>
      <trkpt lat="51.03881" lon="-4.19727"></trkpt>
      <trkpt lat="51.03886" lon="-4.19754"></trkpt>
      <trkpt lat="51.03889" lon="-4.19757"></trkpt>
      <trkpt lat="51.03896" lon="-4.19753"></trkpt>
      <trkpt lat="51.03904" lon="-4.19729"></trkpt>
      <trkpt lat="51.03922" lon="-4.19701"></trkpt>
      <trkpt lat="51.03935" lon="-4.19675"></trkpt>
      <trkpt lat="51.03947" lon="-4.19662"></trkpt>
      <trkpt lat="51.03967" lon="-4.19651"></trkpt>
      <trkpt lat="51.03972" lon="-4.19637"></trkpt>
      <trkpt lat="51.03984" lon="-4.19615"></trkpt>
      <trkpt lat="51.03996" lon="-4.19598"></trkpt>
      <trkpt lat="51.0401" lon="-4.19589"></trkpt>
      <trkpt lat="51.04036" lon="-4.19552"></trkpt>
      <trkpt lat="51.04073" lon="-4.19514"></trkpt>
      <trkpt lat="51.04108" lon="-4.1952"></trkpt>
      <trkpt lat="51.04112" lon="-4.19517"></trkpt>
      <trkpt lat="51.04115" lon="-4.19489"></trkpt>
      <trkpt lat="51.04125" lon="-4.1947"></trkpt>
      <trkpt lat="51.04164" lon="-4.19442"></trkpt>
      <trkpt lat="51.04198" lon="-4.19421"></trkpt>
      <trkpt lat="51.04293" lon="-4.19354"></trkpt>
      <trkpt lat="51.043" lon="-4.19349"></trkpt>
      <trkpt lat="51.04325" lon="-4.19426"></trkpt>
      <trkpt lat="51.04334" lon="-4.19459"></trkpt>
      <trkpt lat="51.0437" lon="-4.19492"></trkpt>
      <trkpt lat="51.04377" lon="-4.19501"></trkpt>
      <trkpt lat="51.04386" lon="-4.19521"></trkpt>
      <trkpt lat="51.04389" lon="-4.19538"></trkpt>
      <trkpt lat="51.04395" lon="-4.19546"></trkpt>
      <trkpt lat="51.04412" lon="-4.19552"></trkpt>
      <trkpt lat="51.04449" lon="-4.19584"></trkpt>
      <trkpt lat="51.04446" lon="-4.19627"></trkpt>
      <trkpt lat="51.04462" lon="-4.19635"></trkpt>
      <trkpt lat="51.04518" lon="-4.19685"></trkpt>
      <trkpt lat="51.04523" lon="-4.19702"></trkpt>
      <trkpt lat="51.04552" lon="-4.19689"></trkpt>
      <trkpt lat="51.04564" lon="-4.19688"></trkpt>
      <trkpt lat="51.046" lon="-4.19707"></trkpt>
      <trkpt lat="51.04602" lon="-4.19706"></trkpt>
      <trkpt lat="51.04603" lon="-4.19702"></trkpt>
      <trkpt lat="51.04603" lon="-4.19686"></trkpt>
      <trkpt lat="51.04607" lon="-4.19681"></trkpt>
      <trkpt lat="51.04592" lon="-4.1958"></trkpt>
      <trkpt lat="51.04589" lon="-4.19524"></trkpt>
      <trkpt lat="51.04588" lon="-4.19374"></trkpt>
      <trkpt lat="51.04589" lon="-4.19333"></trkpt>
      <trkpt lat="51.04595" lon="-4.19294"></trkpt>
      <trkpt lat="51.0461" lon="-4.19249"></trkpt>
      <trkpt lat="51.0463" lon="-4.19214"></trkpt>
      <trkpt lat="51.04674" lon="-4.19164"></trkpt>
      <trkpt lat="51.04706" lon="-4.19125"></trkpt>
      <trkpt lat="51.04711" lon="-4.19121"></trkpt>
      <trkpt lat="51.04725" lon="-4.19121"></trkpt>
      <trkpt lat="51.04772" lon="-4.19165"></trkpt>
      <trkpt lat="51.04844" lon="-4.19207"></trkpt>
      <trkpt lat="51.04871" lon="-4.19233"></trkpt>
      <trkpt lat="51.04875" lon="-4.19235"></trkpt>
      <trkpt lat="51.04879" lon="-4.19233"></trkpt>
      <trkpt lat="51.04883" lon="-4.19226"></trkpt>
      <trkpt lat="51.04889" lon="-4.19191"></trkpt>
      <trkpt lat="51.04893" lon="-4.19181"></trkpt>
      <trkpt lat="51.04897" lon="-4.19176"></trkpt>
      <trkpt lat="51.04909" lon="-4.19174"></trkpt>
      <trkpt lat="51.04935" lon="-4.19176"></trkpt>
      <trkpt lat="51.04949" lon="-4.19184"></trkpt>
      <trkpt lat="51.04956" lon="-4.19185"></trkpt>
      <trkpt lat="51.04968" lon="-4.19183"></trkpt>
      <trkpt lat="51.04984" lon="-4.1917"></trkpt>
      <trkpt lat="51.05009" lon="-4.19157"></trkpt>
      <trkpt lat="51.05015" lon="-4.19158"></trkpt>
      <trkpt lat="51.05066" lon="-4.19178"></trkpt>
      <trkpt lat="51.05073" lon="-4.19173"></trkpt>
      <trkpt lat="51.05095" lon="-4.19199"></trkpt>
      <trkpt lat="51.05126" lon="-4.19225"></trkpt>
      <trkpt lat="51.05141" lon="-4.19279"></trkpt>
      <trkpt lat="51.05149" lon="-4.19283"></trkpt>
      <trkpt lat="51.05161" lon="-4.19272"></trkpt>
      <trkpt lat="51.05162" lon="-4.19284"></trkpt>
      <trkpt lat="51.05168" lon="-4.19261"></trkpt>
      <trkpt lat="51.0517" lon="-4.19262"></trkpt>
      <trkpt lat="51.05173" lon="-4.19258"></trkpt>
      <trkpt lat="51.05182" lon="-4.19217"></trkpt>
      <trkpt lat="51.05189" lon="-4.19203"></trkpt>
      <trkpt lat="51.05212" lon="-4.19096"></trkpt>
      <trkpt lat="51.05216" lon="-4.19088"></trkpt>
      <trkpt lat="51.05223" lon="-4.19084"></trkpt>
      <trkpt lat="51.05257" lon="-4.19097"></trkpt>
      <trkpt lat="51.05283" lon="-4.19102"></trkpt>
      <trkpt lat="51.05284" lon="-4.19095"></trkpt>
      <trkpt lat="51.05287" lon="-4.19095"></trkpt>
      <trkpt lat="51.05287" lon="-4.19085"></trkpt>
      <trkpt lat="51.05322" lon="-4.19083"></trkpt>
      <trkpt lat="51.05342" lon="-4.19077"></trkpt>
      <trkpt lat="51.05383" lon="-4.19073"></trkpt>
      <trkpt lat="51.05407" lon="-4.19073"></trkpt>
      <trkpt lat="51.05431" lon="-4.19077"></trkpt>
      <trkpt lat="51.05446" lon="-4.19086"></trkpt>
      <trkpt lat="51.05456" lon="-4.19098"></trkpt>
      <trkpt lat="51.05465" lon="-4.19124"></trkpt>
      <trkpt lat="51.05473" lon="-4.19125"></trkpt>
      <trkpt lat="51.05497" lon="-4.1914"></trkpt>
      <trkpt lat="51.05504" lon="-4.19133"></trkpt>
      <trkpt lat="51.05545" lon="-4.19229"></trkpt>
      <trkpt lat="51.0555" lon="-4.19253"></trkpt>
      <trkpt lat="51.05535" lon="-4.1929"></trkpt>
      <trkpt lat="51.0553" lon="-4.19294"></trkpt>
      <trkpt lat="51.05537" lon="-4.19299"></trkpt>
      <trkpt lat="51.05559" lon="-4.19325"></trkpt>
      <trkpt lat="51.05593" lon="-4.19372"></trkpt>
      <trkpt lat="51.05617" lon="-4.19415"></trkpt>
      <trkpt lat="51.05619" lon="-4.1942"></trkpt>
      <trkpt lat="51.05588" lon="-4.19472"></trkpt>
      <trkpt lat="51.05609" lon="-4.19502"></trkpt>
      <trkpt lat="51.0562" lon="-4.19522"></trkpt>
      <trkpt lat="51.05636" lon="-4.19563"></trkpt>
      <trkpt lat="51.05629" lon="-4.19576"></trkpt>
      <trkpt lat="51.05629" lon="-4.19604"></trkpt>
      <trkpt lat="51.05623" lon="-4.19631"></trkpt>
      <trkpt lat="51.05618" lon="-4.19635"></trkpt>
      <trkpt lat="51.05642" lon="-4.19739"></trkpt>
      <trkpt lat="51.05645" lon="-4.19764"></trkpt>
      <trkpt lat="51.05645" lon="-4.19792"></trkpt>
      <trkpt lat="51.05637" lon="-4.19881"></trkpt>
      <trkpt lat="51.05638" lon="-4.1991"></trkpt>
      <trkpt lat="51.05642" lon="-4.19919"></trkpt>
      <trkpt lat="51.05694" lon="-4.19956"></trkpt>
      <trkpt lat="51.05686" lon="-4.19984"></trkpt>
      <trkpt lat="51.05669" lon="-4.20022"></trkpt>
      <trkpt lat="51.05679" lon="-4.20017"></trkpt>
      <trkpt lat="51.05651" lon="-4.20079"></trkpt>
      <trkpt lat="51.0563" lon="-4.20119"></trkpt>
      <trkpt lat="51.05622" lon="-4.20145"></trkpt>
      <trkpt lat="51.05606" lon="-4.2017"></trkpt>
      <trkpt lat="51.05592" lon="-4.20169"></trkpt>
      <trkpt lat="51.05547" lon="-4.20175"></trkpt>
      <trkpt lat="51.05505" lon="-4.20222"></trkpt>
      <trkpt lat="51.05473" lon="-4.20362"></trkpt>
      <trkpt lat="51.0546" lon="-4.20388"></trkpt>
      <trkpt lat="51.05451" lon="-4.20387"></trkpt>
      <trkpt lat="51.05449" lon="-4.20399"></trkpt>
      <trkpt lat="51.05435" lon="-4.20439"></trkpt>
      <trkpt lat="51.05429" lon="-4.2049"></trkpt>
      <trkpt lat="51.0533" lon="-4.20658"></trkpt>
      <trkpt lat="51.053" lon="-4.20742"></trkpt>
      <trkpt lat="51.05239" lon="-4.20869"></trkpt>
      <trkpt lat="51.05221" lon="-4.20922"></trkpt>
      <trkpt lat="51.05221" lon="-4.20933"></trkpt>
      <trkpt lat="51.05202" lon="-4.20972"></trkpt>
      <trkpt lat="51.05192" lon="-4.21018"></trkpt>
      <trkpt lat="51.0519" lon="-4.21041"></trkpt>
      <trkpt lat="51.05192" lon="-4.21051"></trkpt>
      <trkpt lat="51.05196" lon="-4.21059"></trkpt>
      <trkpt lat="51.05202" lon="-4.21063"></trkpt>
      <trkpt lat="51.05283" lon="-4.21082"></trkpt>
      <trkpt lat="51.05326" lon="-4.21105"></trkpt>
      <trkpt lat="51.05408" lon="-4.21165"></trkpt>
      <trkpt lat="51.05508" lon="-4.21259"></trkpt>
      <trkpt lat="51.05581" lon="-4.21341"></trkpt>
      <trkpt lat="51.05667" lon="-4.21448"></trkpt>
      <trkpt lat="51.05699" lon="-4.2148"></trkpt>
      <trkpt lat="51.05723" lon="-4.21498"></trkpt>
      <trkpt lat="51.05748" lon="-4.21513"></trkpt>
      <trkpt lat="51.05788" lon="-4.21525"></trkpt>
      <trkpt lat="51.05809" lon="-4.21528"></trkpt>
      <trkpt lat="51.05829" lon="-4.21523"></trkpt>
      <trkpt lat="51.05851" lon="-4.21511"></trkpt>
      <trkpt lat="51.0588" lon="-4.2149"></trkpt>
      <trkpt lat="51.06008" lon="-4.2142"></trkpt>
      <trkpt lat="51.06001" lon="-4.21392"></trkpt>
      <trkpt lat="51.06031" lon="-4.21377"></trkpt>
      <trkpt lat="51.0605" lon="-4.21361"></trkpt>
      <trkpt lat="51.06074" lon="-4.21335"></trkpt>
      <trkpt lat="51.06118" lon="-4.2127"></trkpt>
      <trkpt lat="51.06142" lon="-4.21218"></trkpt>
      <trkpt lat="51.06147" lon="-4.21194"></trkpt>
      <trkpt lat="51.06148" lon="-4.21125"></trkpt>
      <trkpt lat="51.06158" lon="-4.21037"></trkpt>
      <trkpt lat="51.06208" lon="-4.21042"></trkpt>
      <trkpt lat="51.06221" lon="-4.21117"></trkpt>
      <trkpt lat="51.06232" lon="-4.2117"></trkpt>
      <trkpt lat="51.0627" lon="-4.21267"></trkpt>
      <trkpt lat="51.06292" lon="-4.21317"></trkpt>
      <trkpt lat="51.06329" lon="-4.21394"></trkpt>
      <trkpt lat="51.06383" lon="-4.21489"></trkpt>
      <trkpt lat="51.06384" lon="-4.21505"></trkpt>
      <trkpt lat="51.0639" lon="-4.21519"></trkpt>
      <trkpt lat="51.06403" lon="-4.21568"></trkpt>
      <trkpt lat="51.06439" lon="-4.21628"></trkpt>
      <trkpt lat="51.06476" lon="-4.21733"></trkpt>
      <trkpt lat="51.06489" lon="-4.21817"></trkpt>
      <trkpt lat="51.06489" lon="-4.21828"></trkpt>
      <trkpt lat="51.06487" lon="-4.21879"></trkpt>
      <trkpt lat="51.06476" lon="-4.22011"></trkpt>
      <trkpt lat="51.06469" lon="-4.22052"></trkpt>
      <trkpt lat="51.06459" lon="-4.22088"></trkpt>
      <trkpt lat="51.06445" lon="-4.22117"></trkpt>
      <trkpt lat="51.06427" lon="-4.22144"></trkpt>
      <trkpt lat="51.06371" lon="-4.22221"></trkpt>
      <trkpt lat="51.06329" lon="-4.22269"></trkpt>
      <trkpt lat="51.06304" lon="-4.22294"></trkpt>
      <trkpt lat="51.06268" lon="-4.22345"></trkpt>
      <trkpt lat="51.0619" lon="-4.22439"></trkpt>
      <trkpt lat="51.06135" lon="-4.22521"></trkpt>
      <trkpt lat="51.0608" lon="-4.22567"></trkpt>
      <trkpt lat="51.06027" lon="-4.22604"></trkpt>
      <trkpt lat="51.05955" lon="-4.22576"></trkpt>
      <trkpt lat="51.05947" lon="-4.22592"></trkpt>
      <trkpt lat="51.05919" lon="-4.22589"></trkpt>
      <trkpt lat="51.05892" lon="-4.22605"></trkpt>
      <trkpt lat="51.05858" lon="-4.22618"></trkpt>
      <trkpt lat="51.05769" lon="-4.22679"></trkpt>
      <trkpt lat="51.05747" lon="-4.22681"></trkpt>
      <trkpt lat="51.05731" lon="-4.22671"></trkpt>
      <trkpt lat="51.05718" lon="-4.22667"></trkpt>
      <trkpt lat="51.05706" lon="-4.22644"></trkpt>
      <trkpt lat="51.05701" lon="-4.2264"></trkpt>
      <trkpt lat="51.05687" lon="-4.22646"></trkpt>
      <trkpt lat="51.05595" lon="-4.22699"></trkpt>
      <trkpt lat="51.05561" lon="-4.22713"></trkpt>
      <trkpt lat="51.05552" lon="-4.22714"></trkpt>
      <trkpt lat="51.05519" lon="-4.22706"></trkpt>
      <trkpt lat="51.05519" lon="-4.22714"></trkpt>
      <trkpt lat="51.05502" lon="-4.22702"></trkpt>
      <trkpt lat="51.0547" lon="-4.2275"></trkpt>
      <trkpt lat="51.05366" lon="-4.22943"></trkpt>
      <trkpt lat="51.05355" lon="-4.22954"></trkpt>
      <trkpt lat="51.05342" lon="-4.22962"></trkpt>
      <trkpt lat="51.05259" lon="-4.22961"></trkpt>
      <trkpt lat="51.05249" lon="-4.22994"></trkpt>
      <trkpt lat="51.05241" lon="-4.23015"></trkpt>
      <trkpt lat="51.05232" lon="-4.23028"></trkpt>
      <trkpt lat="51.05221" lon="-4.23036"></trkpt>
      <trkpt lat="51.05135" lon="-4.2308"></trkpt>
      <trkpt lat="51.05066" lon="-4.2312"></trkpt>
      <trkpt lat="51.04463" lon="-4.23491"></trkpt>
      <trkpt lat="51.04243" lon="-4.23362"></trkpt>
      <trkpt lat="51.04126" lon="-4.23836"></trkpt>
    </trkseg>
  </trk>
</gpx>
