<?xml version="1.0" encoding="UTF-8"?>
<gpx version="1.1" creator="swcp-walk (imported from OS Maps route 33818662)"
     xmlns="http://www.topografix.com/GPX/1/1">
  <metadata>
    <name>SWCP08-WestwardHo-Clovelly</name>
  </metadata>
  <trk>
    <name>SWCP08-WestwardHo-Clovelly</name>
    <trkseg>
      <trkpt lat="51.04167" lon="-4.23759"></trkpt>
      <trkpt lat="51.04157" lon="-4.23766"></trkpt>
      <trkpt lat="51.04136" lon="-4.2379"></trkpt>
      <trkpt lat="51.04128" lon="-4.23794"></trkpt>
      <trkpt lat="51.04087" lon="-4.23944"></trkpt>
      <trkpt lat="51.04082" lon="-4.23983"></trkpt>
      <trkpt lat="51.04067" lon="-4.24049"></trkpt>
      <trkpt lat="51.04054" lon="-4.24126"></trkpt>
      <trkpt lat="51.04045" lon="-4.24249"></trkpt>
      <trkpt lat="51.0404" lon="-4.24317"></trkpt>
      <trkpt lat="51.04042" lon="-4.24336"></trkpt>
      <trkpt lat="51.04036" lon="-4.24459"></trkpt>
      <trkpt lat="51.04028" lon="-4.24457"></trkpt>
      <trkpt lat="51.04021" lon="-4.24461"></trkpt>
      <trkpt lat="51.04004" lon="-4.24724"></trkpt>
      <trkpt lat="51.03989" lon="-4.24722"></trkpt>
      <trkpt lat="51.03969" lon="-4.24722"></trkpt>
      <trkpt lat="51.03978" lon="-4.24803"></trkpt>
      <trkpt lat="51.03977" lon="-4.24832"></trkpt>
      <trkpt lat="51.03946" lon="-4.24945"></trkpt>
      <trkpt lat="51.0394" lon="-4.24987"></trkpt>
      <trkpt lat="51.03923" lon="-4.25026"></trkpt>
      <trkpt lat="51.03902" lon="-4.25095"></trkpt>
      <trkpt lat="51.03893" lon="-4.25146"></trkpt>
      <trkpt lat="51.03884" lon="-4.25245"></trkpt>
      <trkpt lat="51.03866" lon="-4.25484"></trkpt>
      <trkpt lat="51.03862" lon="-4.25513"></trkpt>
      <trkpt lat="51.03852" lon="-4.25549"></trkpt>
      <trkpt lat="51.03842" lon="-4.25577"></trkpt>
      <trkpt lat="51.03803" lon="-4.25662"></trkpt>
      <trkpt lat="51.03503" lon="-4.26036"></trkpt>
      <trkpt lat="51.03394" lon="-4.26133"></trkpt>
      <trkpt lat="51.03368" lon="-4.2617"></trkpt>
      <trkpt lat="51.03374" lon="-4.26189"></trkpt>
      <trkpt lat="51.03377" lon="-4.26215"></trkpt>
      <trkpt lat="51.03377" lon="-4.26233"></trkpt>
      <trkpt lat="51.03373" lon="-4.26242"></trkpt>
      <trkpt lat="51.03367" lon="-4.26248"></trkpt>
      <trkpt lat="51.03361" lon="-4.26263"></trkpt>
      <trkpt lat="51.03352" lon="-4.26274"></trkpt>
      <trkpt lat="51.03343" lon="-4.26277"></trkpt>
      <trkpt lat="51.03339" lon="-4.26281"></trkpt>
      <trkpt lat="51.03332" lon="-4.26296"></trkpt>
      <trkpt lat="51.03315" lon="-4.26305"></trkpt>
      <trkpt lat="51.03287" lon="-4.26324"></trkpt>
      <trkpt lat="51.03271" lon="-4.26342"></trkpt>
      <trkpt lat="51.03238" lon="-4.2635"></trkpt>
      <trkpt lat="51.03168" lon="-4.26418"></trkpt>
      <trkpt lat="51.03118" lon="-4.2644"></trkpt>
      <trkpt lat="51.03118" lon="-4.26455"></trkpt>
      <trkpt lat="51.03051" lon="-4.26561"></trkpt>
      <trkpt lat="51.02988" lon="-4.26622"></trkpt>
      <trkpt lat="51.02922" lon="-4.26638"></trkpt>
      <trkpt lat="51.02882" lon="-4.26658"></trkpt>
      <trkpt lat="51.02833" lon="-4.26689"></trkpt>
      <trkpt lat="51.02801" lon="-4.26732"></trkpt>
      <trkpt lat="51.0278" lon="-4.26748"></trkpt>
      <trkpt lat="51.02708" lon="-4.26809"></trkpt>
      <trkpt lat="51.027" lon="-4.26842"></trkpt>
      <trkpt lat="51.02691" lon="-4.2685"></trkpt>
      <trkpt lat="51.02652" lon="-4.26871"></trkpt>
      <trkpt lat="51.02644" lon="-4.26885"></trkpt>
      <trkpt lat="51.02643" lon="-4.26892"></trkpt>
      <trkpt lat="51.0264" lon="-4.26899"></trkpt>
      <trkpt lat="51.026" lon="-4.26946"></trkpt>
      <trkpt lat="51.02574" lon="-4.26982"></trkpt>
      <trkpt lat="51.02555" lon="-4.26971"></trkpt>
      <trkpt lat="51.02547" lon="-4.26975"></trkpt>
      <trkpt lat="51.02537" lon="-4.2699"></trkpt>
      <trkpt lat="51.02527" lon="-4.26996"></trkpt>
      <trkpt lat="51.02508" lon="-4.27034"></trkpt>
      <trkpt lat="51.02487" lon="-4.2708"></trkpt>
      <trkpt lat="51.02402" lon="-4.27128"></trkpt>
      <trkpt lat="51.02385" lon="-4.27154"></trkpt>
      <trkpt lat="51.02372" lon="-4.27179"></trkpt>
      <trkpt lat="51.02349" lon="-4.27199"></trkpt>
      <trkpt lat="51.02333" lon="-4.27226"></trkpt>
      <trkpt lat="51.02314" lon="-4.2725"></trkpt>
      <trkpt lat="51.0229" lon="-4.27259"></trkpt>
      <trkpt lat="51.02277" lon="-4.27256"></trkpt>
      <trkpt lat="51.02271" lon="-4.27235"></trkpt>
      <trkpt lat="51.02263" lon="-4.27229"></trkpt>
      <trkpt lat="51.02225" lon="-4.2729"></trkpt>
      <trkpt lat="51.02222" lon="-4.27292"></trkpt>
      <trkpt lat="51.02217" lon="-4.27291"></trkpt>
      <trkpt lat="51.02212" lon="-4.27294"></trkpt>
      <trkpt lat="51.02207" lon="-4.27292"></trkpt>
      <trkpt lat="51.02174" lon="-4.273"></trkpt>
      <trkpt lat="51.02158" lon="-4.27293"></trkpt>
      <trkpt lat="51.0215" lon="-4.27293"></trkpt>
      <trkpt lat="51.02145" lon="-4.2727"></trkpt>
      <trkpt lat="51.0214" lon="-4.27259"></trkpt>
      <trkpt lat="51.02126" lon="-4.27257"></trkpt>
      <trkpt lat="51.0213" lon="-4.2735"></trkpt>
      <trkpt lat="51.02128" lon="-4.27359"></trkpt>
      <trkpt lat="51.02094" lon="-4.27407"></trkpt>
      <trkpt lat="51.02078" lon="-4.2743"></trkpt>
      <trkpt lat="51.01989" lon="-4.27503"></trkpt>
      <trkpt lat="51.01983" lon="-4.27506"></trkpt>
      <trkpt lat="51.0197" lon="-4.27507"></trkpt>
      <trkpt lat="51.0195" lon="-4.27528"></trkpt>
      <trkpt lat="51.01943" lon="-4.27529"></trkpt>
      <trkpt lat="51.01938" lon="-4.27534"></trkpt>
      <trkpt lat="51.01939" lon="-4.2754"></trkpt>
      <trkpt lat="51.01936" lon="-4.27546"></trkpt>
      <trkpt lat="51.01922" lon="-4.2755"></trkpt>
      <trkpt lat="51.01915" lon="-4.27543"></trkpt>
      <trkpt lat="51.01904" lon="-4.27548"></trkpt>
      <trkpt lat="51.01889" lon="-4.2756"></trkpt>
      <trkpt lat="51.01863" lon="-4.27576"></trkpt>
      <trkpt lat="51.01842" lon="-4.27604"></trkpt>
      <trkpt lat="51.01821" lon="-4.27621"></trkpt>
      <trkpt lat="51.01803" lon="-4.27621"></trkpt>
      <trkpt lat="51.01761" lon="-4.27648"></trkpt>
      <trkpt lat="51.01748" lon="-4.27659"></trkpt>
      <trkpt lat="51.01731" lon="-4.27679"></trkpt>
      <trkpt lat="51.01711" lon="-4.27691"></trkpt>
      <trkpt lat="51.01706" lon="-4.27697"></trkpt>
      <trkpt lat="51.01697" lon="-4.27704"></trkpt>
      <trkpt lat="51.01678" lon="-4.2773"></trkpt>
      <trkpt lat="51.01672" lon="-4.27732"></trkpt>
      <trkpt lat="51.01662" lon="-4.27747"></trkpt>
      <trkpt lat="51.01652" lon="-4.27756"></trkpt>
      <trkpt lat="51.01637" lon="-4.27759"></trkpt>
      <trkpt lat="51.01625" lon="-4.27755"></trkpt>
      <trkpt lat="51.01609" lon="-4.27758"></trkpt>
      <trkpt lat="51.01605" lon="-4.27762"></trkpt>
      <trkpt lat="51.01593" lon="-4.27779"></trkpt>
      <trkpt lat="51.01578" lon="-4.27807"></trkpt>
      <trkpt lat="51.0157" lon="-4.27857"></trkpt>
      <trkpt lat="51.01549" lon="-4.27891"></trkpt>
      <trkpt lat="51.01533" lon="-4.27878"></trkpt>
      <trkpt lat="51.01526" lon="-4.27875"></trkpt>
      <trkpt lat="51.0152" lon="-4.27878"></trkpt>
      <trkpt lat="51.01518" lon="-4.27884"></trkpt>
      <trkpt lat="51.01512" lon="-4.27927"></trkpt>
      <trkpt lat="51.01485" lon="-4.27975"></trkpt>
      <trkpt lat="51.01482" lon="-4.27989"></trkpt>
      <trkpt lat="51.01483" lon="-4.28013"></trkpt>
      <trkpt lat="51.0148" lon="-4.28019"></trkpt>
      <trkpt lat="51.01447" lon="-4.2805"></trkpt>
      <trkpt lat="51.01443" lon="-4.2806"></trkpt>
      <trkpt lat="51.01444" lon="-4.28074"></trkpt>
      <trkpt lat="51.01442" lon="-4.2808"></trkpt>
      <trkpt lat="51.01438" lon="-4.28086"></trkpt>
      <trkpt lat="51.01432" lon="-4.28105"></trkpt>
      <trkpt lat="51.01394" lon="-4.28155"></trkpt>
      <trkpt lat="51.01388" lon="-4.28177"></trkpt>
      <trkpt lat="51.01383" lon="-4.28214"></trkpt>
      <trkpt lat="51.01377" lon="-4.28226"></trkpt>
      <trkpt lat="51.01338" lon="-4.28263"></trkpt>
      <trkpt lat="51.01308" lon="-4.28274"></trkpt>
      <trkpt lat="51.01306" lon="-4.28277"></trkpt>
      <trkpt lat="51.01304" lon="-4.28285"></trkpt>
      <trkpt lat="51.01303" lon="-4.28304"></trkpt>
      <trkpt lat="51.01286" lon="-4.28321"></trkpt>
      <trkpt lat="51.01274" lon="-4.28325"></trkpt>
      <trkpt lat="51.0127" lon="-4.28337"></trkpt>
      <trkpt lat="51.0119" lon="-4.28375"></trkpt>
      <trkpt lat="51.01186" lon="-4.28391"></trkpt>
      <trkpt lat="51.01175" lon="-4.28411"></trkpt>
      <trkpt lat="51.01148" lon="-4.28432"></trkpt>
      <trkpt lat="51.0111" lon="-4.2847"></trkpt>
      <trkpt lat="51.01103" lon="-4.28489"></trkpt>
      <trkpt lat="51.01093" lon="-4.28506"></trkpt>
      <trkpt lat="51.01085" lon="-4.2855"></trkpt>
      <trkpt lat="51.01075" lon="-4.28581"></trkpt>
      <trkpt lat="51.01075" lon="-4.28588"></trkpt>
      <trkpt lat="51.01081" lon="-4.28596"></trkpt>
      <trkpt lat="51.01087" lon="-4.28592"></trkpt>
      <trkpt lat="51.01092" lon="-4.28595"></trkpt>
      <trkpt lat="51.01099" lon="-4.28591"></trkpt>
      <trkpt lat="51.01098" lon="-4.28603"></trkpt>
      <trkpt lat="51.01103" lon="-4.28616"></trkpt>
      <trkpt lat="51.01094" lon="-4.28634"></trkpt>
      <trkpt lat="51.01096" lon="-4.28637"></trkpt>
      <trkpt lat="51.01095" lon="-4.2864"></trkpt>
      <trkpt lat="51.01079" lon="-4.28656"></trkpt>
      <trkpt lat="51.01076" lon="-4.2866"></trkpt>
      <trkpt lat="51.01062" lon="-4.28658"></trkpt>
      <trkpt lat="51.01056" lon="-4.28655"></trkpt>
      <trkpt lat="51.01042" lon="-4.28631"></trkpt>
      <trkpt lat="51.0104" lon="-4.28633"></trkpt>
      <trkpt lat="51.0104" lon="-4.28657"></trkpt>
      <trkpt lat="51.01037" lon="-4.28664"></trkpt>
      <trkpt lat="51.0101" lon="-4.28673"></trkpt>
      <trkpt lat="51.01" lon="-4.28688"></trkpt>
      <trkpt lat="51.00996" lon="-4.28689"></trkpt>
      <trkpt lat="51.00979" lon="-4.2867"></trkpt>
      <trkpt lat="51.00952" lon="-4.28666"></trkpt>
      <trkpt lat="51.00882" lon="-4.28696"></trkpt>
      <trkpt lat="51.00873" lon="-4.28702"></trkpt>
      <trkpt lat="51.00868" lon="-4.28712"></trkpt>
      <trkpt lat="51.00857" lon="-4.28751"></trkpt>
      <trkpt lat="51.00832" lon="-4.28767"></trkpt>
      <trkpt lat="51.00823" lon="-4.28815"></trkpt>
      <trkpt lat="51.00804" lon="-4.28855"></trkpt>
      <trkpt lat="51.00799" lon="-4.2886"></trkpt>
      <trkpt lat="51.00794" lon="-4.28862"></trkpt>
      <trkpt lat="51.00788" lon="-4.2886"></trkpt>
      <trkpt lat="51.0075" lon="-4.28833"></trkpt>
      <trkpt lat="51.00738" lon="-4.28832"></trkpt>
      <trkpt lat="51.00735" lon="-4.28825"></trkpt>
      <trkpt lat="51.00711" lon="-4.28821"></trkpt>
      <trkpt lat="51.00714" lon="-4.28803"></trkpt>
      <trkpt lat="51.00709" lon="-4.28791"></trkpt>
      <trkpt lat="51.00712" lon="-4.2879"></trkpt>
      <trkpt lat="51.00712" lon="-4.28786"></trkpt>
      <trkpt lat="51.00704" lon="-4.28781"></trkpt>
      <trkpt lat="51.00694" lon="-4.28757"></trkpt>
      <trkpt lat="51.00677" lon="-4.28778"></trkpt>
      <trkpt lat="51.00671" lon="-4.28777"></trkpt>
      <trkpt lat="51.00665" lon="-4.28785"></trkpt>
      <trkpt lat="51.00663" lon="-4.28781"></trkpt>
      <trkpt lat="51.00633" lon="-4.28767"></trkpt>
      <trkpt lat="51.0063" lon="-4.28759"></trkpt>
      <trkpt lat="51.00632" lon="-4.2875"></trkpt>
      <trkpt lat="51.00628" lon="-4.28737"></trkpt>
      <trkpt lat="51.00624" lon="-4.2873"></trkpt>
      <trkpt lat="51.00628" lon="-4.28715"></trkpt>
      <trkpt lat="51.00618" lon="-4.28712"></trkpt>
      <trkpt lat="51.00611" lon="-4.28714"></trkpt>
      <trkpt lat="51.00604" lon="-4.28721"></trkpt>
      <trkpt lat="51.00596" lon="-4.28738"></trkpt>
      <trkpt lat="51.00587" lon="-4.28743"></trkpt>
      <trkpt lat="51.00572" lon="-4.28745"></trkpt>
      <trkpt lat="51.00568" lon="-4.28779"></trkpt>
      <trkpt lat="51.00559" lon="-4.28813"></trkpt>
      <trkpt lat="51.00545" lon="-4.28818"></trkpt>
      <trkpt lat="51.00529" lon="-4.28838"></trkpt>
      <trkpt lat="51.00519" lon="-4.28854"></trkpt>
      <trkpt lat="51.00516" lon="-4.28887"></trkpt>
      <trkpt lat="51.00511" lon="-4.289"></trkpt>
      <trkpt lat="51.005" lon="-4.28901"></trkpt>
      <trkpt lat="51.00489" lon="-4.28921"></trkpt>
      <trkpt lat="51.00472" lon="-4.2897"></trkpt>
      <trkpt lat="51.0047" lon="-4.28986"></trkpt>
      <trkpt lat="51.00474" lon="-4.2901"></trkpt>
      <trkpt lat="51.00473" lon="-4.29036"></trkpt>
      <trkpt lat="51.00428" lon="-4.29174"></trkpt>
      <trkpt lat="51.00413" lon="-4.29195"></trkpt>
      <trkpt lat="51.00385" lon="-4.29206"></trkpt>
      <trkpt lat="51.00364" lon="-4.29224"></trkpt>
      <trkpt lat="51.00341" lon="-4.29239"></trkpt>
      <trkpt lat="51.00316" lon="-4.2928"></trkpt>
      <trkpt lat="51.00341" lon="-4.29239"></trkpt>
      <trkpt lat="51.00364" lon="-4.29224"></trkpt>
      <trkpt lat="51.00384" lon="-4.29206"></trkpt>
      <trkpt lat="51.00364" lon="-4.29224"></trkpt>
      <trkpt lat="51.00341" lon="-4.29239"></trkpt>
      <trkpt lat="51.00279" lon="-4.29338"></trkpt>
      <trkpt lat="51.00259" lon="-4.29396"></trkpt>
      <trkpt lat="51.00255" lon="-4.29402"></trkpt>
      <trkpt lat="51.00226" lon="-4.29404"></trkpt>
      <trkpt lat="51.00191" lon="-4.29441"></trkpt>
      <trkpt lat="51.00186" lon="-4.29443"></trkpt>
      <trkpt lat="51.00156" lon="-4.29436"></trkpt>
      <trkpt lat="51.00151" lon="-4.29437"></trkpt>
      <trkpt lat="51.00144" lon="-4.29458"></trkpt>
      <trkpt lat="51.00136" lon="-4.29576"></trkpt>
      <trkpt lat="51.00078" lon="-4.29719"></trkpt>
      <trkpt lat="51.00025" lon="-4.29765"></trkpt>
      <trkpt lat="51.00018" lon="-4.29793"></trkpt>
      <trkpt lat="50.99994" lon="-4.29848"></trkpt>
      <trkpt lat="50.99965" lon="-4.29887"></trkpt>
      <trkpt lat="50.99962" lon="-4.29894"></trkpt>
      <trkpt lat="50.99959" lon="-4.2993"></trkpt>
      <trkpt lat="50.99905" lon="-4.30013"></trkpt>
      <trkpt lat="50.99891" lon="-4.30031"></trkpt>
      <trkpt lat="50.99884" lon="-4.30036"></trkpt>
      <trkpt lat="50.99863" lon="-4.30035"></trkpt>
      <trkpt lat="50.99859" lon="-4.30038"></trkpt>
      <trkpt lat="50.9986" lon="-4.3005"></trkpt>
      <trkpt lat="50.99844" lon="-4.30105"></trkpt>
      <trkpt lat="50.99813" lon="-4.30166"></trkpt>
      <trkpt lat="50.99777" lon="-4.30209"></trkpt>
      <trkpt lat="50.99742" lon="-4.30276"></trkpt>
      <trkpt lat="50.99703" lon="-4.30299"></trkpt>
      <trkpt lat="50.99694" lon="-4.30314"></trkpt>
      <trkpt lat="50.99695" lon="-4.30346"></trkpt>
      <trkpt lat="50.99691" lon="-4.30366"></trkpt>
      <trkpt lat="50.99681" lon="-4.30392"></trkpt>
      <trkpt lat="50.99653" lon="-4.30442"></trkpt>
      <trkpt lat="50.99611" lon="-4.30482"></trkpt>
      <trkpt lat="50.99596" lon="-4.30504"></trkpt>
      <trkpt lat="50.99591" lon="-4.30507"></trkpt>
      <trkpt lat="50.9958" lon="-4.30507"></trkpt>
      <trkpt lat="50.99569" lon="-4.30515"></trkpt>
      <trkpt lat="50.99566" lon="-4.30521"></trkpt>
      <trkpt lat="50.99565" lon="-4.30529"></trkpt>
      <trkpt lat="50.99567" lon="-4.30551"></trkpt>
      <trkpt lat="50.99562" lon="-4.30575"></trkpt>
      <trkpt lat="50.99536" lon="-4.30622"></trkpt>
      <trkpt lat="50.99535" lon="-4.30649"></trkpt>
      <trkpt lat="50.99531" lon="-4.30657"></trkpt>
      <trkpt lat="50.99526" lon="-4.30659"></trkpt>
      <trkpt lat="50.99493" lon="-4.30656"></trkpt>
      <trkpt lat="50.99489" lon="-4.30658"></trkpt>
      <trkpt lat="50.99482" lon="-4.30669"></trkpt>
      <trkpt lat="50.9948" lon="-4.30678"></trkpt>
      <trkpt lat="50.99476" lon="-4.30683"></trkpt>
      <trkpt lat="50.99449" lon="-4.30685"></trkpt>
      <trkpt lat="50.99432" lon="-4.30682"></trkpt>
      <trkpt lat="50.99383" lon="-4.30665"></trkpt>
      <trkpt lat="50.99384" lon="-4.30737"></trkpt>
      <trkpt lat="50.99374" lon="-4.30723"></trkpt>
      <trkpt lat="50.99369" lon="-4.30722"></trkpt>
      <trkpt lat="50.99363" lon="-4.30724"></trkpt>
      <trkpt lat="50.99357" lon="-4.3073"></trkpt>
      <trkpt lat="50.99351" lon="-4.30746"></trkpt>
      <trkpt lat="50.99355" lon="-4.30882"></trkpt>
      <trkpt lat="50.99356" lon="-4.30915"></trkpt>
      <trkpt lat="50.99352" lon="-4.30973"></trkpt>
      <trkpt lat="50.99367" lon="-4.30993"></trkpt>
      <trkpt lat="50.99366" lon="-4.31008"></trkpt>
      <trkpt lat="50.99372" lon="-4.31041"></trkpt>
      <trkpt lat="50.99373" lon="-4.31073"></trkpt>
      <trkpt lat="50.99367" lon="-4.3109"></trkpt>
      <trkpt lat="50.99366" lon="-4.31109"></trkpt>
      <trkpt lat="50.99374" lon="-4.31112"></trkpt>
      <trkpt lat="50.99368" lon="-4.31148"></trkpt>
      <trkpt lat="50.99368" lon="-4.31167"></trkpt>
      <trkpt lat="50.99362" lon="-4.31203"></trkpt>
      <trkpt lat="50.99354" lon="-4.31203"></trkpt>
      <trkpt lat="50.99345" lon="-4.312"></trkpt>
      <trkpt lat="50.99335" lon="-4.31192"></trkpt>
      <trkpt lat="50.99315" lon="-4.31204"></trkpt>
      <trkpt lat="50.993" lon="-4.31227"></trkpt>
      <trkpt lat="50.99281" lon="-4.31228"></trkpt>
      <trkpt lat="50.99273" lon="-4.31234"></trkpt>
      <trkpt lat="50.99265" lon="-4.31246"></trkpt>
      <trkpt lat="50.99258" lon="-4.31261"></trkpt>
      <trkpt lat="50.99251" lon="-4.31286"></trkpt>
      <trkpt lat="50.99248" lon="-4.31315"></trkpt>
      <trkpt lat="50.99223" lon="-4.31347"></trkpt>
      <trkpt lat="50.99199" lon="-4.31383"></trkpt>
      <trkpt lat="50.99176" lon="-4.31439"></trkpt>
      <trkpt lat="50.9918" lon="-4.31466"></trkpt>
      <trkpt lat="50.99165" lon="-4.31544"></trkpt>
      <trkpt lat="50.99169" lon="-4.31618"></trkpt>
      <trkpt lat="50.99161" lon="-4.31663"></trkpt>
      <trkpt lat="50.99148" lon="-4.31695"></trkpt>
      <trkpt lat="50.99126" lon="-4.31759"></trkpt>
      <trkpt lat="50.99115" lon="-4.31752"></trkpt>
      <trkpt lat="50.99085" lon="-4.31834"></trkpt>
      <trkpt lat="50.99067" lon="-4.31895"></trkpt>
      <trkpt lat="50.99036" lon="-4.31975"></trkpt>
      <trkpt lat="50.99029" lon="-4.32014"></trkpt>
      <trkpt lat="50.9902" lon="-4.32047"></trkpt>
      <trkpt lat="50.99008" lon="-4.32076"></trkpt>
      <trkpt lat="50.99008" lon="-4.32096"></trkpt>
      <trkpt lat="50.99003" lon="-4.32137"></trkpt>
      <trkpt lat="50.9901" lon="-4.32155"></trkpt>
      <trkpt lat="50.99009" lon="-4.32199"></trkpt>
      <trkpt lat="50.99004" lon="-4.32228"></trkpt>
      <trkpt lat="50.98995" lon="-4.32364"></trkpt>
      <trkpt lat="50.98989" lon="-4.32414"></trkpt>
      <trkpt lat="50.98978" lon="-4.3247"></trkpt>
      <trkpt lat="50.98977" lon="-4.32483"></trkpt>
      <trkpt lat="50.9897" lon="-4.32498"></trkpt>
      <trkpt lat="50.98965" lon="-4.32534"></trkpt>
      <trkpt lat="50.98952" lon="-4.32565"></trkpt>
      <trkpt lat="50.98948" lon="-4.32584"></trkpt>
      <trkpt lat="50.98954" lon="-4.32615"></trkpt>
      <trkpt lat="50.98953" lon="-4.32652"></trkpt>
      <trkpt lat="50.98947" lon="-4.32707"></trkpt>
      <trkpt lat="50.98942" lon="-4.32793"></trkpt>
      <trkpt lat="50.98936" lon="-4.32836"></trkpt>
      <trkpt lat="50.9893" lon="-4.32895"></trkpt>
      <trkpt lat="50.98929" lon="-4.32915"></trkpt>
      <trkpt lat="50.98892" lon="-4.33057"></trkpt>
      <trkpt lat="50.9887" lon="-4.33172"></trkpt>
      <trkpt lat="50.98863" lon="-4.33228"></trkpt>
      <trkpt lat="50.9885" lon="-4.33303"></trkpt>
      <trkpt lat="50.98836" lon="-4.3337"></trkpt>
      <trkpt lat="50.98829" lon="-4.33427"></trkpt>
      <trkpt lat="50.98821" lon="-4.33509"></trkpt>
      <trkpt lat="50.98819" lon="-4.33603"></trkpt>
      <trkpt lat="50.98808" lon="-4.33659"></trkpt>
      <trkpt lat="50.98805" lon="-4.33701"></trkpt>
      <trkpt lat="50.98799" lon="-4.33742"></trkpt>
      <trkpt lat="50.98787" lon="-4.33805"></trkpt>
      <trkpt lat="50.98785" lon="-4.33821"></trkpt>
      <trkpt lat="50.98786" lon="-4.33867"></trkpt>
      <trkpt lat="50.98786" lon="-4.33896"></trkpt>
      <trkpt lat="50.98785" lon="-4.33903"></trkpt>
      <trkpt lat="50.98777" lon="-4.33919"></trkpt>
      <trkpt lat="50.98764" lon="-4.33951"></trkpt>
      <trkpt lat="50.98757" lon="-4.33964"></trkpt>
      <trkpt lat="50.98744" lon="-4.33976"></trkpt>
      <trkpt lat="50.9874" lon="-4.34001"></trkpt>
      <trkpt lat="50.98736" lon="-4.34009"></trkpt>
      <trkpt lat="50.98721" lon="-4.34017"></trkpt>
      <trkpt lat="50.98715" lon="-4.34026"></trkpt>
      <trkpt lat="50.98709" lon="-4.34047"></trkpt>
      <trkpt lat="50.98708" lon="-4.34075"></trkpt>
      <trkpt lat="50.9871" lon="-4.34102"></trkpt>
      <trkpt lat="50.98733" lon="-4.34187"></trkpt>
      <trkpt lat="50.9874" lon="-4.34205"></trkpt>
      <trkpt lat="50.9876" lon="-4.34225"></trkpt>
      <trkpt lat="50.98772" lon="-4.34245"></trkpt>
      <trkpt lat="50.98768" lon="-4.34279"></trkpt>
      <trkpt lat="50.98781" lon="-4.3432"></trkpt>
      <trkpt lat="50.98792" lon="-4.34343"></trkpt>
      <trkpt lat="50.98787" lon="-4.34351"></trkpt>
      <trkpt lat="50.98783" lon="-4.34364"></trkpt>
      <trkpt lat="50.98777" lon="-4.34354"></trkpt>
      <trkpt lat="50.98775" lon="-4.34359"></trkpt>
      <trkpt lat="50.98788" lon="-4.34387"></trkpt>
      <trkpt lat="50.98801" lon="-4.34399"></trkpt>
      <trkpt lat="50.98806" lon="-4.34414"></trkpt>
      <trkpt lat="50.98811" lon="-4.34417"></trkpt>
      <trkpt lat="50.98812" lon="-4.34424"></trkpt>
      <trkpt lat="50.9881" lon="-4.34429"></trkpt>
      <trkpt lat="50.98801" lon="-4.34429"></trkpt>
      <trkpt lat="50.98817" lon="-4.34438"></trkpt>
      <trkpt lat="50.98825" lon="-4.34462"></trkpt>
      <trkpt lat="50.98813" lon="-4.34469"></trkpt>
      <trkpt lat="50.98798" lon="-4.3449"></trkpt>
      <trkpt lat="50.98811" lon="-4.34506"></trkpt>
      <trkpt lat="50.98821" lon="-4.34511"></trkpt>
      <trkpt lat="50.98822" lon="-4.34529"></trkpt>
      <trkpt lat="50.98827" lon="-4.34547"></trkpt>
      <trkpt lat="50.98825" lon="-4.34552"></trkpt>
      <trkpt lat="50.98798" lon="-4.34562"></trkpt>
      <trkpt lat="50.98797" lon="-4.34566"></trkpt>
      <trkpt lat="50.98806" lon="-4.34587"></trkpt>
      <trkpt lat="50.98803" lon="-4.34593"></trkpt>
      <trkpt lat="50.98798" lon="-4.34594"></trkpt>
      <trkpt lat="50.98796" lon="-4.34597"></trkpt>
      <trkpt lat="50.98793" lon="-4.34613"></trkpt>
      <trkpt lat="50.9879" lon="-4.34617"></trkpt>
      <trkpt lat="50.98774" lon="-4.34612"></trkpt>
      <trkpt lat="50.98766" lon="-4.34615"></trkpt>
      <trkpt lat="50.98759" lon="-4.34625"></trkpt>
      <trkpt lat="50.98754" lon="-4.34639"></trkpt>
      <trkpt lat="50.98751" lon="-4.34656"></trkpt>
      <trkpt lat="50.98749" lon="-4.34693"></trkpt>
      <trkpt lat="50.98751" lon="-4.34709"></trkpt>
      <trkpt lat="50.98756" lon="-4.34721"></trkpt>
      <trkpt lat="50.98777" lon="-4.34737"></trkpt>
      <trkpt lat="50.9878" lon="-4.34749"></trkpt>
      <trkpt lat="50.9878" lon="-4.34789"></trkpt>
      <trkpt lat="50.98778" lon="-4.34813"></trkpt>
      <trkpt lat="50.98782" lon="-4.3487"></trkpt>
      <trkpt lat="50.98792" lon="-4.34939"></trkpt>
      <trkpt lat="50.98793" lon="-4.34962"></trkpt>
      <trkpt lat="50.98787" lon="-4.35021"></trkpt>
      <trkpt lat="50.98781" lon="-4.35045"></trkpt>
      <trkpt lat="50.98783" lon="-4.35071"></trkpt>
      <trkpt lat="50.98789" lon="-4.35105"></trkpt>
      <trkpt lat="50.9879" lon="-4.35154"></trkpt>
      <trkpt lat="50.98786" lon="-4.35194"></trkpt>
      <trkpt lat="50.98779" lon="-4.3522"></trkpt>
      <trkpt lat="50.98756" lon="-4.35283"></trkpt>
      <trkpt lat="50.98745" lon="-4.35335"></trkpt>
      <trkpt lat="50.9874" lon="-4.35348"></trkpt>
      <trkpt lat="50.98728" lon="-4.35408"></trkpt>
      <trkpt lat="50.98724" lon="-4.3545"></trkpt>
      <trkpt lat="50.98729" lon="-4.35498"></trkpt>
      <trkpt lat="50.98739" lon="-4.35548"></trkpt>
      <trkpt lat="50.98744" lon="-4.35552"></trkpt>
      <trkpt lat="50.98747" lon="-4.3555"></trkpt>
      <trkpt lat="50.9876" lon="-4.35528"></trkpt>
      <trkpt lat="50.98769" lon="-4.35519"></trkpt>
      <trkpt lat="50.98783" lon="-4.35517"></trkpt>
      <trkpt lat="50.98813" lon="-4.35534"></trkpt>
      <trkpt lat="50.98834" lon="-4.35551"></trkpt>
      <trkpt lat="50.98842" lon="-4.35568"></trkpt>
      <trkpt lat="50.98855" lon="-4.35618"></trkpt>
      <trkpt lat="50.98863" lon="-4.35683"></trkpt>
      <trkpt lat="50.98863" lon="-4.35718"></trkpt>
      <trkpt lat="50.98861" lon="-4.35748"></trkpt>
      <trkpt lat="50.98853" lon="-4.35814"></trkpt>
      <trkpt lat="50.98844" lon="-4.35832"></trkpt>
      <trkpt lat="50.98837" lon="-4.35873"></trkpt>
      <trkpt lat="50.98824" lon="-4.35927"></trkpt>
      <trkpt lat="50.98807" lon="-4.35946"></trkpt>
      <trkpt lat="50.98796" lon="-4.35975"></trkpt>
      <trkpt lat="50.9879" lon="-4.35983"></trkpt>
      <trkpt lat="50.98777" lon="-4.35989"></trkpt>
      <trkpt lat="50.98709" lon="-4.36018"></trkpt>
      <trkpt lat="50.98685" lon="-4.36017"></trkpt>
      <trkpt lat="50.98669" lon="-4.36069"></trkpt>
      <trkpt lat="50.98643" lon="-4.36123"></trkpt>
      <trkpt lat="50.98642" lon="-4.36141"></trkpt>
      <trkpt lat="50.98649" lon="-4.36227"></trkpt>
      <trkpt lat="50.98655" lon="-4.36267"></trkpt>
      <trkpt lat="50.98658" lon="-4.36274"></trkpt>
      <trkpt lat="50.98684" lon="-4.36305"></trkpt>
      <trkpt lat="50.9869" lon="-4.36303"></trkpt>
      <trkpt lat="50.98707" lon="-4.36247"></trkpt>
      <trkpt lat="50.98717" lon="-4.36224"></trkpt>
      <trkpt lat="50.98724" lon="-4.36215"></trkpt>
      <trkpt lat="50.98733" lon="-4.36211"></trkpt>
      <trkpt lat="50.98749" lon="-4.36209"></trkpt>
      <trkpt lat="50.98789" lon="-4.36217"></trkpt>
      <trkpt lat="50.98807" lon="-4.36229"></trkpt>
      <trkpt lat="50.9882" lon="-4.36241"></trkpt>
      <trkpt lat="50.98831" lon="-4.36258"></trkpt>
      <trkpt lat="50.98838" lon="-4.3628"></trkpt>
      <trkpt lat="50.9884" lon="-4.36307"></trkpt>
      <trkpt lat="50.98839" lon="-4.36337"></trkpt>
      <trkpt lat="50.9883" lon="-4.36383"></trkpt>
      <trkpt lat="50.98817" lon="-4.36576"></trkpt>
      <trkpt lat="50.98819" lon="-4.36597"></trkpt>
      <trkpt lat="50.98813" lon="-4.36665"></trkpt>
      <trkpt lat="50.98814" lon="-4.3667"></trkpt>
      <trkpt lat="50.98826" lon="-4.36685"></trkpt>
      <trkpt lat="50.98827" lon="-4.36691"></trkpt>
      <trkpt lat="50.98826" lon="-4.36728"></trkpt>
      <trkpt lat="50.98821" lon="-4.36753"></trkpt>
      <trkpt lat="50.98821" lon="-4.36768"></trkpt>
      <trkpt lat="50.98831" lon="-4.36838"></trkpt>
      <trkpt lat="50.98831" lon="-4.36852"></trkpt>
      <trkpt lat="50.98823" lon="-4.36925"></trkpt>
      <trkpt lat="50.98824" lon="-4.36957"></trkpt>
      <trkpt lat="50.98822" lon="-4.3697"></trkpt>
      <trkpt lat="50.98831" lon="-4.36994"></trkpt>
      <trkpt lat="50.98835" lon="-4.37034"></trkpt>
      <trkpt lat="50.98829" lon="-4.3709"></trkpt>
      <trkpt lat="50.98817" lon="-4.37218"></trkpt>
      <trkpt lat="50.98817" lon="-4.37252"></trkpt>
      <trkpt lat="50.98814" lon="-4.37255"></trkpt>
      <trkpt lat="50.98759" lon="-4.37265"></trkpt>
      <trkpt lat="50.98756" lon="-4.37269"></trkpt>
      <trkpt lat="50.98756" lon="-4.37285"></trkpt>
      <trkpt lat="50.98753" lon="-4.37289"></trkpt>
      <trkpt lat="50.9875" lon="-4.3729"></trkpt>
      <trkpt lat="50.98712" lon="-4.37272"></trkpt>
      <trkpt lat="50.98707" lon="-4.37266"></trkpt>
      <trkpt lat="50.98699" lon="-4.37237"></trkpt>
      <trkpt lat="50.98684" lon="-4.37234"></trkpt>
      <trkpt lat="50.98678" lon="-4.37239"></trkpt>
      <trkpt lat="50.98666" lon="-4.37266"></trkpt>
      <trkpt lat="50.98685" lon="-4.37317"></trkpt>
      <trkpt lat="50.98687" lon="-4.37333"></trkpt>
      <trkpt lat="50.98688" lon="-4.3735"></trkpt>
      <trkpt lat="50.98683" lon="-4.37416"></trkpt>
      <trkpt lat="50.98683" lon="-4.3744"></trkpt>
      <trkpt lat="50.98693" lon="-4.37488"></trkpt>
      <trkpt lat="50.98706" lon="-4.37533"></trkpt>
      <trkpt lat="50.98718" lon="-4.37559"></trkpt>
      <trkpt lat="50.98723" lon="-4.37578"></trkpt>
      <trkpt lat="50.98729" lon="-4.37612"></trkpt>
      <trkpt lat="50.98733" lon="-4.37645"></trkpt>
      <trkpt lat="50.98738" lon="-4.37694"></trkpt>
      <trkpt lat="50.98745" lon="-4.37725"></trkpt>
      <trkpt lat="50.98746" lon="-4.3775"></trkpt>
      <trkpt lat="50.98741" lon="-4.37789"></trkpt>
      <trkpt lat="50.98738" lon="-4.37842"></trkpt>
      <trkpt lat="50.9874" lon="-4.37864"></trkpt>
      <trkpt lat="50.98747" lon="-4.37908"></trkpt>
      <trkpt lat="50.98744" lon="-4.37923"></trkpt>
      <trkpt lat="50.98735" lon="-4.3794"></trkpt>
      <trkpt lat="50.98699" lon="-4.37976"></trkpt>
      <trkpt lat="50.98673" lon="-4.37996"></trkpt>
      <trkpt lat="50.9866" lon="-4.38002"></trkpt>
      <trkpt lat="50.98643" lon="-4.38015"></trkpt>
      <trkpt lat="50.9864" lon="-4.38023"></trkpt>
      <trkpt lat="50.9864" lon="-4.38031"></trkpt>
      <trkpt lat="50.98642" lon="-4.38039"></trkpt>
      <trkpt lat="50.98645" lon="-4.38044"></trkpt>
      <trkpt lat="50.98659" lon="-4.38049"></trkpt>
      <trkpt lat="50.98698" lon="-4.38051"></trkpt>
      <trkpt lat="50.98722" lon="-4.38049"></trkpt>
      <trkpt lat="50.9876" lon="-4.38035"></trkpt>
      <trkpt lat="50.98781" lon="-4.38032"></trkpt>
      <trkpt lat="50.98798" lon="-4.38025"></trkpt>
      <trkpt lat="50.98812" lon="-4.38012"></trkpt>
      <trkpt lat="50.98827" lon="-4.37992"></trkpt>
      <trkpt lat="50.98838" lon="-4.3797"></trkpt>
      <trkpt lat="50.98858" lon="-4.379"></trkpt>
      <trkpt lat="50.98865" lon="-4.37887"></trkpt>
      <trkpt lat="50.98876" lon="-4.37878"></trkpt>
      <trkpt lat="50.9889" lon="-4.37874"></trkpt>
      <trkpt lat="50.98908" lon="-4.37875"></trkpt>
      <trkpt lat="50.98936" lon="-4.37883"></trkpt>
      <trkpt lat="50.98941" lon="-4.37889"></trkpt>
      <trkpt lat="50.9895" lon="-4.37908"></trkpt>
      <trkpt lat="50.98962" lon="-4.37991"></trkpt>
      <trkpt lat="50.98967" lon="-4.38016"></trkpt>
      <trkpt lat="50.98988" lon="-4.38082"></trkpt>
      <trkpt lat="50.9902" lon="-4.38148"></trkpt>
      <trkpt lat="50.99041" lon="-4.38181"></trkpt>
      <trkpt lat="50.99072" lon="-4.38213"></trkpt>
      <trkpt lat="50.99081" lon="-4.38226"></trkpt>
      <trkpt lat="50.99084" lon="-4.38242"></trkpt>
      <trkpt lat="50.99088" lon="-4.38289"></trkpt>
      <trkpt lat="50.99088" lon="-4.38343"></trkpt>
      <trkpt lat="50.99099" lon="-4.38532"></trkpt>
      <trkpt lat="50.99106" lon="-4.38616"></trkpt>
      <trkpt lat="50.99112" lon="-4.3866"></trkpt>
      <trkpt lat="50.99119" lon="-4.38687"></trkpt>
      <trkpt lat="50.99144" lon="-4.38767"></trkpt>
      <trkpt lat="50.99157" lon="-4.38801"></trkpt>
      <trkpt lat="50.99175" lon="-4.38832"></trkpt>
      <trkpt lat="50.99189" lon="-4.38855"></trkpt>
      <trkpt lat="50.99233" lon="-4.38916"></trkpt>
      <trkpt lat="50.99247" lon="-4.38941"></trkpt>
      <trkpt lat="50.99254" lon="-4.38961"></trkpt>
      <trkpt lat="50.99282" lon="-4.39069"></trkpt>
      <trkpt lat="50.99318" lon="-4.3913"></trkpt>
      <trkpt lat="50.99321" lon="-4.39139"></trkpt>
      <trkpt lat="50.99324" lon="-4.39187"></trkpt>
      <trkpt lat="50.9932" lon="-4.39254"></trkpt>
      <trkpt lat="50.99317" lon="-4.39267"></trkpt>
      <trkpt lat="50.9924" lon="-4.39372"></trkpt>
      <trkpt lat="50.99197" lon="-4.39424"></trkpt>
      <trkpt lat="50.9919" lon="-4.39428"></trkpt>
      <trkpt lat="50.99181" lon="-4.39428"></trkpt>
      <trkpt lat="50.99058" lon="-4.39386"></trkpt>
      <trkpt lat="50.99041" lon="-4.39384"></trkpt>
      <trkpt lat="50.99038" lon="-4.39387"></trkpt>
      <trkpt lat="50.99036" lon="-4.39397"></trkpt>
      <trkpt lat="50.99037" lon="-4.39403"></trkpt>
      <trkpt lat="50.99044" lon="-4.39414"></trkpt>
      <trkpt lat="50.99079" lon="-4.39455"></trkpt>
      <trkpt lat="50.99109" lon="-4.39502"></trkpt>
      <trkpt lat="50.99148" lon="-4.39582"></trkpt>
      <trkpt lat="50.99185" lon="-4.39629"></trkpt>
      <trkpt lat="50.99188" lon="-4.39639"></trkpt>
      <trkpt lat="50.99171" lon="-4.39708"></trkpt>
      <trkpt lat="50.99133" lon="-4.39801"></trkpt>
      <trkpt lat="50.9912" lon="-4.3986"></trkpt>
      <trkpt lat="50.99116" lon="-4.39902"></trkpt>
      <trkpt lat="50.99118" lon="-4.39913"></trkpt>
      <trkpt lat="50.99124" lon="-4.39921"></trkpt>
      <trkpt lat="50.99131" lon="-4.39918"></trkpt>
      <trkpt lat="50.99165" lon="-4.39867"></trkpt>
      <trkpt lat="50.99201" lon="-4.39839"></trkpt>
      <trkpt lat="50.99245" lon="-4.39794"></trkpt>
      <trkpt lat="50.99264" lon="-4.39768"></trkpt>
      <trkpt lat="50.99311" lon="-4.39686"></trkpt>
      <trkpt lat="50.99337" lon="-4.39657"></trkpt>
      <trkpt lat="50.99351" lon="-4.39653"></trkpt>
      <trkpt lat="50.99394" lon="-4.39655"></trkpt>
      <trkpt lat="50.99419" lon="-4.39642"></trkpt>
      <trkpt lat="50.99441" lon="-4.39642"></trkpt>
      <trkpt lat="50.99458" lon="-4.39651"></trkpt>
      <trkpt lat="50.99511" lon="-4.39704"></trkpt>
      <trkpt lat="50.99531" lon="-4.3972"></trkpt>
      <trkpt lat="50.9956" lon="-4.39732"></trkpt>
      <trkpt lat="50.99624" lon="-4.39769"></trkpt>
      <trkpt lat="50.99639" lon="-4.39787"></trkpt>
      <trkpt lat="50.99666" lon="-4.39833"></trkpt>
      <trkpt lat="50.9968" lon="-4.39863"></trkpt>
      <trkpt lat="50.99684" lon="-4.39893"></trkpt>
      <trkpt lat="50.99684" lon="-4.39912"></trkpt>
      <trkpt lat="50.99681" lon="-4.39943"></trkpt>
      <trkpt lat="50.9967" lon="-4.4002"></trkpt>
      <trkpt lat="50.99663" lon="-4.40047"></trkpt>
      <trkpt lat="50.99652" lon="-4.40073"></trkpt>
      <trkpt lat="50.99631" lon="-4.4011"></trkpt>
      <trkpt lat="50.9963" lon="-4.40114"></trkpt>
      <trkpt lat="50.99631" lon="-4.4012"></trkpt>
      <trkpt lat="50.9964" lon="-4.40127"></trkpt>
      <trkpt lat="50.99668" lon="-4.40137"></trkpt>
      <trkpt lat="50.99702" lon="-4.40138"></trkpt>
      <trkpt lat="50.99746" lon="-4.4013"></trkpt>
      <trkpt lat="50.99789" lon="-4.40107"></trkpt>
      <trkpt lat="50.99832" lon="-4.40076"></trkpt>
      <trkpt lat="50.99854" lon="-4.40072"></trkpt>
      <trkpt lat="50.99862" lon="-4.40075"></trkpt>
      <trkpt lat="50.99878" lon="-4.40093"></trkpt>
      <trkpt lat="50.99879" lon="-4.40082"></trkpt>
      <trkpt lat="50.9989" lon="-4.4008"></trkpt>
      <trkpt lat="50.99905" lon="-4.40086"></trkpt>
      <trkpt lat="50.9994" lon="-4.40112"></trkpt>
      <trkpt lat="50.99944" lon="-4.40126"></trkpt>
      <trkpt lat="50.99961" lon="-4.40167"></trkpt>
    </trkseg>
  </trk>
</gpx>
