<?xml version="1.0" encoding="UTF-8"?>
<gpx version="1.1" creator="swcp-walk (imported from OS Maps route 33818751)"
     xmlns="http://www.topografix.com/GPX/1/1">
  <metadata>
    <name>SWCP09-Clovelly-HartlandQuay</name>
  </metadata>
  <trk>
    <name>SWCP09-Clovelly-HartlandQuay</name>
    <trkseg>
      <trkpt lat="50.99957" lon="-4.40158"></trkpt>
      <trkpt lat="50.9996" lon="-4.40165"></trkpt>
      <trkpt lat="50.99969" lon="-4.40177"></trkpt>
      <trkpt lat="50.99973" lon="-4.40195"></trkpt>
      <trkpt lat="51.00001" lon="-4.40242"></trkpt>
      <trkpt lat="51.00047" lon="-4.40256"></trkpt>
      <trkpt lat="51.00068" lon="-4.40238"></trkpt>
      <trkpt lat="51.00083" lon="-4.40197"></trkpt>
      <trkpt lat="51.00093" lon="-4.40155"></trkpt>
      <trkpt lat="51.00112" lon="-4.4015"></trkpt>
      <trkpt lat="51.00128" lon="-4.40153"></trkpt>
      <trkpt lat="51.00143" lon="-4.40187"></trkpt>
      <trkpt lat="51.00156" lon="-4.40206"></trkpt>
      <trkpt lat="51.00168" lon="-4.40247"></trkpt>
      <trkpt lat="51.00179" lon="-4.40253"></trkpt>
      <trkpt lat="51.00193" lon="-4.40281"></trkpt>
      <trkpt lat="51.00194" lon="-4.40325"></trkpt>
      <trkpt lat="51.00201" lon="-4.40355"></trkpt>
      <trkpt lat="51.00227" lon="-4.40411"></trkpt>
      <trkpt lat="51.00266" lon="-4.40472"></trkpt>
      <trkpt lat="51.00324" lon="-4.40445"></trkpt>
      <trkpt lat="51.00353" lon="-4.40464"></trkpt>
      <trkpt lat="51.00362" lon="-4.40474"></trkpt>
      <trkpt lat="51.00374" lon="-4.40479"></trkpt>
      <trkpt lat="51.00388" lon="-4.40503"></trkpt>
      <trkpt lat="51.00398" lon="-4.40506"></trkpt>
      <trkpt lat="51.00405" lon="-4.40511"></trkpt>
      <trkpt lat="51.00414" lon="-4.40509"></trkpt>
      <trkpt lat="51.00409" lon="-4.40527"></trkpt>
      <trkpt lat="51.00411" lon="-4.4054"></trkpt>
      <trkpt lat="51.0041" lon="-4.40557"></trkpt>
      <trkpt lat="51.00417" lon="-4.40644"></trkpt>
      <trkpt lat="51.00428" lon="-4.40669"></trkpt>
      <trkpt lat="51.00437" lon="-4.40698"></trkpt>
      <trkpt lat="51.0045" lon="-4.40709"></trkpt>
      <trkpt lat="51.00471" lon="-4.40754"></trkpt>
      <trkpt lat="51.0048" lon="-4.40785"></trkpt>
      <trkpt lat="51.00506" lon="-4.40821"></trkpt>
      <trkpt lat="51.00522" lon="-4.40846"></trkpt>
      <trkpt lat="51.00534" lon="-4.40882"></trkpt>
      <trkpt lat="51.00545" lon="-4.40926"></trkpt>
      <trkpt lat="51.0056" lon="-4.40973"></trkpt>
      <trkpt lat="51.00565" lon="-4.41006"></trkpt>
      <trkpt lat="51.00561" lon="-4.41017"></trkpt>
      <trkpt lat="51.00564" lon="-4.41024"></trkpt>
      <trkpt lat="51.00615" lon="-4.41091"></trkpt>
      <trkpt lat="51.00623" lon="-4.41119"></trkpt>
      <trkpt lat="51.00661" lon="-4.41157"></trkpt>
      <trkpt lat="51.00678" lon="-4.4118"></trkpt>
      <trkpt lat="51.00697" lon="-4.41201"></trkpt>
      <trkpt lat="51.00719" lon="-4.4124"></trkpt>
      <trkpt lat="51.00724" lon="-4.4128"></trkpt>
      <trkpt lat="51.00745" lon="-4.4131"></trkpt>
      <trkpt lat="51.00769" lon="-4.41328"></trkpt>
      <trkpt lat="51.00786" lon="-4.41391"></trkpt>
      <trkpt lat="51.00795" lon="-4.41401"></trkpt>
      <trkpt lat="51.00805" lon="-4.41421"></trkpt>
      <trkpt lat="51.00825" lon="-4.41472"></trkpt>
      <trkpt lat="51.00842" lon="-4.415"></trkpt>
      <trkpt lat="51.00847" lon="-4.41527"></trkpt>
      <trkpt lat="51.0084" lon="-4.41559"></trkpt>
      <trkpt lat="51.00879" lon="-4.41637"></trkpt>
      <trkpt lat="51.00888" lon="-4.41643"></trkpt>
      <trkpt lat="51.00892" lon="-4.41643"></trkpt>
      <trkpt lat="51.00911" lon="-4.41652"></trkpt>
      <trkpt lat="51.00928" lon="-4.41673"></trkpt>
      <trkpt lat="51.00967" lon="-4.41691"></trkpt>
      <trkpt lat="51.01053" lon="-4.41772"></trkpt>
      <trkpt lat="51.01056" lon="-4.41783"></trkpt>
      <trkpt lat="51.01056" lon="-4.4179"></trkpt>
      <trkpt lat="51.01059" lon="-4.41837"></trkpt>
      <trkpt lat="51.01052" lon="-4.41883"></trkpt>
      <trkpt lat="51.01052" lon="-4.41904"></trkpt>
      <trkpt lat="51.01063" lon="-4.41974"></trkpt>
      <trkpt lat="51.01064" lon="-4.42019"></trkpt>
      <trkpt lat="51.01071" lon="-4.42086"></trkpt>
      <trkpt lat="51.0108" lon="-4.42133"></trkpt>
      <trkpt lat="51.01105" lon="-4.4222"></trkpt>
      <trkpt lat="51.01081" lon="-4.42218"></trkpt>
      <trkpt lat="51.01096" lon="-4.42268"></trkpt>
      <trkpt lat="51.01107" lon="-4.42352"></trkpt>
      <trkpt lat="51.01117" lon="-4.42396"></trkpt>
      <trkpt lat="51.01143" lon="-4.42467"></trkpt>
      <trkpt lat="51.01169" lon="-4.42522"></trkpt>
      <trkpt lat="51.01191" lon="-4.42556"></trkpt>
      <trkpt lat="51.01214" lon="-4.42584"></trkpt>
      <trkpt lat="51.01231" lon="-4.42615"></trkpt>
      <trkpt lat="51.01249" lon="-4.42629"></trkpt>
      <trkpt lat="51.01264" lon="-4.42654"></trkpt>
      <trkpt lat="51.01302" lon="-4.42697"></trkpt>
      <trkpt lat="51.01307" lon="-4.42706"></trkpt>
      <trkpt lat="51.01307" lon="-4.42712"></trkpt>
      <trkpt lat="51.01305" lon="-4.42715"></trkpt>
      <trkpt lat="51.01288" lon="-4.42703"></trkpt>
      <trkpt lat="51.01279" lon="-4.42691"></trkpt>
      <trkpt lat="51.01261" lon="-4.42695"></trkpt>
      <trkpt lat="51.01258" lon="-4.42686"></trkpt>
      <trkpt lat="51.01254" lon="-4.42688"></trkpt>
      <trkpt lat="51.01249" lon="-4.42674"></trkpt>
      <trkpt lat="51.01242" lon="-4.42683"></trkpt>
      <trkpt lat="51.01238" lon="-4.42705"></trkpt>
      <trkpt lat="51.01233" lon="-4.42716"></trkpt>
      <trkpt lat="51.01246" lon="-4.42763"></trkpt>
      <trkpt lat="51.01222" lon="-4.4277"></trkpt>
      <trkpt lat="51.01217" lon="-4.42771"></trkpt>
      <trkpt lat="51.01248" lon="-4.42832"></trkpt>
      <trkpt lat="51.01183" lon="-4.4283"></trkpt>
      <trkpt lat="51.01198" lon="-4.42868"></trkpt>
      <trkpt lat="51.0115" lon="-4.42914"></trkpt>
      <trkpt lat="51.01145" lon="-4.42924"></trkpt>
      <trkpt lat="51.01146" lon="-4.42933"></trkpt>
      <trkpt lat="51.01158" lon="-4.42959"></trkpt>
      <trkpt lat="51.0116" lon="-4.42972"></trkpt>
      <trkpt lat="51.0115" lon="-4.43129"></trkpt>
      <trkpt lat="51.01111" lon="-4.4333"></trkpt>
      <trkpt lat="51.01107" lon="-4.43384"></trkpt>
      <trkpt lat="51.01107" lon="-4.43459"></trkpt>
      <trkpt lat="51.01169" lon="-4.43504"></trkpt>
      <trkpt lat="51.01183" lon="-4.43526"></trkpt>
      <trkpt lat="51.01193" lon="-4.43537"></trkpt>
      <trkpt lat="51.01199" lon="-4.43543"></trkpt>
      <trkpt lat="51.01204" lon="-4.43572"></trkpt>
      <trkpt lat="51.01202" lon="-4.43599"></trkpt>
      <trkpt lat="51.01194" lon="-4.43636"></trkpt>
      <trkpt lat="51.01188" lon="-4.43691"></trkpt>
      <trkpt lat="51.01185" lon="-4.43779"></trkpt>
      <trkpt lat="51.01187" lon="-4.43784"></trkpt>
      <trkpt lat="51.01192" lon="-4.43785"></trkpt>
      <trkpt lat="51.01198" lon="-4.43771"></trkpt>
      <trkpt lat="51.01204" lon="-4.43744"></trkpt>
      <trkpt lat="51.01221" lon="-4.43698"></trkpt>
      <trkpt lat="51.01248" lon="-4.43655"></trkpt>
      <trkpt lat="51.01249" lon="-4.43673"></trkpt>
      <trkpt lat="51.01255" lon="-4.43721"></trkpt>
      <trkpt lat="51.01255" lon="-4.43744"></trkpt>
      <trkpt lat="51.01256" lon="-4.43745"></trkpt>
      <trkpt lat="51.01269" lon="-4.43714"></trkpt>
      <trkpt lat="51.01276" lon="-4.43771"></trkpt>
      <trkpt lat="51.01279" lon="-4.43783"></trkpt>
      <trkpt lat="51.01303" lon="-4.43757"></trkpt>
      <trkpt lat="51.01306" lon="-4.43772"></trkpt>
      <trkpt lat="51.0131" lon="-4.4377"></trkpt>
      <trkpt lat="51.01312" lon="-4.43774"></trkpt>
      <trkpt lat="51.01312" lon="-4.43883"></trkpt>
      <trkpt lat="51.01313" lon="-4.43911"></trkpt>
      <trkpt lat="51.0131" lon="-4.43939"></trkpt>
      <trkpt lat="51.01314" lon="-4.43949"></trkpt>
      <trkpt lat="51.01335" lon="-4.43875"></trkpt>
      <trkpt lat="51.01349" lon="-4.43844"></trkpt>
      <trkpt lat="51.01354" lon="-4.43849"></trkpt>
      <trkpt lat="51.01358" lon="-4.4386"></trkpt>
      <trkpt lat="51.01353" lon="-4.4387"></trkpt>
      <trkpt lat="51.01351" lon="-4.43895"></trkpt>
      <trkpt lat="51.01356" lon="-4.43909"></trkpt>
      <trkpt lat="51.01355" lon="-4.4396"></trkpt>
      <trkpt lat="51.01352" lon="-4.43981"></trkpt>
      <trkpt lat="51.01351" lon="-4.43993"></trkpt>
      <trkpt lat="51.01352" lon="-4.44009"></trkpt>
      <trkpt lat="51.01349" lon="-4.44013"></trkpt>
      <trkpt lat="51.01353" lon="-4.44046"></trkpt>
      <trkpt lat="51.0135" lon="-4.44083"></trkpt>
      <trkpt lat="51.01355" lon="-4.44107"></trkpt>
      <trkpt lat="51.01354" lon="-4.44126"></trkpt>
      <trkpt lat="51.0135" lon="-4.44142"></trkpt>
      <trkpt lat="51.01342" lon="-4.44162"></trkpt>
      <trkpt lat="51.0134" lon="-4.44174"></trkpt>
      <trkpt lat="51.01343" lon="-4.44196"></trkpt>
      <trkpt lat="51.01349" lon="-4.44218"></trkpt>
      <trkpt lat="51.01351" lon="-4.44252"></trkpt>
      <trkpt lat="51.01344" lon="-4.44294"></trkpt>
      <trkpt lat="51.01333" lon="-4.44317"></trkpt>
      <trkpt lat="51.01333" lon="-4.4434"></trkpt>
      <trkpt lat="51.01335" lon="-4.44367"></trkpt>
      <trkpt lat="51.01322" lon="-4.44428"></trkpt>
      <trkpt lat="51.01317" lon="-4.44445"></trkpt>
      <trkpt lat="51.01311" lon="-4.44496"></trkpt>
      <trkpt lat="51.0131" lon="-4.44518"></trkpt>
      <trkpt lat="51.01312" lon="-4.44543"></trkpt>
      <trkpt lat="51.01309" lon="-4.44569"></trkpt>
      <trkpt lat="51.01307" lon="-4.44625"></trkpt>
      <trkpt lat="51.01318" lon="-4.44655"></trkpt>
      <trkpt lat="51.01319" lon="-4.44668"></trkpt>
      <trkpt lat="51.01315" lon="-4.44678"></trkpt>
      <trkpt lat="51.01298" lon="-4.44745"></trkpt>
      <trkpt lat="51.01288" lon="-4.44774"></trkpt>
      <trkpt lat="51.01289" lon="-4.4479"></trkpt>
      <trkpt lat="51.01305" lon="-4.44811"></trkpt>
      <trkpt lat="51.01307" lon="-4.44817"></trkpt>
      <trkpt lat="51.01304" lon="-4.44849"></trkpt>
      <trkpt lat="51.01303" lon="-4.44884"></trkpt>
      <trkpt lat="51.01297" lon="-4.44911"></trkpt>
      <trkpt lat="51.01299" lon="-4.44923"></trkpt>
      <trkpt lat="51.01314" lon="-4.44984"></trkpt>
      <trkpt lat="51.01312" lon="-4.45021"></trkpt>
      <trkpt lat="51.01315" lon="-4.45039"></trkpt>
      <trkpt lat="51.01328" lon="-4.45075"></trkpt>
      <trkpt lat="51.0133" lon="-4.45091"></trkpt>
      <trkpt lat="51.01335" lon="-4.45113"></trkpt>
      <trkpt lat="51.01328" lon="-4.45145"></trkpt>
      <trkpt lat="51.01333" lon="-4.45172"></trkpt>
      <trkpt lat="51.01338" lon="-4.45175"></trkpt>
      <trkpt lat="51.0136" lon="-4.45177"></trkpt>
      <trkpt lat="51.01365" lon="-4.45183"></trkpt>
      <trkpt lat="51.01369" lon="-4.45194"></trkpt>
      <trkpt lat="51.01371" lon="-4.45208"></trkpt>
      <trkpt lat="51.0138" lon="-4.45215"></trkpt>
      <trkpt lat="51.01383" lon="-4.45222"></trkpt>
      <trkpt lat="51.0142" lon="-4.4524"></trkpt>
      <trkpt lat="51.01436" lon="-4.45262"></trkpt>
      <trkpt lat="51.01451" lon="-4.45296"></trkpt>
      <trkpt lat="51.01457" lon="-4.45344"></trkpt>
      <trkpt lat="51.01472" lon="-4.45411"></trkpt>
      <trkpt lat="51.01487" lon="-4.4544"></trkpt>
      <trkpt lat="51.01486" lon="-4.45473"></trkpt>
      <trkpt lat="51.01498" lon="-4.45546"></trkpt>
      <trkpt lat="51.01514" lon="-4.45602"></trkpt>
      <trkpt lat="51.01526" lon="-4.45657"></trkpt>
      <trkpt lat="51.01531" lon="-4.45697"></trkpt>
      <trkpt lat="51.01535" lon="-4.45705"></trkpt>
      <trkpt lat="51.01573" lon="-4.4574"></trkpt>
      <trkpt lat="51.01636" lon="-4.45774"></trkpt>
      <trkpt lat="51.01655" lon="-4.45796"></trkpt>
      <trkpt lat="51.01678" lon="-4.45832"></trkpt>
      <trkpt lat="51.0171" lon="-4.45914"></trkpt>
      <trkpt lat="51.01724" lon="-4.45978"></trkpt>
      <trkpt lat="51.01741" lon="-4.46073"></trkpt>
      <trkpt lat="51.01745" lon="-4.46083"></trkpt>
      <trkpt lat="51.01751" lon="-4.4609"></trkpt>
      <trkpt lat="51.01759" lon="-4.46094"></trkpt>
      <trkpt lat="51.01787" lon="-4.46101"></trkpt>
      <trkpt lat="51.01797" lon="-4.46105"></trkpt>
      <trkpt lat="51.01807" lon="-4.46115"></trkpt>
      <trkpt lat="51.01813" lon="-4.46127"></trkpt>
      <trkpt lat="51.01815" lon="-4.46153"></trkpt>
      <trkpt lat="51.01819" lon="-4.46164"></trkpt>
      <trkpt lat="51.01833" lon="-4.46181"></trkpt>
      <trkpt lat="51.01846" lon="-4.46221"></trkpt>
      <trkpt lat="51.01863" lon="-4.46267"></trkpt>
      <trkpt lat="51.0189" lon="-4.46314"></trkpt>
      <trkpt lat="51.01911" lon="-4.46354"></trkpt>
      <trkpt lat="51.01919" lon="-4.46378"></trkpt>
      <trkpt lat="51.01922" lon="-4.46399"></trkpt>
      <trkpt lat="51.01922" lon="-4.46462"></trkpt>
      <trkpt lat="51.01928" lon="-4.46521"></trkpt>
      <trkpt lat="51.01945" lon="-4.46525"></trkpt>
      <trkpt lat="51.01954" lon="-4.46532"></trkpt>
      <trkpt lat="51.01961" lon="-4.46555"></trkpt>
      <trkpt lat="51.01966" lon="-4.46597"></trkpt>
      <trkpt lat="51.01967" lon="-4.46656"></trkpt>
      <trkpt lat="51.01975" lon="-4.46671"></trkpt>
      <trkpt lat="51.01977" lon="-4.46694"></trkpt>
      <trkpt lat="51.01974" lon="-4.46704"></trkpt>
      <trkpt lat="51.01955" lon="-4.46736"></trkpt>
      <trkpt lat="51.01954" lon="-4.46745"></trkpt>
      <trkpt lat="51.01956" lon="-4.46753"></trkpt>
      <trkpt lat="51.01977" lon="-4.46777"></trkpt>
      <trkpt lat="51.01982" lon="-4.46786"></trkpt>
      <trkpt lat="51.0199" lon="-4.4684"></trkpt>
      <trkpt lat="51.01995" lon="-4.46856"></trkpt>
      <trkpt lat="51.02019" lon="-4.46895"></trkpt>
      <trkpt lat="51.02026" lon="-4.46947"></trkpt>
      <trkpt lat="51.02024" lon="-4.46977"></trkpt>
      <trkpt lat="51.02021" lon="-4.46991"></trkpt>
      <trkpt lat="51.02015" lon="-4.46999"></trkpt>
      <trkpt lat="51.01994" lon="-4.46984"></trkpt>
      <trkpt lat="51.01989" lon="-4.46986"></trkpt>
      <trkpt lat="51.01986" lon="-4.46993"></trkpt>
      <trkpt lat="51.01976" lon="-4.47031"></trkpt>
      <trkpt lat="51.01965" lon="-4.47031"></trkpt>
      <trkpt lat="51.01949" lon="-4.47167"></trkpt>
      <trkpt lat="51.01945" lon="-4.47203"></trkpt>
      <trkpt lat="51.01947" lon="-4.47211"></trkpt>
      <trkpt lat="51.01951" lon="-4.47307"></trkpt>
      <trkpt lat="51.01949" lon="-4.4741"></trkpt>
      <trkpt lat="51.01932" lon="-4.47488"></trkpt>
      <trkpt lat="51.01924" lon="-4.4751"></trkpt>
      <trkpt lat="51.01916" lon="-4.47538"></trkpt>
      <trkpt lat="51.01911" lon="-4.47579"></trkpt>
      <trkpt lat="51.01907" lon="-4.4769"></trkpt>
      <trkpt lat="51.01908" lon="-4.47698"></trkpt>
      <trkpt lat="51.01915" lon="-4.47706"></trkpt>
      <trkpt lat="51.0194" lon="-4.47708"></trkpt>
      <trkpt lat="51.01951" lon="-4.47836"></trkpt>
      <trkpt lat="51.01959" lon="-4.48036"></trkpt>
      <trkpt lat="51.01962" lon="-4.4806"></trkpt>
      <trkpt lat="51.01968" lon="-4.48074"></trkpt>
      <trkpt lat="51.02013" lon="-4.48087"></trkpt>
      <trkpt lat="51.02045" lon="-4.48102"></trkpt>
      <trkpt lat="51.02051" lon="-4.48115"></trkpt>
      <trkpt lat="51.02053" lon="-4.48128"></trkpt>
      <trkpt lat="51.02053" lon="-4.48145"></trkpt>
      <trkpt lat="51.02042" lon="-4.48258"></trkpt>
      <trkpt lat="51.02037" lon="-4.48269"></trkpt>
      <trkpt lat="51.02031" lon="-4.48274"></trkpt>
      <trkpt lat="51.02011" lon="-4.48276"></trkpt>
      <trkpt lat="51.02002" lon="-4.48286"></trkpt>
      <trkpt lat="51.01977" lon="-4.48321"></trkpt>
      <trkpt lat="51.01973" lon="-4.48338"></trkpt>
      <trkpt lat="51.01971" lon="-4.48405"></trkpt>
      <trkpt lat="51.01968" lon="-4.48441"></trkpt>
      <trkpt lat="51.01954" lon="-4.48523"></trkpt>
      <trkpt lat="51.0194" lon="-4.48586"></trkpt>
      <trkpt lat="51.01963" lon="-4.48695"></trkpt>
      <trkpt lat="51.0197" lon="-4.48752"></trkpt>
      <trkpt lat="51.01978" lon="-4.48766"></trkpt>
      <trkpt lat="51.01978" lon="-4.48812"></trkpt>
      <trkpt lat="51.01968" lon="-4.48848"></trkpt>
      <trkpt lat="51.01957" lon="-4.48855"></trkpt>
      <trkpt lat="51.01934" lon="-4.48851"></trkpt>
      <trkpt lat="51.0193" lon="-4.48854"></trkpt>
      <trkpt lat="51.01921" lon="-4.489"></trkpt>
      <trkpt lat="51.01921" lon="-4.48942"></trkpt>
      <trkpt lat="51.01896" lon="-4.49102"></trkpt>
      <trkpt lat="51.01898" lon="-4.49111"></trkpt>
      <trkpt lat="51.01968" lon="-4.49151"></trkpt>
      <trkpt lat="51.01972" lon="-4.49155"></trkpt>
      <trkpt lat="51.01973" lon="-4.49164"></trkpt>
      <trkpt lat="51.0197" lon="-4.49182"></trkpt>
      <trkpt lat="51.01969" lon="-4.49208"></trkpt>
      <trkpt lat="51.01971" lon="-4.49233"></trkpt>
      <trkpt lat="51.01975" lon="-4.49261"></trkpt>
      <trkpt lat="51.01979" lon="-4.49271"></trkpt>
      <trkpt lat="51.01977" lon="-4.49287"></trkpt>
      <trkpt lat="51.01971" lon="-4.49305"></trkpt>
      <trkpt lat="51.01968" lon="-4.49336"></trkpt>
      <trkpt lat="51.01971" lon="-4.49403"></trkpt>
      <trkpt lat="51.01975" lon="-4.49431"></trkpt>
      <trkpt lat="51.01979" lon="-4.49458"></trkpt>
      <trkpt lat="51.01978" lon="-4.49484"></trkpt>
      <trkpt lat="51.01981" lon="-4.49533"></trkpt>
      <trkpt lat="51.0199" lon="-4.49569"></trkpt>
      <trkpt lat="51.0199" lon="-4.49672"></trkpt>
      <trkpt lat="51.01988" lon="-4.49675"></trkpt>
      <trkpt lat="51.01974" lon="-4.49681"></trkpt>
      <trkpt lat="51.01964" lon="-4.49675"></trkpt>
      <trkpt lat="51.01955" lon="-4.49664"></trkpt>
      <trkpt lat="51.0193" lon="-4.49643"></trkpt>
      <trkpt lat="51.01916" lon="-4.49655"></trkpt>
      <trkpt lat="51.01862" lon="-4.49626"></trkpt>
      <trkpt lat="51.01859" lon="-4.49632"></trkpt>
      <trkpt lat="51.01855" lon="-4.49637"></trkpt>
      <trkpt lat="51.0185" lon="-4.49663"></trkpt>
      <trkpt lat="51.0184" lon="-4.49681"></trkpt>
      <trkpt lat="51.01829" lon="-4.49694"></trkpt>
      <trkpt lat="51.01791" lon="-4.49767"></trkpt>
      <trkpt lat="51.01777" lon="-4.49815"></trkpt>
      <trkpt lat="51.01777" lon="-4.49906"></trkpt>
      <trkpt lat="51.01766" lon="-4.49951"></trkpt>
      <trkpt lat="51.01767" lon="-4.50066"></trkpt>
      <trkpt lat="51.0177" lon="-4.50104"></trkpt>
      <trkpt lat="51.01779" lon="-4.50159"></trkpt>
      <trkpt lat="51.01782" lon="-4.50189"></trkpt>
      <trkpt lat="51.01779" lon="-4.50221"></trkpt>
      <trkpt lat="51.01767" lon="-4.50275"></trkpt>
      <trkpt lat="51.01769" lon="-4.50333"></trkpt>
      <trkpt lat="51.01778" lon="-4.50342"></trkpt>
      <trkpt lat="51.01781" lon="-4.50348"></trkpt>
      <trkpt lat="51.01783" lon="-4.50366"></trkpt>
      <trkpt lat="51.01788" lon="-4.50372"></trkpt>
      <trkpt lat="51.01794" lon="-4.50376"></trkpt>
      <trkpt lat="51.01799" lon="-4.50375"></trkpt>
      <trkpt lat="51.01817" lon="-4.50364"></trkpt>
      <trkpt lat="51.01828" lon="-4.50367"></trkpt>
      <trkpt lat="51.01834" lon="-4.50375"></trkpt>
      <trkpt lat="51.01836" lon="-4.50398"></trkpt>
      <trkpt lat="51.01824" lon="-4.50459"></trkpt>
      <trkpt lat="51.01821" lon="-4.50511"></trkpt>
      <trkpt lat="51.01822" lon="-4.50522"></trkpt>
      <trkpt lat="51.01827" lon="-4.50528"></trkpt>
      <trkpt lat="51.01827" lon="-4.50534"></trkpt>
      <trkpt lat="51.01824" lon="-4.5054"></trkpt>
      <trkpt lat="51.01823" lon="-4.50547"></trkpt>
      <trkpt lat="51.01824" lon="-4.5056"></trkpt>
      <trkpt lat="51.01827" lon="-4.50569"></trkpt>
      <trkpt lat="51.01842" lon="-4.50594"></trkpt>
      <trkpt lat="51.01851" lon="-4.50633"></trkpt>
      <trkpt lat="51.01864" lon="-4.50647"></trkpt>
      <trkpt lat="51.01892" lon="-4.50686"></trkpt>
      <trkpt lat="51.01893" lon="-4.50695"></trkpt>
      <trkpt lat="51.0189" lon="-4.5072"></trkpt>
      <trkpt lat="51.01903" lon="-4.50725"></trkpt>
      <trkpt lat="51.01907" lon="-4.50729"></trkpt>
      <trkpt lat="51.01909" lon="-4.5077"></trkpt>
      <trkpt lat="51.01912" lon="-4.50774"></trkpt>
      <trkpt lat="51.01916" lon="-4.50775"></trkpt>
      <trkpt lat="51.01941" lon="-4.50772"></trkpt>
      <trkpt lat="51.01944" lon="-4.50799"></trkpt>
      <trkpt lat="51.01959" lon="-4.5082"></trkpt>
      <trkpt lat="51.01967" lon="-4.50866"></trkpt>
      <trkpt lat="51.02006" lon="-4.50891"></trkpt>
      <trkpt lat="51.02012" lon="-4.50905"></trkpt>
      <trkpt lat="51.02014" lon="-4.50916"></trkpt>
      <trkpt lat="51.02022" lon="-4.50942"></trkpt>
      <trkpt lat="51.02028" lon="-4.50977"></trkpt>
      <trkpt lat="51.0203" lon="-4.50997"></trkpt>
      <trkpt lat="51.02026" lon="-4.51025"></trkpt>
      <trkpt lat="51.02027" lon="-4.51031"></trkpt>
      <trkpt lat="51.02047" lon="-4.51074"></trkpt>
      <trkpt lat="51.02067" lon="-4.51191"></trkpt>
      <trkpt lat="51.02075" lon="-4.51227"></trkpt>
      <trkpt lat="51.02079" lon="-4.51307"></trkpt>
      <trkpt lat="51.02096" lon="-4.51352"></trkpt>
      <trkpt lat="51.02118" lon="-4.51365"></trkpt>
      <trkpt lat="51.02148" lon="-4.5142"></trkpt>
      <trkpt lat="51.0215" lon="-4.51429"></trkpt>
      <trkpt lat="51.02151" lon="-4.51465"></trkpt>
      <trkpt lat="51.02144" lon="-4.51486"></trkpt>
      <trkpt lat="51.02125" lon="-4.51575"></trkpt>
      <trkpt lat="51.02122" lon="-4.5158"></trkpt>
      <trkpt lat="51.02116" lon="-4.51579"></trkpt>
      <trkpt lat="51.02096" lon="-4.5156"></trkpt>
      <trkpt lat="51.02085" lon="-4.5154"></trkpt>
      <trkpt lat="51.02077" lon="-4.51533"></trkpt>
      <trkpt lat="51.02062" lon="-4.51514"></trkpt>
      <trkpt lat="51.02053" lon="-4.51518"></trkpt>
      <trkpt lat="51.02046" lon="-4.51518"></trkpt>
      <trkpt lat="51.02028" lon="-4.51529"></trkpt>
      <trkpt lat="51.02023" lon="-4.51538"></trkpt>
      <trkpt lat="51.02021" lon="-4.5156"></trkpt>
      <trkpt lat="51.02022" lon="-4.51574"></trkpt>
      <trkpt lat="51.02018" lon="-4.51581"></trkpt>
      <trkpt lat="51.02012" lon="-4.51622"></trkpt>
      <trkpt lat="51.02004" lon="-4.51638"></trkpt>
      <trkpt lat="51.01998" lon="-4.51654"></trkpt>
      <trkpt lat="51.01992" lon="-4.51656"></trkpt>
      <trkpt lat="51.01975" lon="-4.51655"></trkpt>
      <trkpt lat="51.01963" lon="-4.51665"></trkpt>
      <trkpt lat="51.0196" lon="-4.51677"></trkpt>
      <trkpt lat="51.01972" lon="-4.51718"></trkpt>
      <trkpt lat="51.01974" lon="-4.51729"></trkpt>
      <trkpt lat="51.01974" lon="-4.51743"></trkpt>
      <trkpt lat="51.01971" lon="-4.51758"></trkpt>
      <trkpt lat="51.01957" lon="-4.51777"></trkpt>
      <trkpt lat="51.01951" lon="-4.5178"></trkpt>
      <trkpt lat="51.01954" lon="-4.51791"></trkpt>
      <trkpt lat="51.01947" lon="-4.51853"></trkpt>
      <trkpt lat="51.01948" lon="-4.5188"></trkpt>
      <trkpt lat="51.01961" lon="-4.51907"></trkpt>
      <trkpt lat="51.01963" lon="-4.51939"></trkpt>
      <trkpt lat="51.01977" lon="-4.51988"></trkpt>
      <trkpt lat="51.0198" lon="-4.52006"></trkpt>
      <trkpt lat="51.01987" lon="-4.52026"></trkpt>
      <trkpt lat="51.02008" lon="-4.52066"></trkpt>
      <trkpt lat="51.02014" lon="-4.52082"></trkpt>
      <trkpt lat="51.02015" lon="-4.52095"></trkpt>
      <trkpt lat="51.02019" lon="-4.52102"></trkpt>
      <trkpt lat="51.0202" lon="-4.52246"></trkpt>
      <trkpt lat="51.02018" lon="-4.52249"></trkpt>
      <trkpt lat="51.02007" lon="-4.52255"></trkpt>
      <trkpt lat="51.01994" lon="-4.52243"></trkpt>
      <trkpt lat="51.01988" lon="-4.52241"></trkpt>
      <trkpt lat="51.01981" lon="-4.52243"></trkpt>
      <trkpt lat="51.01968" lon="-4.52261"></trkpt>
      <trkpt lat="51.0196" lon="-4.52278"></trkpt>
      <trkpt lat="51.01953" lon="-4.52286"></trkpt>
      <trkpt lat="51.01945" lon="-4.52289"></trkpt>
      <trkpt lat="51.01939" lon="-4.52297"></trkpt>
      <trkpt lat="51.01921" lon="-4.52344"></trkpt>
      <trkpt lat="51.01921" lon="-4.52351"></trkpt>
      <trkpt lat="51.01915" lon="-4.52367"></trkpt>
      <trkpt lat="51.01912" lon="-4.52387"></trkpt>
      <trkpt lat="51.01909" lon="-4.52392"></trkpt>
      <trkpt lat="51.0189" lon="-4.52405"></trkpt>
      <trkpt lat="51.01883" lon="-4.52414"></trkpt>
      <trkpt lat="51.01872" lon="-4.52436"></trkpt>
      <trkpt lat="51.01855" lon="-4.5251"></trkpt>
      <trkpt lat="51.0185" lon="-4.52527"></trkpt>
      <trkpt lat="51.01847" lon="-4.52531"></trkpt>
      <trkpt lat="51.01832" lon="-4.52543"></trkpt>
      <trkpt lat="51.018" lon="-4.52545"></trkpt>
      <trkpt lat="51.0178" lon="-4.52551"></trkpt>
      <trkpt lat="51.01768" lon="-4.52549"></trkpt>
      <trkpt lat="51.01738" lon="-4.52554"></trkpt>
      <trkpt lat="51.01728" lon="-4.52561"></trkpt>
      <trkpt lat="51.0171" lon="-4.5258"></trkpt>
      <trkpt lat="51.01707" lon="-4.52589"></trkpt>
      <trkpt lat="51.01698" lon="-4.52619"></trkpt>
      <trkpt lat="51.01693" lon="-4.52624"></trkpt>
      <trkpt lat="51.0167" lon="-4.5262"></trkpt>
      <trkpt lat="51.01656" lon="-4.52612"></trkpt>
      <trkpt lat="51.01622" lon="-4.5258"></trkpt>
      <trkpt lat="51.01605" lon="-4.52542"></trkpt>
      <trkpt lat="51.01592" lon="-4.52508"></trkpt>
      <trkpt lat="51.01571" lon="-4.52475"></trkpt>
      <trkpt lat="51.01565" lon="-4.52467"></trkpt>
      <trkpt lat="51.01553" lon="-4.52463"></trkpt>
      <trkpt lat="51.01536" lon="-4.52476"></trkpt>
      <trkpt lat="51.01516" lon="-4.52487"></trkpt>
      <trkpt lat="51.01433" lon="-4.52526"></trkpt>
      <trkpt lat="51.01381" lon="-4.52553"></trkpt>
      <trkpt lat="51.01353" lon="-4.52576"></trkpt>
      <trkpt lat="51.01348" lon="-4.5259"></trkpt>
      <trkpt lat="51.0134" lon="-4.52603"></trkpt>
      <trkpt lat="51.01308" lon="-4.52626"></trkpt>
      <trkpt lat="51.0129" lon="-4.52621"></trkpt>
      <trkpt lat="51.01275" lon="-4.52623"></trkpt>
      <trkpt lat="51.01232" lon="-4.5261"></trkpt>
      <trkpt lat="51.01224" lon="-4.52604"></trkpt>
      <trkpt lat="51.0122" lon="-4.52597"></trkpt>
      <trkpt lat="51.0122" lon="-4.52587"></trkpt>
      <trkpt lat="51.01217" lon="-4.52564"></trkpt>
      <trkpt lat="51.0122" lon="-4.52547"></trkpt>
      <trkpt lat="51.01219" lon="-4.52528"></trkpt>
      <trkpt lat="51.01224" lon="-4.52491"></trkpt>
      <trkpt lat="51.01228" lon="-4.52473"></trkpt>
      <trkpt lat="51.01246" lon="-4.52449"></trkpt>
      <trkpt lat="51.01251" lon="-4.52436"></trkpt>
      <trkpt lat="51.01237" lon="-4.52427"></trkpt>
      <trkpt lat="51.0122" lon="-4.52431"></trkpt>
      <trkpt lat="51.01216" lon="-4.52438"></trkpt>
      <trkpt lat="51.0121" lon="-4.52461"></trkpt>
      <trkpt lat="51.01202" lon="-4.52468"></trkpt>
      <trkpt lat="51.01187" lon="-4.52467"></trkpt>
      <trkpt lat="51.01184" lon="-4.5246"></trkpt>
      <trkpt lat="51.0118" lon="-4.52457"></trkpt>
      <trkpt lat="51.01162" lon="-4.52463"></trkpt>
      <trkpt lat="51.0116" lon="-4.52487"></trkpt>
      <trkpt lat="51.01156" lon="-4.52504"></trkpt>
      <trkpt lat="51.01149" lon="-4.52511"></trkpt>
      <trkpt lat="51.01144" lon="-4.52522"></trkpt>
      <trkpt lat="51.0111" lon="-4.5268"></trkpt>
      <trkpt lat="51.0111" lon="-4.52698"></trkpt>
      <trkpt lat="51.01098" lon="-4.5275"></trkpt>
      <trkpt lat="51.01086" lon="-4.52775"></trkpt>
      <trkpt lat="51.01079" lon="-4.52782"></trkpt>
      <trkpt lat="51.01075" lon="-4.52798"></trkpt>
      <trkpt lat="51.01075" lon="-4.52877"></trkpt>
      <trkpt lat="51.01071" lon="-4.52904"></trkpt>
      <trkpt lat="51.01065" lon="-4.5293"></trkpt>
      <trkpt lat="51.01056" lon="-4.5294"></trkpt>
      <trkpt lat="51.01039" lon="-4.52951"></trkpt>
      <trkpt lat="51.01025" lon="-4.52966"></trkpt>
      <trkpt lat="51.01017" lon="-4.52971"></trkpt>
      <trkpt lat="51.01008" lon="-4.52984"></trkpt>
      <trkpt lat="51.00996" lon="-4.52989"></trkpt>
      <trkpt lat="51.00988" lon="-4.53"></trkpt>
      <trkpt lat="51.00977" lon="-4.53023"></trkpt>
      <trkpt lat="51.00967" lon="-4.53036"></trkpt>
      <trkpt lat="51.00958" lon="-4.53054"></trkpt>
      <trkpt lat="51.00949" lon="-4.53083"></trkpt>
      <trkpt lat="51.00929" lon="-4.53135"></trkpt>
      <trkpt lat="51.00921" lon="-4.53163"></trkpt>
      <trkpt lat="51.00918" lon="-4.53188"></trkpt>
      <trkpt lat="51.0091" lon="-4.53206"></trkpt>
      <trkpt lat="51.00897" lon="-4.53215"></trkpt>
      <trkpt lat="51.00889" lon="-4.53229"></trkpt>
      <trkpt lat="51.00877" lon="-4.53238"></trkpt>
      <trkpt lat="51.00875" lon="-4.53235"></trkpt>
      <trkpt lat="51.00863" lon="-4.53236"></trkpt>
      <trkpt lat="51.00857" lon="-4.53229"></trkpt>
      <trkpt lat="51.00852" lon="-4.53228"></trkpt>
      <trkpt lat="51.0084" lon="-4.53236"></trkpt>
      <trkpt lat="51.00835" lon="-4.53244"></trkpt>
      <trkpt lat="51.00832" lon="-4.53253"></trkpt>
      <trkpt lat="51.00828" lon="-4.53255"></trkpt>
      <trkpt lat="51.00829" lon="-4.53238"></trkpt>
      <trkpt lat="51.00827" lon="-4.53216"></trkpt>
      <trkpt lat="51.00811" lon="-4.5318"></trkpt>
      <trkpt lat="51.00806" lon="-4.53152"></trkpt>
      <trkpt lat="51.00795" lon="-4.5313"></trkpt>
      <trkpt lat="51.00793" lon="-4.53105"></trkpt>
      <trkpt lat="51.0076" lon="-4.53052"></trkpt>
      <trkpt lat="51.00748" lon="-4.5303"></trkpt>
      <trkpt lat="51.00713" lon="-4.53003"></trkpt>
      <trkpt lat="51.00689" lon="-4.5298"></trkpt>
      <trkpt lat="51.00678" lon="-4.52981"></trkpt>
      <trkpt lat="51.00661" lon="-4.52974"></trkpt>
      <trkpt lat="51.00654" lon="-4.52977"></trkpt>
      <trkpt lat="51.00644" lon="-4.52991"></trkpt>
      <trkpt lat="51.00636" lon="-4.52996"></trkpt>
      <trkpt lat="51.00631" lon="-4.52996"></trkpt>
      <trkpt lat="51.00625" lon="-4.52992"></trkpt>
      <trkpt lat="51.00617" lon="-4.5298"></trkpt>
      <trkpt lat="51.00614" lon="-4.52964"></trkpt>
      <trkpt lat="51.00606" lon="-4.52949"></trkpt>
      <trkpt lat="51.00603" lon="-4.52949"></trkpt>
      <trkpt lat="51.00593" lon="-4.52968"></trkpt>
      <trkpt lat="51.00584" lon="-4.52972"></trkpt>
      <trkpt lat="51.0057" lon="-4.52962"></trkpt>
      <trkpt lat="51.00567" lon="-4.52954"></trkpt>
      <trkpt lat="51.0055" lon="-4.52956"></trkpt>
      <trkpt lat="51.00538" lon="-4.52972"></trkpt>
      <trkpt lat="51.00535" lon="-4.52978"></trkpt>
      <trkpt lat="51.00528" lon="-4.52982"></trkpt>
      <trkpt lat="51.00518" lon="-4.52975"></trkpt>
      <trkpt lat="51.00528" lon="-4.52982"></trkpt>
      <trkpt lat="51.00535" lon="-4.52978"></trkpt>
      <trkpt lat="51.00538" lon="-4.52972"></trkpt>
      <trkpt lat="51.00536" lon="-4.52963"></trkpt>
      <trkpt lat="51.0054" lon="-4.52937"></trkpt>
      <trkpt lat="51.00539" lon="-4.5293"></trkpt>
      <trkpt lat="51.00534" lon="-4.5292"></trkpt>
      <trkpt lat="51.00534" lon="-4.52912"></trkpt>
      <trkpt lat="51.00531" lon="-4.52909"></trkpt>
      <trkpt lat="51.00514" lon="-4.52912"></trkpt>
      <trkpt lat="51.00506" lon="-4.5291"></trkpt>
      <trkpt lat="51.00472" lon="-4.52928"></trkpt>
      <trkpt lat="51.0046" lon="-4.52925"></trkpt>
      <trkpt lat="51.00448" lon="-4.5293"></trkpt>
      <trkpt lat="51.00432" lon="-4.52953"></trkpt>
      <trkpt lat="51.00425" lon="-4.52972"></trkpt>
      <trkpt lat="51.00407" lon="-4.52959"></trkpt>
      <trkpt lat="51.0035" lon="-4.52956"></trkpt>
      <trkpt lat="51.0034" lon="-4.52952"></trkpt>
      <trkpt lat="51.0032" lon="-4.52925"></trkpt>
      <trkpt lat="51.0031" lon="-4.52881"></trkpt>
      <trkpt lat="51.00303" lon="-4.52866"></trkpt>
      <trkpt lat="51.00255" lon="-4.52839"></trkpt>
      <trkpt lat="51.00209" lon="-4.52825"></trkpt>
      <trkpt lat="51.00205" lon="-4.52828"></trkpt>
      <trkpt lat="51.00199" lon="-4.52841"></trkpt>
      <trkpt lat="51.00198" lon="-4.52857"></trkpt>
      <trkpt lat="51.00196" lon="-4.52864"></trkpt>
      <trkpt lat="51.00198" lon="-4.52873"></trkpt>
      <trkpt lat="51.00205" lon="-4.52877"></trkpt>
      <trkpt lat="51.00213" lon="-4.52886"></trkpt>
      <trkpt lat="51.0023" lon="-4.52923"></trkpt>
      <trkpt lat="51.00244" lon="-4.52965"></trkpt>
      <trkpt lat="51.00248" lon="-4.53003"></trkpt>
      <trkpt lat="51.0025" lon="-4.53029"></trkpt>
      <trkpt lat="51.00247" lon="-4.53038"></trkpt>
      <trkpt lat="51.0024" lon="-4.53042"></trkpt>
      <trkpt lat="51.00233" lon="-4.5304"></trkpt>
      <trkpt lat="51.00226" lon="-4.53044"></trkpt>
      <trkpt lat="51.00202" lon="-4.53071"></trkpt>
      <trkpt lat="51.00162" lon="-4.53077"></trkpt>
      <trkpt lat="51.00134" lon="-4.53088"></trkpt>
      <trkpt lat="51.00115" lon="-4.53089"></trkpt>
      <trkpt lat="51.00106" lon="-4.53087"></trkpt>
      <trkpt lat="51.00093" lon="-4.53076"></trkpt>
      <trkpt lat="51.00078" lon="-4.53049"></trkpt>
      <trkpt lat="51.00072" lon="-4.53043"></trkpt>
      <trkpt lat="51.00065" lon="-4.5304"></trkpt>
      <trkpt lat="51.00022" lon="-4.53032"></trkpt>
      <trkpt lat="51.00007" lon="-4.53031"></trkpt>
      <trkpt lat="50.99988" lon="-4.53035"></trkpt>
      <trkpt lat="50.99973" lon="-4.53033"></trkpt>
      <trkpt lat="50.99943" lon="-4.53019"></trkpt>
      <trkpt lat="50.99898" lon="-4.53011"></trkpt>
      <trkpt lat="50.99873" lon="-4.53001"></trkpt>
      <trkpt lat="50.99782" lon="-4.52945"></trkpt>
      <trkpt lat="50.99749" lon="-4.52927"></trkpt>
      <trkpt lat="50.99713" lon="-4.52917"></trkpt>
      <trkpt lat="50.99673" lon="-4.52912"></trkpt>
      <trkpt lat="50.99617" lon="-4.529"></trkpt>
      <trkpt lat="50.99595" lon="-4.529"></trkpt>
      <trkpt lat="50.99514" lon="-4.52872"></trkpt>
      <trkpt lat="50.99511" lon="-4.52893"></trkpt>
      <trkpt lat="50.99507" lon="-4.52901"></trkpt>
      <trkpt lat="50.99496" lon="-4.52907"></trkpt>
      <trkpt lat="50.99471" lon="-4.5295"></trkpt>
      <trkpt lat="50.99435" lon="-4.53063"></trkpt>
      <trkpt lat="50.99439" lon="-4.5308"></trkpt>
      <trkpt lat="50.99437" lon="-4.53086"></trkpt>
      <trkpt lat="50.99422" lon="-4.53108"></trkpt>
      <trkpt lat="50.99405" lon="-4.5314"></trkpt>
      <trkpt lat="50.99405" lon="-4.53148"></trkpt>
      <trkpt lat="50.99401" lon="-4.5318"></trkpt>
      <trkpt lat="50.99395" lon="-4.5321"></trkpt>
      <trkpt lat="50.99411" lon="-4.5322"></trkpt>
      <trkpt lat="50.99432" lon="-4.53225"></trkpt>
      <trkpt lat="50.9946" lon="-4.53228"></trkpt>
      <trkpt lat="50.99484" lon="-4.53241"></trkpt>
      <trkpt lat="50.995" lon="-4.53256"></trkpt>
      <trkpt lat="50.99506" lon="-4.53302"></trkpt>
      <trkpt lat="50.99505" lon="-4.53313"></trkpt>
      <trkpt lat="50.995" lon="-4.53327"></trkpt>
      <trkpt lat="50.99496" lon="-4.53332"></trkpt>
      <trkpt lat="50.99454" lon="-4.53341"></trkpt>
    </trkseg>
  </trk>
</gpx>
