<?xml version="1.0" encoding="UTF-8"?>
<gpx version="1.1" creator="swcp-walk (imported from OS Maps route 33820314)"
     xmlns="http://www.topografix.com/GPX/1/1">
  <metadata>
    <name>SWCP10-HartlandQuay-Bude</name>
  </metadata>
  <trk>
    <name>SWCP10-HartlandQuay-Bude</name>
    <trkseg>
      <trkpt lat="50.994690917957655" lon="-4.533491890015739"></trkpt>
      <trkpt lat="50.99469" lon="-4.53352"></trkpt>
      <trkpt lat="50.99433" lon="-4.53377"></trkpt>
      <trkpt lat="50.99428" lon="-4.53386"></trkpt>
      <trkpt lat="50.99424" lon="-4.53382"></trkpt>
      <trkpt lat="50.9942" lon="-4.53383"></trkpt>
      <trkpt lat="50.99417" lon="-4.53373"></trkpt>
      <trkpt lat="50.99421" lon="-4.53347"></trkpt>
      <trkpt lat="50.99417" lon="-4.53343"></trkpt>
      <trkpt lat="50.99418" lon="-4.53315"></trkpt>
      <trkpt lat="50.99414" lon="-4.53302"></trkpt>
      <trkpt lat="50.99399" lon="-4.53291"></trkpt>
      <trkpt lat="50.99399" lon="-4.53281"></trkpt>
      <trkpt lat="50.99394" lon="-4.53272"></trkpt>
      <trkpt lat="50.99368" lon="-4.53241"></trkpt>
      <trkpt lat="50.99363" lon="-4.53239"></trkpt>
      <trkpt lat="50.99356" lon="-4.53213"></trkpt>
      <trkpt lat="50.9935" lon="-4.5318"></trkpt>
      <trkpt lat="50.99345" lon="-4.53168"></trkpt>
      <trkpt lat="50.99336" lon="-4.53168"></trkpt>
      <trkpt lat="50.99333" lon="-4.5319"></trkpt>
      <trkpt lat="50.99328" lon="-4.53211"></trkpt>
      <trkpt lat="50.99318" lon="-4.53233"></trkpt>
      <trkpt lat="50.99308" lon="-4.53248"></trkpt>
      <trkpt lat="50.99297" lon="-4.53257"></trkpt>
      <trkpt lat="50.9926" lon="-4.53255"></trkpt>
      <trkpt lat="50.99237" lon="-4.53248"></trkpt>
      <trkpt lat="50.99202" lon="-4.53231"></trkpt>
      <trkpt lat="50.99137" lon="-4.53159"></trkpt>
      <trkpt lat="50.99091" lon="-4.5308"></trkpt>
      <trkpt lat="50.99045" lon="-4.53028"></trkpt>
      <trkpt lat="50.99033" lon="-4.53026"></trkpt>
      <trkpt lat="50.99027" lon="-4.53021"></trkpt>
      <trkpt lat="50.98994" lon="-4.52956"></trkpt>
      <trkpt lat="50.98967" lon="-4.52923"></trkpt>
      <trkpt lat="50.98953" lon="-4.52916"></trkpt>
      <trkpt lat="50.9893" lon="-4.52915"></trkpt>
      <trkpt lat="50.98859" lon="-4.52853"></trkpt>
      <trkpt lat="50.98856" lon="-4.52853"></trkpt>
      <trkpt lat="50.98836" lon="-4.52872"></trkpt>
      <trkpt lat="50.98815" lon="-4.52887"></trkpt>
      <trkpt lat="50.98754" lon="-4.52894"></trkpt>
      <trkpt lat="50.98739" lon="-4.52898"></trkpt>
      <trkpt lat="50.98732" lon="-4.52897"></trkpt>
      <trkpt lat="50.98702" lon="-4.52857"></trkpt>
      <trkpt lat="50.98692" lon="-4.52834"></trkpt>
      <trkpt lat="50.98686" lon="-4.52821"></trkpt>
      <trkpt lat="50.98679" lon="-4.52815"></trkpt>
      <trkpt lat="50.98667" lon="-4.52814"></trkpt>
      <trkpt lat="50.98663" lon="-4.52808"></trkpt>
      <trkpt lat="50.98643" lon="-4.52795"></trkpt>
      <trkpt lat="50.98636" lon="-4.52794"></trkpt>
      <trkpt lat="50.98629" lon="-4.52798"></trkpt>
      <trkpt lat="50.98608" lon="-4.52816"></trkpt>
      <trkpt lat="50.98555" lon="-4.52818"></trkpt>
      <trkpt lat="50.98527" lon="-4.52814"></trkpt>
      <trkpt lat="50.98518" lon="-4.52816"></trkpt>
      <trkpt lat="50.98511" lon="-4.52827"></trkpt>
      <trkpt lat="50.98505" lon="-4.5283"></trkpt>
      <trkpt lat="50.98486" lon="-4.5283"></trkpt>
      <trkpt lat="50.9848" lon="-4.52847"></trkpt>
      <trkpt lat="50.9848" lon="-4.52854"></trkpt>
      <trkpt lat="50.98487" lon="-4.52876"></trkpt>
      <trkpt lat="50.98484" lon="-4.52879"></trkpt>
      <trkpt lat="50.98448" lon="-4.52868"></trkpt>
      <trkpt lat="50.98439" lon="-4.52888"></trkpt>
      <trkpt lat="50.98411" lon="-4.52858"></trkpt>
      <trkpt lat="50.98367" lon="-4.52795"></trkpt>
      <trkpt lat="50.98336" lon="-4.5276"></trkpt>
      <trkpt lat="50.98319" lon="-4.52754"></trkpt>
      <trkpt lat="50.98313" lon="-4.52754"></trkpt>
      <trkpt lat="50.9831" lon="-4.52758"></trkpt>
      <trkpt lat="50.98277" lon="-4.52822"></trkpt>
      <trkpt lat="50.9827" lon="-4.52824"></trkpt>
      <trkpt lat="50.98246" lon="-4.52823"></trkpt>
      <trkpt lat="50.98235" lon="-4.52817"></trkpt>
      <trkpt lat="50.98202" lon="-4.5278"></trkpt>
      <trkpt lat="50.98179" lon="-4.52758"></trkpt>
      <trkpt lat="50.98148" lon="-4.5274"></trkpt>
      <trkpt lat="50.98123" lon="-4.52737"></trkpt>
      <trkpt lat="50.98118" lon="-4.52735"></trkpt>
      <trkpt lat="50.98104" lon="-4.52738"></trkpt>
      <trkpt lat="50.98088" lon="-4.52748"></trkpt>
      <trkpt lat="50.98057" lon="-4.52781"></trkpt>
      <trkpt lat="50.98036" lon="-4.52821"></trkpt>
      <trkpt lat="50.98036" lon="-4.52822"></trkpt>
      <trkpt lat="50.97991" lon="-4.52898"></trkpt>
      <trkpt lat="50.97965" lon="-4.52926"></trkpt>
      <trkpt lat="50.97937" lon="-4.52944"></trkpt>
      <trkpt lat="50.97927" lon="-4.52954"></trkpt>
      <trkpt lat="50.97914" lon="-4.5297"></trkpt>
      <trkpt lat="50.97904" lon="-4.52998"></trkpt>
      <trkpt lat="50.97895" lon="-4.53016"></trkpt>
      <trkpt lat="50.97872" lon="-4.53042"></trkpt>
      <trkpt lat="50.97862" lon="-4.53047"></trkpt>
      <trkpt lat="50.97841" lon="-4.53068"></trkpt>
      <trkpt lat="50.97809" lon="-4.53091"></trkpt>
      <trkpt lat="50.97792" lon="-4.53098"></trkpt>
      <trkpt lat="50.97766" lon="-4.53101"></trkpt>
      <trkpt lat="50.97747" lon="-4.5311"></trkpt>
      <trkpt lat="50.97728" lon="-4.53157"></trkpt>
      <trkpt lat="50.9771" lon="-4.53159"></trkpt>
      <trkpt lat="50.97678" lon="-4.5315"></trkpt>
      <trkpt lat="50.97665" lon="-4.5315"></trkpt>
      <trkpt lat="50.97655" lon="-4.53167"></trkpt>
      <trkpt lat="50.97622" lon="-4.53181"></trkpt>
      <trkpt lat="50.97536" lon="-4.53224"></trkpt>
      <trkpt lat="50.97505" lon="-4.5321"></trkpt>
      <trkpt lat="50.97488" lon="-4.53196"></trkpt>
      <trkpt lat="50.97468" lon="-4.53173"></trkpt>
      <trkpt lat="50.97446" lon="-4.53153"></trkpt>
      <trkpt lat="50.97429" lon="-4.53117"></trkpt>
      <trkpt lat="50.97363" lon="-4.53086"></trkpt>
      <trkpt lat="50.97347" lon="-4.53084"></trkpt>
      <trkpt lat="50.97342" lon="-4.53092"></trkpt>
      <trkpt lat="50.97314" lon="-4.53095"></trkpt>
      <trkpt lat="50.97307" lon="-4.53101"></trkpt>
      <trkpt lat="50.97302" lon="-4.53109"></trkpt>
      <trkpt lat="50.97296" lon="-4.53133"></trkpt>
      <trkpt lat="50.9729" lon="-4.53141"></trkpt>
      <trkpt lat="50.97245" lon="-4.53148"></trkpt>
      <trkpt lat="50.97226" lon="-4.53148"></trkpt>
      <trkpt lat="50.97214" lon="-4.53144"></trkpt>
      <trkpt lat="50.97184" lon="-4.53122"></trkpt>
      <trkpt lat="50.97178" lon="-4.53113"></trkpt>
      <trkpt lat="50.97176" lon="-4.531"></trkpt>
      <trkpt lat="50.97174" lon="-4.53097"></trkpt>
      <trkpt lat="50.97161" lon="-4.53104"></trkpt>
      <trkpt lat="50.97129" lon="-4.53112"></trkpt>
      <trkpt lat="50.9705" lon="-4.53156"></trkpt>
      <trkpt lat="50.97021" lon="-4.53161"></trkpt>
      <trkpt lat="50.97008" lon="-4.53162"></trkpt>
      <trkpt lat="50.96979" lon="-4.53126"></trkpt>
      <trkpt lat="50.96962" lon="-4.53115"></trkpt>
      <trkpt lat="50.96962" lon="-4.53114"></trkpt>
      <trkpt lat="50.96888" lon="-4.53106"></trkpt>
      <trkpt lat="50.96822" lon="-4.53112"></trkpt>
      <trkpt lat="50.9682" lon="-4.53115"></trkpt>
      <trkpt lat="50.9682" lon="-4.53123"></trkpt>
      <trkpt lat="50.96814" lon="-4.53125"></trkpt>
      <trkpt lat="50.96811" lon="-4.53134"></trkpt>
      <trkpt lat="50.96719" lon="-4.53143"></trkpt>
      <trkpt lat="50.96699" lon="-4.53138"></trkpt>
      <trkpt lat="50.96688" lon="-4.53132"></trkpt>
      <trkpt lat="50.96656" lon="-4.53071"></trkpt>
      <trkpt lat="50.96613" lon="-4.53008"></trkpt>
      <trkpt lat="50.96602" lon="-4.53"></trkpt>
      <trkpt lat="50.96591" lon="-4.53011"></trkpt>
      <trkpt lat="50.96586" lon="-4.53023"></trkpt>
      <trkpt lat="50.96542" lon="-4.53085"></trkpt>
      <trkpt lat="50.96468" lon="-4.53182"></trkpt>
      <trkpt lat="50.96461" lon="-4.53185"></trkpt>
      <trkpt lat="50.96341" lon="-4.53174"></trkpt>
      <trkpt lat="50.96301" lon="-4.53161"></trkpt>
      <trkpt lat="50.96253" lon="-4.53139"></trkpt>
      <trkpt lat="50.96212" lon="-4.53128"></trkpt>
      <trkpt lat="50.962" lon="-4.53125"></trkpt>
      <trkpt lat="50.96195" lon="-4.5312"></trkpt>
      <trkpt lat="50.96183" lon="-4.5306"></trkpt>
      <trkpt lat="50.96175" lon="-4.53033"></trkpt>
      <trkpt lat="50.9617" lon="-4.53024"></trkpt>
      <trkpt lat="50.96163" lon="-4.53059"></trkpt>
      <trkpt lat="50.9615" lon="-4.53088"></trkpt>
      <trkpt lat="50.96079" lon="-4.53202"></trkpt>
      <trkpt lat="50.96057" lon="-4.53242"></trkpt>
      <trkpt lat="50.96037" lon="-4.53293"></trkpt>
      <trkpt lat="50.96011" lon="-4.53339"></trkpt>
      <trkpt lat="50.95987" lon="-4.53366"></trkpt>
      <trkpt lat="50.95952" lon="-4.53395"></trkpt>
      <trkpt lat="50.95925" lon="-4.53439"></trkpt>
      <trkpt lat="50.95896" lon="-4.53468"></trkpt>
      <trkpt lat="50.95855" lon="-4.53499"></trkpt>
      <trkpt lat="50.95827" lon="-4.53525"></trkpt>
      <trkpt lat="50.95779" lon="-4.53561"></trkpt>
      <trkpt lat="50.95755" lon="-4.5357"></trkpt>
      <trkpt lat="50.95734" lon="-4.53573"></trkpt>
      <trkpt lat="50.95716" lon="-4.53569"></trkpt>
      <trkpt lat="50.95646" lon="-4.53549"></trkpt>
      <trkpt lat="50.95621" lon="-4.5354"></trkpt>
      <trkpt lat="50.95619" lon="-4.53547"></trkpt>
      <trkpt lat="50.95598" lon="-4.53772"></trkpt>
      <trkpt lat="50.95594" lon="-4.53824"></trkpt>
      <trkpt lat="50.95583" lon="-4.53847"></trkpt>
      <trkpt lat="50.95578" lon="-4.53866"></trkpt>
      <trkpt lat="50.95553" lon="-4.53883"></trkpt>
      <trkpt lat="50.95508" lon="-4.5392"></trkpt>
      <trkpt lat="50.95472" lon="-4.53989"></trkpt>
      <trkpt lat="50.95424" lon="-4.54054"></trkpt>
      <trkpt lat="50.95412" lon="-4.54118"></trkpt>
      <trkpt lat="50.95406" lon="-4.54135"></trkpt>
      <trkpt lat="50.95391" lon="-4.54155"></trkpt>
      <trkpt lat="50.95383" lon="-4.54155"></trkpt>
      <trkpt lat="50.95368" lon="-4.54126"></trkpt>
      <trkpt lat="50.9536" lon="-4.54117"></trkpt>
      <trkpt lat="50.95326" lon="-4.54106"></trkpt>
      <trkpt lat="50.95291" lon="-4.54101"></trkpt>
      <trkpt lat="50.95261" lon="-4.5411"></trkpt>
      <trkpt lat="50.95211" lon="-4.54095"></trkpt>
      <trkpt lat="50.95177" lon="-4.54074"></trkpt>
      <trkpt lat="50.95125" lon="-4.54028"></trkpt>
      <trkpt lat="50.95092" lon="-4.53985"></trkpt>
      <trkpt lat="50.95085" lon="-4.53973"></trkpt>
      <trkpt lat="50.95051" lon="-4.53936"></trkpt>
      <trkpt lat="50.95046" lon="-4.53925"></trkpt>
      <trkpt lat="50.9504" lon="-4.53911"></trkpt>
      <trkpt lat="50.95032" lon="-4.53868"></trkpt>
      <trkpt lat="50.95029" lon="-4.5384"></trkpt>
      <trkpt lat="50.95023" lon="-4.53823"></trkpt>
      <trkpt lat="50.95014" lon="-4.53804"></trkpt>
      <trkpt lat="50.94952" lon="-4.53777"></trkpt>
      <trkpt lat="50.94935" lon="-4.53774"></trkpt>
      <trkpt lat="50.94922" lon="-4.5378"></trkpt>
      <trkpt lat="50.94791" lon="-4.53884"></trkpt>
      <trkpt lat="50.94782" lon="-4.53889"></trkpt>
      <trkpt lat="50.94777" lon="-4.53889"></trkpt>
      <trkpt lat="50.94759" lon="-4.53879"></trkpt>
      <trkpt lat="50.94746" lon="-4.53882"></trkpt>
      <trkpt lat="50.94737" lon="-4.53895"></trkpt>
      <trkpt lat="50.94734" lon="-4.53904"></trkpt>
      <trkpt lat="50.94732" lon="-4.53924"></trkpt>
      <trkpt lat="50.94668" lon="-4.54016"></trkpt>
      <trkpt lat="50.94652" lon="-4.54049"></trkpt>
      <trkpt lat="50.94635" lon="-4.54054"></trkpt>
      <trkpt lat="50.94626" lon="-4.54053"></trkpt>
      <trkpt lat="50.94606" lon="-4.54046"></trkpt>
      <trkpt lat="50.94578" lon="-4.54031"></trkpt>
      <trkpt lat="50.94564" lon="-4.54033"></trkpt>
      <trkpt lat="50.94555" lon="-4.54045"></trkpt>
      <trkpt lat="50.9452" lon="-4.54072"></trkpt>
      <trkpt lat="50.94491" lon="-4.54091"></trkpt>
      <trkpt lat="50.94458" lon="-4.54122"></trkpt>
      <trkpt lat="50.94431" lon="-4.54137"></trkpt>
      <trkpt lat="50.9443" lon="-4.54137"></trkpt>
      <trkpt lat="50.94404" lon="-4.54157"></trkpt>
      <trkpt lat="50.94371" lon="-4.54196"></trkpt>
      <trkpt lat="50.94351" lon="-4.54215"></trkpt>
      <trkpt lat="50.9433" lon="-4.54222"></trkpt>
      <trkpt lat="50.94307" lon="-4.54233"></trkpt>
      <trkpt lat="50.94278" lon="-4.54258"></trkpt>
      <trkpt lat="50.94259" lon="-4.54305"></trkpt>
      <trkpt lat="50.94247" lon="-4.54316"></trkpt>
      <trkpt lat="50.94226" lon="-4.54322"></trkpt>
      <trkpt lat="50.94187" lon="-4.5431"></trkpt>
      <trkpt lat="50.94179" lon="-4.54313"></trkpt>
      <trkpt lat="50.94164" lon="-4.54329"></trkpt>
      <trkpt lat="50.94148" lon="-4.54383"></trkpt>
      <trkpt lat="50.94143" lon="-4.54397"></trkpt>
      <trkpt lat="50.94138" lon="-4.54405"></trkpt>
      <trkpt lat="50.9411" lon="-4.54425"></trkpt>
      <trkpt lat="50.94084" lon="-4.5444"></trkpt>
      <trkpt lat="50.94077" lon="-4.54448"></trkpt>
      <trkpt lat="50.94048" lon="-4.54501"></trkpt>
      <trkpt lat="50.93998" lon="-4.54583"></trkpt>
      <trkpt lat="50.93979" lon="-4.54589"></trkpt>
      <trkpt lat="50.93952" lon="-4.5461"></trkpt>
      <trkpt lat="50.93943" lon="-4.54609"></trkpt>
      <trkpt lat="50.93866" lon="-4.54572"></trkpt>
      <trkpt lat="50.93832" lon="-4.54539"></trkpt>
      <trkpt lat="50.93784" lon="-4.54512"></trkpt>
      <trkpt lat="50.93777" lon="-4.54498"></trkpt>
      <trkpt lat="50.93765" lon="-4.54491"></trkpt>
      <trkpt lat="50.9372" lon="-4.54479"></trkpt>
      <trkpt lat="50.93684" lon="-4.5446"></trkpt>
      <trkpt lat="50.93671" lon="-4.54457"></trkpt>
      <trkpt lat="50.93659" lon="-4.54451"></trkpt>
      <trkpt lat="50.93653" lon="-4.54439"></trkpt>
      <trkpt lat="50.9365" lon="-4.54419"></trkpt>
      <trkpt lat="50.93648" lon="-4.54417"></trkpt>
      <trkpt lat="50.93628" lon="-4.54424"></trkpt>
      <trkpt lat="50.936" lon="-4.54444"></trkpt>
      <trkpt lat="50.93565" lon="-4.54485"></trkpt>
      <trkpt lat="50.93561" lon="-4.54484"></trkpt>
      <trkpt lat="50.93559" lon="-4.54488"></trkpt>
      <trkpt lat="50.93521" lon="-4.54519"></trkpt>
      <trkpt lat="50.93517" lon="-4.54517"></trkpt>
      <trkpt lat="50.93511" lon="-4.54509"></trkpt>
      <trkpt lat="50.93504" lon="-4.54507"></trkpt>
      <trkpt lat="50.93497" lon="-4.54509"></trkpt>
      <trkpt lat="50.9349" lon="-4.54508"></trkpt>
      <trkpt lat="50.93487" lon="-4.54503"></trkpt>
      <trkpt lat="50.93478" lon="-4.54511"></trkpt>
      <trkpt lat="50.93467" lon="-4.54536"></trkpt>
      <trkpt lat="50.93465" lon="-4.54515"></trkpt>
      <trkpt lat="50.93457" lon="-4.54543"></trkpt>
      <trkpt lat="50.93454" lon="-4.5454"></trkpt>
      <trkpt lat="50.93449" lon="-4.54552"></trkpt>
      <trkpt lat="50.93439" lon="-4.54565"></trkpt>
      <trkpt lat="50.93437" lon="-4.54565"></trkpt>
      <trkpt lat="50.93436" lon="-4.54549"></trkpt>
      <trkpt lat="50.93429" lon="-4.54527"></trkpt>
      <trkpt lat="50.93428" lon="-4.5452"></trkpt>
      <trkpt lat="50.93428" lon="-4.54499"></trkpt>
      <trkpt lat="50.93431" lon="-4.54486"></trkpt>
      <trkpt lat="50.93418" lon="-4.54478"></trkpt>
      <trkpt lat="50.93415" lon="-4.54465"></trkpt>
      <trkpt lat="50.93411" lon="-4.54461"></trkpt>
      <trkpt lat="50.93406" lon="-4.54461"></trkpt>
      <trkpt lat="50.93385" lon="-4.54439"></trkpt>
      <trkpt lat="50.93371" lon="-4.54445"></trkpt>
      <trkpt lat="50.9336" lon="-4.54463"></trkpt>
      <trkpt lat="50.93363" lon="-4.54491"></trkpt>
      <trkpt lat="50.9336" lon="-4.54498"></trkpt>
      <trkpt lat="50.93339" lon="-4.54489"></trkpt>
      <trkpt lat="50.93336" lon="-4.54484"></trkpt>
      <trkpt lat="50.93331" lon="-4.54485"></trkpt>
      <trkpt lat="50.93316" lon="-4.54473"></trkpt>
      <trkpt lat="50.93312" lon="-4.54462"></trkpt>
      <trkpt lat="50.93289" lon="-4.54422"></trkpt>
      <trkpt lat="50.93287" lon="-4.5441"></trkpt>
      <trkpt lat="50.93274" lon="-4.54394"></trkpt>
      <trkpt lat="50.93265" lon="-4.54389"></trkpt>
      <trkpt lat="50.93262" lon="-4.54385"></trkpt>
      <trkpt lat="50.93257" lon="-4.54372"></trkpt>
      <trkpt lat="50.93236" lon="-4.5438"></trkpt>
      <trkpt lat="50.93233" lon="-4.54376"></trkpt>
      <trkpt lat="50.93222" lon="-4.54329"></trkpt>
      <trkpt lat="50.93209" lon="-4.54349"></trkpt>
      <trkpt lat="50.93202" lon="-4.54366"></trkpt>
      <trkpt lat="50.93197" lon="-4.54371"></trkpt>
      <trkpt lat="50.9318" lon="-4.5437"></trkpt>
      <trkpt lat="50.93173" lon="-4.54362"></trkpt>
      <trkpt lat="50.9317" lon="-4.54353"></trkpt>
      <trkpt lat="50.93162" lon="-4.54354"></trkpt>
      <trkpt lat="50.93161" lon="-4.54352"></trkpt>
      <trkpt lat="50.93136" lon="-4.54343"></trkpt>
      <trkpt lat="50.93028" lon="-4.54326"></trkpt>
      <trkpt lat="50.93" lon="-4.54394"></trkpt>
      <trkpt lat="50.92982" lon="-4.5441"></trkpt>
      <trkpt lat="50.92975" lon="-4.54422"></trkpt>
      <trkpt lat="50.92969" lon="-4.54422"></trkpt>
      <trkpt lat="50.92966" lon="-4.54425"></trkpt>
      <trkpt lat="50.9296" lon="-4.5444"></trkpt>
      <trkpt lat="50.92956" lon="-4.54442"></trkpt>
      <trkpt lat="50.92955" lon="-4.54447"></trkpt>
      <trkpt lat="50.92952" lon="-4.54446"></trkpt>
      <trkpt lat="50.92948" lon="-4.54454"></trkpt>
      <trkpt lat="50.92944" lon="-4.54454"></trkpt>
      <trkpt lat="50.9294" lon="-4.54445"></trkpt>
      <trkpt lat="50.92929" lon="-4.54368"></trkpt>
      <trkpt lat="50.92922" lon="-4.54405"></trkpt>
      <trkpt lat="50.92914" lon="-4.5442"></trkpt>
      <trkpt lat="50.92909" lon="-4.54437"></trkpt>
      <trkpt lat="50.92906" lon="-4.54454"></trkpt>
      <trkpt lat="50.929" lon="-4.5446"></trkpt>
      <trkpt lat="50.92894" lon="-4.54462"></trkpt>
      <trkpt lat="50.9289" lon="-4.54459"></trkpt>
      <trkpt lat="50.92882" lon="-4.54465"></trkpt>
      <trkpt lat="50.92865" lon="-4.54471"></trkpt>
      <trkpt lat="50.92863" lon="-4.5447"></trkpt>
      <trkpt lat="50.92863" lon="-4.54443"></trkpt>
      <trkpt lat="50.92871" lon="-4.54443"></trkpt>
      <trkpt lat="50.92872" lon="-4.5444"></trkpt>
      <trkpt lat="50.92868" lon="-4.54437"></trkpt>
      <trkpt lat="50.92847" lon="-4.54435"></trkpt>
      <trkpt lat="50.92836" lon="-4.54438"></trkpt>
      <trkpt lat="50.92829" lon="-4.54446"></trkpt>
      <trkpt lat="50.92825" lon="-4.5446"></trkpt>
      <trkpt lat="50.92814" lon="-4.54479"></trkpt>
      <trkpt lat="50.92811" lon="-4.5448"></trkpt>
      <trkpt lat="50.92807" lon="-4.54478"></trkpt>
      <trkpt lat="50.92789" lon="-4.54392"></trkpt>
      <trkpt lat="50.9278" lon="-4.54353"></trkpt>
      <trkpt lat="50.92777" lon="-4.54346"></trkpt>
      <trkpt lat="50.92772" lon="-4.54363"></trkpt>
      <trkpt lat="50.92768" lon="-4.54372"></trkpt>
      <trkpt lat="50.92769" lon="-4.54395"></trkpt>
      <trkpt lat="50.92766" lon="-4.54418"></trkpt>
      <trkpt lat="50.92754" lon="-4.54478"></trkpt>
      <trkpt lat="50.92729" lon="-4.54516"></trkpt>
      <trkpt lat="50.92724" lon="-4.5455"></trkpt>
      <trkpt lat="50.92722" lon="-4.54582"></trkpt>
      <trkpt lat="50.92724" lon="-4.54602"></trkpt>
      <trkpt lat="50.92716" lon="-4.54618"></trkpt>
      <trkpt lat="50.9271" lon="-4.54629"></trkpt>
      <trkpt lat="50.92685" lon="-4.54664"></trkpt>
      <trkpt lat="50.92675" lon="-4.54687"></trkpt>
      <trkpt lat="50.92657" lon="-4.54716"></trkpt>
      <trkpt lat="50.92646" lon="-4.54746"></trkpt>
      <trkpt lat="50.92638" lon="-4.54755"></trkpt>
      <trkpt lat="50.92622" lon="-4.54767"></trkpt>
      <trkpt lat="50.92578" lon="-4.54772"></trkpt>
      <trkpt lat="50.92571" lon="-4.54777"></trkpt>
      <trkpt lat="50.9257" lon="-4.54783"></trkpt>
      <trkpt lat="50.92573" lon="-4.54803"></trkpt>
      <trkpt lat="50.92573" lon="-4.54816"></trkpt>
      <trkpt lat="50.92581" lon="-4.54869"></trkpt>
      <trkpt lat="50.92583" lon="-4.54962"></trkpt>
      <trkpt lat="50.9258" lon="-4.54983"></trkpt>
      <trkpt lat="50.92577" lon="-4.54992"></trkpt>
      <trkpt lat="50.92572" lon="-4.55"></trkpt>
      <trkpt lat="50.92569" lon="-4.55024"></trkpt>
      <trkpt lat="50.92567" lon="-4.55031"></trkpt>
      <trkpt lat="50.92533" lon="-4.55057"></trkpt>
      <trkpt lat="50.92491" lon="-4.55062"></trkpt>
      <trkpt lat="50.92429" lon="-4.55134"></trkpt>
      <trkpt lat="50.92426" lon="-4.5512"></trkpt>
      <trkpt lat="50.92422" lon="-4.55117"></trkpt>
      <trkpt lat="50.92416" lon="-4.55121"></trkpt>
      <trkpt lat="50.92414" lon="-4.55127"></trkpt>
      <trkpt lat="50.92409" lon="-4.55129"></trkpt>
      <trkpt lat="50.92398" lon="-4.55142"></trkpt>
      <trkpt lat="50.9237" lon="-4.55095"></trkpt>
      <trkpt lat="50.92352" lon="-4.55073"></trkpt>
      <trkpt lat="50.92349" lon="-4.55073"></trkpt>
      <trkpt lat="50.92347" lon="-4.55075"></trkpt>
      <trkpt lat="50.92344" lon="-4.55149"></trkpt>
      <trkpt lat="50.92341" lon="-4.55156"></trkpt>
      <trkpt lat="50.9231" lon="-4.5511"></trkpt>
      <trkpt lat="50.92301" lon="-4.55099"></trkpt>
      <trkpt lat="50.92298" lon="-4.551"></trkpt>
      <trkpt lat="50.92304" lon="-4.5519"></trkpt>
      <trkpt lat="50.92204" lon="-4.55223"></trkpt>
      <trkpt lat="50.92151" lon="-4.55252"></trkpt>
      <trkpt lat="50.92167" lon="-4.5537"></trkpt>
      <trkpt lat="50.92159" lon="-4.5538"></trkpt>
      <trkpt lat="50.92135" lon="-4.55412"></trkpt>
      <trkpt lat="50.92081" lon="-4.55467"></trkpt>
      <trkpt lat="50.92057" lon="-4.5548"></trkpt>
      <trkpt lat="50.92044" lon="-4.55495"></trkpt>
      <trkpt lat="50.92015" lon="-4.55517"></trkpt>
      <trkpt lat="50.92008" lon="-4.55544"></trkpt>
      <trkpt lat="50.92003" lon="-4.55544"></trkpt>
      <trkpt lat="50.91999" lon="-4.55579"></trkpt>
      <trkpt lat="50.91993" lon="-4.55581"></trkpt>
      <trkpt lat="50.91958" lon="-4.55568"></trkpt>
      <trkpt lat="50.91929" lon="-4.55545"></trkpt>
      <trkpt lat="50.91909" lon="-4.55524"></trkpt>
      <trkpt lat="50.91903" lon="-4.55522"></trkpt>
      <trkpt lat="50.91844" lon="-4.55534"></trkpt>
      <trkpt lat="50.91808" lon="-4.55557"></trkpt>
      <trkpt lat="50.91792" lon="-4.55579"></trkpt>
      <trkpt lat="50.91776" lon="-4.55594"></trkpt>
      <trkpt lat="50.91761" lon="-4.55612"></trkpt>
      <trkpt lat="50.9175" lon="-4.55634"></trkpt>
      <trkpt lat="50.91744" lon="-4.55673"></trkpt>
      <trkpt lat="50.9174" lon="-4.55698"></trkpt>
      <trkpt lat="50.91735" lon="-4.5576"></trkpt>
      <trkpt lat="50.91723" lon="-4.55815"></trkpt>
      <trkpt lat="50.91716" lon="-4.55886"></trkpt>
      <trkpt lat="50.91708" lon="-4.55915"></trkpt>
      <trkpt lat="50.91698" lon="-4.55934"></trkpt>
      <trkpt lat="50.91695" lon="-4.55933"></trkpt>
      <trkpt lat="50.91693" lon="-4.5593"></trkpt>
      <trkpt lat="50.91691" lon="-4.5594"></trkpt>
      <trkpt lat="50.91687" lon="-4.55941"></trkpt>
      <trkpt lat="50.9168" lon="-4.55925"></trkpt>
      <trkpt lat="50.91671" lon="-4.5592"></trkpt>
      <trkpt lat="50.9166" lon="-4.5592"></trkpt>
      <trkpt lat="50.91649" lon="-4.55926"></trkpt>
      <trkpt lat="50.91645" lon="-4.55924"></trkpt>
      <trkpt lat="50.91636" lon="-4.55935"></trkpt>
      <trkpt lat="50.91635" lon="-4.55978"></trkpt>
      <trkpt lat="50.91627" lon="-4.55981"></trkpt>
      <trkpt lat="50.91603" lon="-4.55978"></trkpt>
      <trkpt lat="50.91566" lon="-4.55955"></trkpt>
      <trkpt lat="50.91539" lon="-4.55922"></trkpt>
      <trkpt lat="50.91516" lon="-4.55933"></trkpt>
      <trkpt lat="50.915" lon="-4.55938"></trkpt>
      <trkpt lat="50.91484" lon="-4.55952"></trkpt>
      <trkpt lat="50.91475" lon="-4.55968"></trkpt>
      <trkpt lat="50.91469" lon="-4.56"></trkpt>
      <trkpt lat="50.91456" lon="-4.56038"></trkpt>
      <trkpt lat="50.91449" lon="-4.56077"></trkpt>
      <trkpt lat="50.91442" lon="-4.56148"></trkpt>
      <trkpt lat="50.9144" lon="-4.56157"></trkpt>
      <trkpt lat="50.91431" lon="-4.56163"></trkpt>
      <trkpt lat="50.91371" lon="-4.56154"></trkpt>
      <trkpt lat="50.91353" lon="-4.56154"></trkpt>
      <trkpt lat="50.91295" lon="-4.56139"></trkpt>
      <trkpt lat="50.91252" lon="-4.56133"></trkpt>
      <trkpt lat="50.91246" lon="-4.56123"></trkpt>
      <trkpt lat="50.91234" lon="-4.5612"></trkpt>
      <trkpt lat="50.91225" lon="-4.56112"></trkpt>
      <trkpt lat="50.91218" lon="-4.56101"></trkpt>
      <trkpt lat="50.91212" lon="-4.56111"></trkpt>
      <trkpt lat="50.91211" lon="-4.56142"></trkpt>
      <trkpt lat="50.91203" lon="-4.56173"></trkpt>
      <trkpt lat="50.912" lon="-4.56184"></trkpt>
      <trkpt lat="50.91194" lon="-4.56188"></trkpt>
      <trkpt lat="50.91187" lon="-4.56178"></trkpt>
      <trkpt lat="50.91182" lon="-4.56175"></trkpt>
      <trkpt lat="50.91176" lon="-4.56186"></trkpt>
      <trkpt lat="50.91168" lon="-4.56212"></trkpt>
      <trkpt lat="50.9117" lon="-4.56225"></trkpt>
      <trkpt lat="50.91159" lon="-4.56243"></trkpt>
      <trkpt lat="50.91149" lon="-4.56275"></trkpt>
      <trkpt lat="50.91141" lon="-4.56315"></trkpt>
      <trkpt lat="50.91129" lon="-4.5636"></trkpt>
      <trkpt lat="50.91129" lon="-4.5639"></trkpt>
      <trkpt lat="50.91126" lon="-4.56395"></trkpt>
      <trkpt lat="50.9112" lon="-4.56396"></trkpt>
      <trkpt lat="50.91118" lon="-4.56392"></trkpt>
      <trkpt lat="50.9111" lon="-4.5639"></trkpt>
      <trkpt lat="50.9111" lon="-4.56383"></trkpt>
      <trkpt lat="50.91102" lon="-4.56391"></trkpt>
      <trkpt lat="50.91098" lon="-4.56401"></trkpt>
      <trkpt lat="50.91086" lon="-4.5641"></trkpt>
      <trkpt lat="50.91082" lon="-4.56421"></trkpt>
      <trkpt lat="50.9108" lon="-4.56407"></trkpt>
      <trkpt lat="50.91075" lon="-4.56426"></trkpt>
      <trkpt lat="50.91073" lon="-4.56409"></trkpt>
      <trkpt lat="50.9107" lon="-4.56428"></trkpt>
      <trkpt lat="50.91065" lon="-4.56427"></trkpt>
      <trkpt lat="50.9106" lon="-4.56396"></trkpt>
      <trkpt lat="50.91052" lon="-4.56428"></trkpt>
      <trkpt lat="50.91048" lon="-4.56428"></trkpt>
      <trkpt lat="50.91046" lon="-4.56414"></trkpt>
      <trkpt lat="50.9104" lon="-4.56389"></trkpt>
      <trkpt lat="50.9103" lon="-4.56358"></trkpt>
      <trkpt lat="50.91016" lon="-4.56331"></trkpt>
      <trkpt lat="50.91008" lon="-4.56303"></trkpt>
      <trkpt lat="50.91004" lon="-4.56272"></trkpt>
      <trkpt lat="50.90991" lon="-4.56273"></trkpt>
      <trkpt lat="50.9097" lon="-4.56249"></trkpt>
      <trkpt lat="50.90941" lon="-4.56228"></trkpt>
      <trkpt lat="50.90916" lon="-4.56215"></trkpt>
      <trkpt lat="50.90844" lon="-4.56222"></trkpt>
      <trkpt lat="50.9084" lon="-4.56228"></trkpt>
      <trkpt lat="50.90812" lon="-4.5625"></trkpt>
      <trkpt lat="50.90766" lon="-4.56253"></trkpt>
      <trkpt lat="50.90733" lon="-4.56269"></trkpt>
      <trkpt lat="50.90693" lon="-4.56308"></trkpt>
      <trkpt lat="50.90648" lon="-4.56366"></trkpt>
      <trkpt lat="50.90584" lon="-4.56361"></trkpt>
      <trkpt lat="50.90567" lon="-4.56352"></trkpt>
      <trkpt lat="50.9055" lon="-4.56332"></trkpt>
      <trkpt lat="50.90547" lon="-4.56322"></trkpt>
      <trkpt lat="50.90537" lon="-4.56354"></trkpt>
      <trkpt lat="50.90533" lon="-4.56337"></trkpt>
      <trkpt lat="50.90527" lon="-4.56362"></trkpt>
      <trkpt lat="50.90519" lon="-4.56366"></trkpt>
      <trkpt lat="50.90512" lon="-4.56377"></trkpt>
      <trkpt lat="50.90502" lon="-4.56422"></trkpt>
      <trkpt lat="50.90501" lon="-4.56422"></trkpt>
      <trkpt lat="50.90487" lon="-4.56461"></trkpt>
      <trkpt lat="50.90481" lon="-4.56462"></trkpt>
      <trkpt lat="50.90462" lon="-4.56411"></trkpt>
      <trkpt lat="50.90446" lon="-4.56436"></trkpt>
      <trkpt lat="50.90442" lon="-4.56463"></trkpt>
      <trkpt lat="50.90436" lon="-4.56471"></trkpt>
      <trkpt lat="50.90439" lon="-4.56483"></trkpt>
      <trkpt lat="50.90427" lon="-4.56487"></trkpt>
      <trkpt lat="50.90427" lon="-4.56515"></trkpt>
      <trkpt lat="50.90421" lon="-4.56526"></trkpt>
      <trkpt lat="50.90409" lon="-4.5654"></trkpt>
      <trkpt lat="50.90409" lon="-4.5655"></trkpt>
      <trkpt lat="50.90396" lon="-4.56595"></trkpt>
      <trkpt lat="50.90388" lon="-4.56636"></trkpt>
      <trkpt lat="50.90387" lon="-4.5666"></trkpt>
      <trkpt lat="50.90383" lon="-4.56674"></trkpt>
      <trkpt lat="50.9038" lon="-4.56679"></trkpt>
      <trkpt lat="50.90363" lon="-4.5668"></trkpt>
      <trkpt lat="50.90347" lon="-4.5666"></trkpt>
      <trkpt lat="50.90345" lon="-4.56651"></trkpt>
      <trkpt lat="50.90344" lon="-4.5663"></trkpt>
      <trkpt lat="50.90326" lon="-4.56588"></trkpt>
      <trkpt lat="50.90292" lon="-4.56531"></trkpt>
      <trkpt lat="50.90276" lon="-4.56494"></trkpt>
      <trkpt lat="50.90251" lon="-4.56421"></trkpt>
      <trkpt lat="50.90233" lon="-4.56377"></trkpt>
      <trkpt lat="50.90221" lon="-4.56357"></trkpt>
      <trkpt lat="50.90204" lon="-4.56339"></trkpt>
      <trkpt lat="50.90171" lon="-4.56327"></trkpt>
      <trkpt lat="50.90163" lon="-4.56305"></trkpt>
      <trkpt lat="50.90143" lon="-4.56268"></trkpt>
      <trkpt lat="50.90087" lon="-4.5621"></trkpt>
      <trkpt lat="50.9008" lon="-4.5621"></trkpt>
      <trkpt lat="50.90074" lon="-4.56222"></trkpt>
      <trkpt lat="50.90066" lon="-4.56219"></trkpt>
      <trkpt lat="50.90064" lon="-4.56222"></trkpt>
      <trkpt lat="50.90051" lon="-4.56219"></trkpt>
      <trkpt lat="50.90034" lon="-4.56221"></trkpt>
      <trkpt lat="50.90017" lon="-4.56199"></trkpt>
      <trkpt lat="50.90009" lon="-4.56195"></trkpt>
      <trkpt lat="50.9" lon="-4.56195"></trkpt>
      <trkpt lat="50.89986" lon="-4.56198"></trkpt>
      <trkpt lat="50.89953" lon="-4.56213"></trkpt>
      <trkpt lat="50.89928" lon="-4.56235"></trkpt>
      <trkpt lat="50.89909" lon="-4.5624"></trkpt>
      <trkpt lat="50.89879" lon="-4.5624"></trkpt>
      <trkpt lat="50.89836" lon="-4.56207"></trkpt>
      <trkpt lat="50.89813" lon="-4.56201"></trkpt>
      <trkpt lat="50.89792" lon="-4.56199"></trkpt>
      <trkpt lat="50.89778" lon="-4.56204"></trkpt>
      <trkpt lat="50.89761" lon="-4.56203"></trkpt>
      <trkpt lat="50.89756" lon="-4.56199"></trkpt>
      <trkpt lat="50.89731" lon="-4.56156"></trkpt>
      <trkpt lat="50.89694" lon="-4.56174"></trkpt>
      <trkpt lat="50.89673" lon="-4.56171"></trkpt>
      <trkpt lat="50.8964" lon="-4.56158"></trkpt>
      <trkpt lat="50.89618" lon="-4.56137"></trkpt>
      <trkpt lat="50.89602" lon="-4.56125"></trkpt>
      <trkpt lat="50.8959" lon="-4.56123"></trkpt>
      <trkpt lat="50.89568" lon="-4.56127"></trkpt>
      <trkpt lat="50.89545" lon="-4.56124"></trkpt>
      <trkpt lat="50.89526" lon="-4.56114"></trkpt>
      <trkpt lat="50.89515" lon="-4.56113"></trkpt>
      <trkpt lat="50.89499" lon="-4.56118"></trkpt>
      <trkpt lat="50.89494" lon="-4.56123"></trkpt>
      <trkpt lat="50.89491" lon="-4.56133"></trkpt>
      <trkpt lat="50.89491" lon="-4.56204"></trkpt>
      <trkpt lat="50.89482" lon="-4.56213"></trkpt>
      <trkpt lat="50.89452" lon="-4.56215"></trkpt>
      <trkpt lat="50.89438" lon="-4.56224"></trkpt>
      <trkpt lat="50.89431" lon="-4.56233"></trkpt>
      <trkpt lat="50.89415" lon="-4.56231"></trkpt>
      <trkpt lat="50.89398" lon="-4.56243"></trkpt>
      <trkpt lat="50.89385" lon="-4.56238"></trkpt>
      <trkpt lat="50.89379" lon="-4.5623"></trkpt>
      <trkpt lat="50.8937" lon="-4.56206"></trkpt>
      <trkpt lat="50.89366" lon="-4.56173"></trkpt>
      <trkpt lat="50.89362" lon="-4.56164"></trkpt>
      <trkpt lat="50.89353" lon="-4.56155"></trkpt>
      <trkpt lat="50.89339" lon="-4.56137"></trkpt>
      <trkpt lat="50.89318" lon="-4.56093"></trkpt>
      <trkpt lat="50.89302" lon="-4.56088"></trkpt>
      <trkpt lat="50.8929" lon="-4.56077"></trkpt>
      <trkpt lat="50.89283" lon="-4.56065"></trkpt>
      <trkpt lat="50.89278" lon="-4.56047"></trkpt>
      <trkpt lat="50.89272" lon="-4.56016"></trkpt>
      <trkpt lat="50.89268" lon="-4.55982"></trkpt>
      <trkpt lat="50.89268" lon="-4.55949"></trkpt>
      <trkpt lat="50.89266" lon="-4.55945"></trkpt>
      <trkpt lat="50.89261" lon="-4.55969"></trkpt>
      <trkpt lat="50.89243" lon="-4.56016"></trkpt>
      <trkpt lat="50.89241" lon="-4.56018"></trkpt>
      <trkpt lat="50.89239" lon="-4.56016"></trkpt>
      <trkpt lat="50.89231" lon="-4.56016"></trkpt>
      <trkpt lat="50.89231" lon="-4.55989"></trkpt>
      <trkpt lat="50.89229" lon="-4.55989"></trkpt>
      <trkpt lat="50.8922" lon="-4.56003"></trkpt>
      <trkpt lat="50.89211" lon="-4.56002"></trkpt>
      <trkpt lat="50.89202" lon="-4.55995"></trkpt>
      <trkpt lat="50.89194" lon="-4.55992"></trkpt>
      <trkpt lat="50.89191" lon="-4.55996"></trkpt>
      <trkpt lat="50.89189" lon="-4.55992"></trkpt>
      <trkpt lat="50.89181" lon="-4.55989"></trkpt>
      <trkpt lat="50.89173" lon="-4.5599"></trkpt>
      <trkpt lat="50.89131" lon="-4.55978"></trkpt>
      <trkpt lat="50.89123" lon="-4.55968"></trkpt>
      <trkpt lat="50.89098" lon="-4.55958"></trkpt>
      <trkpt lat="50.89093" lon="-4.55962"></trkpt>
      <trkpt lat="50.89077" lon="-4.55966"></trkpt>
      <trkpt lat="50.89064" lon="-4.55979"></trkpt>
      <trkpt lat="50.89056" lon="-4.55984"></trkpt>
      <trkpt lat="50.89043" lon="-4.55984"></trkpt>
      <trkpt lat="50.88929" lon="-4.55928"></trkpt>
      <trkpt lat="50.88894" lon="-4.55918"></trkpt>
      <trkpt lat="50.88856" lon="-4.55912"></trkpt>
      <trkpt lat="50.88775" lon="-4.5592"></trkpt>
      <trkpt lat="50.88761" lon="-4.55917"></trkpt>
      <trkpt lat="50.88741" lon="-4.55918"></trkpt>
      <trkpt lat="50.88724" lon="-4.55925"></trkpt>
      <trkpt lat="50.88636" lon="-4.55973"></trkpt>
      <trkpt lat="50.88613" lon="-4.55989"></trkpt>
      <trkpt lat="50.88602" lon="-4.56"></trkpt>
      <trkpt lat="50.88569" lon="-4.56016"></trkpt>
      <trkpt lat="50.88588" lon="-4.56097"></trkpt>
      <trkpt lat="50.8859" lon="-4.56118"></trkpt>
      <trkpt lat="50.88582" lon="-4.56157"></trkpt>
      <trkpt lat="50.88583" lon="-4.56182"></trkpt>
      <trkpt lat="50.88595" lon="-4.56239"></trkpt>
      <trkpt lat="50.88599" lon="-4.56265"></trkpt>
      <trkpt lat="50.88597" lon="-4.56309"></trkpt>
      <trkpt lat="50.88604" lon="-4.56352"></trkpt>
      <trkpt lat="50.88605" lon="-4.56365"></trkpt>
      <trkpt lat="50.886" lon="-4.56385"></trkpt>
      <trkpt lat="50.88609" lon="-4.56431"></trkpt>
      <trkpt lat="50.88607" lon="-4.56446"></trkpt>
      <trkpt lat="50.886" lon="-4.56451"></trkpt>
      <trkpt lat="50.88599" lon="-4.5646"></trkpt>
      <trkpt lat="50.88594" lon="-4.56464"></trkpt>
      <trkpt lat="50.88581" lon="-4.56467"></trkpt>
      <trkpt lat="50.88572" lon="-4.56456"></trkpt>
      <trkpt lat="50.88562" lon="-4.56451"></trkpt>
      <trkpt lat="50.88558" lon="-4.56444"></trkpt>
      <trkpt lat="50.88542" lon="-4.56444"></trkpt>
      <trkpt lat="50.88532" lon="-4.56438"></trkpt>
      <trkpt lat="50.8851" lon="-4.56403"></trkpt>
      <trkpt lat="50.88486" lon="-4.56388"></trkpt>
      <trkpt lat="50.8848" lon="-4.56375"></trkpt>
      <trkpt lat="50.88471" lon="-4.56365"></trkpt>
      <trkpt lat="50.88463" lon="-4.56348"></trkpt>
      <trkpt lat="50.8845" lon="-4.56343"></trkpt>
      <trkpt lat="50.88416" lon="-4.56319"></trkpt>
      <trkpt lat="50.88405" lon="-4.56292"></trkpt>
      <trkpt lat="50.8838" lon="-4.56267"></trkpt>
      <trkpt lat="50.8837" lon="-4.5625"></trkpt>
      <trkpt lat="50.88353" lon="-4.56248"></trkpt>
      <trkpt lat="50.88331" lon="-4.56216"></trkpt>
      <trkpt lat="50.88308" lon="-4.56175"></trkpt>
      <trkpt lat="50.88302" lon="-4.56126"></trkpt>
      <trkpt lat="50.88261" lon="-4.56057"></trkpt>
      <trkpt lat="50.88231" lon="-4.56021"></trkpt>
      <trkpt lat="50.88199" lon="-4.55994"></trkpt>
      <trkpt lat="50.8816" lon="-4.55965"></trkpt>
      <trkpt lat="50.88147" lon="-4.55949"></trkpt>
      <trkpt lat="50.88088" lon="-4.5592"></trkpt>
      <trkpt lat="50.87999" lon="-4.55871"></trkpt>
      <trkpt lat="50.87941" lon="-4.55874"></trkpt>
      <trkpt lat="50.87918" lon="-4.55868"></trkpt>
      <trkpt lat="50.87892" lon="-4.55855"></trkpt>
      <trkpt lat="50.8783" lon="-4.55845"></trkpt>
      <trkpt lat="50.87804" lon="-4.55848"></trkpt>
      <trkpt lat="50.87773" lon="-4.55865"></trkpt>
      <trkpt lat="50.87761" lon="-4.55879"></trkpt>
      <trkpt lat="50.87744" lon="-4.55907"></trkpt>
      <trkpt lat="50.87722" lon="-4.55927"></trkpt>
      <trkpt lat="50.87711" lon="-4.55928"></trkpt>
      <trkpt lat="50.87674" lon="-4.55977"></trkpt>
      <trkpt lat="50.87662" lon="-4.56001"></trkpt>
      <trkpt lat="50.87656" lon="-4.56019"></trkpt>
      <trkpt lat="50.87641" lon="-4.5603"></trkpt>
      <trkpt lat="50.87626" lon="-4.56057"></trkpt>
      <trkpt lat="50.87613" lon="-4.56073"></trkpt>
      <trkpt lat="50.87617" lon="-4.56043"></trkpt>
      <trkpt lat="50.87627" lon="-4.56008"></trkpt>
      <trkpt lat="50.87634" lon="-4.5597"></trkpt>
      <trkpt lat="50.87647" lon="-4.55886"></trkpt>
      <trkpt lat="50.87653" lon="-4.55875"></trkpt>
      <trkpt lat="50.87656" lon="-4.5585"></trkpt>
      <trkpt lat="50.87653" lon="-4.55838"></trkpt>
      <trkpt lat="50.87659" lon="-4.55803"></trkpt>
      <trkpt lat="50.87659" lon="-4.55793"></trkpt>
      <trkpt lat="50.8764" lon="-4.55748"></trkpt>
      <trkpt lat="50.87633" lon="-4.55716"></trkpt>
      <trkpt lat="50.87634" lon="-4.55697"></trkpt>
      <trkpt lat="50.87626" lon="-4.55645"></trkpt>
      <trkpt lat="50.87626" lon="-4.55624"></trkpt>
      <trkpt lat="50.87628" lon="-4.55617"></trkpt>
      <trkpt lat="50.87615" lon="-4.5561"></trkpt>
      <trkpt lat="50.8759" lon="-4.55669"></trkpt>
      <trkpt lat="50.87583" lon="-4.55679"></trkpt>
      <trkpt lat="50.87533" lon="-4.55708"></trkpt>
      <trkpt lat="50.87511" lon="-4.55714"></trkpt>
      <trkpt lat="50.87509" lon="-4.55712"></trkpt>
      <trkpt lat="50.87508" lon="-4.55678"></trkpt>
      <trkpt lat="50.87483" lon="-4.55706"></trkpt>
      <trkpt lat="50.87487" lon="-4.55691"></trkpt>
      <trkpt lat="50.87468" lon="-4.55713"></trkpt>
      <trkpt lat="50.87467" lon="-4.55712"></trkpt>
      <trkpt lat="50.87475" lon="-4.55683"></trkpt>
      <trkpt lat="50.87469" lon="-4.55692"></trkpt>
      <trkpt lat="50.87472" lon="-4.55673"></trkpt>
      <trkpt lat="50.87423" lon="-4.55726"></trkpt>
      <trkpt lat="50.8741" lon="-4.5573"></trkpt>
      <trkpt lat="50.87373" lon="-4.55726"></trkpt>
      <trkpt lat="50.87363" lon="-4.55728"></trkpt>
      <trkpt lat="50.87356" lon="-4.55735"></trkpt>
      <trkpt lat="50.87339" lon="-4.55765"></trkpt>
      <trkpt lat="50.87326" lon="-4.55769"></trkpt>
      <trkpt lat="50.87241" lon="-4.55755"></trkpt>
      <trkpt lat="50.87209" lon="-4.5573"></trkpt>
      <trkpt lat="50.87199" lon="-4.55729"></trkpt>
      <trkpt lat="50.87171" lon="-4.55735"></trkpt>
      <trkpt lat="50.87143" lon="-4.55754"></trkpt>
      <trkpt lat="50.87135" lon="-4.55754"></trkpt>
      <trkpt lat="50.87127" lon="-4.55748"></trkpt>
      <trkpt lat="50.87111" lon="-4.55754"></trkpt>
      <trkpt lat="50.87084" lon="-4.55743"></trkpt>
      <trkpt lat="50.87078" lon="-4.55744"></trkpt>
      <trkpt lat="50.87074" lon="-4.55749"></trkpt>
      <trkpt lat="50.87073" lon="-4.55753"></trkpt>
      <trkpt lat="50.87069" lon="-4.55753"></trkpt>
      <trkpt lat="50.87061" lon="-4.55744"></trkpt>
      <trkpt lat="50.87015" lon="-4.55709"></trkpt>
      <trkpt lat="50.87012" lon="-4.55701"></trkpt>
      <trkpt lat="50.86998" lon="-4.55691"></trkpt>
      <trkpt lat="50.86994" lon="-4.55691"></trkpt>
      <trkpt lat="50.86986" lon="-4.55698"></trkpt>
      <trkpt lat="50.86977" lon="-4.55702"></trkpt>
      <trkpt lat="50.86974" lon="-4.55696"></trkpt>
      <trkpt lat="50.8694" lon="-4.5569"></trkpt>
      <trkpt lat="50.86909" lon="-4.55679"></trkpt>
      <trkpt lat="50.86871" lon="-4.55651"></trkpt>
      <trkpt lat="50.86859" lon="-4.55638"></trkpt>
      <trkpt lat="50.86847" lon="-4.55634"></trkpt>
      <trkpt lat="50.8683" lon="-4.55634"></trkpt>
      <trkpt lat="50.86804" lon="-4.55628"></trkpt>
      <trkpt lat="50.86763" lon="-4.55611"></trkpt>
      <trkpt lat="50.86688" lon="-4.55542"></trkpt>
      <trkpt lat="50.8664" lon="-4.55526"></trkpt>
      <trkpt lat="50.86585" lon="-4.55527"></trkpt>
      <trkpt lat="50.86551" lon="-4.55521"></trkpt>
      <trkpt lat="50.86528" lon="-4.55513"></trkpt>
      <trkpt lat="50.86456" lon="-4.55544"></trkpt>
      <trkpt lat="50.86441" lon="-4.55548"></trkpt>
      <trkpt lat="50.86426" lon="-4.55558"></trkpt>
      <trkpt lat="50.86395" lon="-4.55568"></trkpt>
      <trkpt lat="50.86385" lon="-4.55573"></trkpt>
      <trkpt lat="50.86376" lon="-4.55573"></trkpt>
      <trkpt lat="50.86302" lon="-4.556"></trkpt>
      <trkpt lat="50.86298" lon="-4.55593"></trkpt>
      <trkpt lat="50.86299" lon="-4.55586"></trkpt>
      <trkpt lat="50.86296" lon="-4.55571"></trkpt>
      <trkpt lat="50.86283" lon="-4.55568"></trkpt>
      <trkpt lat="50.86225" lon="-4.55574"></trkpt>
      <trkpt lat="50.8618" lon="-4.5557"></trkpt>
      <trkpt lat="50.8617" lon="-4.5556"></trkpt>
      <trkpt lat="50.86161" lon="-4.55542"></trkpt>
      <trkpt lat="50.86156" lon="-4.55517"></trkpt>
      <trkpt lat="50.86147" lon="-4.55496"></trkpt>
      <trkpt lat="50.86128" lon="-4.55484"></trkpt>
      <trkpt lat="50.86099" lon="-4.55504"></trkpt>
      <trkpt lat="50.86077" lon="-4.55527"></trkpt>
      <trkpt lat="50.86065" lon="-4.55553"></trkpt>
      <trkpt lat="50.86056" lon="-4.55554"></trkpt>
      <trkpt lat="50.86021" lon="-4.55543"></trkpt>
      <trkpt lat="50.85976" lon="-4.55551"></trkpt>
      <trkpt lat="50.85958" lon="-4.55548"></trkpt>
      <trkpt lat="50.85944" lon="-4.55538"></trkpt>
      <trkpt lat="50.8593" lon="-4.55534"></trkpt>
      <trkpt lat="50.85919" lon="-4.55543"></trkpt>
      <trkpt lat="50.85905" lon="-4.55547"></trkpt>
      <trkpt lat="50.85885" lon="-4.55549"></trkpt>
      <trkpt lat="50.85857" lon="-4.55525"></trkpt>
      <trkpt lat="50.85837" lon="-4.55513"></trkpt>
      <trkpt lat="50.8582" lon="-4.55507"></trkpt>
      <trkpt lat="50.85807" lon="-4.55509"></trkpt>
      <trkpt lat="50.85786" lon="-4.5552"></trkpt>
      <trkpt lat="50.85732" lon="-4.55541"></trkpt>
      <trkpt lat="50.85728" lon="-4.55538"></trkpt>
      <trkpt lat="50.85726" lon="-4.55541"></trkpt>
      <trkpt lat="50.85717" lon="-4.55542"></trkpt>
      <trkpt lat="50.85648" lon="-4.55538"></trkpt>
      <trkpt lat="50.856" lon="-4.55541"></trkpt>
      <trkpt lat="50.8558" lon="-4.55552"></trkpt>
      <trkpt lat="50.85511" lon="-4.55536"></trkpt>
      <trkpt lat="50.8548" lon="-4.55518"></trkpt>
      <trkpt lat="50.8547" lon="-4.55503"></trkpt>
      <trkpt lat="50.85448" lon="-4.55482"></trkpt>
      <trkpt lat="50.85431" lon="-4.5549"></trkpt>
      <trkpt lat="50.85419" lon="-4.55505"></trkpt>
      <trkpt lat="50.85412" lon="-4.5552"></trkpt>
      <trkpt lat="50.85409" lon="-4.55523"></trkpt>
      <trkpt lat="50.85403" lon="-4.55522"></trkpt>
      <trkpt lat="50.85386" lon="-4.55552"></trkpt>
      <trkpt lat="50.85368" lon="-4.5557"></trkpt>
      <trkpt lat="50.85358" lon="-4.55574"></trkpt>
      <trkpt lat="50.85345" lon="-4.55571"></trkpt>
      <trkpt lat="50.85331" lon="-4.55561"></trkpt>
      <trkpt lat="50.8532" lon="-4.55543"></trkpt>
      <trkpt lat="50.85312" lon="-4.55517"></trkpt>
      <trkpt lat="50.85306" lon="-4.55488"></trkpt>
      <trkpt lat="50.85302" lon="-4.55485"></trkpt>
      <trkpt lat="50.85301" lon="-4.55477"></trkpt>
      <trkpt lat="50.85288" lon="-4.55475"></trkpt>
      <trkpt lat="50.85276" lon="-4.55477"></trkpt>
      <trkpt lat="50.85253" lon="-4.55479"></trkpt>
      <trkpt lat="50.85245" lon="-4.55493"></trkpt>
      <trkpt lat="50.85239" lon="-4.55513"></trkpt>
      <trkpt lat="50.85236" lon="-4.55535"></trkpt>
      <trkpt lat="50.85233" lon="-4.55542"></trkpt>
      <trkpt lat="50.85228" lon="-4.55546"></trkpt>
      <trkpt lat="50.85196" lon="-4.55552"></trkpt>
      <trkpt lat="50.85176" lon="-4.55566"></trkpt>
      <trkpt lat="50.85153" lon="-4.55573"></trkpt>
      <trkpt lat="50.85138" lon="-4.55605"></trkpt>
      <trkpt lat="50.85084" lon="-4.55628"></trkpt>
      <trkpt lat="50.85077" lon="-4.55627"></trkpt>
      <trkpt lat="50.85066" lon="-4.55616"></trkpt>
      <trkpt lat="50.8499" lon="-4.55561"></trkpt>
      <trkpt lat="50.84927" lon="-4.55509"></trkpt>
      <trkpt lat="50.84924" lon="-4.55484"></trkpt>
      <trkpt lat="50.84918" lon="-4.55497"></trkpt>
      <trkpt lat="50.84914" lon="-4.5548"></trkpt>
      <trkpt lat="50.84908" lon="-4.55488"></trkpt>
      <trkpt lat="50.84904" lon="-4.55477"></trkpt>
      <trkpt lat="50.84899" lon="-4.55488"></trkpt>
      <trkpt lat="50.84896" lon="-4.55476"></trkpt>
      <trkpt lat="50.84886" lon="-4.55491"></trkpt>
      <trkpt lat="50.84857" lon="-4.55489"></trkpt>
      <trkpt lat="50.84834" lon="-4.55463"></trkpt>
      <trkpt lat="50.84828" lon="-4.55464"></trkpt>
      <trkpt lat="50.84818" lon="-4.55451"></trkpt>
      <trkpt lat="50.84812" lon="-4.55447"></trkpt>
      <trkpt lat="50.84801" lon="-4.55446"></trkpt>
      <trkpt lat="50.84774" lon="-4.5545"></trkpt>
      <trkpt lat="50.84745" lon="-4.55466"></trkpt>
      <trkpt lat="50.84731" lon="-4.5545"></trkpt>
      <trkpt lat="50.8471" lon="-4.55432"></trkpt>
      <trkpt lat="50.84661" lon="-4.554"></trkpt>
      <trkpt lat="50.84645" lon="-4.55393"></trkpt>
      <trkpt lat="50.84589" lon="-4.55425"></trkpt>
      <trkpt lat="50.84544" lon="-4.55456"></trkpt>
      <trkpt lat="50.84507" lon="-4.55472"></trkpt>
      <trkpt lat="50.84483" lon="-4.55486"></trkpt>
      <trkpt lat="50.84459" lon="-4.55512"></trkpt>
      <trkpt lat="50.84419" lon="-4.55544"></trkpt>
      <trkpt lat="50.84402" lon="-4.5555"></trkpt>
      <trkpt lat="50.84374" lon="-4.55551"></trkpt>
      <trkpt lat="50.84332" lon="-4.55539"></trkpt>
      <trkpt lat="50.84283" lon="-4.5551"></trkpt>
      <trkpt lat="50.84267" lon="-4.55492"></trkpt>
      <trkpt lat="50.84259" lon="-4.55486"></trkpt>
      <trkpt lat="50.84246" lon="-4.55486"></trkpt>
      <trkpt lat="50.84208" lon="-4.55497"></trkpt>
      <trkpt lat="50.84156" lon="-4.55502"></trkpt>
      <trkpt lat="50.84067" lon="-4.55522"></trkpt>
      <trkpt lat="50.84036" lon="-4.55537"></trkpt>
      <trkpt lat="50.84027" lon="-4.55537"></trkpt>
      <trkpt lat="50.83987" lon="-4.55523"></trkpt>
      <trkpt lat="50.83931" lon="-4.55472"></trkpt>
      <trkpt lat="50.83885" lon="-4.55438"></trkpt>
      <trkpt lat="50.83863" lon="-4.55428"></trkpt>
      <trkpt lat="50.83839" lon="-4.55426"></trkpt>
      <trkpt lat="50.8381" lon="-4.5543"></trkpt>
      <trkpt lat="50.8378" lon="-4.55441"></trkpt>
      <trkpt lat="50.83731" lon="-4.55463"></trkpt>
      <trkpt lat="50.83713" lon="-4.55461"></trkpt>
      <trkpt lat="50.83682" lon="-4.55444"></trkpt>
      <trkpt lat="50.83667" lon="-4.55431"></trkpt>
      <trkpt lat="50.83656" lon="-4.55418"></trkpt>
      <trkpt lat="50.83648" lon="-4.55399"></trkpt>
      <trkpt lat="50.83642" lon="-4.55366"></trkpt>
      <trkpt lat="50.83642" lon="-4.55354"></trkpt>
      <trkpt lat="50.83627" lon="-4.55348"></trkpt>
      <trkpt lat="50.83602" lon="-4.55343"></trkpt>
      <trkpt lat="50.83579" lon="-4.55331"></trkpt>
      <trkpt lat="50.83573" lon="-4.55306"></trkpt>
      <trkpt lat="50.83563" lon="-4.5531"></trkpt>
      <trkpt lat="50.83566" lon="-4.55338"></trkpt>
      <trkpt lat="50.8353" lon="-4.55355"></trkpt>
      <trkpt lat="50.83528" lon="-4.55341"></trkpt>
      <trkpt lat="50.83509" lon="-4.55353"></trkpt>
      <trkpt lat="50.83494" lon="-4.55365"></trkpt>
      <trkpt lat="50.83481" lon="-4.55378"></trkpt>
      <trkpt lat="50.83479" lon="-4.55389"></trkpt>
      <trkpt lat="50.83448" lon="-4.55393"></trkpt>
      <trkpt lat="50.83424" lon="-4.55388"></trkpt>
      <trkpt lat="50.83407" lon="-4.55374"></trkpt>
      <trkpt lat="50.83373" lon="-4.55378"></trkpt>
      <trkpt lat="50.83318" lon="-4.55375"></trkpt>
      <trkpt lat="50.83275" lon="-4.55347"></trkpt>
      <trkpt lat="50.83271" lon="-4.55343"></trkpt>
      <trkpt lat="50.83259" lon="-4.5532"></trkpt>
      <trkpt lat="50.83254" lon="-4.55317"></trkpt>
      <trkpt lat="50.8322" lon="-4.55313"></trkpt>
      <trkpt lat="50.83215" lon="-4.55215"></trkpt>
      <trkpt lat="50.83212" lon="-4.55181"></trkpt>
      <trkpt lat="50.832" lon="-4.55131"></trkpt>
      <trkpt lat="50.83193" lon="-4.55135"></trkpt>
      <trkpt lat="50.83191" lon="-4.55141"></trkpt>
      <trkpt lat="50.8318" lon="-4.5515"></trkpt>
      <trkpt lat="50.83175" lon="-4.55157"></trkpt>
      <trkpt lat="50.83183" lon="-4.55163"></trkpt>
      <trkpt lat="50.83175" lon="-4.55157"></trkpt>
      <trkpt lat="50.8318" lon="-4.5515"></trkpt>
      <trkpt lat="50.83191" lon="-4.55141"></trkpt>
      <trkpt lat="50.83192" lon="-4.55132"></trkpt>
      <trkpt lat="50.83192" lon="-4.55118"></trkpt>
      <trkpt lat="50.83187" lon="-4.55094"></trkpt>
      <trkpt lat="50.83183" lon="-4.55091"></trkpt>
      <trkpt lat="50.8318" lon="-4.55046"></trkpt>
      <trkpt lat="50.83176" lon="-4.55029"></trkpt>
      <trkpt lat="50.83165" lon="-4.55005"></trkpt>
      <trkpt lat="50.83164" lon="-4.54978"></trkpt>
      <trkpt lat="50.83166" lon="-4.54968"></trkpt>
      <trkpt lat="50.83121" lon="-4.54851"></trkpt>
      <trkpt lat="50.83117" lon="-4.54826"></trkpt>
      <trkpt lat="50.83104" lon="-4.5482"></trkpt>
      <trkpt lat="50.83099" lon="-4.54811"></trkpt>
      <trkpt lat="50.83094" lon="-4.54785"></trkpt>
      <trkpt lat="50.83095" lon="-4.54778"></trkpt>
      <trkpt lat="50.83093" lon="-4.54775"></trkpt>
      <trkpt lat="50.83092" lon="-4.54778"></trkpt>
      <trkpt lat="50.83072" lon="-4.54762"></trkpt>
      <trkpt lat="50.8306" lon="-4.54747"></trkpt>
      <trkpt lat="50.83024" lon="-4.5469"></trkpt>
      <trkpt lat="50.82976" lon="-4.54601"></trkpt>
      <trkpt lat="50.82971" lon="-4.54585"></trkpt>
      <trkpt lat="50.82961" lon="-4.54565"></trkpt>
      <trkpt lat="50.82939" lon="-4.54596"></trkpt>
      <trkpt lat="50.82931" lon="-4.54601"></trkpt>
      <trkpt lat="50.8287" lon="-4.54687"></trkpt>
      <trkpt lat="50.82869" lon="-4.54693"></trkpt>
    </trkseg>
  </trk>
</gpx>
