<?xml version="1.0" encoding="UTF-8"?>
<gpx version="1.1" creator="swcp-walk (imported from OS Maps route 33830241)"
     xmlns="http://www.topografix.com/GPX/1/1">
  <metadata>
    <name>SWCP11-Bude-CrackingtonHaven</name>
  </metadata>
  <trk>
    <name>SWCP11-Bude-CrackingtonHaven</name>
    <trkseg>
      <trkpt lat="50.82877334139607" lon="-4.546978669973896"></trkpt>
      <trkpt lat="50.82869" lon="-4.54696"></trkpt>
      <trkpt lat="50.82859" lon="-4.54746"></trkpt>
      <trkpt lat="50.8285" lon="-4.54749"></trkpt>
      <trkpt lat="50.82846" lon="-4.54755"></trkpt>
      <trkpt lat="50.82844" lon="-4.54762"></trkpt>
      <trkpt lat="50.82845" lon="-4.54783"></trkpt>
      <trkpt lat="50.82834" lon="-4.54802"></trkpt>
      <trkpt lat="50.82825" lon="-4.54799"></trkpt>
      <trkpt lat="50.82805" lon="-4.54827"></trkpt>
      <trkpt lat="50.82825" lon="-4.54874"></trkpt>
      <trkpt lat="50.82822" lon="-4.54891"></trkpt>
      <trkpt lat="50.82824" lon="-4.54904"></trkpt>
      <trkpt lat="50.82843" lon="-4.5494"></trkpt>
      <trkpt lat="50.82882" lon="-4.55"></trkpt>
      <trkpt lat="50.82903" lon="-4.55043"></trkpt>
      <trkpt lat="50.82934" lon="-4.5512"></trkpt>
      <trkpt lat="50.82943" lon="-4.55149"></trkpt>
      <trkpt lat="50.82934" lon="-4.55152"></trkpt>
      <trkpt lat="50.82925" lon="-4.55166"></trkpt>
      <trkpt lat="50.82934" lon="-4.55195"></trkpt>
      <trkpt lat="50.8293" lon="-4.55207"></trkpt>
      <trkpt lat="50.82928" lon="-4.55256"></trkpt>
      <trkpt lat="50.82921" lon="-4.5527"></trkpt>
      <trkpt lat="50.82918" lon="-4.55283"></trkpt>
      <trkpt lat="50.82914" lon="-4.55283"></trkpt>
      <trkpt lat="50.82911" lon="-4.55292"></trkpt>
      <trkpt lat="50.82931" lon="-4.55312"></trkpt>
      <trkpt lat="50.82938" lon="-4.55324"></trkpt>
      <trkpt lat="50.82942" lon="-4.55337"></trkpt>
      <trkpt lat="50.82943" lon="-4.55371"></trkpt>
      <trkpt lat="50.82954" lon="-4.55419"></trkpt>
      <trkpt lat="50.82953" lon="-4.55428"></trkpt>
      <trkpt lat="50.8295" lon="-4.55435"></trkpt>
      <trkpt lat="50.82947" lon="-4.55444"></trkpt>
      <trkpt lat="50.82938" lon="-4.5545"></trkpt>
      <trkpt lat="50.82925" lon="-4.55464"></trkpt>
      <trkpt lat="50.82902" lon="-4.55494"></trkpt>
      <trkpt lat="50.82886" lon="-4.55519"></trkpt>
      <trkpt lat="50.82857" lon="-4.55654"></trkpt>
      <trkpt lat="50.82812" lon="-4.55635"></trkpt>
      <trkpt lat="50.82754" lon="-4.55618"></trkpt>
      <trkpt lat="50.82743" lon="-4.55617"></trkpt>
      <trkpt lat="50.82701" lon="-4.55587"></trkpt>
      <trkpt lat="50.82689" lon="-4.55582"></trkpt>
      <trkpt lat="50.8268" lon="-4.55583"></trkpt>
      <trkpt lat="50.82622" lon="-4.55623"></trkpt>
      <trkpt lat="50.82581" lon="-4.55647"></trkpt>
      <trkpt lat="50.82579" lon="-4.55645"></trkpt>
      <trkpt lat="50.82564" lon="-4.55646"></trkpt>
      <trkpt lat="50.82485" lon="-4.55705"></trkpt>
      <trkpt lat="50.82462" lon="-4.55715"></trkpt>
      <trkpt lat="50.82446" lon="-4.55721"></trkpt>
      <trkpt lat="50.82412" lon="-4.55719"></trkpt>
      <trkpt lat="50.82398" lon="-4.55716"></trkpt>
      <trkpt lat="50.8236" lon="-4.55683"></trkpt>
      <trkpt lat="50.82327" lon="-4.55649"></trkpt>
      <trkpt lat="50.82289" lon="-4.55623"></trkpt>
      <trkpt lat="50.82198" lon="-4.55553"></trkpt>
      <trkpt lat="50.82084" lon="-4.55548"></trkpt>
      <trkpt lat="50.81773" lon="-4.55531"></trkpt>
      <trkpt lat="50.8174" lon="-4.5553"></trkpt>
      <trkpt lat="50.81723" lon="-4.55533"></trkpt>
      <trkpt lat="50.81692" lon="-4.55505"></trkpt>
      <trkpt lat="50.81664" lon="-4.55475"></trkpt>
      <trkpt lat="50.81644" lon="-4.55429"></trkpt>
      <trkpt lat="50.81558" lon="-4.55481"></trkpt>
      <trkpt lat="50.81523" lon="-4.55498"></trkpt>
      <trkpt lat="50.81502" lon="-4.55504"></trkpt>
      <trkpt lat="50.8148" lon="-4.55503"></trkpt>
      <trkpt lat="50.81474" lon="-4.55515"></trkpt>
      <trkpt lat="50.81465" lon="-4.55514"></trkpt>
      <trkpt lat="50.81452" lon="-4.55508"></trkpt>
      <trkpt lat="50.81431" lon="-4.55506"></trkpt>
      <trkpt lat="50.81396" lon="-4.55519"></trkpt>
      <trkpt lat="50.81372" lon="-4.55523"></trkpt>
      <trkpt lat="50.81359" lon="-4.55529"></trkpt>
      <trkpt lat="50.81304" lon="-4.55566"></trkpt>
      <trkpt lat="50.81259" lon="-4.55588"></trkpt>
      <trkpt lat="50.81237" lon="-4.55585"></trkpt>
      <trkpt lat="50.81225" lon="-4.55586"></trkpt>
      <trkpt lat="50.81172" lon="-4.55569"></trkpt>
      <trkpt lat="50.8115" lon="-4.55566"></trkpt>
      <trkpt lat="50.8113" lon="-4.5557"></trkpt>
      <trkpt lat="50.81114" lon="-4.55576"></trkpt>
      <trkpt lat="50.81048" lon="-4.55586"></trkpt>
      <trkpt lat="50.8103" lon="-4.55582"></trkpt>
      <trkpt lat="50.81023" lon="-4.55584"></trkpt>
      <trkpt lat="50.81012" lon="-4.55587"></trkpt>
      <trkpt lat="50.81001" lon="-4.55584"></trkpt>
      <trkpt lat="50.80999" lon="-4.5556"></trkpt>
      <trkpt lat="50.80878" lon="-4.55559"></trkpt>
      <trkpt lat="50.80868" lon="-4.55562"></trkpt>
      <trkpt lat="50.80851" lon="-4.55579"></trkpt>
      <trkpt lat="50.80841" lon="-4.5558"></trkpt>
      <trkpt lat="50.80812" lon="-4.55601"></trkpt>
      <trkpt lat="50.8076" lon="-4.55625"></trkpt>
      <trkpt lat="50.80748" lon="-4.55634"></trkpt>
      <trkpt lat="50.80717" lon="-4.55643"></trkpt>
      <trkpt lat="50.8068" lon="-4.55666"></trkpt>
      <trkpt lat="50.80659" lon="-4.55689"></trkpt>
      <trkpt lat="50.80656" lon="-4.55699"></trkpt>
      <trkpt lat="50.80649" lon="-4.55709"></trkpt>
      <trkpt lat="50.80644" lon="-4.55724"></trkpt>
      <trkpt lat="50.8064" lon="-4.55729"></trkpt>
      <trkpt lat="50.80626" lon="-4.55735"></trkpt>
      <trkpt lat="50.80608" lon="-4.55736"></trkpt>
      <trkpt lat="50.80587" lon="-4.55743"></trkpt>
      <trkpt lat="50.80574" lon="-4.5575"></trkpt>
      <trkpt lat="50.8056" lon="-4.55744"></trkpt>
      <trkpt lat="50.80539" lon="-4.55753"></trkpt>
      <trkpt lat="50.80492" lon="-4.55744"></trkpt>
      <trkpt lat="50.80466" lon="-4.55746"></trkpt>
      <trkpt lat="50.80427" lon="-4.5573"></trkpt>
      <trkpt lat="50.80375" lon="-4.5575"></trkpt>
      <trkpt lat="50.80353" lon="-4.55761"></trkpt>
      <trkpt lat="50.8033" lon="-4.5576"></trkpt>
      <trkpt lat="50.80309" lon="-4.55773"></trkpt>
      <trkpt lat="50.80298" lon="-4.55777"></trkpt>
      <trkpt lat="50.80284" lon="-4.55774"></trkpt>
      <trkpt lat="50.80277" lon="-4.55757"></trkpt>
      <trkpt lat="50.80248" lon="-4.55723"></trkpt>
      <trkpt lat="50.8024" lon="-4.5571"></trkpt>
      <trkpt lat="50.80228" lon="-4.55699"></trkpt>
      <trkpt lat="50.80184" lon="-4.55686"></trkpt>
      <trkpt lat="50.80156" lon="-4.55684"></trkpt>
      <trkpt lat="50.80151" lon="-4.5569"></trkpt>
      <trkpt lat="50.80145" lon="-4.55713"></trkpt>
      <trkpt lat="50.80129" lon="-4.55759"></trkpt>
      <trkpt lat="50.80116" lon="-4.55771"></trkpt>
      <trkpt lat="50.80104" lon="-4.55798"></trkpt>
      <trkpt lat="50.80069" lon="-4.55818"></trkpt>
      <trkpt lat="50.80062" lon="-4.55841"></trkpt>
      <trkpt lat="50.80059" lon="-4.55878"></trkpt>
      <trkpt lat="50.80053" lon="-4.55877"></trkpt>
      <trkpt lat="50.8005" lon="-4.55881"></trkpt>
      <trkpt lat="50.80045" lon="-4.55896"></trkpt>
      <trkpt lat="50.80039" lon="-4.55899"></trkpt>
      <trkpt lat="50.80039" lon="-4.559"></trkpt>
      <trkpt lat="50.80026" lon="-4.55902"></trkpt>
      <trkpt lat="50.80017" lon="-4.55912"></trkpt>
      <trkpt lat="50.80008" lon="-4.55899"></trkpt>
      <trkpt lat="50.79997" lon="-4.55871"></trkpt>
      <trkpt lat="50.79977" lon="-4.55806"></trkpt>
      <trkpt lat="50.7997" lon="-4.55755"></trkpt>
      <trkpt lat="50.79968" lon="-4.55727"></trkpt>
      <trkpt lat="50.79966" lon="-4.55714"></trkpt>
      <trkpt lat="50.7996" lon="-4.55705"></trkpt>
      <trkpt lat="50.79923" lon="-4.55695"></trkpt>
      <trkpt lat="50.79902" lon="-4.55681"></trkpt>
      <trkpt lat="50.79881" lon="-4.55647"></trkpt>
      <trkpt lat="50.79874" lon="-4.55644"></trkpt>
      <trkpt lat="50.79841" lon="-4.55654"></trkpt>
      <trkpt lat="50.7981" lon="-4.55655"></trkpt>
      <trkpt lat="50.79794" lon="-4.55648"></trkpt>
      <trkpt lat="50.7976" lon="-4.55639"></trkpt>
      <trkpt lat="50.7974" lon="-4.55607"></trkpt>
      <trkpt lat="50.7972" lon="-4.55599"></trkpt>
      <trkpt lat="50.79706" lon="-4.55599"></trkpt>
      <trkpt lat="50.79669" lon="-4.55612"></trkpt>
      <trkpt lat="50.79662" lon="-4.55618"></trkpt>
      <trkpt lat="50.79654" lon="-4.5564"></trkpt>
      <trkpt lat="50.79652" lon="-4.55654"></trkpt>
      <trkpt lat="50.79647" lon="-4.55661"></trkpt>
      <trkpt lat="50.79576" lon="-4.55668"></trkpt>
      <trkpt lat="50.79545" lon="-4.55675"></trkpt>
      <trkpt lat="50.79541" lon="-4.55673"></trkpt>
      <trkpt lat="50.79533" lon="-4.55654"></trkpt>
      <trkpt lat="50.79501" lon="-4.55655"></trkpt>
      <trkpt lat="50.79499" lon="-4.55671"></trkpt>
      <trkpt lat="50.7949" lon="-4.55672"></trkpt>
      <trkpt lat="50.79488" lon="-4.55657"></trkpt>
      <trkpt lat="50.79472" lon="-4.55619"></trkpt>
      <trkpt lat="50.79467" lon="-4.55624"></trkpt>
      <trkpt lat="50.79461" lon="-4.55625"></trkpt>
      <trkpt lat="50.79428" lon="-4.5562"></trkpt>
      <trkpt lat="50.79416" lon="-4.55629"></trkpt>
      <trkpt lat="50.79407" lon="-4.55631"></trkpt>
      <trkpt lat="50.79401" lon="-4.55625"></trkpt>
      <trkpt lat="50.79398" lon="-4.55628"></trkpt>
      <trkpt lat="50.79392" lon="-4.55627"></trkpt>
      <trkpt lat="50.7938" lon="-4.55619"></trkpt>
      <trkpt lat="50.79378" lon="-4.55633"></trkpt>
      <trkpt lat="50.7932" lon="-4.5565"></trkpt>
      <trkpt lat="50.7929" lon="-4.55657"></trkpt>
      <trkpt lat="50.79291" lon="-4.55672"></trkpt>
      <trkpt lat="50.79289" lon="-4.55681"></trkpt>
      <trkpt lat="50.79274" lon="-4.55684"></trkpt>
      <trkpt lat="50.79254" lon="-4.55684"></trkpt>
      <trkpt lat="50.79191" lon="-4.55701"></trkpt>
      <trkpt lat="50.79125" lon="-4.55732"></trkpt>
      <trkpt lat="50.79102" lon="-4.55738"></trkpt>
      <trkpt lat="50.78917" lon="-4.55722"></trkpt>
      <trkpt lat="50.78858" lon="-4.55729"></trkpt>
      <trkpt lat="50.78848" lon="-4.55735"></trkpt>
      <trkpt lat="50.78819" lon="-4.55739"></trkpt>
      <trkpt lat="50.78804" lon="-4.55751"></trkpt>
      <trkpt lat="50.78781" lon="-4.55776"></trkpt>
      <trkpt lat="50.78733" lon="-4.55813"></trkpt>
      <trkpt lat="50.78727" lon="-4.55828"></trkpt>
      <trkpt lat="50.78714" lon="-4.55838"></trkpt>
      <trkpt lat="50.78686" lon="-4.55871"></trkpt>
      <trkpt lat="50.78645" lon="-4.55888"></trkpt>
      <trkpt lat="50.78627" lon="-4.55899"></trkpt>
      <trkpt lat="50.78617" lon="-4.559"></trkpt>
      <trkpt lat="50.7861" lon="-4.55904"></trkpt>
      <trkpt lat="50.786" lon="-4.55906"></trkpt>
      <trkpt lat="50.78589" lon="-4.55904"></trkpt>
      <trkpt lat="50.78588" lon="-4.55904"></trkpt>
      <trkpt lat="50.78582" lon="-4.55909"></trkpt>
      <trkpt lat="50.78569" lon="-4.55912"></trkpt>
      <trkpt lat="50.78561" lon="-4.55916"></trkpt>
      <trkpt lat="50.78551" lon="-4.55915"></trkpt>
      <trkpt lat="50.78541" lon="-4.55924"></trkpt>
      <trkpt lat="50.78531" lon="-4.55928"></trkpt>
      <trkpt lat="50.78524" lon="-4.55926"></trkpt>
      <trkpt lat="50.78509" lon="-4.55934"></trkpt>
      <trkpt lat="50.78501" lon="-4.55936"></trkpt>
      <trkpt lat="50.78493" lon="-4.55932"></trkpt>
      <trkpt lat="50.78483" lon="-4.55931"></trkpt>
      <trkpt lat="50.78466" lon="-4.55938"></trkpt>
      <trkpt lat="50.78432" lon="-4.55948"></trkpt>
      <trkpt lat="50.78421" lon="-4.55956"></trkpt>
      <trkpt lat="50.78406" lon="-4.55955"></trkpt>
      <trkpt lat="50.78393" lon="-4.55947"></trkpt>
      <trkpt lat="50.78374" lon="-4.5596"></trkpt>
      <trkpt lat="50.78369" lon="-4.55966"></trkpt>
      <trkpt lat="50.78357" lon="-4.5599"></trkpt>
      <trkpt lat="50.78355" lon="-4.56006"></trkpt>
      <trkpt lat="50.78349" lon="-4.56011"></trkpt>
      <trkpt lat="50.78343" lon="-4.56012"></trkpt>
      <trkpt lat="50.78322" lon="-4.56"></trkpt>
      <trkpt lat="50.78297" lon="-4.5598"></trkpt>
      <trkpt lat="50.78288" lon="-4.5598"></trkpt>
      <trkpt lat="50.78271" lon="-4.55974"></trkpt>
      <trkpt lat="50.78257" lon="-4.55977"></trkpt>
      <trkpt lat="50.7824" lon="-4.55989"></trkpt>
      <trkpt lat="50.78232" lon="-4.55998"></trkpt>
      <trkpt lat="50.78208" lon="-4.56006"></trkpt>
      <trkpt lat="50.78188" lon="-4.56009"></trkpt>
      <trkpt lat="50.78171" lon="-4.56021"></trkpt>
      <trkpt lat="50.78164" lon="-4.56022"></trkpt>
      <trkpt lat="50.78153" lon="-4.56045"></trkpt>
      <trkpt lat="50.78143" lon="-4.56052"></trkpt>
      <trkpt lat="50.78138" lon="-4.56053"></trkpt>
      <trkpt lat="50.78133" lon="-4.56049"></trkpt>
      <trkpt lat="50.78122" lon="-4.5603"></trkpt>
      <trkpt lat="50.78099" lon="-4.56007"></trkpt>
      <trkpt lat="50.78058" lon="-4.55986"></trkpt>
      <trkpt lat="50.78048" lon="-4.55983"></trkpt>
      <trkpt lat="50.78032" lon="-4.55987"></trkpt>
      <trkpt lat="50.78023" lon="-4.55984"></trkpt>
      <trkpt lat="50.78021" lon="-4.5598"></trkpt>
      <trkpt lat="50.77992" lon="-4.55973"></trkpt>
      <trkpt lat="50.78034" lon="-4.56106"></trkpt>
      <trkpt lat="50.78037" lon="-4.56131"></trkpt>
      <trkpt lat="50.78035" lon="-4.5614"></trkpt>
      <trkpt lat="50.78028" lon="-4.56155"></trkpt>
      <trkpt lat="50.78019" lon="-4.56167"></trkpt>
      <trkpt lat="50.77995" lon="-4.56188"></trkpt>
      <trkpt lat="50.77941" lon="-4.56256"></trkpt>
      <trkpt lat="50.7792" lon="-4.56288"></trkpt>
      <trkpt lat="50.77891" lon="-4.56318"></trkpt>
      <trkpt lat="50.77853" lon="-4.56347"></trkpt>
      <trkpt lat="50.77829" lon="-4.56386"></trkpt>
      <trkpt lat="50.77811" lon="-4.56447"></trkpt>
      <trkpt lat="50.77806" lon="-4.56462"></trkpt>
      <trkpt lat="50.77791" lon="-4.56501"></trkpt>
      <trkpt lat="50.77773" lon="-4.56531"></trkpt>
      <trkpt lat="50.77752" lon="-4.56559"></trkpt>
      <trkpt lat="50.77675" lon="-4.56629"></trkpt>
      <trkpt lat="50.7766" lon="-4.56648"></trkpt>
      <trkpt lat="50.7764" lon="-4.5669"></trkpt>
      <trkpt lat="50.77588" lon="-4.56773"></trkpt>
      <trkpt lat="50.77572" lon="-4.56824"></trkpt>
      <trkpt lat="50.77564" lon="-4.56865"></trkpt>
      <trkpt lat="50.77559" lon="-4.56918"></trkpt>
      <trkpt lat="50.77554" lon="-4.56935"></trkpt>
      <trkpt lat="50.77552" lon="-4.56951"></trkpt>
      <trkpt lat="50.77553" lon="-4.56982"></trkpt>
      <trkpt lat="50.77552" lon="-4.56997"></trkpt>
      <trkpt lat="50.77548" lon="-4.5702"></trkpt>
      <trkpt lat="50.77535" lon="-4.57058"></trkpt>
      <trkpt lat="50.77509" lon="-4.57095"></trkpt>
      <trkpt lat="50.7749" lon="-4.57112"></trkpt>
      <trkpt lat="50.77486" lon="-4.57134"></trkpt>
      <trkpt lat="50.7748" lon="-4.5715"></trkpt>
      <trkpt lat="50.7747" lon="-4.5716"></trkpt>
      <trkpt lat="50.77447" lon="-4.57172"></trkpt>
      <trkpt lat="50.77433" lon="-4.57178"></trkpt>
      <trkpt lat="50.77398" lon="-4.57209"></trkpt>
      <trkpt lat="50.77391" lon="-4.5722"></trkpt>
      <trkpt lat="50.77383" lon="-4.57242"></trkpt>
      <trkpt lat="50.77373" lon="-4.57257"></trkpt>
      <trkpt lat="50.77356" lon="-4.57278"></trkpt>
      <trkpt lat="50.77336" lon="-4.57298"></trkpt>
      <trkpt lat="50.77325" lon="-4.57344"></trkpt>
      <trkpt lat="50.77309" lon="-4.57367"></trkpt>
      <trkpt lat="50.77299" lon="-4.57404"></trkpt>
      <trkpt lat="50.77292" lon="-4.57417"></trkpt>
      <trkpt lat="50.77277" lon="-4.57422"></trkpt>
      <trkpt lat="50.77268" lon="-4.57437"></trkpt>
      <trkpt lat="50.77254" lon="-4.5744"></trkpt>
      <trkpt lat="50.7723" lon="-4.57439"></trkpt>
      <trkpt lat="50.77209" lon="-4.57454"></trkpt>
      <trkpt lat="50.77202" lon="-4.57455"></trkpt>
      <trkpt lat="50.77191" lon="-4.57463"></trkpt>
      <trkpt lat="50.77154" lon="-4.57475"></trkpt>
      <trkpt lat="50.77124" lon="-4.57492"></trkpt>
      <trkpt lat="50.7711" lon="-4.57494"></trkpt>
      <trkpt lat="50.77105" lon="-4.57491"></trkpt>
      <trkpt lat="50.77104" lon="-4.57492"></trkpt>
      <trkpt lat="50.77123" lon="-4.57546"></trkpt>
      <trkpt lat="50.77139" lon="-4.5758"></trkpt>
      <trkpt lat="50.77141" lon="-4.57598"></trkpt>
      <trkpt lat="50.7714" lon="-4.57605"></trkpt>
      <trkpt lat="50.77136" lon="-4.5761"></trkpt>
      <trkpt lat="50.7713" lon="-4.57614"></trkpt>
      <trkpt lat="50.77119" lon="-4.57616"></trkpt>
      <trkpt lat="50.77075" lon="-4.5761"></trkpt>
      <trkpt lat="50.7706" lon="-4.5761"></trkpt>
      <trkpt lat="50.77055" lon="-4.57613"></trkpt>
      <trkpt lat="50.77054" lon="-4.57617"></trkpt>
      <trkpt lat="50.77055" lon="-4.57623"></trkpt>
      <trkpt lat="50.77073" lon="-4.57657"></trkpt>
      <trkpt lat="50.771" lon="-4.577"></trkpt>
      <trkpt lat="50.77106" lon="-4.57722"></trkpt>
      <trkpt lat="50.77105" lon="-4.57731"></trkpt>
      <trkpt lat="50.77102" lon="-4.57739"></trkpt>
      <trkpt lat="50.77069" lon="-4.57792"></trkpt>
      <trkpt lat="50.77059" lon="-4.57816"></trkpt>
      <trkpt lat="50.77057" lon="-4.57868"></trkpt>
      <trkpt lat="50.7706" lon="-4.5789"></trkpt>
      <trkpt lat="50.77064" lon="-4.57895"></trkpt>
      <trkpt lat="50.7708" lon="-4.57902"></trkpt>
      <trkpt lat="50.77086" lon="-4.57908"></trkpt>
      <trkpt lat="50.77088" lon="-4.57914"></trkpt>
      <trkpt lat="50.77088" lon="-4.57923"></trkpt>
      <trkpt lat="50.77077" lon="-4.5795"></trkpt>
      <trkpt lat="50.77074" lon="-4.57953"></trkpt>
      <trkpt lat="50.77071" lon="-4.57981"></trkpt>
      <trkpt lat="50.77063" lon="-4.5801"></trkpt>
      <trkpt lat="50.77063" lon="-4.58023"></trkpt>
      <trkpt lat="50.77065" lon="-4.58036"></trkpt>
      <trkpt lat="50.77076" lon="-4.58066"></trkpt>
      <trkpt lat="50.77078" lon="-4.58076"></trkpt>
      <trkpt lat="50.77077" lon="-4.58088"></trkpt>
      <trkpt lat="50.77072" lon="-4.58103"></trkpt>
      <trkpt lat="50.77066" lon="-4.58111"></trkpt>
      <trkpt lat="50.77054" lon="-4.58116"></trkpt>
      <trkpt lat="50.76996" lon="-4.58131"></trkpt>
      <trkpt lat="50.76981" lon="-4.58129"></trkpt>
      <trkpt lat="50.76964" lon="-4.58124"></trkpt>
      <trkpt lat="50.76955" lon="-4.58128"></trkpt>
      <trkpt lat="50.7695" lon="-4.5814"></trkpt>
      <trkpt lat="50.76935" lon="-4.58126"></trkpt>
      <trkpt lat="50.7695" lon="-4.5814"></trkpt>
      <trkpt lat="50.76906" lon="-4.58254"></trkpt>
      <trkpt lat="50.76891" lon="-4.58304"></trkpt>
      <trkpt lat="50.76878" lon="-4.58315"></trkpt>
      <trkpt lat="50.76868" lon="-4.58312"></trkpt>
      <trkpt lat="50.76849" lon="-4.58317"></trkpt>
      <trkpt lat="50.76826" lon="-4.58333"></trkpt>
      <trkpt lat="50.76807" lon="-4.58351"></trkpt>
      <trkpt lat="50.7679" lon="-4.58373"></trkpt>
      <trkpt lat="50.76769" lon="-4.5842"></trkpt>
      <trkpt lat="50.76762" lon="-4.58448"></trkpt>
      <trkpt lat="50.76755" lon="-4.58483"></trkpt>
      <trkpt lat="50.76739" lon="-4.58519"></trkpt>
      <trkpt lat="50.76725" lon="-4.58545"></trkpt>
      <trkpt lat="50.76704" lon="-4.58568"></trkpt>
      <trkpt lat="50.76696" lon="-4.58585"></trkpt>
      <trkpt lat="50.76691" lon="-4.58588"></trkpt>
      <trkpt lat="50.76688" lon="-4.58593"></trkpt>
      <trkpt lat="50.76675" lon="-4.58653"></trkpt>
      <trkpt lat="50.76672" lon="-4.58661"></trkpt>
      <trkpt lat="50.76668" lon="-4.58666"></trkpt>
      <trkpt lat="50.76642" lon="-4.58678"></trkpt>
      <trkpt lat="50.76633" lon="-4.58693"></trkpt>
      <trkpt lat="50.76622" lon="-4.58703"></trkpt>
      <trkpt lat="50.76618" lon="-4.5871"></trkpt>
      <trkpt lat="50.76609" lon="-4.58743"></trkpt>
      <trkpt lat="50.76605" lon="-4.58748"></trkpt>
      <trkpt lat="50.7652" lon="-4.58803"></trkpt>
      <trkpt lat="50.76514" lon="-4.58802"></trkpt>
      <trkpt lat="50.76503" lon="-4.58809"></trkpt>
      <trkpt lat="50.76492" lon="-4.5882"></trkpt>
      <trkpt lat="50.7645" lon="-4.58825"></trkpt>
      <trkpt lat="50.76446" lon="-4.58827"></trkpt>
      <trkpt lat="50.76442" lon="-4.58832"></trkpt>
      <trkpt lat="50.76422" lon="-4.5888"></trkpt>
      <trkpt lat="50.76419" lon="-4.58893"></trkpt>
      <trkpt lat="50.76419" lon="-4.58905"></trkpt>
      <trkpt lat="50.76427" lon="-4.58925"></trkpt>
      <trkpt lat="50.76433" lon="-4.58936"></trkpt>
      <trkpt lat="50.76433" lon="-4.58945"></trkpt>
      <trkpt lat="50.76419" lon="-4.58985"></trkpt>
      <trkpt lat="50.76419" lon="-4.59003"></trkpt>
      <trkpt lat="50.76414" lon="-4.59028"></trkpt>
      <trkpt lat="50.76413" lon="-4.59046"></trkpt>
      <trkpt lat="50.76409" lon="-4.59061"></trkpt>
      <trkpt lat="50.76398" lon="-4.59071"></trkpt>
      <trkpt lat="50.76385" lon="-4.59071"></trkpt>
      <trkpt lat="50.76309" lon="-4.59061"></trkpt>
      <trkpt lat="50.76302" lon="-4.59072"></trkpt>
      <trkpt lat="50.76284" lon="-4.59085"></trkpt>
      <trkpt lat="50.76265" lon="-4.59085"></trkpt>
      <trkpt lat="50.76242" lon="-4.59092"></trkpt>
      <trkpt lat="50.76236" lon="-4.59102"></trkpt>
      <trkpt lat="50.76263" lon="-4.59139"></trkpt>
      <trkpt lat="50.76269" lon="-4.59151"></trkpt>
      <trkpt lat="50.76278" lon="-4.59157"></trkpt>
      <trkpt lat="50.76286" lon="-4.59174"></trkpt>
      <trkpt lat="50.76305" lon="-4.59198"></trkpt>
      <trkpt lat="50.76316" lon="-4.59208"></trkpt>
      <trkpt lat="50.76348" lon="-4.59277"></trkpt>
      <trkpt lat="50.7635" lon="-4.59307"></trkpt>
      <trkpt lat="50.76354" lon="-4.59322"></trkpt>
      <trkpt lat="50.76368" lon="-4.59356"></trkpt>
      <trkpt lat="50.76368" lon="-4.59365"></trkpt>
      <trkpt lat="50.76366" lon="-4.59374"></trkpt>
      <trkpt lat="50.7636" lon="-4.5938"></trkpt>
      <trkpt lat="50.76356" lon="-4.59385"></trkpt>
      <trkpt lat="50.76341" lon="-4.59415"></trkpt>
      <trkpt lat="50.76327" lon="-4.59432"></trkpt>
      <trkpt lat="50.7632" lon="-4.59451"></trkpt>
      <trkpt lat="50.76315" lon="-4.59477"></trkpt>
      <trkpt lat="50.76302" lon="-4.59504"></trkpt>
      <trkpt lat="50.76289" lon="-4.59524"></trkpt>
      <trkpt lat="50.76251" lon="-4.59569"></trkpt>
      <trkpt lat="50.76219" lon="-4.59674"></trkpt>
      <trkpt lat="50.76209" lon="-4.59702"></trkpt>
      <trkpt lat="50.76205" lon="-4.59733"></trkpt>
      <trkpt lat="50.76204" lon="-4.59758"></trkpt>
      <trkpt lat="50.7621" lon="-4.59805"></trkpt>
      <trkpt lat="50.76208" lon="-4.59838"></trkpt>
      <trkpt lat="50.76186" lon="-4.59902"></trkpt>
      <trkpt lat="50.76172" lon="-4.5992"></trkpt>
      <trkpt lat="50.76137" lon="-4.59952"></trkpt>
      <trkpt lat="50.76113" lon="-4.5997"></trkpt>
      <trkpt lat="50.76101" lon="-4.59982"></trkpt>
      <trkpt lat="50.76085" lon="-4.59991"></trkpt>
      <trkpt lat="50.7607" lon="-4.59988"></trkpt>
      <trkpt lat="50.76064" lon="-4.59992"></trkpt>
      <trkpt lat="50.76057" lon="-4.60007"></trkpt>
      <trkpt lat="50.76044" lon="-4.60042"></trkpt>
      <trkpt lat="50.76044" lon="-4.60069"></trkpt>
      <trkpt lat="50.76042" lon="-4.60098"></trkpt>
      <trkpt lat="50.76027" lon="-4.60208"></trkpt>
      <trkpt lat="50.76023" lon="-4.60258"></trkpt>
      <trkpt lat="50.76019" lon="-4.60349"></trkpt>
      <trkpt lat="50.76014" lon="-4.60392"></trkpt>
      <trkpt lat="50.76012" lon="-4.60444"></trkpt>
      <trkpt lat="50.76009" lon="-4.60464"></trkpt>
      <trkpt lat="50.76009" lon="-4.60519"></trkpt>
      <trkpt lat="50.76012" lon="-4.60568"></trkpt>
      <trkpt lat="50.76008" lon="-4.60603"></trkpt>
      <trkpt lat="50.76015" lon="-4.60643"></trkpt>
      <trkpt lat="50.76021" lon="-4.60662"></trkpt>
      <trkpt lat="50.7602" lon="-4.60696"></trkpt>
      <trkpt lat="50.76034" lon="-4.60743"></trkpt>
      <trkpt lat="50.76027" lon="-4.60769"></trkpt>
      <trkpt lat="50.76016" lon="-4.60771"></trkpt>
      <trkpt lat="50.76014" lon="-4.60792"></trkpt>
      <trkpt lat="50.76004" lon="-4.60808"></trkpt>
      <trkpt lat="50.75996" lon="-4.60825"></trkpt>
      <trkpt lat="50.7599" lon="-4.60851"></trkpt>
      <trkpt lat="50.75982" lon="-4.60872"></trkpt>
      <trkpt lat="50.75943" lon="-4.60927"></trkpt>
      <trkpt lat="50.75934" lon="-4.60953"></trkpt>
      <trkpt lat="50.7593" lon="-4.60976"></trkpt>
      <trkpt lat="50.75927" lon="-4.61034"></trkpt>
      <trkpt lat="50.75881" lon="-4.61273"></trkpt>
      <trkpt lat="50.75852" lon="-4.6128"></trkpt>
      <trkpt lat="50.75828" lon="-4.61265"></trkpt>
      <trkpt lat="50.75821" lon="-4.61253"></trkpt>
      <trkpt lat="50.75809" lon="-4.6128"></trkpt>
      <trkpt lat="50.75804" lon="-4.61281"></trkpt>
      <trkpt lat="50.75798" lon="-4.61272"></trkpt>
      <trkpt lat="50.7579" lon="-4.6131"></trkpt>
      <trkpt lat="50.75787" lon="-4.61314"></trkpt>
      <trkpt lat="50.75776" lon="-4.61281"></trkpt>
      <trkpt lat="50.75771" lon="-4.61297"></trkpt>
      <trkpt lat="50.75772" lon="-4.61323"></trkpt>
      <trkpt lat="50.75771" lon="-4.61348"></trkpt>
      <trkpt lat="50.75763" lon="-4.61334"></trkpt>
      <trkpt lat="50.75766" lon="-4.61355"></trkpt>
      <trkpt lat="50.75765" lon="-4.61367"></trkpt>
      <trkpt lat="50.75761" lon="-4.61369"></trkpt>
      <trkpt lat="50.75749" lon="-4.61352"></trkpt>
      <trkpt lat="50.75751" lon="-4.6138"></trkpt>
      <trkpt lat="50.75745" lon="-4.61395"></trkpt>
      <trkpt lat="50.75737" lon="-4.61381"></trkpt>
      <trkpt lat="50.75738" lon="-4.61415"></trkpt>
      <trkpt lat="50.75735" lon="-4.61419"></trkpt>
      <trkpt lat="50.75734" lon="-4.61428"></trkpt>
      <trkpt lat="50.75729" lon="-4.6144"></trkpt>
      <trkpt lat="50.75725" lon="-4.61466"></trkpt>
      <trkpt lat="50.75717" lon="-4.61475"></trkpt>
      <trkpt lat="50.7571" lon="-4.61487"></trkpt>
      <trkpt lat="50.75702" lon="-4.61481"></trkpt>
      <trkpt lat="50.75683" lon="-4.61491"></trkpt>
      <trkpt lat="50.75664" lon="-4.61507"></trkpt>
      <trkpt lat="50.75651" lon="-4.61528"></trkpt>
      <trkpt lat="50.75638" lon="-4.61566"></trkpt>
      <trkpt lat="50.7563" lon="-4.61572"></trkpt>
      <trkpt lat="50.75621" lon="-4.61573"></trkpt>
      <trkpt lat="50.75611" lon="-4.61598"></trkpt>
      <trkpt lat="50.75581" lon="-4.61557"></trkpt>
      <trkpt lat="50.75566" lon="-4.61543"></trkpt>
      <trkpt lat="50.75549" lon="-4.61536"></trkpt>
      <trkpt lat="50.75507" lon="-4.61524"></trkpt>
      <trkpt lat="50.75466" lon="-4.61516"></trkpt>
      <trkpt lat="50.75387" lon="-4.61532"></trkpt>
      <trkpt lat="50.75365" lon="-4.61544"></trkpt>
      <trkpt lat="50.75353" lon="-4.61554"></trkpt>
      <trkpt lat="50.75349" lon="-4.61567"></trkpt>
      <trkpt lat="50.75348" lon="-4.61584"></trkpt>
      <trkpt lat="50.75349" lon="-4.616"></trkpt>
      <trkpt lat="50.75354" lon="-4.6163"></trkpt>
      <trkpt lat="50.75353" lon="-4.61648"></trkpt>
      <trkpt lat="50.75341" lon="-4.61671"></trkpt>
      <trkpt lat="50.75323" lon="-4.61691"></trkpt>
      <trkpt lat="50.75309" lon="-4.61701"></trkpt>
      <trkpt lat="50.75273" lon="-4.61695"></trkpt>
      <trkpt lat="50.75257" lon="-4.61684"></trkpt>
      <trkpt lat="50.75251" lon="-4.61689"></trkpt>
      <trkpt lat="50.75235" lon="-4.61696"></trkpt>
      <trkpt lat="50.75227" lon="-4.61702"></trkpt>
      <trkpt lat="50.75218" lon="-4.61692"></trkpt>
      <trkpt lat="50.75208" lon="-4.61697"></trkpt>
      <trkpt lat="50.75178" lon="-4.61695"></trkpt>
      <trkpt lat="50.75165" lon="-4.61705"></trkpt>
      <trkpt lat="50.75134" lon="-4.61721"></trkpt>
      <trkpt lat="50.75108" lon="-4.6175"></trkpt>
      <trkpt lat="50.75069" lon="-4.61786"></trkpt>
      <trkpt lat="50.75037" lon="-4.61809"></trkpt>
      <trkpt lat="50.74995" lon="-4.61858"></trkpt>
      <trkpt lat="50.74966" lon="-4.6191"></trkpt>
      <trkpt lat="50.74963" lon="-4.61924"></trkpt>
      <trkpt lat="50.74959" lon="-4.61934"></trkpt>
      <trkpt lat="50.74953" lon="-4.61933"></trkpt>
      <trkpt lat="50.74942" lon="-4.61956"></trkpt>
      <trkpt lat="50.74944" lon="-4.62005"></trkpt>
      <trkpt lat="50.74953" lon="-4.62067"></trkpt>
      <trkpt lat="50.74955" lon="-4.62111"></trkpt>
      <trkpt lat="50.74949" lon="-4.62155"></trkpt>
      <trkpt lat="50.7494" lon="-4.62179"></trkpt>
      <trkpt lat="50.74938" lon="-4.62186"></trkpt>
      <trkpt lat="50.74909" lon="-4.62225"></trkpt>
      <trkpt lat="50.74904" lon="-4.62229"></trkpt>
      <trkpt lat="50.74896" lon="-4.62229"></trkpt>
      <trkpt lat="50.74891" lon="-4.62222"></trkpt>
      <trkpt lat="50.74884" lon="-4.62205"></trkpt>
      <trkpt lat="50.7488" lon="-4.62182"></trkpt>
      <trkpt lat="50.74873" lon="-4.62228"></trkpt>
      <trkpt lat="50.74872" lon="-4.62283"></trkpt>
      <trkpt lat="50.74873" lon="-4.62314"></trkpt>
      <trkpt lat="50.7487" lon="-4.62344"></trkpt>
      <trkpt lat="50.74872" lon="-4.62389"></trkpt>
      <trkpt lat="50.7487" lon="-4.62415"></trkpt>
      <trkpt lat="50.74874" lon="-4.62514"></trkpt>
      <trkpt lat="50.74868" lon="-4.62564"></trkpt>
      <trkpt lat="50.74862" lon="-4.62603"></trkpt>
      <trkpt lat="50.74859" lon="-4.6261"></trkpt>
      <trkpt lat="50.74851" lon="-4.62644"></trkpt>
      <trkpt lat="50.74847" lon="-4.62655"></trkpt>
      <trkpt lat="50.74844" lon="-4.6271"></trkpt>
      <trkpt lat="50.74845" lon="-4.62751"></trkpt>
      <trkpt lat="50.74843" lon="-4.6277"></trkpt>
      <trkpt lat="50.74843" lon="-4.62789"></trkpt>
      <trkpt lat="50.74847" lon="-4.62825"></trkpt>
      <trkpt lat="50.7486" lon="-4.62848"></trkpt>
      <trkpt lat="50.74861" lon="-4.62858"></trkpt>
      <trkpt lat="50.74858" lon="-4.62861"></trkpt>
      <trkpt lat="50.74856" lon="-4.62866"></trkpt>
      <trkpt lat="50.74854" lon="-4.62886"></trkpt>
      <trkpt lat="50.74856" lon="-4.62907"></trkpt>
      <trkpt lat="50.74855" lon="-4.62918"></trkpt>
      <trkpt lat="50.74856" lon="-4.62935"></trkpt>
      <trkpt lat="50.74855" lon="-4.62952"></trkpt>
      <trkpt lat="50.74858" lon="-4.62989"></trkpt>
      <trkpt lat="50.74857" lon="-4.63014"></trkpt>
      <trkpt lat="50.7486" lon="-4.63057"></trkpt>
      <trkpt lat="50.74863" lon="-4.6307"></trkpt>
      <trkpt lat="50.74865" lon="-4.63093"></trkpt>
      <trkpt lat="50.74873" lon="-4.63117"></trkpt>
      <trkpt lat="50.74877" lon="-4.63194"></trkpt>
      <trkpt lat="50.74881" lon="-4.63237"></trkpt>
      <trkpt lat="50.74878" lon="-4.63246"></trkpt>
      <trkpt lat="50.74875" lon="-4.63263"></trkpt>
      <trkpt lat="50.74875" lon="-4.63275"></trkpt>
      <trkpt lat="50.74872" lon="-4.63277"></trkpt>
      <trkpt lat="50.74866" lon="-4.63307"></trkpt>
      <trkpt lat="50.74855" lon="-4.63299"></trkpt>
      <trkpt lat="50.74808" lon="-4.63197"></trkpt>
      <trkpt lat="50.7476" lon="-4.63113"></trkpt>
      <trkpt lat="50.7475" lon="-4.63148"></trkpt>
      <trkpt lat="50.74726" lon="-4.6314"></trkpt>
      <trkpt lat="50.74717" lon="-4.63142"></trkpt>
      <trkpt lat="50.74712" lon="-4.63137"></trkpt>
      <trkpt lat="50.74708" lon="-4.63144"></trkpt>
      <trkpt lat="50.74706" lon="-4.63135"></trkpt>
      <trkpt lat="50.74699" lon="-4.63123"></trkpt>
      <trkpt lat="50.74693" lon="-4.63166"></trkpt>
      <trkpt lat="50.7469" lon="-4.63189"></trkpt>
      <trkpt lat="50.74669" lon="-4.63285"></trkpt>
      <trkpt lat="50.74666" lon="-4.63281"></trkpt>
      <trkpt lat="50.7466" lon="-4.63256"></trkpt>
      <trkpt lat="50.74631" lon="-4.63171"></trkpt>
      <trkpt lat="50.74621" lon="-4.63155"></trkpt>
      <trkpt lat="50.74617" lon="-4.63169"></trkpt>
      <trkpt lat="50.74616" lon="-4.63182"></trkpt>
      <trkpt lat="50.74605" lon="-4.63188"></trkpt>
      <trkpt lat="50.74605" lon="-4.63221"></trkpt>
      <trkpt lat="50.74599" lon="-4.63262"></trkpt>
      <trkpt lat="50.74592" lon="-4.63294"></trkpt>
      <trkpt lat="50.74585" lon="-4.63316"></trkpt>
      <trkpt lat="50.74575" lon="-4.63323"></trkpt>
      <trkpt lat="50.74537" lon="-4.63321"></trkpt>
      <trkpt lat="50.74513" lon="-4.63323"></trkpt>
      <trkpt lat="50.74477" lon="-4.6334"></trkpt>
      <trkpt lat="50.74476" lon="-4.63348"></trkpt>
      <trkpt lat="50.74471" lon="-4.63359"></trkpt>
      <trkpt lat="50.74464" lon="-4.63397"></trkpt>
      <trkpt lat="50.74471" lon="-4.63539"></trkpt>
      <trkpt lat="50.7447" lon="-4.63574"></trkpt>
      <trkpt lat="50.74467" lon="-4.63581"></trkpt>
      <trkpt lat="50.74447" lon="-4.63592"></trkpt>
      <trkpt lat="50.74394" lon="-4.63506"></trkpt>
      <trkpt lat="50.74385" lon="-4.63483"></trkpt>
      <trkpt lat="50.74371" lon="-4.63455"></trkpt>
      <trkpt lat="50.74348" lon="-4.63421"></trkpt>
      <trkpt lat="50.74345" lon="-4.6341"></trkpt>
      <trkpt lat="50.74336" lon="-4.63398"></trkpt>
      <trkpt lat="50.74307" lon="-4.63373"></trkpt>
      <trkpt lat="50.74254" lon="-4.63319"></trkpt>
      <trkpt lat="50.74248" lon="-4.63319"></trkpt>
      <trkpt lat="50.74234" lon="-4.63307"></trkpt>
      <trkpt lat="50.74204" lon="-4.63269"></trkpt>
      <trkpt lat="50.74195" lon="-4.63248"></trkpt>
      <trkpt lat="50.74179" lon="-4.63227"></trkpt>
      <trkpt lat="50.74169" lon="-4.63221"></trkpt>
      <trkpt lat="50.74143" lon="-4.63189"></trkpt>
      <trkpt lat="50.74131" lon="-4.63172"></trkpt>
      <trkpt lat="50.74115" lon="-4.63145"></trkpt>
      <trkpt lat="50.74105" lon="-4.6314"></trkpt>
      <trkpt lat="50.74098" lon="-4.63144"></trkpt>
      <trkpt lat="50.74114" lon="-4.63197"></trkpt>
      <trkpt lat="50.74087" lon="-4.63217"></trkpt>
      <trkpt lat="50.74069" lon="-4.63247"></trkpt>
      <trkpt lat="50.74063" lon="-4.63252"></trkpt>
      <trkpt lat="50.74063" lon="-4.63262"></trkpt>
      <trkpt lat="50.74073" lon="-4.63286"></trkpt>
      <trkpt lat="50.74083" lon="-4.63303"></trkpt>
      <trkpt lat="50.74092" lon="-4.63327"></trkpt>
      <trkpt lat="50.74095" lon="-4.63322"></trkpt>
    </trkseg>
  </trk>
</gpx>
