<?xml version="1.0" encoding="UTF-8"?>
<gpx version="1.1" creator="swcp-walk (imported from OS Maps route 33831503)"
     xmlns="http://www.topografix.com/GPX/1/1">
  <metadata>
    <name>SWCP12-CrackingtonHaven-Tintagel</name>
  </metadata>
  <trk>
    <name>SWCP12-CrackingtonHaven-Tintagel</name>
    <trkseg>
      <trkpt lat="50.74097015858442" lon="-4.63232770476705"></trkpt>
      <trkpt lat="50.74092" lon="-4.63238"></trkpt>
      <trkpt lat="50.74104" lon="-4.63269"></trkpt>
      <trkpt lat="50.74114" lon="-4.63313"></trkpt>
      <trkpt lat="50.74095" lon="-4.63322"></trkpt>
      <trkpt lat="50.74083" lon="-4.63337"></trkpt>
      <trkpt lat="50.74101" lon="-4.63339"></trkpt>
      <trkpt lat="50.74109" lon="-4.63343"></trkpt>
      <trkpt lat="50.74112" lon="-4.63348"></trkpt>
      <trkpt lat="50.74114" lon="-4.63357"></trkpt>
      <trkpt lat="50.74113" lon="-4.6337"></trkpt>
      <trkpt lat="50.74108" lon="-4.63392"></trkpt>
      <trkpt lat="50.74097" lon="-4.63417"></trkpt>
      <trkpt lat="50.74086" lon="-4.63429"></trkpt>
      <trkpt lat="50.74079" lon="-4.63431"></trkpt>
      <trkpt lat="50.74067" lon="-4.63466"></trkpt>
      <trkpt lat="50.74074" lon="-4.63498"></trkpt>
      <trkpt lat="50.74069" lon="-4.63525"></trkpt>
      <trkpt lat="50.74062" lon="-4.63552"></trkpt>
      <trkpt lat="50.7406" lon="-4.63578"></trkpt>
      <trkpt lat="50.7405" lon="-4.63594"></trkpt>
      <trkpt lat="50.74049" lon="-4.63616"></trkpt>
      <trkpt lat="50.74045" lon="-4.63628"></trkpt>
      <trkpt lat="50.74041" lon="-4.63708"></trkpt>
      <trkpt lat="50.74039" lon="-4.63718"></trkpt>
      <trkpt lat="50.74038" lon="-4.63718"></trkpt>
      <trkpt lat="50.74037" lon="-4.63723"></trkpt>
      <trkpt lat="50.7403" lon="-4.63721"></trkpt>
      <trkpt lat="50.74027" lon="-4.63714"></trkpt>
      <trkpt lat="50.74016" lon="-4.63707"></trkpt>
      <trkpt lat="50.74012" lon="-4.6371"></trkpt>
      <trkpt lat="50.74001" lon="-4.63705"></trkpt>
      <trkpt lat="50.73975" lon="-4.63705"></trkpt>
      <trkpt lat="50.73959" lon="-4.63694"></trkpt>
      <trkpt lat="50.7394" lon="-4.63687"></trkpt>
      <trkpt lat="50.73922" lon="-4.63687"></trkpt>
      <trkpt lat="50.73912" lon="-4.63681"></trkpt>
      <trkpt lat="50.73889" lon="-4.63689"></trkpt>
      <trkpt lat="50.73882" lon="-4.63703"></trkpt>
      <trkpt lat="50.73876" lon="-4.63724"></trkpt>
      <trkpt lat="50.73872" lon="-4.63795"></trkpt>
      <trkpt lat="50.73861" lon="-4.63833"></trkpt>
      <trkpt lat="50.73848" lon="-4.6386"></trkpt>
      <trkpt lat="50.73832" lon="-4.63883"></trkpt>
      <trkpt lat="50.73833" lon="-4.6391"></trkpt>
      <trkpt lat="50.73832" lon="-4.6392"></trkpt>
      <trkpt lat="50.73825" lon="-4.63937"></trkpt>
      <trkpt lat="50.73811" lon="-4.63956"></trkpt>
      <trkpt lat="50.73798" lon="-4.63991"></trkpt>
      <trkpt lat="50.73775" lon="-4.64062"></trkpt>
      <trkpt lat="50.73756" lon="-4.64141"></trkpt>
      <trkpt lat="50.73747" lon="-4.64165"></trkpt>
      <trkpt lat="50.73745" lon="-4.64183"></trkpt>
      <trkpt lat="50.73747" lon="-4.64216"></trkpt>
      <trkpt lat="50.73757" lon="-4.64237"></trkpt>
      <trkpt lat="50.73769" lon="-4.64271"></trkpt>
      <trkpt lat="50.73774" lon="-4.64293"></trkpt>
      <trkpt lat="50.73772" lon="-4.643"></trkpt>
      <trkpt lat="50.73783" lon="-4.64366"></trkpt>
      <trkpt lat="50.73773" lon="-4.64428"></trkpt>
      <trkpt lat="50.73772" lon="-4.64456"></trkpt>
      <trkpt lat="50.73775" lon="-4.64472"></trkpt>
      <trkpt lat="50.73809" lon="-4.64528"></trkpt>
      <trkpt lat="50.73834" lon="-4.64556"></trkpt>
      <trkpt lat="50.73843" lon="-4.64585"></trkpt>
      <trkpt lat="50.73853" lon="-4.64593"></trkpt>
      <trkpt lat="50.73861" lon="-4.64615"></trkpt>
      <trkpt lat="50.73864" lon="-4.64628"></trkpt>
      <trkpt lat="50.73865" lon="-4.64636"></trkpt>
      <trkpt lat="50.73862" lon="-4.6465"></trkpt>
      <trkpt lat="50.73861" lon="-4.64662"></trkpt>
      <trkpt lat="50.73855" lon="-4.64675"></trkpt>
      <trkpt lat="50.73856" lon="-4.64685"></trkpt>
      <trkpt lat="50.73847" lon="-4.64695"></trkpt>
      <trkpt lat="50.73835" lon="-4.64698"></trkpt>
      <trkpt lat="50.73831" lon="-4.64702"></trkpt>
      <trkpt lat="50.73865" lon="-4.64718"></trkpt>
      <trkpt lat="50.7388" lon="-4.64741"></trkpt>
      <trkpt lat="50.73878" lon="-4.64745"></trkpt>
      <trkpt lat="50.73858" lon="-4.64749"></trkpt>
      <trkpt lat="50.73865" lon="-4.64763"></trkpt>
      <trkpt lat="50.7387" lon="-4.64762"></trkpt>
      <trkpt lat="50.73874" lon="-4.64769"></trkpt>
      <trkpt lat="50.73886" lon="-4.64788"></trkpt>
      <trkpt lat="50.7387" lon="-4.64792"></trkpt>
      <trkpt lat="50.7388" lon="-4.64802"></trkpt>
      <trkpt lat="50.73886" lon="-4.64818"></trkpt>
      <trkpt lat="50.73873" lon="-4.64825"></trkpt>
      <trkpt lat="50.73847" lon="-4.64863"></trkpt>
      <trkpt lat="50.73846" lon="-4.64916"></trkpt>
      <trkpt lat="50.73829" lon="-4.64978"></trkpt>
      <trkpt lat="50.7379" lon="-4.64938"></trkpt>
      <trkpt lat="50.73775" lon="-4.6492"></trkpt>
      <trkpt lat="50.7375" lon="-4.64914"></trkpt>
      <trkpt lat="50.73737" lon="-4.64901"></trkpt>
      <trkpt lat="50.73721" lon="-4.64899"></trkpt>
      <trkpt lat="50.73711" lon="-4.64889"></trkpt>
      <trkpt lat="50.73701" lon="-4.6488"></trkpt>
      <trkpt lat="50.73681" lon="-4.64885"></trkpt>
      <trkpt lat="50.73671" lon="-4.64883"></trkpt>
      <trkpt lat="50.73662" lon="-4.64889"></trkpt>
      <trkpt lat="50.73635" lon="-4.64889"></trkpt>
      <trkpt lat="50.73626" lon="-4.64894"></trkpt>
      <trkpt lat="50.73588" lon="-4.64894"></trkpt>
      <trkpt lat="50.73571" lon="-4.6489"></trkpt>
      <trkpt lat="50.73549" lon="-4.64893"></trkpt>
      <trkpt lat="50.73473" lon="-4.64889"></trkpt>
      <trkpt lat="50.73448" lon="-4.64903"></trkpt>
      <trkpt lat="50.73433" lon="-4.64923"></trkpt>
      <trkpt lat="50.73415" lon="-4.64939"></trkpt>
      <trkpt lat="50.73393" lon="-4.64953"></trkpt>
      <trkpt lat="50.73379" lon="-4.64951"></trkpt>
      <trkpt lat="50.73357" lon="-4.64926"></trkpt>
      <trkpt lat="50.73348" lon="-4.64901"></trkpt>
      <trkpt lat="50.7331" lon="-4.64825"></trkpt>
      <trkpt lat="50.73296" lon="-4.64805"></trkpt>
      <trkpt lat="50.73284" lon="-4.64796"></trkpt>
      <trkpt lat="50.7328" lon="-4.64797"></trkpt>
      <trkpt lat="50.73267" lon="-4.64816"></trkpt>
      <trkpt lat="50.73252" lon="-4.64825"></trkpt>
      <trkpt lat="50.7324" lon="-4.64824"></trkpt>
      <trkpt lat="50.73234" lon="-4.64826"></trkpt>
      <trkpt lat="50.73224" lon="-4.64817"></trkpt>
      <trkpt lat="50.73226" lon="-4.64835"></trkpt>
      <trkpt lat="50.73223" lon="-4.64842"></trkpt>
      <trkpt lat="50.73216" lon="-4.64844"></trkpt>
      <trkpt lat="50.73214" lon="-4.64842"></trkpt>
      <trkpt lat="50.73204" lon="-4.64843"></trkpt>
      <trkpt lat="50.732" lon="-4.64845"></trkpt>
      <trkpt lat="50.73198" lon="-4.64855"></trkpt>
      <trkpt lat="50.73137" lon="-4.64871"></trkpt>
      <trkpt lat="50.73111" lon="-4.64853"></trkpt>
      <trkpt lat="50.73082" lon="-4.64822"></trkpt>
      <trkpt lat="50.73057" lon="-4.64785"></trkpt>
      <trkpt lat="50.73043" lon="-4.64778"></trkpt>
      <trkpt lat="50.73034" lon="-4.64768"></trkpt>
      <trkpt lat="50.73016" lon="-4.64756"></trkpt>
      <trkpt lat="50.73007" lon="-4.6474"></trkpt>
      <trkpt lat="50.72998" lon="-4.64718"></trkpt>
      <trkpt lat="50.72994" lon="-4.64698"></trkpt>
      <trkpt lat="50.72986" lon="-4.64678"></trkpt>
      <trkpt lat="50.72963" lon="-4.64659"></trkpt>
      <trkpt lat="50.72911" lon="-4.64658"></trkpt>
      <trkpt lat="50.72859" lon="-4.6466"></trkpt>
      <trkpt lat="50.72831" lon="-4.64656"></trkpt>
      <trkpt lat="50.72788" lon="-4.6463"></trkpt>
      <trkpt lat="50.72751" lon="-4.64627"></trkpt>
      <trkpt lat="50.72726" lon="-4.64635"></trkpt>
      <trkpt lat="50.72656" lon="-4.64655"></trkpt>
      <trkpt lat="50.72626" lon="-4.64657"></trkpt>
      <trkpt lat="50.72601" lon="-4.64666"></trkpt>
      <trkpt lat="50.7259" lon="-4.64664"></trkpt>
      <trkpt lat="50.72574" lon="-4.64685"></trkpt>
      <trkpt lat="50.72566" lon="-4.64686"></trkpt>
      <trkpt lat="50.72546" lon="-4.64696"></trkpt>
      <trkpt lat="50.72515" lon="-4.64727"></trkpt>
      <trkpt lat="50.72484" lon="-4.64733"></trkpt>
      <trkpt lat="50.72453" lon="-4.64751"></trkpt>
      <trkpt lat="50.72429" lon="-4.64746"></trkpt>
      <trkpt lat="50.72412" lon="-4.64754"></trkpt>
      <trkpt lat="50.72397" lon="-4.64748"></trkpt>
      <trkpt lat="50.72386" lon="-4.64758"></trkpt>
      <trkpt lat="50.72373" lon="-4.64759"></trkpt>
      <trkpt lat="50.72369" lon="-4.64772"></trkpt>
      <trkpt lat="50.72369" lon="-4.64797"></trkpt>
      <trkpt lat="50.72362" lon="-4.64828"></trkpt>
      <trkpt lat="50.72337" lon="-4.64848"></trkpt>
      <trkpt lat="50.72327" lon="-4.64883"></trkpt>
      <trkpt lat="50.72302" lon="-4.64856"></trkpt>
      <trkpt lat="50.72273" lon="-4.64841"></trkpt>
      <trkpt lat="50.72222" lon="-4.64829"></trkpt>
      <trkpt lat="50.72215" lon="-4.64838"></trkpt>
      <trkpt lat="50.72207" lon="-4.64832"></trkpt>
      <trkpt lat="50.72188" lon="-4.64827"></trkpt>
      <trkpt lat="50.7217" lon="-4.64809"></trkpt>
      <trkpt lat="50.7214" lon="-4.64791"></trkpt>
      <trkpt lat="50.72105" lon="-4.64789"></trkpt>
      <trkpt lat="50.72048" lon="-4.64828"></trkpt>
      <trkpt lat="50.72021" lon="-4.64833"></trkpt>
      <trkpt lat="50.71977" lon="-4.64871"></trkpt>
      <trkpt lat="50.71921" lon="-4.64864"></trkpt>
      <trkpt lat="50.71873" lon="-4.64884"></trkpt>
      <trkpt lat="50.71856" lon="-4.64883"></trkpt>
      <trkpt lat="50.71843" lon="-4.6489"></trkpt>
      <trkpt lat="50.71831" lon="-4.64915"></trkpt>
      <trkpt lat="50.71784" lon="-4.64965"></trkpt>
      <trkpt lat="50.71782" lon="-4.64978"></trkpt>
      <trkpt lat="50.71777" lon="-4.65007"></trkpt>
      <trkpt lat="50.71765" lon="-4.65039"></trkpt>
      <trkpt lat="50.71758" lon="-4.65045"></trkpt>
      <trkpt lat="50.71746" lon="-4.65044"></trkpt>
      <trkpt lat="50.71723" lon="-4.65029"></trkpt>
      <trkpt lat="50.71706" lon="-4.65025"></trkpt>
      <trkpt lat="50.71692" lon="-4.65032"></trkpt>
      <trkpt lat="50.71673" lon="-4.65054"></trkpt>
      <trkpt lat="50.71652" lon="-4.65066"></trkpt>
      <trkpt lat="50.71638" lon="-4.6508"></trkpt>
      <trkpt lat="50.71634" lon="-4.65087"></trkpt>
      <trkpt lat="50.71623" lon="-4.65085"></trkpt>
      <trkpt lat="50.7162" lon="-4.65098"></trkpt>
      <trkpt lat="50.7161" lon="-4.65084"></trkpt>
      <trkpt lat="50.71611" lon="-4.65101"></trkpt>
      <trkpt lat="50.71603" lon="-4.65105"></trkpt>
      <trkpt lat="50.716" lon="-4.65095"></trkpt>
      <trkpt lat="50.71594" lon="-4.65092"></trkpt>
      <trkpt lat="50.7159" lon="-4.65108"></trkpt>
      <trkpt lat="50.71583" lon="-4.65097"></trkpt>
      <trkpt lat="50.71583" lon="-4.65111"></trkpt>
      <trkpt lat="50.71575" lon="-4.65102"></trkpt>
      <trkpt lat="50.71577" lon="-4.65112"></trkpt>
      <trkpt lat="50.71568" lon="-4.65108"></trkpt>
      <trkpt lat="50.71568" lon="-4.65118"></trkpt>
      <trkpt lat="50.71562" lon="-4.65113"></trkpt>
      <trkpt lat="50.7156" lon="-4.65123"></trkpt>
      <trkpt lat="50.71541" lon="-4.6511"></trkpt>
      <trkpt lat="50.71553" lon="-4.65135"></trkpt>
      <trkpt lat="50.71551" lon="-4.65137"></trkpt>
      <trkpt lat="50.7154" lon="-4.65126"></trkpt>
      <trkpt lat="50.71543" lon="-4.65154"></trkpt>
      <trkpt lat="50.71528" lon="-4.65135"></trkpt>
      <trkpt lat="50.71533" lon="-4.65161"></trkpt>
      <trkpt lat="50.71526" lon="-4.6515"></trkpt>
      <trkpt lat="50.71528" lon="-4.65162"></trkpt>
      <trkpt lat="50.71522" lon="-4.65161"></trkpt>
      <trkpt lat="50.71519" lon="-4.65189"></trkpt>
      <trkpt lat="50.71516" lon="-4.65197"></trkpt>
      <trkpt lat="50.71516" lon="-4.65226"></trkpt>
      <trkpt lat="50.71512" lon="-4.65227"></trkpt>
      <trkpt lat="50.71512" lon="-4.65263"></trkpt>
      <trkpt lat="50.71507" lon="-4.65255"></trkpt>
      <trkpt lat="50.71504" lon="-4.65255"></trkpt>
      <trkpt lat="50.71484" lon="-4.65328"></trkpt>
      <trkpt lat="50.71463" lon="-4.65313"></trkpt>
      <trkpt lat="50.71455" lon="-4.65312"></trkpt>
      <trkpt lat="50.71444" lon="-4.65329"></trkpt>
      <trkpt lat="50.71441" lon="-4.6536"></trkpt>
      <trkpt lat="50.71443" lon="-4.65377"></trkpt>
      <trkpt lat="50.71441" lon="-4.65395"></trkpt>
      <trkpt lat="50.71425" lon="-4.65423"></trkpt>
      <trkpt lat="50.71417" lon="-4.65449"></trkpt>
      <trkpt lat="50.71391" lon="-4.65477"></trkpt>
      <trkpt lat="50.71382" lon="-4.65506"></trkpt>
      <trkpt lat="50.71374" lon="-4.65519"></trkpt>
      <trkpt lat="50.71363" lon="-4.6552"></trkpt>
      <trkpt lat="50.7135" lon="-4.65527"></trkpt>
      <trkpt lat="50.71325" lon="-4.65561"></trkpt>
      <trkpt lat="50.71306" lon="-4.65583"></trkpt>
      <trkpt lat="50.71295" lon="-4.65574"></trkpt>
      <trkpt lat="50.71293" lon="-4.65547"></trkpt>
      <trkpt lat="50.71308" lon="-4.6551"></trkpt>
      <trkpt lat="50.71309" lon="-4.65491"></trkpt>
      <trkpt lat="50.71294" lon="-4.6548"></trkpt>
      <trkpt lat="50.71284" lon="-4.65481"></trkpt>
      <trkpt lat="50.71272" lon="-4.6547"></trkpt>
      <trkpt lat="50.71265" lon="-4.6546"></trkpt>
      <trkpt lat="50.71244" lon="-4.65472"></trkpt>
      <trkpt lat="50.71216" lon="-4.65473"></trkpt>
      <trkpt lat="50.71187" lon="-4.65507"></trkpt>
      <trkpt lat="50.71182" lon="-4.65541"></trkpt>
      <trkpt lat="50.71174" lon="-4.6557"></trkpt>
      <trkpt lat="50.7117" lon="-4.65613"></trkpt>
      <trkpt lat="50.71138" lon="-4.65657"></trkpt>
      <trkpt lat="50.71122" lon="-4.65645"></trkpt>
      <trkpt lat="50.711" lon="-4.65616"></trkpt>
      <trkpt lat="50.71083" lon="-4.65585"></trkpt>
      <trkpt lat="50.71073" lon="-4.6558"></trkpt>
      <trkpt lat="50.71063" lon="-4.65582"></trkpt>
      <trkpt lat="50.71053" lon="-4.65613"></trkpt>
      <trkpt lat="50.71046" lon="-4.65652"></trkpt>
      <trkpt lat="50.71037" lon="-4.65681"></trkpt>
      <trkpt lat="50.71029" lon="-4.65709"></trkpt>
      <trkpt lat="50.7102" lon="-4.65754"></trkpt>
      <trkpt lat="50.71019" lon="-4.65771"></trkpt>
      <trkpt lat="50.71021" lon="-4.65808"></trkpt>
      <trkpt lat="50.71027" lon="-4.65865"></trkpt>
      <trkpt lat="50.71031" lon="-4.65881"></trkpt>
      <trkpt lat="50.71037" lon="-4.65894"></trkpt>
      <trkpt lat="50.71041" lon="-4.65923"></trkpt>
      <trkpt lat="50.71035" lon="-4.65961"></trkpt>
      <trkpt lat="50.71024" lon="-4.65993"></trkpt>
      <trkpt lat="50.71008" lon="-4.66058"></trkpt>
      <trkpt lat="50.71015" lon="-4.66107"></trkpt>
      <trkpt lat="50.71013" lon="-4.66141"></trkpt>
      <trkpt lat="50.70996" lon="-4.66192"></trkpt>
      <trkpt lat="50.70976" lon="-4.66275"></trkpt>
      <trkpt lat="50.70959" lon="-4.66361"></trkpt>
      <trkpt lat="50.70945" lon="-4.66386"></trkpt>
      <trkpt lat="50.70912" lon="-4.66424"></trkpt>
      <trkpt lat="50.70887" lon="-4.66439"></trkpt>
      <trkpt lat="50.70874" lon="-4.66435"></trkpt>
      <trkpt lat="50.70847" lon="-4.66397"></trkpt>
      <trkpt lat="50.70835" lon="-4.66366"></trkpt>
      <trkpt lat="50.70811" lon="-4.66314"></trkpt>
      <trkpt lat="50.70807" lon="-4.66309"></trkpt>
      <trkpt lat="50.70799" lon="-4.66307"></trkpt>
      <trkpt lat="50.70778" lon="-4.66321"></trkpt>
      <trkpt lat="50.70771" lon="-4.66339"></trkpt>
      <trkpt lat="50.70764" lon="-4.66347"></trkpt>
      <trkpt lat="50.70747" lon="-4.66342"></trkpt>
      <trkpt lat="50.70734" lon="-4.66365"></trkpt>
      <trkpt lat="50.7072" lon="-4.66449"></trkpt>
      <trkpt lat="50.70699" lon="-4.6653"></trkpt>
      <trkpt lat="50.70683" lon="-4.66547"></trkpt>
      <trkpt lat="50.70683" lon="-4.66548"></trkpt>
      <trkpt lat="50.7066" lon="-4.66567"></trkpt>
      <trkpt lat="50.70645" lon="-4.66592"></trkpt>
      <trkpt lat="50.70635" lon="-4.66595"></trkpt>
      <trkpt lat="50.70612" lon="-4.66637"></trkpt>
      <trkpt lat="50.7055" lon="-4.66659"></trkpt>
      <trkpt lat="50.70542" lon="-4.66768"></trkpt>
      <trkpt lat="50.70526" lon="-4.66793"></trkpt>
      <trkpt lat="50.70513" lon="-4.6682"></trkpt>
      <trkpt lat="50.70505" lon="-4.66832"></trkpt>
      <trkpt lat="50.70501" lon="-4.66853"></trkpt>
      <trkpt lat="50.70505" lon="-4.66861"></trkpt>
      <trkpt lat="50.705" lon="-4.66905"></trkpt>
      <trkpt lat="50.70501" lon="-4.66938"></trkpt>
      <trkpt lat="50.70499" lon="-4.66949"></trkpt>
      <trkpt lat="50.70494" lon="-4.67047"></trkpt>
      <trkpt lat="50.70499" lon="-4.67172"></trkpt>
      <trkpt lat="50.70504" lon="-4.67233"></trkpt>
      <trkpt lat="50.70502" lon="-4.67295"></trkpt>
      <trkpt lat="50.70483" lon="-4.67418"></trkpt>
      <trkpt lat="50.70475" lon="-4.67446"></trkpt>
      <trkpt lat="50.7047" lon="-4.67528"></trkpt>
      <trkpt lat="50.7046" lon="-4.67576"></trkpt>
      <trkpt lat="50.70458" lon="-4.67612"></trkpt>
      <trkpt lat="50.7047" lon="-4.67651"></trkpt>
      <trkpt lat="50.70475" lon="-4.67685"></trkpt>
      <trkpt lat="50.70467" lon="-4.67735"></trkpt>
      <trkpt lat="50.70453" lon="-4.6778"></trkpt>
      <trkpt lat="50.70446" lon="-4.67786"></trkpt>
      <trkpt lat="50.7044" lon="-4.67803"></trkpt>
      <trkpt lat="50.70437" lon="-4.67817"></trkpt>
      <trkpt lat="50.7044" lon="-4.67831"></trkpt>
      <trkpt lat="50.70441" lon="-4.67849"></trkpt>
      <trkpt lat="50.70439" lon="-4.67862"></trkpt>
      <trkpt lat="50.70427" lon="-4.67899"></trkpt>
      <trkpt lat="50.70443" lon="-4.67957"></trkpt>
      <trkpt lat="50.70441" lon="-4.67972"></trkpt>
      <trkpt lat="50.70334" lon="-4.68097"></trkpt>
      <trkpt lat="50.70325" lon="-4.68103"></trkpt>
      <trkpt lat="50.7031" lon="-4.68109"></trkpt>
      <trkpt lat="50.70268" lon="-4.6811"></trkpt>
      <trkpt lat="50.70247" lon="-4.68121"></trkpt>
      <trkpt lat="50.70224" lon="-4.68167"></trkpt>
      <trkpt lat="50.70209" lon="-4.68207"></trkpt>
      <trkpt lat="50.70194" lon="-4.68235"></trkpt>
      <trkpt lat="50.70184" lon="-4.68267"></trkpt>
      <trkpt lat="50.7018" lon="-4.68296"></trkpt>
      <trkpt lat="50.70161" lon="-4.68325"></trkpt>
      <trkpt lat="50.70136" lon="-4.68346"></trkpt>
      <trkpt lat="50.70115" lon="-4.68358"></trkpt>
      <trkpt lat="50.7009" lon="-4.68365"></trkpt>
      <trkpt lat="50.70067" lon="-4.68357"></trkpt>
      <trkpt lat="50.70033" lon="-4.68364"></trkpt>
      <trkpt lat="50.70013" lon="-4.68378"></trkpt>
      <trkpt lat="50.69991" lon="-4.68413"></trkpt>
      <trkpt lat="50.69966" lon="-4.68439"></trkpt>
      <trkpt lat="50.69954" lon="-4.68444"></trkpt>
      <trkpt lat="50.6991" lon="-4.68446"></trkpt>
      <trkpt lat="50.69885" lon="-4.68444"></trkpt>
      <trkpt lat="50.69858" lon="-4.68436"></trkpt>
      <trkpt lat="50.69836" lon="-4.68425"></trkpt>
      <trkpt lat="50.69791" lon="-4.6838"></trkpt>
      <trkpt lat="50.69776" lon="-4.68376"></trkpt>
      <trkpt lat="50.69743" lon="-4.68334"></trkpt>
      <trkpt lat="50.69741" lon="-4.68301"></trkpt>
      <trkpt lat="50.69738" lon="-4.68291"></trkpt>
      <trkpt lat="50.69735" lon="-4.6825"></trkpt>
      <trkpt lat="50.69731" lon="-4.68231"></trkpt>
      <trkpt lat="50.69729" lon="-4.68108"></trkpt>
      <trkpt lat="50.69722" lon="-4.67982"></trkpt>
      <trkpt lat="50.69714" lon="-4.67956"></trkpt>
      <trkpt lat="50.69706" lon="-4.67946"></trkpt>
      <trkpt lat="50.69701" lon="-4.67959"></trkpt>
      <trkpt lat="50.69693" lon="-4.67954"></trkpt>
      <trkpt lat="50.69689" lon="-4.67935"></trkpt>
      <trkpt lat="50.69684" lon="-4.67928"></trkpt>
      <trkpt lat="50.69677" lon="-4.67924"></trkpt>
      <trkpt lat="50.69674" lon="-4.67919"></trkpt>
      <trkpt lat="50.69668" lon="-4.67917"></trkpt>
      <trkpt lat="50.69664" lon="-4.67924"></trkpt>
      <trkpt lat="50.69665" lon="-4.67958"></trkpt>
      <trkpt lat="50.69664" lon="-4.67976"></trkpt>
      <trkpt lat="50.69661" lon="-4.67988"></trkpt>
      <trkpt lat="50.69643" lon="-4.6797"></trkpt>
      <trkpt lat="50.69637" lon="-4.67952"></trkpt>
      <trkpt lat="50.69586" lon="-4.67928"></trkpt>
      <trkpt lat="50.69553" lon="-4.67932"></trkpt>
      <trkpt lat="50.69545" lon="-4.67945"></trkpt>
      <trkpt lat="50.69492" lon="-4.67954"></trkpt>
      <trkpt lat="50.69471" lon="-4.6797"></trkpt>
      <trkpt lat="50.69453" lon="-4.68008"></trkpt>
      <trkpt lat="50.69453" lon="-4.68037"></trkpt>
      <trkpt lat="50.69459" lon="-4.68061"></trkpt>
      <trkpt lat="50.69461" lon="-4.68131"></trkpt>
      <trkpt lat="50.69458" lon="-4.68167"></trkpt>
      <trkpt lat="50.69462" lon="-4.68224"></trkpt>
      <trkpt lat="50.69464" lon="-4.6823"></trkpt>
      <trkpt lat="50.69468" lon="-4.68242"></trkpt>
      <trkpt lat="50.69452" lon="-4.68346"></trkpt>
      <trkpt lat="50.69441" lon="-4.68402"></trkpt>
      <trkpt lat="50.69434" lon="-4.68448"></trkpt>
      <trkpt lat="50.69462" lon="-4.68497"></trkpt>
      <trkpt lat="50.69442" lon="-4.68666"></trkpt>
      <trkpt lat="50.69444" lon="-4.68686"></trkpt>
      <trkpt lat="50.69434" lon="-4.68747"></trkpt>
      <trkpt lat="50.6942" lon="-4.68798"></trkpt>
      <trkpt lat="50.69415" lon="-4.68811"></trkpt>
      <trkpt lat="50.69414" lon="-4.68838"></trkpt>
      <trkpt lat="50.69406" lon="-4.68856"></trkpt>
      <trkpt lat="50.69387" lon="-4.68884"></trkpt>
      <trkpt lat="50.69384" lon="-4.68904"></trkpt>
      <trkpt lat="50.69326" lon="-4.69132"></trkpt>
      <trkpt lat="50.693" lon="-4.69245"></trkpt>
      <trkpt lat="50.69297" lon="-4.69281"></trkpt>
      <trkpt lat="50.69297" lon="-4.69282"></trkpt>
      <trkpt lat="50.6928" lon="-4.69329"></trkpt>
      <trkpt lat="50.69266" lon="-4.69385"></trkpt>
      <trkpt lat="50.69267" lon="-4.6941"></trkpt>
      <trkpt lat="50.69258" lon="-4.69451"></trkpt>
      <trkpt lat="50.69266" lon="-4.69565"></trkpt>
      <trkpt lat="50.69257" lon="-4.69588"></trkpt>
      <trkpt lat="50.69259" lon="-4.69649"></trkpt>
      <trkpt lat="50.69256" lon="-4.69657"></trkpt>
      <trkpt lat="50.6926" lon="-4.69776"></trkpt>
      <trkpt lat="50.69256" lon="-4.69813"></trkpt>
      <trkpt lat="50.69252" lon="-4.69818"></trkpt>
      <trkpt lat="50.69244" lon="-4.69802"></trkpt>
      <trkpt lat="50.69233" lon="-4.698"></trkpt>
      <trkpt lat="50.69189" lon="-4.69739"></trkpt>
      <trkpt lat="50.69154" lon="-4.69678"></trkpt>
      <trkpt lat="50.69138" lon="-4.69667"></trkpt>
      <trkpt lat="50.69124" lon="-4.6964"></trkpt>
      <trkpt lat="50.69105" lon="-4.69592"></trkpt>
      <trkpt lat="50.69095" lon="-4.69573"></trkpt>
      <trkpt lat="50.6908" lon="-4.69551"></trkpt>
      <trkpt lat="50.69067" lon="-4.69526"></trkpt>
      <trkpt lat="50.69054" lon="-4.69516"></trkpt>
      <trkpt lat="50.69039" lon="-4.69528"></trkpt>
      <trkpt lat="50.6905" lon="-4.69557"></trkpt>
      <trkpt lat="50.69051" lon="-4.69565"></trkpt>
      <trkpt lat="50.6905" lon="-4.69557"></trkpt>
      <trkpt lat="50.69039" lon="-4.69528"></trkpt>
      <trkpt lat="50.69034" lon="-4.6953"></trkpt>
      <trkpt lat="50.69039" lon="-4.69554"></trkpt>
      <trkpt lat="50.69037" lon="-4.69581"></trkpt>
      <trkpt lat="50.69062" lon="-4.69684"></trkpt>
      <trkpt lat="50.69075" lon="-4.69744"></trkpt>
      <trkpt lat="50.69107" lon="-4.69805"></trkpt>
      <trkpt lat="50.69134" lon="-4.69865"></trkpt>
      <trkpt lat="50.69144" lon="-4.6988"></trkpt>
      <trkpt lat="50.69147" lon="-4.6989"></trkpt>
      <trkpt lat="50.69149" lon="-4.69909"></trkpt>
      <trkpt lat="50.69147" lon="-4.69922"></trkpt>
      <trkpt lat="50.69136" lon="-4.69941"></trkpt>
      <trkpt lat="50.69122" lon="-4.69948"></trkpt>
      <trkpt lat="50.69095" lon="-4.69966"></trkpt>
      <trkpt lat="50.69062" lon="-4.70001"></trkpt>
      <trkpt lat="50.69018" lon="-4.7006"></trkpt>
      <trkpt lat="50.68991" lon="-4.70102"></trkpt>
      <trkpt lat="50.68983" lon="-4.70108"></trkpt>
      <trkpt lat="50.68959" lon="-4.70126"></trkpt>
      <trkpt lat="50.68932" lon="-4.70142"></trkpt>
      <trkpt lat="50.68922" lon="-4.70151"></trkpt>
      <trkpt lat="50.68913" lon="-4.70171"></trkpt>
      <trkpt lat="50.68846" lon="-4.70209"></trkpt>
      <trkpt lat="50.68802" lon="-4.70225"></trkpt>
      <trkpt lat="50.68705" lon="-4.7024"></trkpt>
      <trkpt lat="50.68689" lon="-4.70253"></trkpt>
      <trkpt lat="50.68677" lon="-4.7027"></trkpt>
      <trkpt lat="50.68671" lon="-4.70299"></trkpt>
      <trkpt lat="50.68634" lon="-4.7033"></trkpt>
      <trkpt lat="50.68605" lon="-4.70371"></trkpt>
      <trkpt lat="50.68596" lon="-4.70386"></trkpt>
      <trkpt lat="50.68584" lon="-4.70408"></trkpt>
      <trkpt lat="50.68559" lon="-4.7048"></trkpt>
      <trkpt lat="50.6856" lon="-4.70518"></trkpt>
      <trkpt lat="50.68545" lon="-4.70577"></trkpt>
      <trkpt lat="50.6854" lon="-4.70638"></trkpt>
      <trkpt lat="50.68516" lon="-4.70752"></trkpt>
      <trkpt lat="50.68507" lon="-4.70771"></trkpt>
      <trkpt lat="50.68504" lon="-4.70788"></trkpt>
      <trkpt lat="50.68507" lon="-4.70806"></trkpt>
      <trkpt lat="50.68516" lon="-4.70857"></trkpt>
      <trkpt lat="50.68516" lon="-4.70888"></trkpt>
      <trkpt lat="50.68514" lon="-4.70893"></trkpt>
      <trkpt lat="50.68508" lon="-4.70897"></trkpt>
      <trkpt lat="50.68494" lon="-4.70894"></trkpt>
      <trkpt lat="50.68484" lon="-4.70899"></trkpt>
      <trkpt lat="50.68478" lon="-4.70906"></trkpt>
      <trkpt lat="50.68462" lon="-4.70897"></trkpt>
      <trkpt lat="50.68457" lon="-4.70903"></trkpt>
      <trkpt lat="50.6845" lon="-4.70902"></trkpt>
      <trkpt lat="50.68446" lon="-4.70899"></trkpt>
      <trkpt lat="50.68442" lon="-4.7089"></trkpt>
      <trkpt lat="50.68433" lon="-4.70883"></trkpt>
      <trkpt lat="50.68431" lon="-4.70885"></trkpt>
      <trkpt lat="50.6843" lon="-4.70893"></trkpt>
      <trkpt lat="50.68431" lon="-4.70906"></trkpt>
      <trkpt lat="50.6843" lon="-4.70911"></trkpt>
      <trkpt lat="50.68434" lon="-4.70918"></trkpt>
      <trkpt lat="50.68415" lon="-4.70987"></trkpt>
      <trkpt lat="50.68416" lon="-4.71007"></trkpt>
      <trkpt lat="50.6841" lon="-4.71035"></trkpt>
      <trkpt lat="50.68414" lon="-4.71051"></trkpt>
      <trkpt lat="50.68463" lon="-4.71089"></trkpt>
      <trkpt lat="50.68468" lon="-4.71102"></trkpt>
      <trkpt lat="50.68469" lon="-4.71112"></trkpt>
      <trkpt lat="50.68464" lon="-4.71134"></trkpt>
      <trkpt lat="50.68463" lon="-4.71159"></trkpt>
      <trkpt lat="50.68468" lon="-4.71179"></trkpt>
      <trkpt lat="50.68481" lon="-4.71209"></trkpt>
      <trkpt lat="50.68485" lon="-4.7123"></trkpt>
      <trkpt lat="50.68484" lon="-4.71263"></trkpt>
      <trkpt lat="50.68478" lon="-4.71284"></trkpt>
      <trkpt lat="50.68472" lon="-4.713"></trkpt>
      <trkpt lat="50.68416" lon="-4.71391"></trkpt>
      <trkpt lat="50.68405" lon="-4.71385"></trkpt>
      <trkpt lat="50.68401" lon="-4.71385"></trkpt>
      <trkpt lat="50.68359" lon="-4.71404"></trkpt>
      <trkpt lat="50.68329" lon="-4.71446"></trkpt>
      <trkpt lat="50.68319" lon="-4.71459"></trkpt>
      <trkpt lat="50.68307" lon="-4.71481"></trkpt>
      <trkpt lat="50.68281" lon="-4.71506"></trkpt>
      <trkpt lat="50.68265" lon="-4.71507"></trkpt>
      <trkpt lat="50.68247" lon="-4.71528"></trkpt>
      <trkpt lat="50.68249" lon="-4.71528"></trkpt>
      <trkpt lat="50.68217" lon="-4.71603"></trkpt>
      <trkpt lat="50.68193" lon="-4.7167"></trkpt>
      <trkpt lat="50.68159" lon="-4.7172"></trkpt>
      <trkpt lat="50.68163" lon="-4.71734"></trkpt>
      <trkpt lat="50.68173" lon="-4.71739"></trkpt>
      <trkpt lat="50.68207" lon="-4.71748"></trkpt>
      <trkpt lat="50.68219" lon="-4.71756"></trkpt>
      <trkpt lat="50.68223" lon="-4.71772"></trkpt>
      <trkpt lat="50.68247" lon="-4.71796"></trkpt>
      <trkpt lat="50.68295" lon="-4.71888"></trkpt>
      <trkpt lat="50.68308" lon="-4.71917"></trkpt>
      <trkpt lat="50.68335" lon="-4.71953"></trkpt>
      <trkpt lat="50.68338" lon="-4.71963"></trkpt>
      <trkpt lat="50.68327" lon="-4.72033"></trkpt>
      <trkpt lat="50.68326" lon="-4.72074"></trkpt>
      <trkpt lat="50.68329" lon="-4.7212"></trkpt>
      <trkpt lat="50.68339" lon="-4.72182"></trkpt>
      <trkpt lat="50.68342" lon="-4.72211"></trkpt>
      <trkpt lat="50.68349" lon="-4.72242"></trkpt>
      <trkpt lat="50.68351" lon="-4.72265"></trkpt>
      <trkpt lat="50.68349" lon="-4.72275"></trkpt>
      <trkpt lat="50.68341" lon="-4.72284"></trkpt>
      <trkpt lat="50.68321" lon="-4.72316"></trkpt>
      <trkpt lat="50.68315" lon="-4.7233"></trkpt>
      <trkpt lat="50.68306" lon="-4.72394"></trkpt>
      <trkpt lat="50.68302" lon="-4.72414"></trkpt>
      <trkpt lat="50.68289" lon="-4.72441"></trkpt>
      <trkpt lat="50.68261" lon="-4.72475"></trkpt>
      <trkpt lat="50.68228" lon="-4.72484"></trkpt>
      <trkpt lat="50.68201" lon="-4.72496"></trkpt>
      <trkpt lat="50.68167" lon="-4.72511"></trkpt>
      <trkpt lat="50.68132" lon="-4.72549"></trkpt>
      <trkpt lat="50.68087" lon="-4.72563"></trkpt>
      <trkpt lat="50.68037" lon="-4.72558"></trkpt>
      <trkpt lat="50.68011" lon="-4.72572"></trkpt>
      <trkpt lat="50.67964" lon="-4.72591"></trkpt>
      <trkpt lat="50.67906" lon="-4.72645"></trkpt>
      <trkpt lat="50.67873" lon="-4.72679"></trkpt>
      <trkpt lat="50.67861" lon="-4.72698"></trkpt>
      <trkpt lat="50.67858" lon="-4.72698"></trkpt>
      <trkpt lat="50.67851" lon="-4.72704"></trkpt>
      <trkpt lat="50.67823" lon="-4.7274"></trkpt>
      <trkpt lat="50.67803" lon="-4.72755"></trkpt>
      <trkpt lat="50.67791" lon="-4.72756"></trkpt>
      <trkpt lat="50.67763" lon="-4.72771"></trkpt>
      <trkpt lat="50.67746" lon="-4.72765"></trkpt>
      <trkpt lat="50.67741" lon="-4.7276"></trkpt>
      <trkpt lat="50.67727" lon="-4.72763"></trkpt>
      <trkpt lat="50.67701" lon="-4.72774"></trkpt>
      <trkpt lat="50.67678" lon="-4.72795"></trkpt>
      <trkpt lat="50.67662" lon="-4.72798"></trkpt>
      <trkpt lat="50.67644" lon="-4.72805"></trkpt>
      <trkpt lat="50.6762" lon="-4.72804"></trkpt>
      <trkpt lat="50.67573" lon="-4.72782"></trkpt>
      <trkpt lat="50.67556" lon="-4.72795"></trkpt>
      <trkpt lat="50.6755" lon="-4.72792"></trkpt>
      <trkpt lat="50.6753" lon="-4.72781"></trkpt>
      <trkpt lat="50.67505" lon="-4.72812"></trkpt>
      <trkpt lat="50.67486" lon="-4.72825"></trkpt>
      <trkpt lat="50.67481" lon="-4.72836"></trkpt>
      <trkpt lat="50.6746" lon="-4.72856"></trkpt>
      <trkpt lat="50.67449" lon="-4.72871"></trkpt>
      <trkpt lat="50.67397" lon="-4.72901"></trkpt>
      <trkpt lat="50.67378" lon="-4.72899"></trkpt>
      <trkpt lat="50.67363" lon="-4.72867"></trkpt>
      <trkpt lat="50.6735" lon="-4.72859"></trkpt>
      <trkpt lat="50.6734" lon="-4.72845"></trkpt>
      <trkpt lat="50.67317" lon="-4.72845"></trkpt>
      <trkpt lat="50.67314" lon="-4.72841"></trkpt>
      <trkpt lat="50.67307" lon="-4.72846"></trkpt>
      <trkpt lat="50.67304" lon="-4.7284"></trkpt>
      <trkpt lat="50.67302" lon="-4.7284"></trkpt>
      <trkpt lat="50.67301" lon="-4.72866"></trkpt>
      <trkpt lat="50.67306" lon="-4.72878"></trkpt>
      <trkpt lat="50.67333" lon="-4.72889"></trkpt>
      <trkpt lat="50.67347" lon="-4.72912"></trkpt>
      <trkpt lat="50.6735" lon="-4.7292"></trkpt>
      <trkpt lat="50.67344" lon="-4.72922"></trkpt>
      <trkpt lat="50.6733" lon="-4.72918"></trkpt>
      <trkpt lat="50.67338" lon="-4.72946"></trkpt>
      <trkpt lat="50.67359" lon="-4.72986"></trkpt>
      <trkpt lat="50.6736" lon="-4.73001"></trkpt>
      <trkpt lat="50.67364" lon="-4.73016"></trkpt>
      <trkpt lat="50.67373" lon="-4.73033"></trkpt>
      <trkpt lat="50.67374" lon="-4.73041"></trkpt>
      <trkpt lat="50.67379" lon="-4.73046"></trkpt>
      <trkpt lat="50.67381" lon="-4.73053"></trkpt>
      <trkpt lat="50.67385" lon="-4.73055"></trkpt>
      <trkpt lat="50.67385" lon="-4.73062"></trkpt>
      <trkpt lat="50.67389" lon="-4.73065"></trkpt>
      <trkpt lat="50.6739" lon="-4.73075"></trkpt>
      <trkpt lat="50.67394" lon="-4.73076"></trkpt>
      <trkpt lat="50.67394" lon="-4.7309"></trkpt>
      <trkpt lat="50.67396" lon="-4.73096"></trkpt>
      <trkpt lat="50.67382" lon="-4.73111"></trkpt>
      <trkpt lat="50.67351" lon="-4.73124"></trkpt>
      <trkpt lat="50.67335" lon="-4.73141"></trkpt>
      <trkpt lat="50.67319" lon="-4.73146"></trkpt>
      <trkpt lat="50.6731" lon="-4.73156"></trkpt>
      <trkpt lat="50.673" lon="-4.73159"></trkpt>
      <trkpt lat="50.67285" lon="-4.73179"></trkpt>
      <trkpt lat="50.67228" lon="-4.73204"></trkpt>
      <trkpt lat="50.67227" lon="-4.73204"></trkpt>
      <trkpt lat="50.67181" lon="-4.73227"></trkpt>
      <trkpt lat="50.67156" lon="-4.73255"></trkpt>
      <trkpt lat="50.67128" lon="-4.73314"></trkpt>
      <trkpt lat="50.67118" lon="-4.73351"></trkpt>
      <trkpt lat="50.6711" lon="-4.7341"></trkpt>
      <trkpt lat="50.67109" lon="-4.73445"></trkpt>
      <trkpt lat="50.67106" lon="-4.7347"></trkpt>
      <trkpt lat="50.67101" lon="-4.73484"></trkpt>
      <trkpt lat="50.67101" lon="-4.73497"></trkpt>
      <trkpt lat="50.67096" lon="-4.73516"></trkpt>
      <trkpt lat="50.67092" lon="-4.73621"></trkpt>
      <trkpt lat="50.67102" lon="-4.73682"></trkpt>
      <trkpt lat="50.67092" lon="-4.73718"></trkpt>
      <trkpt lat="50.67075" lon="-4.73738"></trkpt>
      <trkpt lat="50.67063" lon="-4.73763"></trkpt>
      <trkpt lat="50.67057" lon="-4.73781"></trkpt>
      <trkpt lat="50.67045" lon="-4.73797"></trkpt>
      <trkpt lat="50.67057" lon="-4.73818"></trkpt>
      <trkpt lat="50.67065" lon="-4.73814"></trkpt>
      <trkpt lat="50.67087" lon="-4.73836"></trkpt>
      <trkpt lat="50.671" lon="-4.73857"></trkpt>
      <trkpt lat="50.67106" lon="-4.73876"></trkpt>
      <trkpt lat="50.67123" lon="-4.73867"></trkpt>
      <trkpt lat="50.67146" lon="-4.73873"></trkpt>
      <trkpt lat="50.67152" lon="-4.73887"></trkpt>
      <trkpt lat="50.67164" lon="-4.73892"></trkpt>
      <trkpt lat="50.67185" lon="-4.7395"></trkpt>
      <trkpt lat="50.67176" lon="-4.73961"></trkpt>
      <trkpt lat="50.67175" lon="-4.73969"></trkpt>
      <trkpt lat="50.67188" lon="-4.73989"></trkpt>
      <trkpt lat="50.672" lon="-4.74016"></trkpt>
      <trkpt lat="50.67203" lon="-4.74072"></trkpt>
      <trkpt lat="50.67211" lon="-4.74108"></trkpt>
      <trkpt lat="50.67227" lon="-4.74165"></trkpt>
      <trkpt lat="50.6724" lon="-4.74191"></trkpt>
      <trkpt lat="50.6724" lon="-4.74202"></trkpt>
      <trkpt lat="50.67224" lon="-4.74228"></trkpt>
      <trkpt lat="50.67201" lon="-4.74259"></trkpt>
      <trkpt lat="50.6718" lon="-4.74281"></trkpt>
      <trkpt lat="50.67158" lon="-4.74331"></trkpt>
      <trkpt lat="50.67136" lon="-4.74388"></trkpt>
      <trkpt lat="50.67122" lon="-4.74407"></trkpt>
      <trkpt lat="50.67114" lon="-4.74428"></trkpt>
      <trkpt lat="50.67113" lon="-4.74445"></trkpt>
      <trkpt lat="50.67089" lon="-4.7452"></trkpt>
      <trkpt lat="50.6706" lon="-4.74549"></trkpt>
      <trkpt lat="50.67036" lon="-4.74593"></trkpt>
      <trkpt lat="50.67004" lon="-4.74675"></trkpt>
      <trkpt lat="50.66994" lon="-4.74681"></trkpt>
      <trkpt lat="50.66989" lon="-4.74701"></trkpt>
      <trkpt lat="50.66987" lon="-4.74729"></trkpt>
      <trkpt lat="50.66992" lon="-4.74774"></trkpt>
      <trkpt lat="50.67018" lon="-4.74797"></trkpt>
      <trkpt lat="50.67052" lon="-4.7482"></trkpt>
      <trkpt lat="50.67069" lon="-4.74842"></trkpt>
      <trkpt lat="50.6708" lon="-4.74862"></trkpt>
      <trkpt lat="50.67088" lon="-4.74888"></trkpt>
      <trkpt lat="50.67075" lon="-4.74945"></trkpt>
      <trkpt lat="50.67062" lon="-4.74963"></trkpt>
      <trkpt lat="50.67051" lon="-4.74985"></trkpt>
      <trkpt lat="50.67049" lon="-4.74998"></trkpt>
      <trkpt lat="50.6704" lon="-4.75066"></trkpt>
      <trkpt lat="50.67033" lon="-4.75103"></trkpt>
      <trkpt lat="50.67024" lon="-4.75126"></trkpt>
      <trkpt lat="50.67008" lon="-4.752"></trkpt>
      <trkpt lat="50.67008" lon="-4.75225"></trkpt>
      <trkpt lat="50.67015" lon="-4.75246"></trkpt>
      <trkpt lat="50.67025" lon="-4.75267"></trkpt>
      <trkpt lat="50.67034" lon="-4.7529"></trkpt>
      <trkpt lat="50.67034" lon="-4.75294"></trkpt>
      <trkpt lat="50.67031" lon="-4.75301"></trkpt>
      <trkpt lat="50.67026" lon="-4.75308"></trkpt>
      <trkpt lat="50.67014" lon="-4.75317"></trkpt>
      <trkpt lat="50.67014" lon="-4.75323"></trkpt>
      <trkpt lat="50.67035" lon="-4.75369"></trkpt>
      <trkpt lat="50.67045" lon="-4.75417"></trkpt>
      <trkpt lat="50.67052" lon="-4.75444"></trkpt>
      <trkpt lat="50.67054" lon="-4.75477"></trkpt>
      <trkpt lat="50.6705" lon="-4.75542"></trkpt>
      <trkpt lat="50.67043" lon="-4.75554"></trkpt>
      <trkpt lat="50.67036" lon="-4.75604"></trkpt>
      <trkpt lat="50.67022" lon="-4.75621"></trkpt>
      <trkpt lat="50.6702" lon="-4.75628"></trkpt>
      <trkpt lat="50.66997" lon="-4.75654"></trkpt>
      <trkpt lat="50.66997" lon="-4.75655"></trkpt>
      <trkpt lat="50.66979" lon="-4.75672"></trkpt>
      <trkpt lat="50.66967" lon="-4.75692"></trkpt>
      <trkpt lat="50.66962" lon="-4.75703"></trkpt>
      <trkpt lat="50.66959" lon="-4.75719"></trkpt>
      <trkpt lat="50.66949" lon="-4.75728"></trkpt>
      <trkpt lat="50.66943" lon="-4.75739"></trkpt>
      <trkpt lat="50.66933" lon="-4.75743"></trkpt>
      <trkpt lat="50.66912" lon="-4.7576"></trkpt>
      <trkpt lat="50.669" lon="-4.75764"></trkpt>
      <trkpt lat="50.66884" lon="-4.75774"></trkpt>
      <trkpt lat="50.66875" lon="-4.75783"></trkpt>
      <trkpt lat="50.66861" lon="-4.75789"></trkpt>
      <trkpt lat="50.66855" lon="-4.75786"></trkpt>
      <trkpt lat="50.6685" lon="-4.75791"></trkpt>
      <trkpt lat="50.66839" lon="-4.75791"></trkpt>
      <trkpt lat="50.66838" lon="-4.75793"></trkpt>
      <trkpt lat="50.66832" lon="-4.75792"></trkpt>
      <trkpt lat="50.66808" lon="-4.75765"></trkpt>
      <trkpt lat="50.66795" lon="-4.75757"></trkpt>
      <trkpt lat="50.6679" lon="-4.75768"></trkpt>
      <trkpt lat="50.66783" lon="-4.7577"></trkpt>
      <trkpt lat="50.66776" lon="-4.75785"></trkpt>
      <trkpt lat="50.66765" lon="-4.75776"></trkpt>
      <trkpt lat="50.6676" lon="-4.75774"></trkpt>
      <trkpt lat="50.66746" lon="-4.75776"></trkpt>
      <trkpt lat="50.66735" lon="-4.75775"></trkpt>
    </trkseg>
  </trk>
</gpx>
