<?xml version="1.0" encoding="UTF-8"?>
<gpx version="1.1" creator="swcp-walk (imported from OS Maps route 33831642)"
     xmlns="http://www.topografix.com/GPX/1/1">
  <metadata>
    <name>SWCP13-Tintagel-PortIsaac</name>
  </metadata>
  <trk>
    <name>SWCP13-Tintagel-PortIsaac</name>
    <trkseg>
      <trkpt lat="50.66750655444386" lon="-4.757753891041432"></trkpt>
      <trkpt lat="50.66722" lon="-4.75773"></trkpt>
      <trkpt lat="50.66705" lon="-4.75769"></trkpt>
      <trkpt lat="50.66678" lon="-4.75757"></trkpt>
      <trkpt lat="50.66676" lon="-4.75761"></trkpt>
      <trkpt lat="50.66704" lon="-4.75788"></trkpt>
      <trkpt lat="50.66716" lon="-4.75796"></trkpt>
      <trkpt lat="50.66717" lon="-4.75801"></trkpt>
      <trkpt lat="50.66714" lon="-4.75806"></trkpt>
      <trkpt lat="50.66693" lon="-4.75811"></trkpt>
      <trkpt lat="50.66698" lon="-4.75816"></trkpt>
      <trkpt lat="50.667" lon="-4.75821"></trkpt>
      <trkpt lat="50.66699" lon="-4.75827"></trkpt>
      <trkpt lat="50.6669" lon="-4.75829"></trkpt>
      <trkpt lat="50.66674" lon="-4.75856"></trkpt>
      <trkpt lat="50.66667" lon="-4.75861"></trkpt>
      <trkpt lat="50.66645" lon="-4.75867"></trkpt>
      <trkpt lat="50.66631" lon="-4.75847"></trkpt>
      <trkpt lat="50.6663" lon="-4.75855"></trkpt>
      <trkpt lat="50.66625" lon="-4.75863"></trkpt>
      <trkpt lat="50.66611" lon="-4.75874"></trkpt>
      <trkpt lat="50.66603" lon="-4.75876"></trkpt>
      <trkpt lat="50.66593" lon="-4.75888"></trkpt>
      <trkpt lat="50.66572" lon="-4.75905"></trkpt>
      <trkpt lat="50.66517" lon="-4.75938"></trkpt>
      <trkpt lat="50.66495" lon="-4.75944"></trkpt>
      <trkpt lat="50.6645" lon="-4.75975"></trkpt>
      <trkpt lat="50.66444" lon="-4.75989"></trkpt>
      <trkpt lat="50.66425" lon="-4.7602"></trkpt>
      <trkpt lat="50.66395" lon="-4.7608"></trkpt>
      <trkpt lat="50.66363" lon="-4.76123"></trkpt>
      <trkpt lat="50.6635" lon="-4.7614"></trkpt>
      <trkpt lat="50.66341" lon="-4.76157"></trkpt>
      <trkpt lat="50.66292" lon="-4.76187"></trkpt>
      <trkpt lat="50.66286" lon="-4.76187"></trkpt>
      <trkpt lat="50.66279" lon="-4.76179"></trkpt>
      <trkpt lat="50.66267" lon="-4.76177"></trkpt>
      <trkpt lat="50.66263" lon="-4.76182"></trkpt>
      <trkpt lat="50.66242" lon="-4.76186"></trkpt>
      <trkpt lat="50.66224" lon="-4.76193"></trkpt>
      <trkpt lat="50.6619" lon="-4.76218"></trkpt>
      <trkpt lat="50.66164" lon="-4.76241"></trkpt>
      <trkpt lat="50.66146" lon="-4.76252"></trkpt>
      <trkpt lat="50.66127" lon="-4.76273"></trkpt>
      <trkpt lat="50.6611" lon="-4.76288"></trkpt>
      <trkpt lat="50.66096" lon="-4.76297"></trkpt>
      <trkpt lat="50.66073" lon="-4.76307"></trkpt>
      <trkpt lat="50.6606" lon="-4.7632"></trkpt>
      <trkpt lat="50.66048" lon="-4.76328"></trkpt>
      <trkpt lat="50.66031" lon="-4.76331"></trkpt>
      <trkpt lat="50.6602" lon="-4.76331"></trkpt>
      <trkpt lat="50.66012" lon="-4.76316"></trkpt>
      <trkpt lat="50.66002" lon="-4.7629"></trkpt>
      <trkpt lat="50.65992" lon="-4.7629"></trkpt>
      <trkpt lat="50.65967" lon="-4.76281"></trkpt>
      <trkpt lat="50.65933" lon="-4.76292"></trkpt>
      <trkpt lat="50.6592" lon="-4.76302"></trkpt>
      <trkpt lat="50.65905" lon="-4.76317"></trkpt>
      <trkpt lat="50.6588" lon="-4.7635"></trkpt>
      <trkpt lat="50.65871" lon="-4.7635"></trkpt>
      <trkpt lat="50.65864" lon="-4.76344"></trkpt>
      <trkpt lat="50.658" lon="-4.76369"></trkpt>
      <trkpt lat="50.65799" lon="-4.76369"></trkpt>
      <trkpt lat="50.65778" lon="-4.76383"></trkpt>
      <trkpt lat="50.65746" lon="-4.76397"></trkpt>
      <trkpt lat="50.65721" lon="-4.76415"></trkpt>
      <trkpt lat="50.65709" lon="-4.76419"></trkpt>
      <trkpt lat="50.6569" lon="-4.76422"></trkpt>
      <trkpt lat="50.65674" lon="-4.76431"></trkpt>
      <trkpt lat="50.65646" lon="-4.76429"></trkpt>
      <trkpt lat="50.6562" lon="-4.76419"></trkpt>
      <trkpt lat="50.65595" lon="-4.76402"></trkpt>
      <trkpt lat="50.65573" lon="-4.76392"></trkpt>
      <trkpt lat="50.65544" lon="-4.76328"></trkpt>
      <trkpt lat="50.6554" lon="-4.76324"></trkpt>
      <trkpt lat="50.65524" lon="-4.76322"></trkpt>
      <trkpt lat="50.65518" lon="-4.76317"></trkpt>
      <trkpt lat="50.65516" lon="-4.76305"></trkpt>
      <trkpt lat="50.65518" lon="-4.7624"></trkpt>
      <trkpt lat="50.65522" lon="-4.76216"></trkpt>
      <trkpt lat="50.65531" lon="-4.76194"></trkpt>
      <trkpt lat="50.65536" lon="-4.7619"></trkpt>
      <trkpt lat="50.65545" lon="-4.76171"></trkpt>
      <trkpt lat="50.65535" lon="-4.76163"></trkpt>
      <trkpt lat="50.65526" lon="-4.76147"></trkpt>
      <trkpt lat="50.65516" lon="-4.76137"></trkpt>
      <trkpt lat="50.65512" lon="-4.76128"></trkpt>
      <trkpt lat="50.65505" lon="-4.76125"></trkpt>
      <trkpt lat="50.65487" lon="-4.76093"></trkpt>
      <trkpt lat="50.65447" lon="-4.7601"></trkpt>
      <trkpt lat="50.65429" lon="-4.75994"></trkpt>
      <trkpt lat="50.65413" lon="-4.7597"></trkpt>
      <trkpt lat="50.65407" lon="-4.75956"></trkpt>
      <trkpt lat="50.654" lon="-4.75948"></trkpt>
      <trkpt lat="50.65386" lon="-4.75917"></trkpt>
      <trkpt lat="50.65376" lon="-4.75904"></trkpt>
      <trkpt lat="50.65372" lon="-4.75901"></trkpt>
      <trkpt lat="50.65356" lon="-4.75876"></trkpt>
      <trkpt lat="50.65332" lon="-4.75852"></trkpt>
      <trkpt lat="50.65328" lon="-4.75844"></trkpt>
      <trkpt lat="50.65323" lon="-4.75833"></trkpt>
      <trkpt lat="50.65305" lon="-4.75813"></trkpt>
      <trkpt lat="50.65289" lon="-4.75791"></trkpt>
      <trkpt lat="50.65269" lon="-4.75748"></trkpt>
      <trkpt lat="50.65268" lon="-4.75743"></trkpt>
      <trkpt lat="50.65264" lon="-4.75738"></trkpt>
      <trkpt lat="50.65256" lon="-4.75742"></trkpt>
      <trkpt lat="50.65247" lon="-4.7574"></trkpt>
      <trkpt lat="50.65239" lon="-4.75746"></trkpt>
      <trkpt lat="50.652" lon="-4.75742"></trkpt>
      <trkpt lat="50.65197" lon="-4.75744"></trkpt>
      <trkpt lat="50.65195" lon="-4.7576"></trkpt>
      <trkpt lat="50.65191" lon="-4.75767"></trkpt>
      <trkpt lat="50.65173" lon="-4.75761"></trkpt>
      <trkpt lat="50.65166" lon="-4.75755"></trkpt>
      <trkpt lat="50.65159" lon="-4.7576"></trkpt>
      <trkpt lat="50.65153" lon="-4.75769"></trkpt>
      <trkpt lat="50.65126" lon="-4.75781"></trkpt>
      <trkpt lat="50.65116" lon="-4.75774"></trkpt>
      <trkpt lat="50.65095" lon="-4.75771"></trkpt>
      <trkpt lat="50.6508" lon="-4.75777"></trkpt>
      <trkpt lat="50.65068" lon="-4.75801"></trkpt>
      <trkpt lat="50.65064" lon="-4.75817"></trkpt>
      <trkpt lat="50.6506" lon="-4.75825"></trkpt>
      <trkpt lat="50.65055" lon="-4.75827"></trkpt>
      <trkpt lat="50.65035" lon="-4.75827"></trkpt>
      <trkpt lat="50.65007" lon="-4.75821"></trkpt>
      <trkpt lat="50.64988" lon="-4.75822"></trkpt>
      <trkpt lat="50.64971" lon="-4.75819"></trkpt>
      <trkpt lat="50.64957" lon="-4.75812"></trkpt>
      <trkpt lat="50.64943" lon="-4.75812"></trkpt>
      <trkpt lat="50.64893" lon="-4.75833"></trkpt>
      <trkpt lat="50.64872" lon="-4.75847"></trkpt>
      <trkpt lat="50.64837" lon="-4.75855"></trkpt>
      <trkpt lat="50.6482" lon="-4.7585"></trkpt>
      <trkpt lat="50.64798" lon="-4.75848"></trkpt>
      <trkpt lat="50.64774" lon="-4.75858"></trkpt>
      <trkpt lat="50.64751" lon="-4.7585"></trkpt>
      <trkpt lat="50.64732" lon="-4.75853"></trkpt>
      <trkpt lat="50.64723" lon="-4.7585"></trkpt>
      <trkpt lat="50.64708" lon="-4.7586"></trkpt>
      <trkpt lat="50.64693" lon="-4.75857"></trkpt>
      <trkpt lat="50.64676" lon="-4.75866"></trkpt>
      <trkpt lat="50.64666" lon="-4.75864"></trkpt>
      <trkpt lat="50.64658" lon="-4.75867"></trkpt>
      <trkpt lat="50.64628" lon="-4.75857"></trkpt>
      <trkpt lat="50.64626" lon="-4.75866"></trkpt>
      <trkpt lat="50.64622" lon="-4.75867"></trkpt>
      <trkpt lat="50.64615" lon="-4.75897"></trkpt>
      <trkpt lat="50.64604" lon="-4.75914"></trkpt>
      <trkpt lat="50.64577" lon="-4.75986"></trkpt>
      <trkpt lat="50.64565" lon="-4.76005"></trkpt>
      <trkpt lat="50.64558" lon="-4.76017"></trkpt>
      <trkpt lat="50.64555" lon="-4.76033"></trkpt>
      <trkpt lat="50.64547" lon="-4.76038"></trkpt>
      <trkpt lat="50.64547" lon="-4.7605"></trkpt>
      <trkpt lat="50.64532" lon="-4.76082"></trkpt>
      <trkpt lat="50.64514" lon="-4.76103"></trkpt>
      <trkpt lat="50.64504" lon="-4.76109"></trkpt>
      <trkpt lat="50.64495" lon="-4.76107"></trkpt>
      <trkpt lat="50.64501" lon="-4.76075"></trkpt>
      <trkpt lat="50.64502" lon="-4.76063"></trkpt>
      <trkpt lat="50.645" lon="-4.76052"></trkpt>
      <trkpt lat="50.64492" lon="-4.76037"></trkpt>
      <trkpt lat="50.64487" lon="-4.76035"></trkpt>
      <trkpt lat="50.64475" lon="-4.76036"></trkpt>
      <trkpt lat="50.64446" lon="-4.76071"></trkpt>
      <trkpt lat="50.64441" lon="-4.76079"></trkpt>
      <trkpt lat="50.64438" lon="-4.76088"></trkpt>
      <trkpt lat="50.64433" lon="-4.76094"></trkpt>
      <trkpt lat="50.64428" lon="-4.76078"></trkpt>
      <trkpt lat="50.64423" lon="-4.76"></trkpt>
      <trkpt lat="50.64425" lon="-4.75986"></trkpt>
      <trkpt lat="50.64406" lon="-4.76012"></trkpt>
      <trkpt lat="50.64402" lon="-4.76026"></trkpt>
      <trkpt lat="50.64385" lon="-4.76191"></trkpt>
      <trkpt lat="50.64382" lon="-4.76195"></trkpt>
      <trkpt lat="50.64375" lon="-4.76198"></trkpt>
      <trkpt lat="50.64368" lon="-4.76196"></trkpt>
      <trkpt lat="50.64366" lon="-4.76188"></trkpt>
      <trkpt lat="50.6435" lon="-4.7619"></trkpt>
      <trkpt lat="50.64344" lon="-4.76195"></trkpt>
      <trkpt lat="50.64332" lon="-4.76188"></trkpt>
      <trkpt lat="50.64306" lon="-4.76187"></trkpt>
      <trkpt lat="50.643" lon="-4.76192"></trkpt>
      <trkpt lat="50.64297" lon="-4.76201"></trkpt>
      <trkpt lat="50.6427" lon="-4.76224"></trkpt>
      <trkpt lat="50.64231" lon="-4.7627"></trkpt>
      <trkpt lat="50.64225" lon="-4.76284"></trkpt>
      <trkpt lat="50.64221" lon="-4.76298"></trkpt>
      <trkpt lat="50.64222" lon="-4.76315"></trkpt>
      <trkpt lat="50.6424" lon="-4.76399"></trkpt>
      <trkpt lat="50.64244" lon="-4.76448"></trkpt>
      <trkpt lat="50.64243" lon="-4.7651"></trkpt>
      <trkpt lat="50.64243" lon="-4.76534"></trkpt>
      <trkpt lat="50.64233" lon="-4.7656"></trkpt>
      <trkpt lat="50.64213" lon="-4.76573"></trkpt>
      <trkpt lat="50.64187" lon="-4.76568"></trkpt>
      <trkpt lat="50.64156" lon="-4.76675"></trkpt>
      <trkpt lat="50.64153" lon="-4.76676"></trkpt>
      <trkpt lat="50.64132" lon="-4.76655"></trkpt>
      <trkpt lat="50.64118" lon="-4.76632"></trkpt>
      <trkpt lat="50.64107" lon="-4.76602"></trkpt>
      <trkpt lat="50.64098" lon="-4.76571"></trkpt>
      <trkpt lat="50.64073" lon="-4.76519"></trkpt>
      <trkpt lat="50.64059" lon="-4.76509"></trkpt>
      <trkpt lat="50.64019" lon="-4.76496"></trkpt>
      <trkpt lat="50.6401" lon="-4.76496"></trkpt>
      <trkpt lat="50.64004" lon="-4.76486"></trkpt>
      <trkpt lat="50.63999" lon="-4.76492"></trkpt>
      <trkpt lat="50.63978" lon="-4.76475"></trkpt>
      <trkpt lat="50.63971" lon="-4.76479"></trkpt>
      <trkpt lat="50.6397" lon="-4.76482"></trkpt>
      <trkpt lat="50.63972" lon="-4.76599"></trkpt>
      <trkpt lat="50.63973" lon="-4.76678"></trkpt>
      <trkpt lat="50.63978" lon="-4.76712"></trkpt>
      <trkpt lat="50.6398" lon="-4.76718"></trkpt>
      <trkpt lat="50.63973" lon="-4.76716"></trkpt>
      <trkpt lat="50.63965" lon="-4.76707"></trkpt>
      <trkpt lat="50.63968" lon="-4.7672"></trkpt>
      <trkpt lat="50.63964" lon="-4.76722"></trkpt>
      <trkpt lat="50.63947" lon="-4.76711"></trkpt>
      <trkpt lat="50.63928" lon="-4.7669"></trkpt>
      <trkpt lat="50.63921" lon="-4.76671"></trkpt>
      <trkpt lat="50.63907" lon="-4.76638"></trkpt>
      <trkpt lat="50.639" lon="-4.76634"></trkpt>
      <trkpt lat="50.63893" lon="-4.76638"></trkpt>
      <trkpt lat="50.63889" lon="-4.76646"></trkpt>
      <trkpt lat="50.63886" lon="-4.76659"></trkpt>
      <trkpt lat="50.63887" lon="-4.76677"></trkpt>
      <trkpt lat="50.63885" lon="-4.76692"></trkpt>
      <trkpt lat="50.63878" lon="-4.76707"></trkpt>
      <trkpt lat="50.63867" lon="-4.7671"></trkpt>
      <trkpt lat="50.63829" lon="-4.76705"></trkpt>
      <trkpt lat="50.63726" lon="-4.76716"></trkpt>
      <trkpt lat="50.63708" lon="-4.7672"></trkpt>
      <trkpt lat="50.6368" lon="-4.7672"></trkpt>
      <trkpt lat="50.6365" lon="-4.76715"></trkpt>
      <trkpt lat="50.6364" lon="-4.76708"></trkpt>
      <trkpt lat="50.63636" lon="-4.76706"></trkpt>
      <trkpt lat="50.63614" lon="-4.76705"></trkpt>
      <trkpt lat="50.6352" lon="-4.76722"></trkpt>
      <trkpt lat="50.63478" lon="-4.76741"></trkpt>
      <trkpt lat="50.63419" lon="-4.76849"></trkpt>
      <trkpt lat="50.63405" lon="-4.76866"></trkpt>
      <trkpt lat="50.63396" lon="-4.76872"></trkpt>
      <trkpt lat="50.63315" lon="-4.76888"></trkpt>
      <trkpt lat="50.63268" lon="-4.76902"></trkpt>
      <trkpt lat="50.63248" lon="-4.76905"></trkpt>
      <trkpt lat="50.63231" lon="-4.76913"></trkpt>
      <trkpt lat="50.63211" lon="-4.76929"></trkpt>
      <trkpt lat="50.63197" lon="-4.76945"></trkpt>
      <trkpt lat="50.63177" lon="-4.76961"></trkpt>
      <trkpt lat="50.63139" lon="-4.76972"></trkpt>
      <trkpt lat="50.6313" lon="-4.76971"></trkpt>
      <trkpt lat="50.63122" lon="-4.76966"></trkpt>
      <trkpt lat="50.63113" lon="-4.76964"></trkpt>
      <trkpt lat="50.63098" lon="-4.76964"></trkpt>
      <trkpt lat="50.63029" lon="-4.76929"></trkpt>
      <trkpt lat="50.63017" lon="-4.76928"></trkpt>
      <trkpt lat="50.62985" lon="-4.76943"></trkpt>
      <trkpt lat="50.62958" lon="-4.76962"></trkpt>
      <trkpt lat="50.62923" lon="-4.76975"></trkpt>
      <trkpt lat="50.62893" lon="-4.76983"></trkpt>
      <trkpt lat="50.62879" lon="-4.76992"></trkpt>
      <trkpt lat="50.62871" lon="-4.77004"></trkpt>
      <trkpt lat="50.62863" lon="-4.77009"></trkpt>
      <trkpt lat="50.62841" lon="-4.77005"></trkpt>
      <trkpt lat="50.6282" lon="-4.77"></trkpt>
      <trkpt lat="50.62782" lon="-4.76981"></trkpt>
      <trkpt lat="50.62751" lon="-4.76954"></trkpt>
      <trkpt lat="50.62709" lon="-4.76934"></trkpt>
      <trkpt lat="50.62703" lon="-4.76927"></trkpt>
      <trkpt lat="50.6268" lon="-4.76833"></trkpt>
      <trkpt lat="50.62672" lon="-4.76818"></trkpt>
      <trkpt lat="50.62568" lon="-4.76717"></trkpt>
      <trkpt lat="50.62541" lon="-4.76711"></trkpt>
      <trkpt lat="50.62538" lon="-4.76712"></trkpt>
      <trkpt lat="50.62534" lon="-4.76719"></trkpt>
      <trkpt lat="50.62529" lon="-4.76712"></trkpt>
      <trkpt lat="50.62524" lon="-4.76709"></trkpt>
      <trkpt lat="50.62519" lon="-4.76719"></trkpt>
      <trkpt lat="50.62512" lon="-4.76727"></trkpt>
      <trkpt lat="50.62503" lon="-4.76732"></trkpt>
      <trkpt lat="50.62494" lon="-4.76733"></trkpt>
      <trkpt lat="50.62484" lon="-4.76742"></trkpt>
      <trkpt lat="50.6248" lon="-4.76742"></trkpt>
      <trkpt lat="50.6247" lon="-4.76734"></trkpt>
      <trkpt lat="50.62466" lon="-4.76734"></trkpt>
      <trkpt lat="50.62456" lon="-4.76742"></trkpt>
      <trkpt lat="50.62449" lon="-4.76765"></trkpt>
      <trkpt lat="50.62435" lon="-4.76791"></trkpt>
      <trkpt lat="50.62419" lon="-4.7677"></trkpt>
      <trkpt lat="50.62409" lon="-4.76761"></trkpt>
      <trkpt lat="50.62402" lon="-4.76763"></trkpt>
      <trkpt lat="50.62331" lon="-4.76808"></trkpt>
      <trkpt lat="50.62306" lon="-4.76843"></trkpt>
      <trkpt lat="50.62306" lon="-4.76844"></trkpt>
      <trkpt lat="50.62281" lon="-4.76869"></trkpt>
      <trkpt lat="50.62256" lon="-4.76884"></trkpt>
      <trkpt lat="50.62243" lon="-4.76888"></trkpt>
      <trkpt lat="50.62228" lon="-4.76888"></trkpt>
      <trkpt lat="50.62219" lon="-4.76886"></trkpt>
      <trkpt lat="50.62211" lon="-4.76889"></trkpt>
      <trkpt lat="50.62177" lon="-4.76925"></trkpt>
      <trkpt lat="50.6217" lon="-4.76938"></trkpt>
      <trkpt lat="50.62118" lon="-4.77073"></trkpt>
      <trkpt lat="50.62111" lon="-4.77078"></trkpt>
      <trkpt lat="50.62042" lon="-4.77066"></trkpt>
      <trkpt lat="50.62031" lon="-4.77066"></trkpt>
      <trkpt lat="50.62019" lon="-4.77075"></trkpt>
      <trkpt lat="50.62011" lon="-4.77087"></trkpt>
      <trkpt lat="50.62" lon="-4.77113"></trkpt>
      <trkpt lat="50.61993" lon="-4.77125"></trkpt>
      <trkpt lat="50.61948" lon="-4.77186"></trkpt>
      <trkpt lat="50.61935" lon="-4.77195"></trkpt>
      <trkpt lat="50.61925" lon="-4.77195"></trkpt>
      <trkpt lat="50.61906" lon="-4.77186"></trkpt>
      <trkpt lat="50.61887" lon="-4.77188"></trkpt>
      <trkpt lat="50.61877" lon="-4.77198"></trkpt>
      <trkpt lat="50.61845" lon="-4.77278"></trkpt>
      <trkpt lat="50.61835" lon="-4.77299"></trkpt>
      <trkpt lat="50.61823" lon="-4.77309"></trkpt>
      <trkpt lat="50.6178" lon="-4.77335"></trkpt>
      <trkpt lat="50.61711" lon="-4.77403"></trkpt>
      <trkpt lat="50.61697" lon="-4.77418"></trkpt>
      <trkpt lat="50.61686" lon="-4.77425"></trkpt>
      <trkpt lat="50.61636" lon="-4.77432"></trkpt>
      <trkpt lat="50.61588" lon="-4.77452"></trkpt>
      <trkpt lat="50.61576" lon="-4.7746"></trkpt>
      <trkpt lat="50.61545" lon="-4.77501"></trkpt>
      <trkpt lat="50.61449" lon="-4.77599"></trkpt>
      <trkpt lat="50.61441" lon="-4.77609"></trkpt>
      <trkpt lat="50.61433" lon="-4.77612"></trkpt>
      <trkpt lat="50.61423" lon="-4.77611"></trkpt>
      <trkpt lat="50.61406" lon="-4.77603"></trkpt>
      <trkpt lat="50.61395" lon="-4.77603"></trkpt>
      <trkpt lat="50.61386" lon="-4.77611"></trkpt>
      <trkpt lat="50.61379" lon="-4.77622"></trkpt>
      <trkpt lat="50.61372" lon="-4.77645"></trkpt>
      <trkpt lat="50.61363" lon="-4.77636"></trkpt>
      <trkpt lat="50.61372" lon="-4.77645"></trkpt>
      <trkpt lat="50.61368" lon="-4.77663"></trkpt>
      <trkpt lat="50.61362" lon="-4.77735"></trkpt>
      <trkpt lat="50.61356" lon="-4.77852"></trkpt>
      <trkpt lat="50.61357" lon="-4.77878"></trkpt>
      <trkpt lat="50.61367" lon="-4.77933"></trkpt>
      <trkpt lat="50.61366" lon="-4.77941"></trkpt>
      <trkpt lat="50.6133" lon="-4.77949"></trkpt>
      <trkpt lat="50.61311" lon="-4.77953"></trkpt>
      <trkpt lat="50.61304" lon="-4.77958"></trkpt>
      <trkpt lat="50.61298" lon="-4.7797"></trkpt>
      <trkpt lat="50.61293" lon="-4.77972"></trkpt>
      <trkpt lat="50.61289" lon="-4.77979"></trkpt>
      <trkpt lat="50.61284" lon="-4.77996"></trkpt>
      <trkpt lat="50.61286" lon="-4.78"></trkpt>
      <trkpt lat="50.61284" lon="-4.78002"></trkpt>
      <trkpt lat="50.61279" lon="-4.77997"></trkpt>
      <trkpt lat="50.61258" lon="-4.77988"></trkpt>
      <trkpt lat="50.61245" lon="-4.77988"></trkpt>
      <trkpt lat="50.61243" lon="-4.77985"></trkpt>
      <trkpt lat="50.61234" lon="-4.77981"></trkpt>
      <trkpt lat="50.61234" lon="-4.77984"></trkpt>
      <trkpt lat="50.61226" lon="-4.77978"></trkpt>
      <trkpt lat="50.61227" lon="-4.77983"></trkpt>
      <trkpt lat="50.61222" lon="-4.77975"></trkpt>
      <trkpt lat="50.61221" lon="-4.7797"></trkpt>
      <trkpt lat="50.61221" lon="-4.77974"></trkpt>
      <trkpt lat="50.6122" lon="-4.77973"></trkpt>
      <trkpt lat="50.61219" lon="-4.77967"></trkpt>
      <trkpt lat="50.61218" lon="-4.77967"></trkpt>
      <trkpt lat="50.61213" lon="-4.77991"></trkpt>
      <trkpt lat="50.61213" lon="-4.78004"></trkpt>
      <trkpt lat="50.61195" lon="-4.78024"></trkpt>
      <trkpt lat="50.61203" lon="-4.78047"></trkpt>
      <trkpt lat="50.61209" lon="-4.7807"></trkpt>
      <trkpt lat="50.61205" lon="-4.78087"></trkpt>
      <trkpt lat="50.61191" lon="-4.78116"></trkpt>
      <trkpt lat="50.61185" lon="-4.78123"></trkpt>
      <trkpt lat="50.61152" lon="-4.78125"></trkpt>
      <trkpt lat="50.61129" lon="-4.78119"></trkpt>
      <trkpt lat="50.61058" lon="-4.78129"></trkpt>
      <trkpt lat="50.61026" lon="-4.78131"></trkpt>
      <trkpt lat="50.61006" lon="-4.78136"></trkpt>
      <trkpt lat="50.60927" lon="-4.7818"></trkpt>
      <trkpt lat="50.60901" lon="-4.78184"></trkpt>
      <trkpt lat="50.60878" lon="-4.78171"></trkpt>
      <trkpt lat="50.60868" lon="-4.78169"></trkpt>
      <trkpt lat="50.60856" lon="-4.78179"></trkpt>
      <trkpt lat="50.60851" lon="-4.78195"></trkpt>
      <trkpt lat="50.60846" lon="-4.78203"></trkpt>
      <trkpt lat="50.6082" lon="-4.7826"></trkpt>
      <trkpt lat="50.60805" lon="-4.78293"></trkpt>
      <trkpt lat="50.60766" lon="-4.78345"></trkpt>
      <trkpt lat="50.60763" lon="-4.78352"></trkpt>
      <trkpt lat="50.6076" lon="-4.78362"></trkpt>
      <trkpt lat="50.60773" lon="-4.78395"></trkpt>
      <trkpt lat="50.60771" lon="-4.784"></trkpt>
      <trkpt lat="50.6072" lon="-4.7842"></trkpt>
      <trkpt lat="50.60706" lon="-4.78414"></trkpt>
      <trkpt lat="50.60695" lon="-4.78424"></trkpt>
      <trkpt lat="50.60678" lon="-4.78444"></trkpt>
      <trkpt lat="50.60657" lon="-4.78461"></trkpt>
      <trkpt lat="50.6062" lon="-4.78481"></trkpt>
      <trkpt lat="50.60565" lon="-4.78515"></trkpt>
      <trkpt lat="50.60553" lon="-4.78526"></trkpt>
      <trkpt lat="50.60547" lon="-4.78536"></trkpt>
      <trkpt lat="50.6052" lon="-4.78605"></trkpt>
      <trkpt lat="50.60488" lon="-4.78692"></trkpt>
      <trkpt lat="50.60477" lon="-4.78716"></trkpt>
      <trkpt lat="50.60456" lon="-4.78743"></trkpt>
      <trkpt lat="50.60448" lon="-4.78746"></trkpt>
      <trkpt lat="50.6044" lon="-4.78746"></trkpt>
      <trkpt lat="50.60416" lon="-4.78743"></trkpt>
      <trkpt lat="50.60405" lon="-4.78747"></trkpt>
      <trkpt lat="50.60397" lon="-4.78754"></trkpt>
      <trkpt lat="50.60391" lon="-4.78766"></trkpt>
      <trkpt lat="50.6039" lon="-4.78771"></trkpt>
      <trkpt lat="50.60383" lon="-4.78779"></trkpt>
      <trkpt lat="50.60373" lon="-4.78777"></trkpt>
      <trkpt lat="50.60362" lon="-4.78765"></trkpt>
      <trkpt lat="50.6035" lon="-4.78763"></trkpt>
      <trkpt lat="50.60329" lon="-4.78755"></trkpt>
      <trkpt lat="50.60316" lon="-4.78746"></trkpt>
      <trkpt lat="50.60293" lon="-4.78725"></trkpt>
      <trkpt lat="50.60264" lon="-4.7869"></trkpt>
      <trkpt lat="50.60259" lon="-4.78689"></trkpt>
      <trkpt lat="50.60207" lon="-4.787"></trkpt>
      <trkpt lat="50.60184" lon="-4.78705"></trkpt>
      <trkpt lat="50.60181" lon="-4.78714"></trkpt>
      <trkpt lat="50.6018" lon="-4.78734"></trkpt>
      <trkpt lat="50.60178" lon="-4.78741"></trkpt>
      <trkpt lat="50.60174" lon="-4.78746"></trkpt>
      <trkpt lat="50.6016" lon="-4.78746"></trkpt>
      <trkpt lat="50.6015" lon="-4.7875"></trkpt>
      <trkpt lat="50.60144" lon="-4.78761"></trkpt>
      <trkpt lat="50.60141" lon="-4.78776"></trkpt>
      <trkpt lat="50.60152" lon="-4.78896"></trkpt>
      <trkpt lat="50.60145" lon="-4.7894"></trkpt>
      <trkpt lat="50.60146" lon="-4.78955"></trkpt>
      <trkpt lat="50.60148" lon="-4.78957"></trkpt>
      <trkpt lat="50.60146" lon="-4.78969"></trkpt>
      <trkpt lat="50.60138" lon="-4.7898"></trkpt>
      <trkpt lat="50.60135" lon="-4.7899"></trkpt>
      <trkpt lat="50.60136" lon="-4.79003"></trkpt>
      <trkpt lat="50.60139" lon="-4.79008"></trkpt>
      <trkpt lat="50.60165" lon="-4.79018"></trkpt>
      <trkpt lat="50.60171" lon="-4.79028"></trkpt>
      <trkpt lat="50.60165" lon="-4.7904"></trkpt>
      <trkpt lat="50.60165" lon="-4.79041"></trkpt>
      <trkpt lat="50.60144" lon="-4.7908"></trkpt>
      <trkpt lat="50.60126" lon="-4.79098"></trkpt>
      <trkpt lat="50.60089" lon="-4.79113"></trkpt>
      <trkpt lat="50.60083" lon="-4.79126"></trkpt>
      <trkpt lat="50.60081" lon="-4.79152"></trkpt>
      <trkpt lat="50.60075" lon="-4.79164"></trkpt>
      <trkpt lat="50.6006" lon="-4.79176"></trkpt>
      <trkpt lat="50.60056" lon="-4.79183"></trkpt>
      <trkpt lat="50.60052" lon="-4.79184"></trkpt>
      <trkpt lat="50.60043" lon="-4.79176"></trkpt>
      <trkpt lat="50.6004" lon="-4.79166"></trkpt>
      <trkpt lat="50.60037" lon="-4.79171"></trkpt>
      <trkpt lat="50.60026" lon="-4.79175"></trkpt>
      <trkpt lat="50.60016" lon="-4.79183"></trkpt>
      <trkpt lat="50.60006" lon="-4.79205"></trkpt>
      <trkpt lat="50.59983" lon="-4.79231"></trkpt>
      <trkpt lat="50.59906" lon="-4.79288"></trkpt>
      <trkpt lat="50.59867" lon="-4.79308"></trkpt>
      <trkpt lat="50.59844" lon="-4.79323"></trkpt>
      <trkpt lat="50.59843" lon="-4.79323"></trkpt>
      <trkpt lat="50.59836" lon="-4.79328"></trkpt>
      <trkpt lat="50.5982" lon="-4.79345"></trkpt>
      <trkpt lat="50.59811" lon="-4.79371"></trkpt>
      <trkpt lat="50.59795" lon="-4.79397"></trkpt>
      <trkpt lat="50.59778" lon="-4.79415"></trkpt>
      <trkpt lat="50.59754" lon="-4.79449"></trkpt>
      <trkpt lat="50.59727" lon="-4.79496"></trkpt>
      <trkpt lat="50.59725" lon="-4.79505"></trkpt>
      <trkpt lat="50.59731" lon="-4.79571"></trkpt>
      <trkpt lat="50.59729" lon="-4.796"></trkpt>
      <trkpt lat="50.59727" lon="-4.79611"></trkpt>
      <trkpt lat="50.5969" lon="-4.7967"></trkpt>
      <trkpt lat="50.59666" lon="-4.79736"></trkpt>
      <trkpt lat="50.59643" lon="-4.79823"></trkpt>
      <trkpt lat="50.59658" lon="-4.7995"></trkpt>
      <trkpt lat="50.59684" lon="-4.80092"></trkpt>
      <trkpt lat="50.59683" lon="-4.80101"></trkpt>
      <trkpt lat="50.59658" lon="-4.80155"></trkpt>
      <trkpt lat="50.59636" lon="-4.80203"></trkpt>
      <trkpt lat="50.59624" lon="-4.80218"></trkpt>
      <trkpt lat="50.59603" lon="-4.80237"></trkpt>
      <trkpt lat="50.59586" lon="-4.80309"></trkpt>
      <trkpt lat="50.59568" lon="-4.80368"></trkpt>
      <trkpt lat="50.59561" lon="-4.80406"></trkpt>
      <trkpt lat="50.59561" lon="-4.80436"></trkpt>
      <trkpt lat="50.59569" lon="-4.80459"></trkpt>
      <trkpt lat="50.59582" lon="-4.80481"></trkpt>
      <trkpt lat="50.59599" lon="-4.80535"></trkpt>
      <trkpt lat="50.5961" lon="-4.80564"></trkpt>
      <trkpt lat="50.5962" lon="-4.80624"></trkpt>
      <trkpt lat="50.59619" lon="-4.80632"></trkpt>
      <trkpt lat="50.59624" lon="-4.80654"></trkpt>
      <trkpt lat="50.59625" lon="-4.80672"></trkpt>
      <trkpt lat="50.59622" lon="-4.80682"></trkpt>
      <trkpt lat="50.59622" lon="-4.80692"></trkpt>
      <trkpt lat="50.59627" lon="-4.80709"></trkpt>
      <trkpt lat="50.59624" lon="-4.80728"></trkpt>
      <trkpt lat="50.59626" lon="-4.80774"></trkpt>
      <trkpt lat="50.59625" lon="-4.80781"></trkpt>
      <trkpt lat="50.59603" lon="-4.80787"></trkpt>
      <trkpt lat="50.59595" lon="-4.80795"></trkpt>
      <trkpt lat="50.59587" lon="-4.80817"></trkpt>
      <trkpt lat="50.59572" lon="-4.80833"></trkpt>
      <trkpt lat="50.59565" lon="-4.80847"></trkpt>
      <trkpt lat="50.59566" lon="-4.80885"></trkpt>
      <trkpt lat="50.59568" lon="-4.80895"></trkpt>
      <trkpt lat="50.59582" lon="-4.80934"></trkpt>
      <trkpt lat="50.59587" lon="-4.80944"></trkpt>
      <trkpt lat="50.59601" lon="-4.80958"></trkpt>
      <trkpt lat="50.59605" lon="-4.80967"></trkpt>
      <trkpt lat="50.59606" lon="-4.80977"></trkpt>
      <trkpt lat="50.59605" lon="-4.81"></trkpt>
      <trkpt lat="50.59595" lon="-4.81091"></trkpt>
      <trkpt lat="50.59588" lon="-4.81117"></trkpt>
      <trkpt lat="50.59581" lon="-4.81126"></trkpt>
      <trkpt lat="50.59565" lon="-4.81138"></trkpt>
      <trkpt lat="50.59545" lon="-4.8118"></trkpt>
      <trkpt lat="50.59542" lon="-4.81204"></trkpt>
      <trkpt lat="50.59531" lon="-4.81231"></trkpt>
      <trkpt lat="50.59524" lon="-4.81244"></trkpt>
      <trkpt lat="50.5951" lon="-4.81306"></trkpt>
      <trkpt lat="50.5952" lon="-4.81379"></trkpt>
      <trkpt lat="50.59529" lon="-4.81383"></trkpt>
      <trkpt lat="50.59551" lon="-4.81402"></trkpt>
      <trkpt lat="50.59555" lon="-4.81411"></trkpt>
      <trkpt lat="50.59581" lon="-4.81427"></trkpt>
      <trkpt lat="50.59585" lon="-4.81427"></trkpt>
      <trkpt lat="50.5959" lon="-4.81423"></trkpt>
      <trkpt lat="50.59596" lon="-4.81425"></trkpt>
      <trkpt lat="50.59596" lon="-4.81442"></trkpt>
      <trkpt lat="50.5958" lon="-4.81475"></trkpt>
      <trkpt lat="50.5958" lon="-4.81476"></trkpt>
      <trkpt lat="50.59556" lon="-4.81518"></trkpt>
      <trkpt lat="50.59552" lon="-4.81546"></trkpt>
      <trkpt lat="50.59562" lon="-4.81603"></trkpt>
      <trkpt lat="50.59569" lon="-4.81623"></trkpt>
      <trkpt lat="50.59579" lon="-4.81638"></trkpt>
      <trkpt lat="50.59574" lon="-4.81671"></trkpt>
      <trkpt lat="50.59568" lon="-4.81684"></trkpt>
      <trkpt lat="50.59551" lon="-4.81714"></trkpt>
      <trkpt lat="50.59543" lon="-4.81721"></trkpt>
      <trkpt lat="50.59516" lon="-4.81729"></trkpt>
      <trkpt lat="50.595" lon="-4.81727"></trkpt>
      <trkpt lat="50.59491" lon="-4.81762"></trkpt>
      <trkpt lat="50.59483" lon="-4.81803"></trkpt>
      <trkpt lat="50.59483" lon="-4.81823"></trkpt>
      <trkpt lat="50.59489" lon="-4.81873"></trkpt>
      <trkpt lat="50.59489" lon="-4.81891"></trkpt>
      <trkpt lat="50.59486" lon="-4.8191"></trkpt>
      <trkpt lat="50.59478" lon="-4.81933"></trkpt>
      <trkpt lat="50.59469" lon="-4.8195"></trkpt>
      <trkpt lat="50.5945" lon="-4.81975"></trkpt>
      <trkpt lat="50.59442" lon="-4.81989"></trkpt>
      <trkpt lat="50.5943" lon="-4.82047"></trkpt>
      <trkpt lat="50.59425" lon="-4.82072"></trkpt>
      <trkpt lat="50.5942" lon="-4.82082"></trkpt>
      <trkpt lat="50.59408" lon="-4.82097"></trkpt>
      <trkpt lat="50.59401" lon="-4.82104"></trkpt>
      <trkpt lat="50.59393" lon="-4.82107"></trkpt>
      <trkpt lat="50.59398" lon="-4.8214"></trkpt>
      <trkpt lat="50.59402" lon="-4.82147"></trkpt>
      <trkpt lat="50.59392" lon="-4.82161"></trkpt>
      <trkpt lat="50.59353" lon="-4.82193"></trkpt>
      <trkpt lat="50.59343" lon="-4.82198"></trkpt>
      <trkpt lat="50.59336" lon="-4.82199"></trkpt>
      <trkpt lat="50.59305" lon="-4.82215"></trkpt>
      <trkpt lat="50.59269" lon="-4.82239"></trkpt>
      <trkpt lat="50.59279" lon="-4.82274"></trkpt>
      <trkpt lat="50.59271" lon="-4.82289"></trkpt>
      <trkpt lat="50.59266" lon="-4.82312"></trkpt>
      <trkpt lat="50.59266" lon="-4.82321"></trkpt>
      <trkpt lat="50.59275" lon="-4.82359"></trkpt>
      <trkpt lat="50.59286" lon="-4.82377"></trkpt>
      <trkpt lat="50.59304" lon="-4.82395"></trkpt>
      <trkpt lat="50.59311" lon="-4.82405"></trkpt>
      <trkpt lat="50.59356" lon="-4.82499"></trkpt>
      <trkpt lat="50.59366" lon="-4.82524"></trkpt>
      <trkpt lat="50.59374" lon="-4.82549"></trkpt>
      <trkpt lat="50.59381" lon="-4.82586"></trkpt>
      <trkpt lat="50.59388" lon="-4.82647"></trkpt>
      <trkpt lat="50.59404" lon="-4.82725"></trkpt>
      <trkpt lat="50.5941" lon="-4.82725"></trkpt>
      <trkpt lat="50.59415" lon="-4.82729"></trkpt>
      <trkpt lat="50.59463" lon="-4.82812"></trkpt>
      <trkpt lat="50.5951" lon="-4.82916"></trkpt>
      <trkpt lat="50.5952" lon="-4.82949"></trkpt>
      <trkpt lat="50.59521" lon="-4.82964"></trkpt>
      <trkpt lat="50.59524" lon="-4.82982"></trkpt>
      <trkpt lat="50.59525" lon="-4.83007"></trkpt>
      <trkpt lat="50.59519" lon="-4.83043"></trkpt>
      <trkpt lat="50.59511" lon="-4.83071"></trkpt>
      <trkpt lat="50.59503" lon="-4.83079"></trkpt>
      <trkpt lat="50.59474" lon="-4.83078"></trkpt>
      <trkpt lat="50.59471" lon="-4.83084"></trkpt>
      <trkpt lat="50.59465" lon="-4.83105"></trkpt>
      <trkpt lat="50.59444" lon="-4.83154"></trkpt>
      <trkpt lat="50.5944" lon="-4.83156"></trkpt>
      <trkpt lat="50.59434" lon="-4.83167"></trkpt>
      <trkpt lat="50.5943" lon="-4.83184"></trkpt>
      <trkpt lat="50.59415" lon="-4.83194"></trkpt>
      <trkpt lat="50.59411" lon="-4.83191"></trkpt>
      <trkpt lat="50.59402" lon="-4.83201"></trkpt>
      <trkpt lat="50.5938" lon="-4.83214"></trkpt>
      <trkpt lat="50.59368" lon="-4.83213"></trkpt>
      <trkpt lat="50.59336" lon="-4.83203"></trkpt>
      <trkpt lat="50.59263" lon="-4.83173"></trkpt>
      <trkpt lat="50.59245" lon="-4.83171"></trkpt>
      <trkpt lat="50.5923" lon="-4.83165"></trkpt>
      <trkpt lat="50.59214" lon="-4.83203"></trkpt>
      <trkpt lat="50.59206" lon="-4.83195"></trkpt>
      <trkpt lat="50.592" lon="-4.83211"></trkpt>
      <trkpt lat="50.59192" lon="-4.8322"></trkpt>
      <trkpt lat="50.59194" lon="-4.83233"></trkpt>
      <trkpt lat="50.59209" lon="-4.83298"></trkpt>
    </trkseg>
  </trk>
</gpx>
