<?xml version="1.0" encoding="UTF-8"?>
<gpx version="1.1" creator="swcp-walk (imported from OS Maps route 33832107)"
     xmlns="http://www.topografix.com/GPX/1/1">
  <metadata>
    <name>SWCP14-PortIsaac-Padstow</name>
  </metadata>
  <trk>
    <name>SWCP14-PortIsaac-Padstow</name>
    <trkseg>
      <trkpt lat="50.592234848819004" lon="-4.832813423301388"></trkpt>
      <trkpt lat="50.59207" lon="-4.83292"></trkpt>
      <trkpt lat="50.59236" lon="-4.83404"></trkpt>
      <trkpt lat="50.59237" lon="-4.83434"></trkpt>
      <trkpt lat="50.59228" lon="-4.83476"></trkpt>
      <trkpt lat="50.59231" lon="-4.83484"></trkpt>
      <trkpt lat="50.59255" lon="-4.83497"></trkpt>
      <trkpt lat="50.59269" lon="-4.83499"></trkpt>
      <trkpt lat="50.593" lon="-4.83512"></trkpt>
      <trkpt lat="50.59304" lon="-4.8352"></trkpt>
      <trkpt lat="50.5933" lon="-4.83537"></trkpt>
      <trkpt lat="50.59346" lon="-4.83553"></trkpt>
      <trkpt lat="50.59366" lon="-4.83558"></trkpt>
      <trkpt lat="50.59381" lon="-4.83566"></trkpt>
      <trkpt lat="50.59391" lon="-4.83579"></trkpt>
      <trkpt lat="50.59402" lon="-4.83578"></trkpt>
      <trkpt lat="50.5942" lon="-4.83582"></trkpt>
      <trkpt lat="50.59455" lon="-4.83597"></trkpt>
      <trkpt lat="50.59464" lon="-4.83609"></trkpt>
      <trkpt lat="50.59474" lon="-4.8363"></trkpt>
      <trkpt lat="50.5948" lon="-4.83655"></trkpt>
      <trkpt lat="50.59485" lon="-4.83671"></trkpt>
      <trkpt lat="50.59494" lon="-4.8373"></trkpt>
      <trkpt lat="50.59496" lon="-4.83795"></trkpt>
      <trkpt lat="50.59494" lon="-4.83807"></trkpt>
      <trkpt lat="50.59497" lon="-4.8385"></trkpt>
      <trkpt lat="50.59495" lon="-4.83878"></trkpt>
      <trkpt lat="50.59487" lon="-4.83899"></trkpt>
      <trkpt lat="50.59466" lon="-4.83934"></trkpt>
      <trkpt lat="50.59458" lon="-4.83955"></trkpt>
      <trkpt lat="50.59429" lon="-4.83991"></trkpt>
      <trkpt lat="50.59403" lon="-4.84013"></trkpt>
      <trkpt lat="50.59369" lon="-4.84049"></trkpt>
      <trkpt lat="50.59325" lon="-4.84079"></trkpt>
      <trkpt lat="50.59309" lon="-4.84098"></trkpt>
      <trkpt lat="50.59301" lon="-4.84116"></trkpt>
      <trkpt lat="50.59301" lon="-4.84117"></trkpt>
      <trkpt lat="50.59289" lon="-4.8414"></trkpt>
      <trkpt lat="50.59287" lon="-4.84149"></trkpt>
      <trkpt lat="50.59284" lon="-4.84148"></trkpt>
      <trkpt lat="50.59289" lon="-4.84206"></trkpt>
      <trkpt lat="50.59293" lon="-4.84204"></trkpt>
      <trkpt lat="50.59298" lon="-4.84196"></trkpt>
      <trkpt lat="50.59303" lon="-4.84198"></trkpt>
      <trkpt lat="50.59306" lon="-4.84204"></trkpt>
      <trkpt lat="50.59318" lon="-4.84204"></trkpt>
      <trkpt lat="50.59328" lon="-4.842"></trkpt>
      <trkpt lat="50.59338" lon="-4.84209"></trkpt>
      <trkpt lat="50.59342" lon="-4.84216"></trkpt>
      <trkpt lat="50.59353" lon="-4.84226"></trkpt>
      <trkpt lat="50.59366" lon="-4.84244"></trkpt>
      <trkpt lat="50.59376" lon="-4.84283"></trkpt>
      <trkpt lat="50.59382" lon="-4.84325"></trkpt>
      <trkpt lat="50.59359" lon="-4.84337"></trkpt>
      <trkpt lat="50.59348" lon="-4.84346"></trkpt>
      <trkpt lat="50.59351" lon="-4.84359"></trkpt>
      <trkpt lat="50.59352" lon="-4.84399"></trkpt>
      <trkpt lat="50.59354" lon="-4.8441"></trkpt>
      <trkpt lat="50.59372" lon="-4.84428"></trkpt>
      <trkpt lat="50.59374" lon="-4.84444"></trkpt>
      <trkpt lat="50.59373" lon="-4.84453"></trkpt>
      <trkpt lat="50.59375" lon="-4.84457"></trkpt>
      <trkpt lat="50.59386" lon="-4.84463"></trkpt>
      <trkpt lat="50.594" lon="-4.84457"></trkpt>
      <trkpt lat="50.59404" lon="-4.84452"></trkpt>
      <trkpt lat="50.59413" lon="-4.84452"></trkpt>
      <trkpt lat="50.59425" lon="-4.84474"></trkpt>
      <trkpt lat="50.59444" lon="-4.84483"></trkpt>
      <trkpt lat="50.59455" lon="-4.84498"></trkpt>
      <trkpt lat="50.59475" lon="-4.84487"></trkpt>
      <trkpt lat="50.59488" lon="-4.84488"></trkpt>
      <trkpt lat="50.59499" lon="-4.84478"></trkpt>
      <trkpt lat="50.59504" lon="-4.84477"></trkpt>
      <trkpt lat="50.59508" lon="-4.84482"></trkpt>
      <trkpt lat="50.59514" lon="-4.84497"></trkpt>
      <trkpt lat="50.59517" lon="-4.84523"></trkpt>
      <trkpt lat="50.59518" lon="-4.8454"></trkpt>
      <trkpt lat="50.59513" lon="-4.84572"></trkpt>
      <trkpt lat="50.59516" lon="-4.84591"></trkpt>
      <trkpt lat="50.59537" lon="-4.84623"></trkpt>
      <trkpt lat="50.59539" lon="-4.84635"></trkpt>
      <trkpt lat="50.59537" lon="-4.84648"></trkpt>
      <trkpt lat="50.59525" lon="-4.84666"></trkpt>
      <trkpt lat="50.5952" lon="-4.84691"></trkpt>
      <trkpt lat="50.5952" lon="-4.84702"></trkpt>
      <trkpt lat="50.59523" lon="-4.84712"></trkpt>
      <trkpt lat="50.5953" lon="-4.84719"></trkpt>
      <trkpt lat="50.59551" lon="-4.84733"></trkpt>
      <trkpt lat="50.59557" lon="-4.84735"></trkpt>
      <trkpt lat="50.59574" lon="-4.84741"></trkpt>
      <trkpt lat="50.5959" lon="-4.8477"></trkpt>
      <trkpt lat="50.596" lon="-4.84784"></trkpt>
      <trkpt lat="50.59619" lon="-4.84789"></trkpt>
      <trkpt lat="50.59634" lon="-4.84803"></trkpt>
      <trkpt lat="50.59665" lon="-4.84819"></trkpt>
      <trkpt lat="50.59677" lon="-4.84819"></trkpt>
      <trkpt lat="50.59701" lon="-4.84951"></trkpt>
      <trkpt lat="50.59698" lon="-4.84961"></trkpt>
      <trkpt lat="50.59687" lon="-4.84974"></trkpt>
      <trkpt lat="50.5968" lon="-4.85038"></trkpt>
      <trkpt lat="50.59672" lon="-4.85064"></trkpt>
      <trkpt lat="50.59666" lon="-4.85096"></trkpt>
      <trkpt lat="50.59656" lon="-4.8513"></trkpt>
      <trkpt lat="50.5965" lon="-4.85157"></trkpt>
      <trkpt lat="50.5965" lon="-4.85219"></trkpt>
      <trkpt lat="50.59648" lon="-4.85231"></trkpt>
      <trkpt lat="50.59631" lon="-4.85259"></trkpt>
      <trkpt lat="50.59627" lon="-4.85273"></trkpt>
      <trkpt lat="50.59613" lon="-4.85302"></trkpt>
      <trkpt lat="50.59612" lon="-4.85334"></trkpt>
      <trkpt lat="50.5962" lon="-4.85355"></trkpt>
      <trkpt lat="50.59635" lon="-4.85385"></trkpt>
      <trkpt lat="50.59635" lon="-4.85401"></trkpt>
      <trkpt lat="50.59629" lon="-4.85415"></trkpt>
      <trkpt lat="50.59629" lon="-4.85416"></trkpt>
      <trkpt lat="50.59552" lon="-4.85578"></trkpt>
      <trkpt lat="50.59534" lon="-4.85608"></trkpt>
      <trkpt lat="50.59522" lon="-4.85633"></trkpt>
      <trkpt lat="50.59515" lon="-4.85639"></trkpt>
      <trkpt lat="50.59477" lon="-4.85612"></trkpt>
      <trkpt lat="50.59447" lon="-4.85582"></trkpt>
      <trkpt lat="50.59428" lon="-4.85554"></trkpt>
      <trkpt lat="50.59413" lon="-4.85536"></trkpt>
      <trkpt lat="50.59407" lon="-4.85541"></trkpt>
      <trkpt lat="50.59408" lon="-4.85551"></trkpt>
      <trkpt lat="50.59407" lon="-4.85552"></trkpt>
      <trkpt lat="50.59399" lon="-4.85542"></trkpt>
      <trkpt lat="50.59397" lon="-4.8555"></trkpt>
      <trkpt lat="50.59399" lon="-4.85551"></trkpt>
      <trkpt lat="50.59399" lon="-4.85559"></trkpt>
      <trkpt lat="50.59393" lon="-4.85564"></trkpt>
      <trkpt lat="50.59392" lon="-4.85568"></trkpt>
      <trkpt lat="50.59395" lon="-4.85569"></trkpt>
      <trkpt lat="50.59399" lon="-4.85579"></trkpt>
      <trkpt lat="50.59387" lon="-4.85589"></trkpt>
      <trkpt lat="50.59381" lon="-4.85599"></trkpt>
      <trkpt lat="50.59377" lon="-4.85612"></trkpt>
      <trkpt lat="50.59378" lon="-4.85645"></trkpt>
      <trkpt lat="50.59375" lon="-4.85679"></trkpt>
      <trkpt lat="50.59371" lon="-4.85689"></trkpt>
      <trkpt lat="50.59369" lon="-4.85703"></trkpt>
      <trkpt lat="50.59364" lon="-4.85716"></trkpt>
      <trkpt lat="50.5936" lon="-4.85735"></trkpt>
      <trkpt lat="50.59354" lon="-4.85746"></trkpt>
      <trkpt lat="50.59354" lon="-4.85772"></trkpt>
      <trkpt lat="50.59342" lon="-4.85788"></trkpt>
      <trkpt lat="50.59339" lon="-4.85796"></trkpt>
      <trkpt lat="50.59337" lon="-4.85858"></trkpt>
      <trkpt lat="50.59334" lon="-4.8587"></trkpt>
      <trkpt lat="50.59319" lon="-4.85893"></trkpt>
      <trkpt lat="50.59312" lon="-4.85914"></trkpt>
      <trkpt lat="50.59299" lon="-4.85965"></trkpt>
      <trkpt lat="50.59293" lon="-4.8601"></trkpt>
      <trkpt lat="50.59288" lon="-4.86027"></trkpt>
      <trkpt lat="50.59282" lon="-4.8604"></trkpt>
      <trkpt lat="50.5928" lon="-4.86063"></trkpt>
      <trkpt lat="50.59276" lon="-4.86077"></trkpt>
      <trkpt lat="50.59278" lon="-4.86105"></trkpt>
      <trkpt lat="50.59279" lon="-4.86119"></trkpt>
      <trkpt lat="50.59275" lon="-4.86147"></trkpt>
      <trkpt lat="50.59266" lon="-4.86166"></trkpt>
      <trkpt lat="50.59267" lon="-4.86178"></trkpt>
      <trkpt lat="50.59283" lon="-4.86203"></trkpt>
      <trkpt lat="50.59291" lon="-4.86204"></trkpt>
      <trkpt lat="50.59291" lon="-4.86211"></trkpt>
      <trkpt lat="50.59293" lon="-4.86213"></trkpt>
      <trkpt lat="50.59302" lon="-4.86209"></trkpt>
      <trkpt lat="50.59305" lon="-4.86212"></trkpt>
      <trkpt lat="50.5931" lon="-4.86225"></trkpt>
      <trkpt lat="50.59309" lon="-4.8623"></trkpt>
      <trkpt lat="50.59304" lon="-4.86237"></trkpt>
      <trkpt lat="50.59292" lon="-4.86247"></trkpt>
      <trkpt lat="50.59287" lon="-4.86246"></trkpt>
      <trkpt lat="50.59286" lon="-4.86253"></trkpt>
      <trkpt lat="50.59283" lon="-4.86257"></trkpt>
      <trkpt lat="50.59282" lon="-4.86274"></trkpt>
      <trkpt lat="50.59278" lon="-4.86273"></trkpt>
      <trkpt lat="50.59274" lon="-4.86278"></trkpt>
      <trkpt lat="50.59275" lon="-4.86288"></trkpt>
      <trkpt lat="50.59273" lon="-4.86289"></trkpt>
      <trkpt lat="50.59274" lon="-4.86299"></trkpt>
      <trkpt lat="50.59268" lon="-4.86305"></trkpt>
      <trkpt lat="50.59264" lon="-4.86304"></trkpt>
      <trkpt lat="50.59256" lon="-4.86335"></trkpt>
      <trkpt lat="50.59254" lon="-4.86336"></trkpt>
      <trkpt lat="50.59243" lon="-4.86327"></trkpt>
      <trkpt lat="50.59237" lon="-4.8633"></trkpt>
      <trkpt lat="50.5923" lon="-4.86321"></trkpt>
      <trkpt lat="50.59225" lon="-4.86321"></trkpt>
      <trkpt lat="50.59226" lon="-4.86328"></trkpt>
      <trkpt lat="50.59233" lon="-4.86347"></trkpt>
      <trkpt lat="50.59233" lon="-4.8635"></trkpt>
      <trkpt lat="50.5923" lon="-4.86356"></trkpt>
      <trkpt lat="50.59231" lon="-4.86367"></trkpt>
      <trkpt lat="50.59238" lon="-4.86382"></trkpt>
      <trkpt lat="50.5925" lon="-4.86389"></trkpt>
      <trkpt lat="50.5926" lon="-4.86404"></trkpt>
      <trkpt lat="50.59267" lon="-4.86421"></trkpt>
      <trkpt lat="50.59269" lon="-4.86429"></trkpt>
      <trkpt lat="50.59269" lon="-4.86438"></trkpt>
      <trkpt lat="50.59266" lon="-4.86463"></trkpt>
      <trkpt lat="50.59269" lon="-4.86478"></trkpt>
      <trkpt lat="50.5929" lon="-4.86488"></trkpt>
      <trkpt lat="50.59318" lon="-4.86492"></trkpt>
      <trkpt lat="50.59322" lon="-4.8649"></trkpt>
      <trkpt lat="50.59333" lon="-4.86493"></trkpt>
      <trkpt lat="50.59339" lon="-4.86487"></trkpt>
      <trkpt lat="50.59345" lon="-4.8649"></trkpt>
      <trkpt lat="50.59354" lon="-4.86491"></trkpt>
      <trkpt lat="50.59362" lon="-4.86495"></trkpt>
      <trkpt lat="50.5938" lon="-4.86513"></trkpt>
      <trkpt lat="50.59384" lon="-4.86527"></trkpt>
      <trkpt lat="50.59385" lon="-4.86597"></trkpt>
      <trkpt lat="50.59398" lon="-4.86658"></trkpt>
      <trkpt lat="50.59401" lon="-4.86679"></trkpt>
      <trkpt lat="50.59395" lon="-4.86706"></trkpt>
      <trkpt lat="50.59398" lon="-4.86743"></trkpt>
      <trkpt lat="50.59403" lon="-4.86777"></trkpt>
      <trkpt lat="50.59407" lon="-4.86796"></trkpt>
      <trkpt lat="50.59414" lon="-4.86811"></trkpt>
      <trkpt lat="50.5945" lon="-4.86867"></trkpt>
      <trkpt lat="50.59461" lon="-4.86872"></trkpt>
      <trkpt lat="50.59473" lon="-4.86872"></trkpt>
      <trkpt lat="50.59477" lon="-4.86876"></trkpt>
      <trkpt lat="50.59496" lon="-4.86958"></trkpt>
      <trkpt lat="50.59493" lon="-4.86977"></trkpt>
      <trkpt lat="50.59486" lon="-4.86992"></trkpt>
      <trkpt lat="50.59478" lon="-4.87003"></trkpt>
      <trkpt lat="50.59453" lon="-4.87025"></trkpt>
      <trkpt lat="50.59444" lon="-4.87029"></trkpt>
      <trkpt lat="50.59439" lon="-4.87038"></trkpt>
      <trkpt lat="50.59438" lon="-4.87057"></trkpt>
      <trkpt lat="50.59435" lon="-4.87069"></trkpt>
      <trkpt lat="50.5943" lon="-4.8707"></trkpt>
      <trkpt lat="50.59423" lon="-4.87067"></trkpt>
      <trkpt lat="50.59398" lon="-4.87081"></trkpt>
      <trkpt lat="50.59389" lon="-4.87092"></trkpt>
      <trkpt lat="50.59384" lon="-4.87102"></trkpt>
      <trkpt lat="50.59368" lon="-4.87118"></trkpt>
      <trkpt lat="50.5936" lon="-4.87122"></trkpt>
      <trkpt lat="50.59348" lon="-4.87141"></trkpt>
      <trkpt lat="50.59337" lon="-4.87151"></trkpt>
      <trkpt lat="50.59332" lon="-4.87151"></trkpt>
      <trkpt lat="50.59291" lon="-4.87122"></trkpt>
      <trkpt lat="50.59284" lon="-4.87122"></trkpt>
      <trkpt lat="50.59252" lon="-4.87142"></trkpt>
      <trkpt lat="50.59237" lon="-4.87148"></trkpt>
      <trkpt lat="50.59226" lon="-4.87147"></trkpt>
      <trkpt lat="50.59219" lon="-4.87138"></trkpt>
      <trkpt lat="50.59216" lon="-4.87116"></trkpt>
      <trkpt lat="50.5921" lon="-4.87109"></trkpt>
      <trkpt lat="50.59189" lon="-4.87105"></trkpt>
      <trkpt lat="50.59184" lon="-4.87101"></trkpt>
      <trkpt lat="50.59181" lon="-4.87095"></trkpt>
      <trkpt lat="50.5918" lon="-4.87085"></trkpt>
      <trkpt lat="50.59165" lon="-4.87062"></trkpt>
      <trkpt lat="50.59151" lon="-4.87059"></trkpt>
      <trkpt lat="50.59135" lon="-4.8706"></trkpt>
      <trkpt lat="50.59109" lon="-4.8704"></trkpt>
      <trkpt lat="50.59104" lon="-4.87008"></trkpt>
      <trkpt lat="50.59109" lon="-4.86997"></trkpt>
      <trkpt lat="50.59107" lon="-4.86989"></trkpt>
      <trkpt lat="50.59099" lon="-4.86978"></trkpt>
      <trkpt lat="50.59094" lon="-4.86965"></trkpt>
      <trkpt lat="50.59045" lon="-4.86876"></trkpt>
      <trkpt lat="50.58974" lon="-4.86761"></trkpt>
      <trkpt lat="50.58965" lon="-4.86743"></trkpt>
      <trkpt lat="50.58963" lon="-4.86733"></trkpt>
      <trkpt lat="50.58955" lon="-4.86725"></trkpt>
      <trkpt lat="50.5895" lon="-4.86734"></trkpt>
      <trkpt lat="50.58942" lon="-4.86736"></trkpt>
      <trkpt lat="50.58936" lon="-4.86733"></trkpt>
      <trkpt lat="50.58929" lon="-4.86734"></trkpt>
      <trkpt lat="50.58921" lon="-4.86723"></trkpt>
      <trkpt lat="50.58918" lon="-4.8673"></trkpt>
      <trkpt lat="50.5891" lon="-4.86734"></trkpt>
      <trkpt lat="50.58905" lon="-4.86727"></trkpt>
      <trkpt lat="50.58896" lon="-4.86752"></trkpt>
      <trkpt lat="50.58887" lon="-4.86783"></trkpt>
      <trkpt lat="50.58882" lon="-4.86783"></trkpt>
      <trkpt lat="50.58879" lon="-4.86779"></trkpt>
      <trkpt lat="50.58873" lon="-4.86762"></trkpt>
      <trkpt lat="50.5887" lon="-4.86761"></trkpt>
      <trkpt lat="50.58869" lon="-4.86764"></trkpt>
      <trkpt lat="50.58885" lon="-4.86858"></trkpt>
      <trkpt lat="50.58888" lon="-4.86903"></trkpt>
      <trkpt lat="50.58885" lon="-4.86933"></trkpt>
      <trkpt lat="50.58924" lon="-4.86952"></trkpt>
      <trkpt lat="50.58932" lon="-4.86959"></trkpt>
      <trkpt lat="50.58946" lon="-4.86977"></trkpt>
      <trkpt lat="50.58951" lon="-4.86996"></trkpt>
      <trkpt lat="50.58972" lon="-4.87098"></trkpt>
      <trkpt lat="50.58971" lon="-4.87115"></trkpt>
      <trkpt lat="50.58956" lon="-4.87137"></trkpt>
      <trkpt lat="50.58886" lon="-4.87215"></trkpt>
      <trkpt lat="50.58838" lon="-4.87297"></trkpt>
      <trkpt lat="50.58831" lon="-4.87312"></trkpt>
      <trkpt lat="50.58826" lon="-4.87332"></trkpt>
      <trkpt lat="50.58823" lon="-4.87337"></trkpt>
      <trkpt lat="50.5881" lon="-4.87349"></trkpt>
      <trkpt lat="50.58777" lon="-4.8736"></trkpt>
      <trkpt lat="50.58772" lon="-4.87372"></trkpt>
      <trkpt lat="50.58755" lon="-4.87397"></trkpt>
      <trkpt lat="50.5874" lon="-4.87409"></trkpt>
      <trkpt lat="50.58699" lon="-4.87449"></trkpt>
      <trkpt lat="50.58681" lon="-4.87458"></trkpt>
      <trkpt lat="50.58645" lon="-4.87531"></trkpt>
      <trkpt lat="50.586" lon="-4.87621"></trkpt>
      <trkpt lat="50.58598" lon="-4.87629"></trkpt>
      <trkpt lat="50.58603" lon="-4.87682"></trkpt>
      <trkpt lat="50.58604" lon="-4.87728"></trkpt>
      <trkpt lat="50.586" lon="-4.87743"></trkpt>
      <trkpt lat="50.58601" lon="-4.8778"></trkpt>
      <trkpt lat="50.58564" lon="-4.88018"></trkpt>
      <trkpt lat="50.58561" lon="-4.88028"></trkpt>
      <trkpt lat="50.5855" lon="-4.88044"></trkpt>
      <trkpt lat="50.58548" lon="-4.88059"></trkpt>
      <trkpt lat="50.58549" lon="-4.88089"></trkpt>
      <trkpt lat="50.58544" lon="-4.88089"></trkpt>
      <trkpt lat="50.58534" lon="-4.88098"></trkpt>
      <trkpt lat="50.58534" lon="-4.88109"></trkpt>
      <trkpt lat="50.58529" lon="-4.88114"></trkpt>
      <trkpt lat="50.58516" lon="-4.88096"></trkpt>
      <trkpt lat="50.58508" lon="-4.88091"></trkpt>
      <trkpt lat="50.58488" lon="-4.88096"></trkpt>
      <trkpt lat="50.58473" lon="-4.88103"></trkpt>
      <trkpt lat="50.58457" lon="-4.88117"></trkpt>
      <trkpt lat="50.58434" lon="-4.88125"></trkpt>
      <trkpt lat="50.58428" lon="-4.88135"></trkpt>
      <trkpt lat="50.5842" lon="-4.88141"></trkpt>
      <trkpt lat="50.58411" lon="-4.8814"></trkpt>
      <trkpt lat="50.58352" lon="-4.88119"></trkpt>
      <trkpt lat="50.58321" lon="-4.88105"></trkpt>
      <trkpt lat="50.58312" lon="-4.88103"></trkpt>
      <trkpt lat="50.58303" lon="-4.88106"></trkpt>
      <trkpt lat="50.58298" lon="-4.88114"></trkpt>
      <trkpt lat="50.58292" lon="-4.88134"></trkpt>
      <trkpt lat="50.58298" lon="-4.88211"></trkpt>
      <trkpt lat="50.58299" lon="-4.88248"></trkpt>
      <trkpt lat="50.58306" lon="-4.88297"></trkpt>
      <trkpt lat="50.58303" lon="-4.8833"></trkpt>
      <trkpt lat="50.58311" lon="-4.88348"></trkpt>
      <trkpt lat="50.58312" lon="-4.88359"></trkpt>
      <trkpt lat="50.5831" lon="-4.88375"></trkpt>
      <trkpt lat="50.58299" lon="-4.88397"></trkpt>
      <trkpt lat="50.58257" lon="-4.8843"></trkpt>
      <trkpt lat="50.58237" lon="-4.88451"></trkpt>
      <trkpt lat="50.5823" lon="-4.88465"></trkpt>
      <trkpt lat="50.5823" lon="-4.88478"></trkpt>
      <trkpt lat="50.58224" lon="-4.88501"></trkpt>
      <trkpt lat="50.58218" lon="-4.88516"></trkpt>
      <trkpt lat="50.58226" lon="-4.88544"></trkpt>
      <trkpt lat="50.58226" lon="-4.88554"></trkpt>
      <trkpt lat="50.58228" lon="-4.88556"></trkpt>
      <trkpt lat="50.5822" lon="-4.88599"></trkpt>
      <trkpt lat="50.58219" lon="-4.88607"></trkpt>
      <trkpt lat="50.58217" lon="-4.88662"></trkpt>
      <trkpt lat="50.58207" lon="-4.88697"></trkpt>
      <trkpt lat="50.582" lon="-4.88752"></trkpt>
      <trkpt lat="50.58198" lon="-4.88821"></trkpt>
      <trkpt lat="50.58205" lon="-4.88898"></trkpt>
      <trkpt lat="50.58211" lon="-4.88917"></trkpt>
      <trkpt lat="50.58209" lon="-4.88934"></trkpt>
      <trkpt lat="50.5821" lon="-4.88945"></trkpt>
      <trkpt lat="50.58218" lon="-4.88953"></trkpt>
      <trkpt lat="50.5822" lon="-4.88988"></trkpt>
      <trkpt lat="50.58247" lon="-4.89094"></trkpt>
      <trkpt lat="50.5826" lon="-4.89104"></trkpt>
      <trkpt lat="50.58268" lon="-4.89104"></trkpt>
      <trkpt lat="50.58284" lon="-4.89112"></trkpt>
      <trkpt lat="50.58294" lon="-4.89122"></trkpt>
      <trkpt lat="50.58306" lon="-4.89158"></trkpt>
      <trkpt lat="50.58327" lon="-4.89206"></trkpt>
      <trkpt lat="50.58351" lon="-4.89267"></trkpt>
      <trkpt lat="50.58356" lon="-4.89289"></trkpt>
      <trkpt lat="50.58357" lon="-4.8932"></trkpt>
      <trkpt lat="50.58361" lon="-4.89335"></trkpt>
      <trkpt lat="50.58379" lon="-4.89364"></trkpt>
      <trkpt lat="50.58385" lon="-4.89382"></trkpt>
      <trkpt lat="50.58403" lon="-4.89456"></trkpt>
      <trkpt lat="50.58408" lon="-4.89502"></trkpt>
      <trkpt lat="50.58434" lon="-4.89618"></trkpt>
      <trkpt lat="50.5844" lon="-4.8966"></trkpt>
      <trkpt lat="50.58453" lon="-4.89679"></trkpt>
      <trkpt lat="50.58455" lon="-4.89689"></trkpt>
      <trkpt lat="50.58458" lon="-4.8972"></trkpt>
      <trkpt lat="50.58459" lon="-4.89756"></trkpt>
      <trkpt lat="50.58449" lon="-4.8979"></trkpt>
      <trkpt lat="50.58441" lon="-4.89808"></trkpt>
      <trkpt lat="50.58433" lon="-4.89819"></trkpt>
      <trkpt lat="50.58407" lon="-4.89886"></trkpt>
      <trkpt lat="50.58388" lon="-4.89926"></trkpt>
      <trkpt lat="50.58384" lon="-4.89942"></trkpt>
      <trkpt lat="50.58379" lon="-4.89983"></trkpt>
      <trkpt lat="50.58374" lon="-4.89993"></trkpt>
      <trkpt lat="50.58382" lon="-4.90009"></trkpt>
      <trkpt lat="50.58388" lon="-4.9004"></trkpt>
      <trkpt lat="50.58391" lon="-4.90048"></trkpt>
      <trkpt lat="50.58396" lon="-4.90056"></trkpt>
      <trkpt lat="50.58403" lon="-4.90063"></trkpt>
      <trkpt lat="50.58416" lon="-4.90067"></trkpt>
      <trkpt lat="50.58422" lon="-4.90075"></trkpt>
      <trkpt lat="50.58443" lon="-4.90169"></trkpt>
      <trkpt lat="50.58446" lon="-4.90198"></trkpt>
      <trkpt lat="50.5844" lon="-4.90247"></trkpt>
      <trkpt lat="50.58431" lon="-4.90331"></trkpt>
      <trkpt lat="50.58426" lon="-4.90355"></trkpt>
      <trkpt lat="50.58425" lon="-4.90396"></trkpt>
      <trkpt lat="50.58423" lon="-4.90414"></trkpt>
      <trkpt lat="50.58411" lon="-4.90468"></trkpt>
      <trkpt lat="50.58407" lon="-4.9051"></trkpt>
      <trkpt lat="50.58417" lon="-4.90545"></trkpt>
      <trkpt lat="50.58421" lon="-4.90569"></trkpt>
      <trkpt lat="50.5842" lon="-4.90593"></trkpt>
      <trkpt lat="50.58397" lon="-4.90749"></trkpt>
      <trkpt lat="50.58402" lon="-4.90777"></trkpt>
      <trkpt lat="50.58381" lon="-4.90763"></trkpt>
      <trkpt lat="50.58381" lon="-4.90762"></trkpt>
      <trkpt lat="50.58402" lon="-4.90777"></trkpt>
      <trkpt lat="50.58403" lon="-4.90788"></trkpt>
      <trkpt lat="50.58395" lon="-4.90806"></trkpt>
      <trkpt lat="50.58394" lon="-4.90816"></trkpt>
      <trkpt lat="50.58396" lon="-4.90828"></trkpt>
      <trkpt lat="50.58419" lon="-4.90861"></trkpt>
      <trkpt lat="50.58444" lon="-4.90876"></trkpt>
      <trkpt lat="50.58485" lon="-4.90894"></trkpt>
      <trkpt lat="50.58503" lon="-4.90911"></trkpt>
      <trkpt lat="50.58511" lon="-4.90935"></trkpt>
      <trkpt lat="50.58519" lon="-4.90948"></trkpt>
      <trkpt lat="50.58549" lon="-4.90963"></trkpt>
      <trkpt lat="50.58581" lon="-4.91009"></trkpt>
      <trkpt lat="50.58595" lon="-4.91038"></trkpt>
      <trkpt lat="50.58602" lon="-4.91043"></trkpt>
      <trkpt lat="50.5862" lon="-4.9105"></trkpt>
      <trkpt lat="50.58654" lon="-4.91049"></trkpt>
      <trkpt lat="50.58665" lon="-4.91058"></trkpt>
      <trkpt lat="50.58667" lon="-4.91064"></trkpt>
      <trkpt lat="50.5866" lon="-4.91089"></trkpt>
      <trkpt lat="50.58659" lon="-4.91125"></trkpt>
      <trkpt lat="50.58662" lon="-4.9113"></trkpt>
      <trkpt lat="50.58662" lon="-4.91171"></trkpt>
      <trkpt lat="50.58665" lon="-4.91181"></trkpt>
      <trkpt lat="50.58671" lon="-4.91214"></trkpt>
      <trkpt lat="50.58681" lon="-4.91225"></trkpt>
      <trkpt lat="50.58694" lon="-4.91227"></trkpt>
      <trkpt lat="50.58703" lon="-4.91234"></trkpt>
      <trkpt lat="50.58712" lon="-4.91252"></trkpt>
      <trkpt lat="50.58721" lon="-4.91256"></trkpt>
      <trkpt lat="50.58725" lon="-4.9126"></trkpt>
      <trkpt lat="50.58727" lon="-4.91274"></trkpt>
      <trkpt lat="50.58731" lon="-4.91295"></trkpt>
      <trkpt lat="50.58736" lon="-4.91306"></trkpt>
      <trkpt lat="50.58745" lon="-4.91318"></trkpt>
      <trkpt lat="50.58756" lon="-4.91352"></trkpt>
      <trkpt lat="50.58775" lon="-4.91397"></trkpt>
      <trkpt lat="50.58767" lon="-4.91422"></trkpt>
      <trkpt lat="50.58768" lon="-4.9143"></trkpt>
      <trkpt lat="50.58775" lon="-4.91452"></trkpt>
      <trkpt lat="50.58787" lon="-4.91498"></trkpt>
      <trkpt lat="50.58795" lon="-4.91559"></trkpt>
      <trkpt lat="50.58795" lon="-4.91657"></trkpt>
      <trkpt lat="50.58799" lon="-4.91663"></trkpt>
      <trkpt lat="50.588" lon="-4.91671"></trkpt>
      <trkpt lat="50.58793" lon="-4.91748"></trkpt>
      <trkpt lat="50.58794" lon="-4.91782"></trkpt>
      <trkpt lat="50.588" lon="-4.91797"></trkpt>
      <trkpt lat="50.58827" lon="-4.9182"></trkpt>
      <trkpt lat="50.5888" lon="-4.91833"></trkpt>
      <trkpt lat="50.5889" lon="-4.91829"></trkpt>
      <trkpt lat="50.58896" lon="-4.9182"></trkpt>
      <trkpt lat="50.58918" lon="-4.91812"></trkpt>
      <trkpt lat="50.58923" lon="-4.91806"></trkpt>
      <trkpt lat="50.58934" lon="-4.91802"></trkpt>
      <trkpt lat="50.5895" lon="-4.9181"></trkpt>
      <trkpt lat="50.58971" lon="-4.91826"></trkpt>
      <trkpt lat="50.58993" lon="-4.91838"></trkpt>
      <trkpt lat="50.59002" lon="-4.91834"></trkpt>
      <trkpt lat="50.59005" lon="-4.9183"></trkpt>
      <trkpt lat="50.59008" lon="-4.91826"></trkpt>
      <trkpt lat="50.59023" lon="-4.91819"></trkpt>
      <trkpt lat="50.5903" lon="-4.91825"></trkpt>
      <trkpt lat="50.59094" lon="-4.91928"></trkpt>
      <trkpt lat="50.59139" lon="-4.91991"></trkpt>
      <trkpt lat="50.59175" lon="-4.92026"></trkpt>
      <trkpt lat="50.59152" lon="-4.92067"></trkpt>
      <trkpt lat="50.59137" lon="-4.92094"></trkpt>
      <trkpt lat="50.59123" lon="-4.92115"></trkpt>
      <trkpt lat="50.59108" lon="-4.92141"></trkpt>
      <trkpt lat="50.59085" lon="-4.92197"></trkpt>
      <trkpt lat="50.59072" lon="-4.92212"></trkpt>
      <trkpt lat="50.59062" lon="-4.9225"></trkpt>
      <trkpt lat="50.59039" lon="-4.92268"></trkpt>
      <trkpt lat="50.5903" lon="-4.92291"></trkpt>
      <trkpt lat="50.5902" lon="-4.92363"></trkpt>
      <trkpt lat="50.59005" lon="-4.92434"></trkpt>
      <trkpt lat="50.58989" lon="-4.92464"></trkpt>
      <trkpt lat="50.58949" lon="-4.92551"></trkpt>
      <trkpt lat="50.58923" lon="-4.9259"></trkpt>
      <trkpt lat="50.58907" lon="-4.92621"></trkpt>
      <trkpt lat="50.58894" lon="-4.9268"></trkpt>
      <trkpt lat="50.58889" lon="-4.92707"></trkpt>
      <trkpt lat="50.58889" lon="-4.92717"></trkpt>
      <trkpt lat="50.58887" lon="-4.92726"></trkpt>
      <trkpt lat="50.58847" lon="-4.92806"></trkpt>
      <trkpt lat="50.58838" lon="-4.92847"></trkpt>
      <trkpt lat="50.58826" lon="-4.92873"></trkpt>
      <trkpt lat="50.58813" lon="-4.92894"></trkpt>
      <trkpt lat="50.58802" lon="-4.92917"></trkpt>
      <trkpt lat="50.588" lon="-4.9293"></trkpt>
      <trkpt lat="50.58799" lon="-4.92971"></trkpt>
      <trkpt lat="50.58793" lon="-4.93012"></trkpt>
      <trkpt lat="50.58792" lon="-4.93036"></trkpt>
      <trkpt lat="50.5879" lon="-4.93086"></trkpt>
      <trkpt lat="50.58798" lon="-4.93125"></trkpt>
      <trkpt lat="50.58798" lon="-4.93138"></trkpt>
      <trkpt lat="50.58793" lon="-4.93159"></trkpt>
      <trkpt lat="50.58794" lon="-4.93178"></trkpt>
      <trkpt lat="50.588" lon="-4.93197"></trkpt>
      <trkpt lat="50.58808" lon="-4.93209"></trkpt>
      <trkpt lat="50.5881" lon="-4.93253"></trkpt>
      <trkpt lat="50.58809" lon="-4.9326"></trkpt>
      <trkpt lat="50.58793" lon="-4.93294"></trkpt>
      <trkpt lat="50.58791" lon="-4.93301"></trkpt>
      <trkpt lat="50.58757" lon="-4.93354"></trkpt>
      <trkpt lat="50.58716" lon="-4.9341"></trkpt>
      <trkpt lat="50.58709" lon="-4.93426"></trkpt>
      <trkpt lat="50.58704" lon="-4.93421"></trkpt>
      <trkpt lat="50.58699" lon="-4.93405"></trkpt>
      <trkpt lat="50.58691" lon="-4.93394"></trkpt>
      <trkpt lat="50.58669" lon="-4.93331"></trkpt>
      <trkpt lat="50.58654" lon="-4.93282"></trkpt>
      <trkpt lat="50.5864" lon="-4.93265"></trkpt>
      <trkpt lat="50.58624" lon="-4.93189"></trkpt>
      <trkpt lat="50.58619" lon="-4.93167"></trkpt>
      <trkpt lat="50.58605" lon="-4.93141"></trkpt>
      <trkpt lat="50.58584" lon="-4.93123"></trkpt>
      <trkpt lat="50.58567" lon="-4.93098"></trkpt>
      <trkpt lat="50.58549" lon="-4.93056"></trkpt>
      <trkpt lat="50.58535" lon="-4.93038"></trkpt>
      <trkpt lat="50.58481" lon="-4.9299"></trkpt>
      <trkpt lat="50.58458" lon="-4.92938"></trkpt>
      <trkpt lat="50.58449" lon="-4.92913"></trkpt>
      <trkpt lat="50.58439" lon="-4.92847"></trkpt>
      <trkpt lat="50.58431" lon="-4.92754"></trkpt>
      <trkpt lat="50.58424" lon="-4.92718"></trkpt>
      <trkpt lat="50.58418" lon="-4.92702"></trkpt>
      <trkpt lat="50.58404" lon="-4.92684"></trkpt>
      <trkpt lat="50.58386" lon="-4.92655"></trkpt>
      <trkpt lat="50.58377" lon="-4.92627"></trkpt>
      <trkpt lat="50.58371" lon="-4.92602"></trkpt>
      <trkpt lat="50.58362" lon="-4.92582"></trkpt>
      <trkpt lat="50.58345" lon="-4.92564"></trkpt>
      <trkpt lat="50.58343" lon="-4.92554"></trkpt>
      <trkpt lat="50.58345" lon="-4.9254"></trkpt>
      <trkpt lat="50.58343" lon="-4.92538"></trkpt>
      <trkpt lat="50.58336" lon="-4.92538"></trkpt>
      <trkpt lat="50.58315" lon="-4.92519"></trkpt>
      <trkpt lat="50.5829" lon="-4.92476"></trkpt>
      <trkpt lat="50.5827" lon="-4.92462"></trkpt>
      <trkpt lat="50.58247" lon="-4.92443"></trkpt>
      <trkpt lat="50.58234" lon="-4.92428"></trkpt>
      <trkpt lat="50.58211" lon="-4.92415"></trkpt>
      <trkpt lat="50.58187" lon="-4.9239"></trkpt>
      <trkpt lat="50.5816" lon="-4.92343"></trkpt>
      <trkpt lat="50.58138" lon="-4.92299"></trkpt>
      <trkpt lat="50.58117" lon="-4.92289"></trkpt>
      <trkpt lat="50.58105" lon="-4.92297"></trkpt>
      <trkpt lat="50.58075" lon="-4.92265"></trkpt>
      <trkpt lat="50.58072" lon="-4.92255"></trkpt>
      <trkpt lat="50.58075" lon="-4.92219"></trkpt>
      <trkpt lat="50.58072" lon="-4.92202"></trkpt>
      <trkpt lat="50.58067" lon="-4.92189"></trkpt>
      <trkpt lat="50.58065" lon="-4.92169"></trkpt>
      <trkpt lat="50.58068" lon="-4.92154"></trkpt>
      <trkpt lat="50.58077" lon="-4.92146"></trkpt>
      <trkpt lat="50.58087" lon="-4.92131"></trkpt>
      <trkpt lat="50.58097" lon="-4.9212"></trkpt>
      <trkpt lat="50.58107" lon="-4.92119"></trkpt>
      <trkpt lat="50.58111" lon="-4.92108"></trkpt>
      <trkpt lat="50.58136" lon="-4.92086"></trkpt>
      <trkpt lat="50.5815" lon="-4.92049"></trkpt>
      <trkpt lat="50.58139" lon="-4.92051"></trkpt>
      <trkpt lat="50.5813" lon="-4.92045"></trkpt>
      <trkpt lat="50.58123" lon="-4.92038"></trkpt>
      <trkpt lat="50.58113" lon="-4.92035"></trkpt>
      <trkpt lat="50.581" lon="-4.92022"></trkpt>
      <trkpt lat="50.58075" lon="-4.92001"></trkpt>
      <trkpt lat="50.58055" lon="-4.91949"></trkpt>
      <trkpt lat="50.58047" lon="-4.91919"></trkpt>
      <trkpt lat="50.58057" lon="-4.91872"></trkpt>
      <trkpt lat="50.58073" lon="-4.91825"></trkpt>
      <trkpt lat="50.5808" lon="-4.91766"></trkpt>
      <trkpt lat="50.58078" lon="-4.91762"></trkpt>
      <trkpt lat="50.58057" lon="-4.91794"></trkpt>
      <trkpt lat="50.58052" lon="-4.91762"></trkpt>
      <trkpt lat="50.58051" lon="-4.91728"></trkpt>
      <trkpt lat="50.58048" lon="-4.91718"></trkpt>
      <trkpt lat="50.58043" lon="-4.91709"></trkpt>
      <trkpt lat="50.58037" lon="-4.91709"></trkpt>
      <trkpt lat="50.58006" lon="-4.91699"></trkpt>
      <trkpt lat="50.58001" lon="-4.91696"></trkpt>
      <trkpt lat="50.57995" lon="-4.91665"></trkpt>
      <trkpt lat="50.57954" lon="-4.91734"></trkpt>
      <trkpt lat="50.57949" lon="-4.91736"></trkpt>
      <trkpt lat="50.57941" lon="-4.91736"></trkpt>
      <trkpt lat="50.57931" lon="-4.91733"></trkpt>
      <trkpt lat="50.57915" lon="-4.91781"></trkpt>
      <trkpt lat="50.57897" lon="-4.91802"></trkpt>
      <trkpt lat="50.57898" lon="-4.91815"></trkpt>
      <trkpt lat="50.57881" lon="-4.91862"></trkpt>
      <trkpt lat="50.57878" lon="-4.91865"></trkpt>
      <trkpt lat="50.57866" lon="-4.91861"></trkpt>
      <trkpt lat="50.57836" lon="-4.91829"></trkpt>
      <trkpt lat="50.57811" lon="-4.91802"></trkpt>
      <trkpt lat="50.57794" lon="-4.91767"></trkpt>
      <trkpt lat="50.57794" lon="-4.91757"></trkpt>
      <trkpt lat="50.57785" lon="-4.91734"></trkpt>
      <trkpt lat="50.57785" lon="-4.91708"></trkpt>
      <trkpt lat="50.57756" lon="-4.91676"></trkpt>
      <trkpt lat="50.57753" lon="-4.91684"></trkpt>
      <trkpt lat="50.57736" lon="-4.91684"></trkpt>
      <trkpt lat="50.57715" lon="-4.91671"></trkpt>
      <trkpt lat="50.57684" lon="-4.91635"></trkpt>
      <trkpt lat="50.57647" lon="-4.91584"></trkpt>
      <trkpt lat="50.57617" lon="-4.9155"></trkpt>
      <trkpt lat="50.57597" lon="-4.91528"></trkpt>
      <trkpt lat="50.57582" lon="-4.91531"></trkpt>
      <trkpt lat="50.57574" lon="-4.91526"></trkpt>
      <trkpt lat="50.5755" lon="-4.91526"></trkpt>
      <trkpt lat="50.57522" lon="-4.91516"></trkpt>
      <trkpt lat="50.57465" lon="-4.91457"></trkpt>
      <trkpt lat="50.57453" lon="-4.91434"></trkpt>
      <trkpt lat="50.5745" lon="-4.91405"></trkpt>
      <trkpt lat="50.57445" lon="-4.91396"></trkpt>
      <trkpt lat="50.57446" lon="-4.91356"></trkpt>
      <trkpt lat="50.57444" lon="-4.91349"></trkpt>
      <trkpt lat="50.57426" lon="-4.91358"></trkpt>
      <trkpt lat="50.57416" lon="-4.91367"></trkpt>
      <trkpt lat="50.57403" lon="-4.91394"></trkpt>
      <trkpt lat="50.57394" lon="-4.91424"></trkpt>
      <trkpt lat="50.57384" lon="-4.91466"></trkpt>
      <trkpt lat="50.57348" lon="-4.91488"></trkpt>
      <trkpt lat="50.57327" lon="-4.91472"></trkpt>
      <trkpt lat="50.57316" lon="-4.915"></trkpt>
      <trkpt lat="50.57308" lon="-4.9158"></trkpt>
      <trkpt lat="50.57309" lon="-4.91622"></trkpt>
      <trkpt lat="50.57311" lon="-4.91639"></trkpt>
      <trkpt lat="50.57334" lon="-4.91706"></trkpt>
      <trkpt lat="50.57336" lon="-4.9172"></trkpt>
      <trkpt lat="50.57342" lon="-4.91722"></trkpt>
      <trkpt lat="50.57347" lon="-4.91737"></trkpt>
      <trkpt lat="50.57352" lon="-4.91738"></trkpt>
      <trkpt lat="50.57361" lon="-4.91733"></trkpt>
      <trkpt lat="50.57385" lon="-4.91743"></trkpt>
      <trkpt lat="50.57401" lon="-4.91756"></trkpt>
      <trkpt lat="50.57409" lon="-4.91765"></trkpt>
      <trkpt lat="50.57416" lon="-4.91786"></trkpt>
      <trkpt lat="50.57424" lon="-4.91829"></trkpt>
      <trkpt lat="50.57429" lon="-4.91865"></trkpt>
      <trkpt lat="50.57432" lon="-4.91897"></trkpt>
      <trkpt lat="50.57432" lon="-4.91912"></trkpt>
      <trkpt lat="50.57428" lon="-4.91951"></trkpt>
      <trkpt lat="50.57425" lon="-4.92005"></trkpt>
      <trkpt lat="50.57422" lon="-4.92018"></trkpt>
      <trkpt lat="50.57409" lon="-4.92041"></trkpt>
      <trkpt lat="50.574" lon="-4.92063"></trkpt>
      <trkpt lat="50.57404" lon="-4.92094"></trkpt>
      <trkpt lat="50.57403" lon="-4.92106"></trkpt>
      <trkpt lat="50.57399" lon="-4.92125"></trkpt>
      <trkpt lat="50.57394" lon="-4.92141"></trkpt>
      <trkpt lat="50.57387" lon="-4.92154"></trkpt>
      <trkpt lat="50.5737" lon="-4.92168"></trkpt>
      <trkpt lat="50.57361" lon="-4.92169"></trkpt>
      <trkpt lat="50.57339" lon="-4.92158"></trkpt>
      <trkpt lat="50.57312" lon="-4.92176"></trkpt>
      <trkpt lat="50.57304" lon="-4.92179"></trkpt>
      <trkpt lat="50.57282" lon="-4.92175"></trkpt>
      <trkpt lat="50.57276" lon="-4.92196"></trkpt>
      <trkpt lat="50.57274" lon="-4.92222"></trkpt>
      <trkpt lat="50.57266" lon="-4.92238"></trkpt>
      <trkpt lat="50.57268" lon="-4.92259"></trkpt>
      <trkpt lat="50.57264" lon="-4.92285"></trkpt>
      <trkpt lat="50.57238" lon="-4.92361"></trkpt>
      <trkpt lat="50.57232" lon="-4.92366"></trkpt>
      <trkpt lat="50.57218" lon="-4.92369"></trkpt>
      <trkpt lat="50.57203" lon="-4.92368"></trkpt>
      <trkpt lat="50.57176" lon="-4.92378"></trkpt>
      <trkpt lat="50.57167" lon="-4.92386"></trkpt>
      <trkpt lat="50.57141" lon="-4.92432"></trkpt>
      <trkpt lat="50.5713" lon="-4.92446"></trkpt>
      <trkpt lat="50.5712" lon="-4.92455"></trkpt>
      <trkpt lat="50.5707" lon="-4.9248"></trkpt>
      <trkpt lat="50.57049" lon="-4.92481"></trkpt>
      <trkpt lat="50.57029" lon="-4.92473"></trkpt>
      <trkpt lat="50.57024" lon="-4.92475"></trkpt>
      <trkpt lat="50.56983" lon="-4.92521"></trkpt>
      <trkpt lat="50.56917" lon="-4.92575"></trkpt>
      <trkpt lat="50.56895" lon="-4.92583"></trkpt>
      <trkpt lat="50.56882" lon="-4.92588"></trkpt>
      <trkpt lat="50.568" lon="-4.92602"></trkpt>
      <trkpt lat="50.56736" lon="-4.92648"></trkpt>
      <trkpt lat="50.56727" lon="-4.92664"></trkpt>
      <trkpt lat="50.56715" lon="-4.92703"></trkpt>
      <trkpt lat="50.56712" lon="-4.92719"></trkpt>
      <trkpt lat="50.56643" lon="-4.92797"></trkpt>
      <trkpt lat="50.56586" lon="-4.92845"></trkpt>
      <trkpt lat="50.56538" lon="-4.92896"></trkpt>
      <trkpt lat="50.56488" lon="-4.92958"></trkpt>
      <trkpt lat="50.56458" lon="-4.93049"></trkpt>
      <trkpt lat="50.56453" lon="-4.93055"></trkpt>
      <trkpt lat="50.56443" lon="-4.93059"></trkpt>
      <trkpt lat="50.56401" lon="-4.93065"></trkpt>
      <trkpt lat="50.56383" lon="-4.93065"></trkpt>
      <trkpt lat="50.56373" lon="-4.93056"></trkpt>
      <trkpt lat="50.56369" lon="-4.93054"></trkpt>
      <trkpt lat="50.56299" lon="-4.92957"></trkpt>
      <trkpt lat="50.56259" lon="-4.92858"></trkpt>
      <trkpt lat="50.56235" lon="-4.92787"></trkpt>
      <trkpt lat="50.5623" lon="-4.92762"></trkpt>
      <trkpt lat="50.56209" lon="-4.92707"></trkpt>
      <trkpt lat="50.56205" lon="-4.9269"></trkpt>
      <trkpt lat="50.56201" lon="-4.92637"></trkpt>
      <trkpt lat="50.56197" lon="-4.92624"></trkpt>
      <trkpt lat="50.56177" lon="-4.92589"></trkpt>
      <trkpt lat="50.56168" lon="-4.92594"></trkpt>
      <trkpt lat="50.56164" lon="-4.92583"></trkpt>
      <trkpt lat="50.56065" lon="-4.9256"></trkpt>
      <trkpt lat="50.56055" lon="-4.92555"></trkpt>
      <trkpt lat="50.56051" lon="-4.92546"></trkpt>
      <trkpt lat="50.56054" lon="-4.92527"></trkpt>
      <trkpt lat="50.5605" lon="-4.92512"></trkpt>
      <trkpt lat="50.56046" lon="-4.92506"></trkpt>
      <trkpt lat="50.56041" lon="-4.92507"></trkpt>
      <trkpt lat="50.56026" lon="-4.92519"></trkpt>
      <trkpt lat="50.5597" lon="-4.92555"></trkpt>
      <trkpt lat="50.55933" lon="-4.92555"></trkpt>
      <trkpt lat="50.55878" lon="-4.92548"></trkpt>
      <trkpt lat="50.55864" lon="-4.92589"></trkpt>
      <trkpt lat="50.5586" lon="-4.92592"></trkpt>
      <trkpt lat="50.55852" lon="-4.92608"></trkpt>
      <trkpt lat="50.5585" lon="-4.92614"></trkpt>
      <trkpt lat="50.55848" lon="-4.92636"></trkpt>
      <trkpt lat="50.55835" lon="-4.92669"></trkpt>
      <trkpt lat="50.55828" lon="-4.9268"></trkpt>
      <trkpt lat="50.55811" lon="-4.92727"></trkpt>
      <trkpt lat="50.55804" lon="-4.9275"></trkpt>
      <trkpt lat="50.55793" lon="-4.92771"></trkpt>
      <trkpt lat="50.55785" lon="-4.92782"></trkpt>
      <trkpt lat="50.5577" lon="-4.92796"></trkpt>
      <trkpt lat="50.55755" lon="-4.92817"></trkpt>
      <trkpt lat="50.5574" lon="-4.92833"></trkpt>
      <trkpt lat="50.55705" lon="-4.92857"></trkpt>
      <trkpt lat="50.55687" lon="-4.92858"></trkpt>
      <trkpt lat="50.55677" lon="-4.92855"></trkpt>
      <trkpt lat="50.55669" lon="-4.9286"></trkpt>
      <trkpt lat="50.5566" lon="-4.92861"></trkpt>
      <trkpt lat="50.55637" lon="-4.92848"></trkpt>
      <trkpt lat="50.55624" lon="-4.92848"></trkpt>
      <trkpt lat="50.55619" lon="-4.92843"></trkpt>
      <trkpt lat="50.55608" lon="-4.92844"></trkpt>
      <trkpt lat="50.55586" lon="-4.92833"></trkpt>
      <trkpt lat="50.55546" lon="-4.9278"></trkpt>
      <trkpt lat="50.5552" lon="-4.9276"></trkpt>
      <trkpt lat="50.55514" lon="-4.92759"></trkpt>
      <trkpt lat="50.55511" lon="-4.92752"></trkpt>
      <trkpt lat="50.55507" lon="-4.92754"></trkpt>
      <trkpt lat="50.55502" lon="-4.92751"></trkpt>
      <trkpt lat="50.55494" lon="-4.92754"></trkpt>
      <trkpt lat="50.55483" lon="-4.92752"></trkpt>
      <trkpt lat="50.5546" lon="-4.92735"></trkpt>
      <trkpt lat="50.55446" lon="-4.92729"></trkpt>
      <trkpt lat="50.55435" lon="-4.92715"></trkpt>
      <trkpt lat="50.55431" lon="-4.92724"></trkpt>
      <trkpt lat="50.55422" lon="-4.92724"></trkpt>
      <trkpt lat="50.55409" lon="-4.92706"></trkpt>
      <trkpt lat="50.55393" lon="-4.92712"></trkpt>
      <trkpt lat="50.55373" lon="-4.92715"></trkpt>
      <trkpt lat="50.55357" lon="-4.92724"></trkpt>
      <trkpt lat="50.55339" lon="-4.9273"></trkpt>
      <trkpt lat="50.55323" lon="-4.9274"></trkpt>
      <trkpt lat="50.55304" lon="-4.92737"></trkpt>
      <trkpt lat="50.55281" lon="-4.92722"></trkpt>
      <trkpt lat="50.5524" lon="-4.92741"></trkpt>
      <trkpt lat="50.55211" lon="-4.92742"></trkpt>
      <trkpt lat="50.55177" lon="-4.92728"></trkpt>
      <trkpt lat="50.55162" lon="-4.92716"></trkpt>
      <trkpt lat="50.55129" lon="-4.92709"></trkpt>
      <trkpt lat="50.55096" lon="-4.9271"></trkpt>
      <trkpt lat="50.55025" lon="-4.92702"></trkpt>
      <trkpt lat="50.54971" lon="-4.92696"></trkpt>
      <trkpt lat="50.54954" lon="-4.92698"></trkpt>
      <trkpt lat="50.5495" lon="-4.92682"></trkpt>
      <trkpt lat="50.54944" lon="-4.92674"></trkpt>
      <trkpt lat="50.54936" lon="-4.92669"></trkpt>
      <trkpt lat="50.54932" lon="-4.92658"></trkpt>
      <trkpt lat="50.54869" lon="-4.92699"></trkpt>
      <trkpt lat="50.54863" lon="-4.92706"></trkpt>
      <trkpt lat="50.54856" lon="-4.9271"></trkpt>
      <trkpt lat="50.54841" lon="-4.92703"></trkpt>
      <trkpt lat="50.54823" lon="-4.92703"></trkpt>
      <trkpt lat="50.54799" lon="-4.92694"></trkpt>
      <trkpt lat="50.54786" lon="-4.92673"></trkpt>
      <trkpt lat="50.54783" lon="-4.92665"></trkpt>
      <trkpt lat="50.54784" lon="-4.92658"></trkpt>
      <trkpt lat="50.54782" lon="-4.92643"></trkpt>
      <trkpt lat="50.54778" lon="-4.92633"></trkpt>
      <trkpt lat="50.54759" lon="-4.9263"></trkpt>
      <trkpt lat="50.5475" lon="-4.92638"></trkpt>
      <trkpt lat="50.54739" lon="-4.92638"></trkpt>
      <trkpt lat="50.54702" lon="-4.92624"></trkpt>
      <trkpt lat="50.54684" lon="-4.92609"></trkpt>
      <trkpt lat="50.54658" lon="-4.926"></trkpt>
      <trkpt lat="50.5463" lon="-4.926"></trkpt>
      <trkpt lat="50.54612" lon="-4.92596"></trkpt>
      <trkpt lat="50.54589" lon="-4.92598"></trkpt>
      <trkpt lat="50.54582" lon="-4.92607"></trkpt>
      <trkpt lat="50.54576" lon="-4.92602"></trkpt>
      <trkpt lat="50.54572" lon="-4.92613"></trkpt>
      <trkpt lat="50.54568" lon="-4.9261"></trkpt>
      <trkpt lat="50.54566" lon="-4.92615"></trkpt>
      <trkpt lat="50.54557" lon="-4.92605"></trkpt>
      <trkpt lat="50.54562" lon="-4.92592"></trkpt>
      <trkpt lat="50.5455" lon="-4.92579"></trkpt>
      <trkpt lat="50.5453" lon="-4.92557"></trkpt>
      <trkpt lat="50.54521" lon="-4.92536"></trkpt>
      <trkpt lat="50.54512" lon="-4.92526"></trkpt>
      <trkpt lat="50.54507" lon="-4.92513"></trkpt>
      <trkpt lat="50.54486" lon="-4.92538"></trkpt>
      <trkpt lat="50.54464" lon="-4.9256"></trkpt>
      <trkpt lat="50.54423" lon="-4.92637"></trkpt>
      <trkpt lat="50.54282" lon="-4.93169"></trkpt>
      <trkpt lat="50.54234" lon="-4.93426"></trkpt>
      <trkpt lat="50.54193" lon="-4.93553"></trkpt>
      <trkpt lat="50.54174" lon="-4.93606"></trkpt>
      <trkpt lat="50.54173" lon="-4.93635"></trkpt>
      <trkpt lat="50.54196" lon="-4.93644"></trkpt>
      <trkpt lat="50.54225" lon="-4.93624"></trkpt>
      <trkpt lat="50.5429" lon="-4.93635"></trkpt>
      <trkpt lat="50.5429" lon="-4.93632"></trkpt>
      <trkpt lat="50.54256" lon="-4.93626"></trkpt>
      <trkpt lat="50.54257" lon="-4.9362"></trkpt>
      <trkpt lat="50.54301" lon="-4.93629"></trkpt>
      <trkpt lat="50.54305" lon="-4.93637"></trkpt>
      <trkpt lat="50.54293" lon="-4.93655"></trkpt>
      <trkpt lat="50.54297" lon="-4.93662"></trkpt>
      <trkpt lat="50.54297" lon="-4.93657"></trkpt>
      <trkpt lat="50.54303" lon="-4.93668"></trkpt>
      <trkpt lat="50.54301" lon="-4.93671"></trkpt>
      <trkpt lat="50.54302" lon="-4.93675"></trkpt>
      <trkpt lat="50.54298" lon="-4.93685"></trkpt>
    </trkseg>
  </trk>
</gpx>
