<?xml version="1.0" encoding="UTF-8"?>
<gpx version="1.1" creator="swcp-walk (imported from OS Maps route 33832942)"
     xmlns="http://www.topografix.com/GPX/1/1">
  <metadata>
    <name>SWCP15-padstow-Porthcothan</name>
  </metadata>
  <trk>
    <name>SWCP15-padstow-Porthcothan</name>
    <trkseg>
      <trkpt lat="50.543034610490025" lon="-4.936140455455131"></trkpt>
      <trkpt lat="50.54301" lon="-4.93629"></trkpt>
      <trkpt lat="50.54305" lon="-4.93637"></trkpt>
      <trkpt lat="50.54293" lon="-4.93655"></trkpt>
      <trkpt lat="50.54297" lon="-4.93662"></trkpt>
      <trkpt lat="50.54297" lon="-4.93657"></trkpt>
      <trkpt lat="50.54303" lon="-4.93668"></trkpt>
      <trkpt lat="50.54323" lon="-4.93645"></trkpt>
      <trkpt lat="50.54325" lon="-4.93648"></trkpt>
      <trkpt lat="50.54369" lon="-4.93643"></trkpt>
      <trkpt lat="50.54414" lon="-4.93633"></trkpt>
      <trkpt lat="50.54512" lon="-4.93601"></trkpt>
      <trkpt lat="50.54587" lon="-4.93574"></trkpt>
      <trkpt lat="50.54656" lon="-4.93556"></trkpt>
      <trkpt lat="50.54682" lon="-4.93532"></trkpt>
      <trkpt lat="50.54695" lon="-4.93524"></trkpt>
      <trkpt lat="50.54724" lon="-4.93516"></trkpt>
      <trkpt lat="50.54747" lon="-4.93518"></trkpt>
      <trkpt lat="50.54765" lon="-4.93527"></trkpt>
      <trkpt lat="50.54768" lon="-4.93526"></trkpt>
      <trkpt lat="50.5477" lon="-4.9353"></trkpt>
      <trkpt lat="50.54794" lon="-4.93537"></trkpt>
      <trkpt lat="50.54831" lon="-4.93553"></trkpt>
      <trkpt lat="50.54844" lon="-4.93557"></trkpt>
      <trkpt lat="50.54872" lon="-4.93574"></trkpt>
      <trkpt lat="50.54902" lon="-4.93596"></trkpt>
      <trkpt lat="50.54965" lon="-4.9366"></trkpt>
      <trkpt lat="50.55011" lon="-4.93723"></trkpt>
      <trkpt lat="50.55028" lon="-4.93749"></trkpt>
      <trkpt lat="50.55041" lon="-4.93776"></trkpt>
      <trkpt lat="50.55048" lon="-4.938"></trkpt>
      <trkpt lat="50.55051" lon="-4.93823"></trkpt>
      <trkpt lat="50.55048" lon="-4.93859"></trkpt>
      <trkpt lat="50.55042" lon="-4.93892"></trkpt>
      <trkpt lat="50.55081" lon="-4.93927"></trkpt>
      <trkpt lat="50.55116" lon="-4.93897"></trkpt>
      <trkpt lat="50.55124" lon="-4.93894"></trkpt>
      <trkpt lat="50.55198" lon="-4.93902"></trkpt>
      <trkpt lat="50.55276" lon="-4.93916"></trkpt>
      <trkpt lat="50.55276" lon="-4.93915"></trkpt>
      <trkpt lat="50.55298" lon="-4.93921"></trkpt>
      <trkpt lat="50.55301" lon="-4.93926"></trkpt>
      <trkpt lat="50.5531" lon="-4.93954"></trkpt>
      <trkpt lat="50.55317" lon="-4.93966"></trkpt>
      <trkpt lat="50.55374" lon="-4.94036"></trkpt>
      <trkpt lat="50.55396" lon="-4.94083"></trkpt>
      <trkpt lat="50.5541" lon="-4.94128"></trkpt>
      <trkpt lat="50.55412" lon="-4.94141"></trkpt>
      <trkpt lat="50.55412" lon="-4.94193"></trkpt>
      <trkpt lat="50.55407" lon="-4.94236"></trkpt>
      <trkpt lat="50.55411" lon="-4.94256"></trkpt>
      <trkpt lat="50.5542" lon="-4.94274"></trkpt>
      <trkpt lat="50.55421" lon="-4.94285"></trkpt>
      <trkpt lat="50.55419" lon="-4.943"></trkpt>
      <trkpt lat="50.55415" lon="-4.9431"></trkpt>
      <trkpt lat="50.55418" lon="-4.94324"></trkpt>
      <trkpt lat="50.55421" lon="-4.94331"></trkpt>
      <trkpt lat="50.55427" lon="-4.94361"></trkpt>
      <trkpt lat="50.55427" lon="-4.94374"></trkpt>
      <trkpt lat="50.55417" lon="-4.94419"></trkpt>
      <trkpt lat="50.55421" lon="-4.94423"></trkpt>
      <trkpt lat="50.55424" lon="-4.94443"></trkpt>
      <trkpt lat="50.55429" lon="-4.94457"></trkpt>
      <trkpt lat="50.55434" lon="-4.94525"></trkpt>
      <trkpt lat="50.55436" lon="-4.94531"></trkpt>
      <trkpt lat="50.55432" lon="-4.94577"></trkpt>
      <trkpt lat="50.55435" lon="-4.94597"></trkpt>
      <trkpt lat="50.55437" lon="-4.94603"></trkpt>
      <trkpt lat="50.5544" lon="-4.94607"></trkpt>
      <trkpt lat="50.55442" lon="-4.94623"></trkpt>
      <trkpt lat="50.55439" lon="-4.94636"></trkpt>
      <trkpt lat="50.55441" lon="-4.94657"></trkpt>
      <trkpt lat="50.5544" lon="-4.94675"></trkpt>
      <trkpt lat="50.55437" lon="-4.94687"></trkpt>
      <trkpt lat="50.55432" lon="-4.947"></trkpt>
      <trkpt lat="50.55425" lon="-4.94709"></trkpt>
      <trkpt lat="50.55408" lon="-4.94716"></trkpt>
      <trkpt lat="50.55403" lon="-4.9472"></trkpt>
      <trkpt lat="50.554" lon="-4.94728"></trkpt>
      <trkpt lat="50.55401" lon="-4.94732"></trkpt>
      <trkpt lat="50.55421" lon="-4.94761"></trkpt>
      <trkpt lat="50.55424" lon="-4.94774"></trkpt>
      <trkpt lat="50.55426" lon="-4.94797"></trkpt>
      <trkpt lat="50.55423" lon="-4.94861"></trkpt>
      <trkpt lat="50.55421" lon="-4.94873"></trkpt>
      <trkpt lat="50.55411" lon="-4.94901"></trkpt>
      <trkpt lat="50.554" lon="-4.94925"></trkpt>
      <trkpt lat="50.554" lon="-4.94932"></trkpt>
      <trkpt lat="50.5541" lon="-4.94951"></trkpt>
      <trkpt lat="50.55411" lon="-4.94966"></trkpt>
      <trkpt lat="50.55395" lon="-4.95008"></trkpt>
      <trkpt lat="50.55392" lon="-4.95022"></trkpt>
      <trkpt lat="50.55391" lon="-4.95038"></trkpt>
      <trkpt lat="50.55416" lon="-4.95048"></trkpt>
      <trkpt lat="50.55431" lon="-4.9508"></trkpt>
      <trkpt lat="50.55442" lon="-4.95089"></trkpt>
      <trkpt lat="50.55464" lon="-4.95091"></trkpt>
      <trkpt lat="50.55481" lon="-4.95101"></trkpt>
      <trkpt lat="50.55498" lon="-4.95121"></trkpt>
      <trkpt lat="50.55508" lon="-4.9514"></trkpt>
      <trkpt lat="50.55515" lon="-4.95165"></trkpt>
      <trkpt lat="50.55518" lon="-4.95185"></trkpt>
      <trkpt lat="50.55521" lon="-4.95239"></trkpt>
      <trkpt lat="50.55527" lon="-4.95272"></trkpt>
      <trkpt lat="50.55528" lon="-4.95275"></trkpt>
      <trkpt lat="50.55531" lon="-4.95278"></trkpt>
      <trkpt lat="50.5555" lon="-4.95291"></trkpt>
      <trkpt lat="50.55566" lon="-4.95298"></trkpt>
      <trkpt lat="50.55574" lon="-4.95295"></trkpt>
      <trkpt lat="50.55576" lon="-4.95279"></trkpt>
      <trkpt lat="50.55589" lon="-4.95224"></trkpt>
      <trkpt lat="50.55594" lon="-4.95176"></trkpt>
      <trkpt lat="50.55587" lon="-4.95067"></trkpt>
      <trkpt lat="50.55587" lon="-4.9503"></trkpt>
      <trkpt lat="50.55586" lon="-4.95018"></trkpt>
      <trkpt lat="50.5559" lon="-4.95004"></trkpt>
      <trkpt lat="50.55602" lon="-4.94994"></trkpt>
      <trkpt lat="50.55626" lon="-4.94998"></trkpt>
      <trkpt lat="50.55633" lon="-4.94997"></trkpt>
      <trkpt lat="50.55673" lon="-4.94975"></trkpt>
      <trkpt lat="50.55682" lon="-4.94966"></trkpt>
      <trkpt lat="50.55699" lon="-4.94942"></trkpt>
      <trkpt lat="50.55698" lon="-4.94942"></trkpt>
      <trkpt lat="50.55716" lon="-4.94921"></trkpt>
      <trkpt lat="50.55776" lon="-4.9489"></trkpt>
      <trkpt lat="50.55795" lon="-4.9489"></trkpt>
      <trkpt lat="50.55821" lon="-4.94896"></trkpt>
      <trkpt lat="50.55839" lon="-4.94896"></trkpt>
      <trkpt lat="50.55884" lon="-4.94886"></trkpt>
      <trkpt lat="50.55919" lon="-4.94862"></trkpt>
      <trkpt lat="50.55958" lon="-4.94851"></trkpt>
      <trkpt lat="50.55977" lon="-4.94852"></trkpt>
      <trkpt lat="50.55988" lon="-4.94867"></trkpt>
      <trkpt lat="50.55992" lon="-4.94927"></trkpt>
      <trkpt lat="50.55995" lon="-4.94937"></trkpt>
      <trkpt lat="50.56" lon="-4.94938"></trkpt>
      <trkpt lat="50.56001" lon="-4.94933"></trkpt>
      <trkpt lat="50.56003" lon="-4.9493"></trkpt>
      <trkpt lat="50.56011" lon="-4.9493"></trkpt>
      <trkpt lat="50.56041" lon="-4.94955"></trkpt>
      <trkpt lat="50.56057" lon="-4.94938"></trkpt>
      <trkpt lat="50.56067" lon="-4.94916"></trkpt>
      <trkpt lat="50.5607" lon="-4.94897"></trkpt>
      <trkpt lat="50.56084" lon="-4.94867"></trkpt>
      <trkpt lat="50.56101" lon="-4.94835"></trkpt>
      <trkpt lat="50.56113" lon="-4.94819"></trkpt>
      <trkpt lat="50.56135" lon="-4.94805"></trkpt>
      <trkpt lat="50.56191" lon="-4.94758"></trkpt>
      <trkpt lat="50.56221" lon="-4.94741"></trkpt>
      <trkpt lat="50.56254" lon="-4.94728"></trkpt>
      <trkpt lat="50.56301" lon="-4.94724"></trkpt>
      <trkpt lat="50.5631" lon="-4.94725"></trkpt>
      <trkpt lat="50.56316" lon="-4.94731"></trkpt>
      <trkpt lat="50.56348" lon="-4.9473"></trkpt>
      <trkpt lat="50.56375" lon="-4.94737"></trkpt>
      <trkpt lat="50.5641" lon="-4.94752"></trkpt>
      <trkpt lat="50.56457" lon="-4.94759"></trkpt>
      <trkpt lat="50.56479" lon="-4.94753"></trkpt>
      <trkpt lat="50.56507" lon="-4.94737"></trkpt>
      <trkpt lat="50.56556" lon="-4.94714"></trkpt>
      <trkpt lat="50.56589" lon="-4.94706"></trkpt>
      <trkpt lat="50.56684" lon="-4.94668"></trkpt>
      <trkpt lat="50.56694" lon="-4.94666"></trkpt>
      <trkpt lat="50.56796" lon="-4.94675"></trkpt>
      <trkpt lat="50.568" lon="-4.94692"></trkpt>
      <trkpt lat="50.56819" lon="-4.94781"></trkpt>
      <trkpt lat="50.56821" lon="-4.94806"></trkpt>
      <trkpt lat="50.56828" lon="-4.94836"></trkpt>
      <trkpt lat="50.56842" lon="-4.94877"></trkpt>
      <trkpt lat="50.56844" lon="-4.94889"></trkpt>
      <trkpt lat="50.56843" lon="-4.94912"></trkpt>
      <trkpt lat="50.56851" lon="-4.94936"></trkpt>
      <trkpt lat="50.56859" lon="-4.94954"></trkpt>
      <trkpt lat="50.56887" lon="-4.95001"></trkpt>
      <trkpt lat="50.56864" lon="-4.95079"></trkpt>
      <trkpt lat="50.56822" lon="-4.95227"></trkpt>
      <trkpt lat="50.568" lon="-4.95251"></trkpt>
      <trkpt lat="50.56784" lon="-4.95263"></trkpt>
      <trkpt lat="50.56732" lon="-4.95362"></trkpt>
      <trkpt lat="50.56704" lon="-4.95422"></trkpt>
      <trkpt lat="50.56684" lon="-4.95438"></trkpt>
      <trkpt lat="50.56635" lon="-4.95468"></trkpt>
      <trkpt lat="50.56568" lon="-4.95493"></trkpt>
      <trkpt lat="50.56507" lon="-4.95522"></trkpt>
      <trkpt lat="50.56454" lon="-4.9553"></trkpt>
      <trkpt lat="50.56444" lon="-4.95527"></trkpt>
      <trkpt lat="50.56426" lon="-4.95497"></trkpt>
      <trkpt lat="50.56417" lon="-4.95485"></trkpt>
      <trkpt lat="50.56397" lon="-4.95463"></trkpt>
      <trkpt lat="50.56375" lon="-4.95433"></trkpt>
      <trkpt lat="50.56342" lon="-4.954"></trkpt>
      <trkpt lat="50.56335" lon="-4.95399"></trkpt>
      <trkpt lat="50.56315" lon="-4.95405"></trkpt>
      <trkpt lat="50.56298" lon="-4.95421"></trkpt>
      <trkpt lat="50.56286" lon="-4.95446"></trkpt>
      <trkpt lat="50.56281" lon="-4.95467"></trkpt>
      <trkpt lat="50.56273" lon="-4.95535"></trkpt>
      <trkpt lat="50.56186" lon="-4.95693"></trkpt>
      <trkpt lat="50.56124" lon="-4.95811"></trkpt>
      <trkpt lat="50.56102" lon="-4.9587"></trkpt>
      <trkpt lat="50.56079" lon="-4.95917"></trkpt>
      <trkpt lat="50.56058" lon="-4.9594"></trkpt>
      <trkpt lat="50.56014" lon="-4.96038"></trkpt>
      <trkpt lat="50.5598" lon="-4.96106"></trkpt>
      <trkpt lat="50.55927" lon="-4.96191"></trkpt>
      <trkpt lat="50.5592" lon="-4.96207"></trkpt>
      <trkpt lat="50.55876" lon="-4.9634"></trkpt>
      <trkpt lat="50.55845" lon="-4.96388"></trkpt>
      <trkpt lat="50.55828" lon="-4.96429"></trkpt>
      <trkpt lat="50.55816" lon="-4.96442"></trkpt>
      <trkpt lat="50.5581" lon="-4.96451"></trkpt>
      <trkpt lat="50.55755" lon="-4.96691"></trkpt>
      <trkpt lat="50.55741" lon="-4.96754"></trkpt>
      <trkpt lat="50.55757" lon="-4.96823"></trkpt>
      <trkpt lat="50.55762" lon="-4.96839"></trkpt>
      <trkpt lat="50.55759" lon="-4.96865"></trkpt>
      <trkpt lat="50.55716" lon="-4.9702"></trkpt>
      <trkpt lat="50.55697" lon="-4.97088"></trkpt>
      <trkpt lat="50.55675" lon="-4.97177"></trkpt>
      <trkpt lat="50.55665" lon="-4.97186"></trkpt>
      <trkpt lat="50.5561" lon="-4.97207"></trkpt>
      <trkpt lat="50.55592" lon="-4.97223"></trkpt>
      <trkpt lat="50.55575" lon="-4.97243"></trkpt>
      <trkpt lat="50.55553" lon="-4.97264"></trkpt>
      <trkpt lat="50.55552" lon="-4.97268"></trkpt>
      <trkpt lat="50.55547" lon="-4.9727"></trkpt>
      <trkpt lat="50.55521" lon="-4.9727"></trkpt>
      <trkpt lat="50.55501" lon="-4.97265"></trkpt>
      <trkpt lat="50.55489" lon="-4.97258"></trkpt>
      <trkpt lat="50.55483" lon="-4.97236"></trkpt>
      <trkpt lat="50.55477" lon="-4.97247"></trkpt>
      <trkpt lat="50.55472" lon="-4.97245"></trkpt>
      <trkpt lat="50.55463" lon="-4.97247"></trkpt>
      <trkpt lat="50.55459" lon="-4.97257"></trkpt>
      <trkpt lat="50.55444" lon="-4.97274"></trkpt>
      <trkpt lat="50.55428" lon="-4.97279"></trkpt>
      <trkpt lat="50.5541" lon="-4.97266"></trkpt>
      <trkpt lat="50.55395" lon="-4.97246"></trkpt>
      <trkpt lat="50.55392" lon="-4.97247"></trkpt>
      <trkpt lat="50.55391" lon="-4.97278"></trkpt>
      <trkpt lat="50.55394" lon="-4.97295"></trkpt>
      <trkpt lat="50.55392" lon="-4.97313"></trkpt>
      <trkpt lat="50.55393" lon="-4.97323"></trkpt>
      <trkpt lat="50.55388" lon="-4.97333"></trkpt>
      <trkpt lat="50.5536" lon="-4.97369"></trkpt>
      <trkpt lat="50.55342" lon="-4.97385"></trkpt>
      <trkpt lat="50.55305" lon="-4.97402"></trkpt>
      <trkpt lat="50.55293" lon="-4.97404"></trkpt>
      <trkpt lat="50.55282" lon="-4.97392"></trkpt>
      <trkpt lat="50.55268" lon="-4.97384"></trkpt>
      <trkpt lat="50.55242" lon="-4.97378"></trkpt>
      <trkpt lat="50.5523" lon="-4.9738"></trkpt>
      <trkpt lat="50.55222" lon="-4.97391"></trkpt>
      <trkpt lat="50.55115" lon="-4.97447"></trkpt>
      <trkpt lat="50.55074" lon="-4.97474"></trkpt>
      <trkpt lat="50.5498" lon="-4.97579"></trkpt>
      <trkpt lat="50.54912" lon="-4.97631"></trkpt>
      <trkpt lat="50.54905" lon="-4.97645"></trkpt>
      <trkpt lat="50.54904" lon="-4.97658"></trkpt>
      <trkpt lat="50.54904" lon="-4.97659"></trkpt>
      <trkpt lat="50.54893" lon="-4.97711"></trkpt>
      <trkpt lat="50.54891" lon="-4.9776"></trkpt>
      <trkpt lat="50.54886" lon="-4.97818"></trkpt>
      <trkpt lat="50.5487" lon="-4.97906"></trkpt>
      <trkpt lat="50.54841" lon="-4.9803"></trkpt>
      <trkpt lat="50.54836" lon="-4.98057"></trkpt>
      <trkpt lat="50.54833" lon="-4.98062"></trkpt>
      <trkpt lat="50.54815" lon="-4.98073"></trkpt>
      <trkpt lat="50.54801" lon="-4.98077"></trkpt>
      <trkpt lat="50.54788" lon="-4.98075"></trkpt>
      <trkpt lat="50.54775" lon="-4.98062"></trkpt>
      <trkpt lat="50.54756" lon="-4.9803"></trkpt>
      <trkpt lat="50.54722" lon="-4.97949"></trkpt>
      <trkpt lat="50.54704" lon="-4.97884"></trkpt>
      <trkpt lat="50.54677" lon="-4.97763"></trkpt>
      <trkpt lat="50.54666" lon="-4.97743"></trkpt>
      <trkpt lat="50.54633" lon="-4.97693"></trkpt>
      <trkpt lat="50.54623" lon="-4.97682"></trkpt>
      <trkpt lat="50.54613" lon="-4.97676"></trkpt>
      <trkpt lat="50.54587" lon="-4.97678"></trkpt>
      <trkpt lat="50.54583" lon="-4.97684"></trkpt>
      <trkpt lat="50.54577" lon="-4.97685"></trkpt>
      <trkpt lat="50.54555" lon="-4.9768"></trkpt>
      <trkpt lat="50.54546" lon="-4.97682"></trkpt>
      <trkpt lat="50.54541" lon="-4.9769"></trkpt>
      <trkpt lat="50.54536" lon="-4.97708"></trkpt>
      <trkpt lat="50.54533" lon="-4.97713"></trkpt>
      <trkpt lat="50.54523" lon="-4.97713"></trkpt>
      <trkpt lat="50.54524" lon="-4.9772"></trkpt>
      <trkpt lat="50.54521" lon="-4.97768"></trkpt>
      <trkpt lat="50.54516" lon="-4.97772"></trkpt>
      <trkpt lat="50.54501" lon="-4.97806"></trkpt>
      <trkpt lat="50.54501" lon="-4.97861"></trkpt>
      <trkpt lat="50.54504" lon="-4.97899"></trkpt>
      <trkpt lat="50.54502" lon="-4.97907"></trkpt>
      <trkpt lat="50.54499" lon="-4.97908"></trkpt>
      <trkpt lat="50.54497" lon="-4.97931"></trkpt>
      <trkpt lat="50.54497" lon="-4.97932"></trkpt>
      <trkpt lat="50.54493" lon="-4.97944"></trkpt>
      <trkpt lat="50.54482" lon="-4.97954"></trkpt>
      <trkpt lat="50.54473" lon="-4.97957"></trkpt>
      <trkpt lat="50.54465" lon="-4.97968"></trkpt>
      <trkpt lat="50.54404" lon="-4.98067"></trkpt>
      <trkpt lat="50.54386" lon="-4.98085"></trkpt>
      <trkpt lat="50.54371" lon="-4.98121"></trkpt>
      <trkpt lat="50.54362" lon="-4.98136"></trkpt>
      <trkpt lat="50.54359" lon="-4.98147"></trkpt>
      <trkpt lat="50.54354" lon="-4.98199"></trkpt>
      <trkpt lat="50.54353" lon="-4.98239"></trkpt>
      <trkpt lat="50.54346" lon="-4.98307"></trkpt>
      <trkpt lat="50.54341" lon="-4.98314"></trkpt>
      <trkpt lat="50.54327" lon="-4.98325"></trkpt>
      <trkpt lat="50.54326" lon="-4.98328"></trkpt>
      <trkpt lat="50.54301" lon="-4.98322"></trkpt>
      <trkpt lat="50.54293" lon="-4.98322"></trkpt>
      <trkpt lat="50.54288" lon="-4.98326"></trkpt>
      <trkpt lat="50.54284" lon="-4.98338"></trkpt>
      <trkpt lat="50.54281" lon="-4.98341"></trkpt>
      <trkpt lat="50.54272" lon="-4.98344"></trkpt>
      <trkpt lat="50.54269" lon="-4.98341"></trkpt>
      <trkpt lat="50.54272" lon="-4.98337"></trkpt>
      <trkpt lat="50.54272" lon="-4.98333"></trkpt>
      <trkpt lat="50.54214" lon="-4.98305"></trkpt>
      <trkpt lat="50.54191" lon="-4.98305"></trkpt>
      <trkpt lat="50.54185" lon="-4.98308"></trkpt>
      <trkpt lat="50.54181" lon="-4.98321"></trkpt>
      <trkpt lat="50.54178" lon="-4.98342"></trkpt>
      <trkpt lat="50.54179" lon="-4.9835"></trkpt>
      <trkpt lat="50.54188" lon="-4.98372"></trkpt>
      <trkpt lat="50.54196" lon="-4.98429"></trkpt>
      <trkpt lat="50.54211" lon="-4.98463"></trkpt>
      <trkpt lat="50.54209" lon="-4.98496"></trkpt>
      <trkpt lat="50.54215" lon="-4.98555"></trkpt>
      <trkpt lat="50.54225" lon="-4.98579"></trkpt>
      <trkpt lat="50.54226" lon="-4.98586"></trkpt>
      <trkpt lat="50.5422" lon="-4.98629"></trkpt>
      <trkpt lat="50.54223" lon="-4.9864"></trkpt>
      <trkpt lat="50.54247" lon="-4.98678"></trkpt>
      <trkpt lat="50.54246" lon="-4.98683"></trkpt>
      <trkpt lat="50.54234" lon="-4.98702"></trkpt>
      <trkpt lat="50.5422" lon="-4.98731"></trkpt>
      <trkpt lat="50.54213" lon="-4.98756"></trkpt>
      <trkpt lat="50.54213" lon="-4.98763"></trkpt>
      <trkpt lat="50.54215" lon="-4.9877"></trkpt>
      <trkpt lat="50.54226" lon="-4.98788"></trkpt>
      <trkpt lat="50.54236" lon="-4.988"></trkpt>
      <trkpt lat="50.54291" lon="-4.98852"></trkpt>
      <trkpt lat="50.54293" lon="-4.98859"></trkpt>
      <trkpt lat="50.54292" lon="-4.98889"></trkpt>
      <trkpt lat="50.54294" lon="-4.98898"></trkpt>
      <trkpt lat="50.54309" lon="-4.98912"></trkpt>
      <trkpt lat="50.54335" lon="-4.98927"></trkpt>
      <trkpt lat="50.54338" lon="-4.98933"></trkpt>
      <trkpt lat="50.54339" lon="-4.98941"></trkpt>
      <trkpt lat="50.5433" lon="-4.9899"></trkpt>
      <trkpt lat="50.5433" lon="-4.98991"></trkpt>
      <trkpt lat="50.54321" lon="-4.99033"></trkpt>
      <trkpt lat="50.54311" lon="-4.99062"></trkpt>
      <trkpt lat="50.5429" lon="-4.99112"></trkpt>
      <trkpt lat="50.5429" lon="-4.99123"></trkpt>
      <trkpt lat="50.54295" lon="-4.99157"></trkpt>
      <trkpt lat="50.54295" lon="-4.9917"></trkpt>
      <trkpt lat="50.54287" lon="-4.99212"></trkpt>
      <trkpt lat="50.54259" lon="-4.99284"></trkpt>
      <trkpt lat="50.5424" lon="-4.9935"></trkpt>
      <trkpt lat="50.54196" lon="-4.99436"></trkpt>
      <trkpt lat="50.54178" lon="-4.99455"></trkpt>
      <trkpt lat="50.54151" lon="-4.99478"></trkpt>
      <trkpt lat="50.54139" lon="-4.99481"></trkpt>
      <trkpt lat="50.54111" lon="-4.99481"></trkpt>
      <trkpt lat="50.541" lon="-4.99478"></trkpt>
      <trkpt lat="50.54063" lon="-4.99459"></trkpt>
      <trkpt lat="50.54059" lon="-4.99453"></trkpt>
      <trkpt lat="50.54041" lon="-4.99401"></trkpt>
      <trkpt lat="50.53968" lon="-4.99495"></trkpt>
      <trkpt lat="50.53961" lon="-4.99493"></trkpt>
      <trkpt lat="50.53958" lon="-4.99486"></trkpt>
      <trkpt lat="50.53952" lon="-4.99484"></trkpt>
      <trkpt lat="50.53951" lon="-4.99496"></trkpt>
      <trkpt lat="50.53936" lon="-4.99534"></trkpt>
      <trkpt lat="50.53939" lon="-4.99538"></trkpt>
      <trkpt lat="50.53959" lon="-4.99546"></trkpt>
      <trkpt lat="50.5397" lon="-4.99559"></trkpt>
      <trkpt lat="50.53978" lon="-4.99577"></trkpt>
      <trkpt lat="50.54001" lon="-4.99748"></trkpt>
      <trkpt lat="50.54024" lon="-4.99937"></trkpt>
      <trkpt lat="50.54023" lon="-4.99947"></trkpt>
      <trkpt lat="50.54017" lon="-4.99955"></trkpt>
      <trkpt lat="50.54" lon="-4.99961"></trkpt>
      <trkpt lat="50.53989" lon="-4.99967"></trkpt>
      <trkpt lat="50.53994" lon="-4.99988"></trkpt>
      <trkpt lat="50.5402" lon="-5.00029"></trkpt>
      <trkpt lat="50.54024" lon="-5.00095"></trkpt>
      <trkpt lat="50.54027" lon="-5.0011"></trkpt>
      <trkpt lat="50.54055" lon="-5.00207"></trkpt>
      <trkpt lat="50.54094" lon="-5.00238"></trkpt>
      <trkpt lat="50.5412" lon="-5.00289"></trkpt>
      <trkpt lat="50.54121" lon="-5.00295"></trkpt>
      <trkpt lat="50.54116" lon="-5.00326"></trkpt>
      <trkpt lat="50.54117" lon="-5.00332"></trkpt>
      <trkpt lat="50.54134" lon="-5.00358"></trkpt>
      <trkpt lat="50.54139" lon="-5.00359"></trkpt>
      <trkpt lat="50.54144" lon="-5.0035"></trkpt>
      <trkpt lat="50.54149" lon="-5.00349"></trkpt>
      <trkpt lat="50.54175" lon="-5.00364"></trkpt>
      <trkpt lat="50.54183" lon="-5.00364"></trkpt>
      <trkpt lat="50.54283" lon="-5.00444"></trkpt>
      <trkpt lat="50.5429" lon="-5.00455"></trkpt>
      <trkpt lat="50.54299" lon="-5.00484"></trkpt>
      <trkpt lat="50.54316" lon="-5.00496"></trkpt>
      <trkpt lat="50.54337" lon="-5.00502"></trkpt>
      <trkpt lat="50.54359" lon="-5.00477"></trkpt>
      <trkpt lat="50.54364" lon="-5.00474"></trkpt>
      <trkpt lat="50.54374" lon="-5.00473"></trkpt>
      <trkpt lat="50.54404" lon="-5.0049"></trkpt>
      <trkpt lat="50.54421" lon="-5.00486"></trkpt>
      <trkpt lat="50.54433" lon="-5.0049"></trkpt>
      <trkpt lat="50.54444" lon="-5.00488"></trkpt>
      <trkpt lat="50.54451" lon="-5.00481"></trkpt>
      <trkpt lat="50.54485" lon="-5.0042"></trkpt>
      <trkpt lat="50.54497" lon="-5.00393"></trkpt>
      <trkpt lat="50.54503" lon="-5.00382"></trkpt>
      <trkpt lat="50.54517" lon="-5.00369"></trkpt>
      <trkpt lat="50.54522" lon="-5.00369"></trkpt>
      <trkpt lat="50.54526" lon="-5.00374"></trkpt>
      <trkpt lat="50.54529" lon="-5.00388"></trkpt>
      <trkpt lat="50.54532" lon="-5.00408"></trkpt>
      <trkpt lat="50.54534" lon="-5.00427"></trkpt>
      <trkpt lat="50.54541" lon="-5.00448"></trkpt>
      <trkpt lat="50.54552" lon="-5.00455"></trkpt>
      <trkpt lat="50.5457" lon="-5.0046"></trkpt>
      <trkpt lat="50.54575" lon="-5.00464"></trkpt>
      <trkpt lat="50.5458" lon="-5.00478"></trkpt>
      <trkpt lat="50.54594" lon="-5.00499"></trkpt>
      <trkpt lat="50.54597" lon="-5.00509"></trkpt>
      <trkpt lat="50.54599" lon="-5.00535"></trkpt>
      <trkpt lat="50.54596" lon="-5.00552"></trkpt>
      <trkpt lat="50.54588" lon="-5.00578"></trkpt>
      <trkpt lat="50.54546" lon="-5.00704"></trkpt>
      <trkpt lat="50.54537" lon="-5.00749"></trkpt>
      <trkpt lat="50.54531" lon="-5.00798"></trkpt>
      <trkpt lat="50.54505" lon="-5.0091"></trkpt>
      <trkpt lat="50.54486" lon="-5.00969"></trkpt>
      <trkpt lat="50.54469" lon="-5.01029"></trkpt>
      <trkpt lat="50.54467" lon="-5.01044"></trkpt>
      <trkpt lat="50.54472" lon="-5.01063"></trkpt>
      <trkpt lat="50.5448" lon="-5.01077"></trkpt>
      <trkpt lat="50.5449" lon="-5.01087"></trkpt>
      <trkpt lat="50.54491" lon="-5.01092"></trkpt>
      <trkpt lat="50.54484" lon="-5.01129"></trkpt>
      <trkpt lat="50.54483" lon="-5.01155"></trkpt>
      <trkpt lat="50.54484" lon="-5.01218"></trkpt>
      <trkpt lat="50.54487" lon="-5.01241"></trkpt>
      <trkpt lat="50.54483" lon="-5.01305"></trkpt>
      <trkpt lat="50.54466" lon="-5.01366"></trkpt>
      <trkpt lat="50.5445" lon="-5.01368"></trkpt>
      <trkpt lat="50.54447" lon="-5.01374"></trkpt>
      <trkpt lat="50.54442" lon="-5.01404"></trkpt>
      <trkpt lat="50.54439" lon="-5.01412"></trkpt>
      <trkpt lat="50.54435" lon="-5.01424"></trkpt>
      <trkpt lat="50.5441" lon="-5.01459"></trkpt>
      <trkpt lat="50.54391" lon="-5.01476"></trkpt>
      <trkpt lat="50.54381" lon="-5.01491"></trkpt>
      <trkpt lat="50.54381" lon="-5.01505"></trkpt>
      <trkpt lat="50.54388" lon="-5.01526"></trkpt>
      <trkpt lat="50.54388" lon="-5.01547"></trkpt>
      <trkpt lat="50.54383" lon="-5.01562"></trkpt>
      <trkpt lat="50.54378" lon="-5.01569"></trkpt>
      <trkpt lat="50.54343" lon="-5.01587"></trkpt>
      <trkpt lat="50.54352" lon="-5.0159"></trkpt>
      <trkpt lat="50.54354" lon="-5.01593"></trkpt>
      <trkpt lat="50.54375" lon="-5.01595"></trkpt>
      <trkpt lat="50.54417" lon="-5.01644"></trkpt>
      <trkpt lat="50.54455" lon="-5.01851"></trkpt>
      <trkpt lat="50.54459" lon="-5.01862"></trkpt>
      <trkpt lat="50.54473" lon="-5.01879"></trkpt>
      <trkpt lat="50.54505" lon="-5.01878"></trkpt>
      <trkpt lat="50.54509" lon="-5.01881"></trkpt>
      <trkpt lat="50.54517" lon="-5.01902"></trkpt>
      <trkpt lat="50.54514" lon="-5.01911"></trkpt>
      <trkpt lat="50.54514" lon="-5.01916"></trkpt>
      <trkpt lat="50.54524" lon="-5.01941"></trkpt>
      <trkpt lat="50.5454" lon="-5.01962"></trkpt>
      <trkpt lat="50.54546" lon="-5.0196"></trkpt>
      <trkpt lat="50.54562" lon="-5.0198"></trkpt>
      <trkpt lat="50.54569" lon="-5.01994"></trkpt>
      <trkpt lat="50.54574" lon="-5.02009"></trkpt>
      <trkpt lat="50.54572" lon="-5.02026"></trkpt>
      <trkpt lat="50.54573" lon="-5.0203"></trkpt>
      <trkpt lat="50.54589" lon="-5.02053"></trkpt>
      <trkpt lat="50.54614" lon="-5.0207"></trkpt>
      <trkpt lat="50.54636" lon="-5.0209"></trkpt>
      <trkpt lat="50.54669" lon="-5.02129"></trkpt>
      <trkpt lat="50.54684" lon="-5.0216"></trkpt>
      <trkpt lat="50.5469" lon="-5.02183"></trkpt>
      <trkpt lat="50.54687" lon="-5.0219"></trkpt>
      <trkpt lat="50.54715" lon="-5.02234"></trkpt>
      <trkpt lat="50.54718" lon="-5.02241"></trkpt>
      <trkpt lat="50.54718" lon="-5.0225"></trkpt>
      <trkpt lat="50.54721" lon="-5.02254"></trkpt>
      <trkpt lat="50.54734" lon="-5.02257"></trkpt>
      <trkpt lat="50.54741" lon="-5.02265"></trkpt>
      <trkpt lat="50.54827" lon="-5.02389"></trkpt>
      <trkpt lat="50.54831" lon="-5.02387"></trkpt>
      <trkpt lat="50.54881" lon="-5.0246"></trkpt>
      <trkpt lat="50.54923" lon="-5.02529"></trkpt>
      <trkpt lat="50.55023" lon="-5.02683"></trkpt>
      <trkpt lat="50.5503" lon="-5.027"></trkpt>
      <trkpt lat="50.55029" lon="-5.02695"></trkpt>
      <trkpt lat="50.55018" lon="-5.02724"></trkpt>
      <trkpt lat="50.55018" lon="-5.02745"></trkpt>
      <trkpt lat="50.55019" lon="-5.02753"></trkpt>
      <trkpt lat="50.55013" lon="-5.02777"></trkpt>
      <trkpt lat="50.5501" lon="-5.02796"></trkpt>
      <trkpt lat="50.55007" lon="-5.02802"></trkpt>
      <trkpt lat="50.54998" lon="-5.02812"></trkpt>
      <trkpt lat="50.54989" lon="-5.02838"></trkpt>
      <trkpt lat="50.54979" lon="-5.02856"></trkpt>
      <trkpt lat="50.54971" lon="-5.02877"></trkpt>
      <trkpt lat="50.5497" lon="-5.02893"></trkpt>
      <trkpt lat="50.54965" lon="-5.02913"></trkpt>
      <trkpt lat="50.54964" lon="-5.02941"></trkpt>
      <trkpt lat="50.54967" lon="-5.02951"></trkpt>
      <trkpt lat="50.54973" lon="-5.0296"></trkpt>
      <trkpt lat="50.54981" lon="-5.02966"></trkpt>
      <trkpt lat="50.54982" lon="-5.0298"></trkpt>
      <trkpt lat="50.54979" lon="-5.02992"></trkpt>
      <trkpt lat="50.54973" lon="-5.03033"></trkpt>
      <trkpt lat="50.54965" lon="-5.03069"></trkpt>
      <trkpt lat="50.54964" lon="-5.03142"></trkpt>
      <trkpt lat="50.54953" lon="-5.03215"></trkpt>
      <trkpt lat="50.54946" lon="-5.03242"></trkpt>
      <trkpt lat="50.54946" lon="-5.03243"></trkpt>
      <trkpt lat="50.54898" lon="-5.03386"></trkpt>
      <trkpt lat="50.54889" lon="-5.03431"></trkpt>
      <trkpt lat="50.54869" lon="-5.03474"></trkpt>
      <trkpt lat="50.54864" lon="-5.03478"></trkpt>
      <trkpt lat="50.54849" lon="-5.03478"></trkpt>
      <trkpt lat="50.54836" lon="-5.03475"></trkpt>
      <trkpt lat="50.54829" lon="-5.03486"></trkpt>
      <trkpt lat="50.54806" lon="-5.03469"></trkpt>
      <trkpt lat="50.54765" lon="-5.0344"></trkpt>
      <trkpt lat="50.54737" lon="-5.03428"></trkpt>
      <trkpt lat="50.54723" lon="-5.0343"></trkpt>
      <trkpt lat="50.54711" lon="-5.03439"></trkpt>
      <trkpt lat="50.54664" lon="-5.0344"></trkpt>
      <trkpt lat="50.54642" lon="-5.03443"></trkpt>
      <trkpt lat="50.54627" lon="-5.03448"></trkpt>
      <trkpt lat="50.54567" lon="-5.0344"></trkpt>
      <trkpt lat="50.54555" lon="-5.03402"></trkpt>
      <trkpt lat="50.54537" lon="-5.03377"></trkpt>
      <trkpt lat="50.54511" lon="-5.03369"></trkpt>
      <trkpt lat="50.5449" lon="-5.03371"></trkpt>
      <trkpt lat="50.54477" lon="-5.03372"></trkpt>
      <trkpt lat="50.54445" lon="-5.03357"></trkpt>
      <trkpt lat="50.54422" lon="-5.03343"></trkpt>
      <trkpt lat="50.54406" lon="-5.03327"></trkpt>
      <trkpt lat="50.54391" lon="-5.03319"></trkpt>
      <trkpt lat="50.54359" lon="-5.03252"></trkpt>
      <trkpt lat="50.54329" lon="-5.03193"></trkpt>
      <trkpt lat="50.54308" lon="-5.03137"></trkpt>
      <trkpt lat="50.54291" lon="-5.03074"></trkpt>
      <trkpt lat="50.54272" lon="-5.03046"></trkpt>
      <trkpt lat="50.54264" lon="-5.03025"></trkpt>
      <trkpt lat="50.54258" lon="-5.03004"></trkpt>
      <trkpt lat="50.5425" lon="-5.02992"></trkpt>
      <trkpt lat="50.5424" lon="-5.02982"></trkpt>
      <trkpt lat="50.54227" lon="-5.02965"></trkpt>
      <trkpt lat="50.54203" lon="-5.0292"></trkpt>
      <trkpt lat="50.54198" lon="-5.02902"></trkpt>
      <trkpt lat="50.54192" lon="-5.0287"></trkpt>
      <trkpt lat="50.54192" lon="-5.0284"></trkpt>
      <trkpt lat="50.54197" lon="-5.02779"></trkpt>
      <trkpt lat="50.54194" lon="-5.02761"></trkpt>
      <trkpt lat="50.54195" lon="-5.02754"></trkpt>
      <trkpt lat="50.54199" lon="-5.02747"></trkpt>
      <trkpt lat="50.54196" lon="-5.02737"></trkpt>
      <trkpt lat="50.54192" lon="-5.02735"></trkpt>
      <trkpt lat="50.5419" lon="-5.0273"></trkpt>
      <trkpt lat="50.54184" lon="-5.02609"></trkpt>
      <trkpt lat="50.54181" lon="-5.02602"></trkpt>
      <trkpt lat="50.54164" lon="-5.02581"></trkpt>
      <trkpt lat="50.54146" lon="-5.02554"></trkpt>
      <trkpt lat="50.54131" lon="-5.02526"></trkpt>
      <trkpt lat="50.54115" lon="-5.02512"></trkpt>
      <trkpt lat="50.54102" lon="-5.02513"></trkpt>
      <trkpt lat="50.54078" lon="-5.02509"></trkpt>
      <trkpt lat="50.54054" lon="-5.02498"></trkpt>
      <trkpt lat="50.54022" lon="-5.02476"></trkpt>
      <trkpt lat="50.54004" lon="-5.02466"></trkpt>
      <trkpt lat="50.53992" lon="-5.02465"></trkpt>
      <trkpt lat="50.53973" lon="-5.02445"></trkpt>
      <trkpt lat="50.53954" lon="-5.02439"></trkpt>
      <trkpt lat="50.53928" lon="-5.02414"></trkpt>
      <trkpt lat="50.5392" lon="-5.02409"></trkpt>
      <trkpt lat="50.53872" lon="-5.02404"></trkpt>
      <trkpt lat="50.53861" lon="-5.02411"></trkpt>
      <trkpt lat="50.53833" lon="-5.02416"></trkpt>
      <trkpt lat="50.53783" lon="-5.02439"></trkpt>
      <trkpt lat="50.53749" lon="-5.02456"></trkpt>
      <trkpt lat="50.53741" lon="-5.02454"></trkpt>
      <trkpt lat="50.53714" lon="-5.02433"></trkpt>
      <trkpt lat="50.53713" lon="-5.02423"></trkpt>
      <trkpt lat="50.53714" lon="-5.02415"></trkpt>
      <trkpt lat="50.53703" lon="-5.02411"></trkpt>
      <trkpt lat="50.53694" lon="-5.02396"></trkpt>
      <trkpt lat="50.53656" lon="-5.02352"></trkpt>
      <trkpt lat="50.53623" lon="-5.02301"></trkpt>
      <trkpt lat="50.53599" lon="-5.02277"></trkpt>
      <trkpt lat="50.53526" lon="-5.02248"></trkpt>
      <trkpt lat="50.53468" lon="-5.02251"></trkpt>
      <trkpt lat="50.5341" lon="-5.0224"></trkpt>
      <trkpt lat="50.53268" lon="-5.02259"></trkpt>
      <trkpt lat="50.53231" lon="-5.02273"></trkpt>
      <trkpt lat="50.53169" lon="-5.02296"></trkpt>
      <trkpt lat="50.53136" lon="-5.02299"></trkpt>
      <trkpt lat="50.53136" lon="-5.02337"></trkpt>
      <trkpt lat="50.53134" lon="-5.02343"></trkpt>
      <trkpt lat="50.53079" lon="-5.02396"></trkpt>
      <trkpt lat="50.53067" lon="-5.024"></trkpt>
      <trkpt lat="50.52987" lon="-5.02498"></trkpt>
      <trkpt lat="50.52968" lon="-5.02493"></trkpt>
      <trkpt lat="50.52798" lon="-5.02386"></trkpt>
      <trkpt lat="50.52742" lon="-5.02344"></trkpt>
      <trkpt lat="50.52726" lon="-5.02325"></trkpt>
      <trkpt lat="50.52698" lon="-5.023"></trkpt>
      <trkpt lat="50.52661" lon="-5.02255"></trkpt>
      <trkpt lat="50.52652" lon="-5.02241"></trkpt>
      <trkpt lat="50.52641" lon="-5.02217"></trkpt>
      <trkpt lat="50.52637" lon="-5.02214"></trkpt>
      <trkpt lat="50.52631" lon="-5.02205"></trkpt>
      <trkpt lat="50.52619" lon="-5.02196"></trkpt>
      <trkpt lat="50.5261" lon="-5.02214"></trkpt>
      <trkpt lat="50.52601" lon="-5.02219"></trkpt>
      <trkpt lat="50.526" lon="-5.02219"></trkpt>
      <trkpt lat="50.5255" lon="-5.02263"></trkpt>
      <trkpt lat="50.52533" lon="-5.0229"></trkpt>
      <trkpt lat="50.52529" lon="-5.02315"></trkpt>
      <trkpt lat="50.5251" lon="-5.0233"></trkpt>
      <trkpt lat="50.52502" lon="-5.02344"></trkpt>
      <trkpt lat="50.52488" lon="-5.02385"></trkpt>
      <trkpt lat="50.52486" lon="-5.02408"></trkpt>
      <trkpt lat="50.52488" lon="-5.02429"></trkpt>
      <trkpt lat="50.52498" lon="-5.02476"></trkpt>
      <trkpt lat="50.52523" lon="-5.02502"></trkpt>
      <trkpt lat="50.52541" lon="-5.02527"></trkpt>
      <trkpt lat="50.52555" lon="-5.02552"></trkpt>
      <trkpt lat="50.52558" lon="-5.02563"></trkpt>
      <trkpt lat="50.52558" lon="-5.0257"></trkpt>
      <trkpt lat="50.52577" lon="-5.02599"></trkpt>
      <trkpt lat="50.52581" lon="-5.02622"></trkpt>
      <trkpt lat="50.52579" lon="-5.02643"></trkpt>
      <trkpt lat="50.52576" lon="-5.02654"></trkpt>
      <trkpt lat="50.52565" lon="-5.02676"></trkpt>
      <trkpt lat="50.52545" lon="-5.0271"></trkpt>
      <trkpt lat="50.52537" lon="-5.02714"></trkpt>
      <trkpt lat="50.52532" lon="-5.02721"></trkpt>
      <trkpt lat="50.52513" lon="-5.02748"></trkpt>
      <trkpt lat="50.52499" lon="-5.02762"></trkpt>
      <trkpt lat="50.52487" lon="-5.02766"></trkpt>
      <trkpt lat="50.5247" lon="-5.02766"></trkpt>
      <trkpt lat="50.52462" lon="-5.02762"></trkpt>
      <trkpt lat="50.52443" lon="-5.02742"></trkpt>
      <trkpt lat="50.52434" lon="-5.02723"></trkpt>
      <trkpt lat="50.5242" lon="-5.02707"></trkpt>
      <trkpt lat="50.52414" lon="-5.02695"></trkpt>
      <trkpt lat="50.52355" lon="-5.02606"></trkpt>
      <trkpt lat="50.52343" lon="-5.02607"></trkpt>
      <trkpt lat="50.52341" lon="-5.02609"></trkpt>
      <trkpt lat="50.52338" lon="-5.02621"></trkpt>
      <trkpt lat="50.52331" lon="-5.02634"></trkpt>
      <trkpt lat="50.52315" lon="-5.02656"></trkpt>
      <trkpt lat="50.52291" lon="-5.02672"></trkpt>
      <trkpt lat="50.52281" lon="-5.02682"></trkpt>
      <trkpt lat="50.5227" lon="-5.02676"></trkpt>
      <trkpt lat="50.52258" lon="-5.02663"></trkpt>
      <trkpt lat="50.5225" lon="-5.02659"></trkpt>
      <trkpt lat="50.52224" lon="-5.02659"></trkpt>
      <trkpt lat="50.52206" lon="-5.02671"></trkpt>
      <trkpt lat="50.52192" lon="-5.02689"></trkpt>
      <trkpt lat="50.52188" lon="-5.02698"></trkpt>
      <trkpt lat="50.52179" lon="-5.02731"></trkpt>
      <trkpt lat="50.52162" lon="-5.02774"></trkpt>
      <trkpt lat="50.52152" lon="-5.02793"></trkpt>
      <trkpt lat="50.52141" lon="-5.02808"></trkpt>
      <trkpt lat="50.52126" lon="-5.02823"></trkpt>
      <trkpt lat="50.52126" lon="-5.02831"></trkpt>
      <trkpt lat="50.52116" lon="-5.02851"></trkpt>
      <trkpt lat="50.52101" lon="-5.02874"></trkpt>
      <trkpt lat="50.52072" lon="-5.02901"></trkpt>
      <trkpt lat="50.52062" lon="-5.02905"></trkpt>
      <trkpt lat="50.52043" lon="-5.02894"></trkpt>
      <trkpt lat="50.52039" lon="-5.02888"></trkpt>
      <trkpt lat="50.52038" lon="-5.02873"></trkpt>
      <trkpt lat="50.52039" lon="-5.02865"></trkpt>
      <trkpt lat="50.5205" lon="-5.02847"></trkpt>
      <trkpt lat="50.52056" lon="-5.02806"></trkpt>
      <trkpt lat="50.52063" lon="-5.02799"></trkpt>
      <trkpt lat="50.52077" lon="-5.02753"></trkpt>
      <trkpt lat="50.52079" lon="-5.0274"></trkpt>
      <trkpt lat="50.52086" lon="-5.02633"></trkpt>
      <trkpt lat="50.52085" lon="-5.02629"></trkpt>
      <trkpt lat="50.52078" lon="-5.02621"></trkpt>
      <trkpt lat="50.52078" lon="-5.02579"></trkpt>
      <trkpt lat="50.52076" lon="-5.02575"></trkpt>
      <trkpt lat="50.52026" lon="-5.02558"></trkpt>
      <trkpt lat="50.51999" lon="-5.0257"></trkpt>
      <trkpt lat="50.51984" lon="-5.02586"></trkpt>
      <trkpt lat="50.51983" lon="-5.02586"></trkpt>
      <trkpt lat="50.51978" lon="-5.02594"></trkpt>
      <trkpt lat="50.51972" lon="-5.02611"></trkpt>
      <trkpt lat="50.51972" lon="-5.02615"></trkpt>
      <trkpt lat="50.51977" lon="-5.02622"></trkpt>
      <trkpt lat="50.51972" lon="-5.0263"></trkpt>
      <trkpt lat="50.51969" lon="-5.02638"></trkpt>
      <trkpt lat="50.51955" lon="-5.02699"></trkpt>
      <trkpt lat="50.51941" lon="-5.02704"></trkpt>
      <trkpt lat="50.51918" lon="-5.02707"></trkpt>
      <trkpt lat="50.51904" lon="-5.0272"></trkpt>
      <trkpt lat="50.5186" lon="-5.02727"></trkpt>
      <trkpt lat="50.5183" lon="-5.02726"></trkpt>
      <trkpt lat="50.51825" lon="-5.02731"></trkpt>
      <trkpt lat="50.51819" lon="-5.02726"></trkpt>
      <trkpt lat="50.51806" lon="-5.02726"></trkpt>
      <trkpt lat="50.51798" lon="-5.02733"></trkpt>
      <trkpt lat="50.51791" lon="-5.02736"></trkpt>
      <trkpt lat="50.51784" lon="-5.02736"></trkpt>
      <trkpt lat="50.51758" lon="-5.02719"></trkpt>
      <trkpt lat="50.51746" lon="-5.02718"></trkpt>
      <trkpt lat="50.51738" lon="-5.02736"></trkpt>
      <trkpt lat="50.51731" lon="-5.02747"></trkpt>
      <trkpt lat="50.51707" lon="-5.02756"></trkpt>
      <trkpt lat="50.51698" lon="-5.02754"></trkpt>
      <trkpt lat="50.51677" lon="-5.02737"></trkpt>
      <trkpt lat="50.51669" lon="-5.02723"></trkpt>
      <trkpt lat="50.51664" lon="-5.02706"></trkpt>
      <trkpt lat="50.51654" lon="-5.02688"></trkpt>
      <trkpt lat="50.51643" lon="-5.02659"></trkpt>
      <trkpt lat="50.51638" lon="-5.02655"></trkpt>
      <trkpt lat="50.51624" lon="-5.0266"></trkpt>
      <trkpt lat="50.51618" lon="-5.02665"></trkpt>
      <trkpt lat="50.51594" lon="-5.02699"></trkpt>
      <trkpt lat="50.51589" lon="-5.02712"></trkpt>
      <trkpt lat="50.51576" lon="-5.02761"></trkpt>
      <trkpt lat="50.51569" lon="-5.02778"></trkpt>
      <trkpt lat="50.51544" lon="-5.02808"></trkpt>
      <trkpt lat="50.51526" lon="-5.02857"></trkpt>
      <trkpt lat="50.51502" lon="-5.02905"></trkpt>
      <trkpt lat="50.51485" lon="-5.02913"></trkpt>
      <trkpt lat="50.51482" lon="-5.02912"></trkpt>
      <trkpt lat="50.51481" lon="-5.02907"></trkpt>
      <trkpt lat="50.51486" lon="-5.0289"></trkpt>
      <trkpt lat="50.51491" lon="-5.02874"></trkpt>
      <trkpt lat="50.51492" lon="-5.02865"></trkpt>
      <trkpt lat="50.51488" lon="-5.02853"></trkpt>
      <trkpt lat="50.51472" lon="-5.02822"></trkpt>
      <trkpt lat="50.5147" lon="-5.02814"></trkpt>
      <trkpt lat="50.51474" lon="-5.02703"></trkpt>
      <trkpt lat="50.51472" lon="-5.02696"></trkpt>
      <trkpt lat="50.51459" lon="-5.02684"></trkpt>
      <trkpt lat="50.51434" lon="-5.02676"></trkpt>
      <trkpt lat="50.51426" lon="-5.02671"></trkpt>
      <trkpt lat="50.51417" lon="-5.02647"></trkpt>
      <trkpt lat="50.51407" lon="-5.02637"></trkpt>
      <trkpt lat="50.51399" lon="-5.0264"></trkpt>
      <trkpt lat="50.51381" lon="-5.02652"></trkpt>
      <trkpt lat="50.51355" lon="-5.02663"></trkpt>
      <trkpt lat="50.51352" lon="-5.02668"></trkpt>
      <trkpt lat="50.5135" lon="-5.0269"></trkpt>
      <trkpt lat="50.51347" lon="-5.02695"></trkpt>
      <trkpt lat="50.5133" lon="-5.02777"></trkpt>
      <trkpt lat="50.51326" lon="-5.02781"></trkpt>
      <trkpt lat="50.51323" lon="-5.02803"></trkpt>
      <trkpt lat="50.51319" lon="-5.02812"></trkpt>
      <trkpt lat="50.51307" lon="-5.02824"></trkpt>
      <trkpt lat="50.51299" lon="-5.02826"></trkpt>
      <trkpt lat="50.51268" lon="-5.02813"></trkpt>
      <trkpt lat="50.51259" lon="-5.02802"></trkpt>
      <trkpt lat="50.51247" lon="-5.02798"></trkpt>
      <trkpt lat="50.51231" lon="-5.02786"></trkpt>
      <trkpt lat="50.51221" lon="-5.02784"></trkpt>
      <trkpt lat="50.51216" lon="-5.0278"></trkpt>
      <trkpt lat="50.5121" lon="-5.02771"></trkpt>
      <trkpt lat="50.51205" lon="-5.02757"></trkpt>
      <trkpt lat="50.51178" lon="-5.02712"></trkpt>
      <trkpt lat="50.51158" lon="-5.02692"></trkpt>
      <trkpt lat="50.51147" lon="-5.02673"></trkpt>
      <trkpt lat="50.51141" lon="-5.02647"></trkpt>
      <trkpt lat="50.51137" lon="-5.02638"></trkpt>
      <trkpt lat="50.51129" lon="-5.02628"></trkpt>
      <trkpt lat="50.51127" lon="-5.02614"></trkpt>
      <trkpt lat="50.51107" lon="-5.02552"></trkpt>
      <trkpt lat="50.51104" lon="-5.02537"></trkpt>
      <trkpt lat="50.51103" lon="-5.02498"></trkpt>
      <trkpt lat="50.511" lon="-5.02486"></trkpt>
      <trkpt lat="50.51085" lon="-5.02469"></trkpt>
      <trkpt lat="50.51075" lon="-5.02452"></trkpt>
      <trkpt lat="50.5107" lon="-5.02449"></trkpt>
      <trkpt lat="50.51038" lon="-5.02416"></trkpt>
      <trkpt lat="50.50988" lon="-5.0235"></trkpt>
      <trkpt lat="50.50975" lon="-5.02308"></trkpt>
      <trkpt lat="50.50964" lon="-5.02283"></trkpt>
      <trkpt lat="50.50955" lon="-5.02212"></trkpt>
      <trkpt lat="50.50941" lon="-5.02169"></trkpt>
      <trkpt lat="50.50933" lon="-5.02167"></trkpt>
      <trkpt lat="50.5092" lon="-5.02171"></trkpt>
      <trkpt lat="50.50923" lon="-5.02155"></trkpt>
      <trkpt lat="50.50915" lon="-5.02127"></trkpt>
      <trkpt lat="50.50886" lon="-5.0218"></trkpt>
      <trkpt lat="50.50872" lon="-5.02191"></trkpt>
      <trkpt lat="50.50818" lon="-5.02221"></trkpt>
    </trkseg>
  </trk>
</gpx>
