<?xml version="1.0" encoding="UTF-8"?>
<gpx version="1.1" creator="swcp-walk (imported from OS Maps route 33833195)"
     xmlns="http://www.topografix.com/GPX/1/1">
  <metadata>
    <name>SWCP16-Porthcothan-Newquay</name>
  </metadata>
  <trk>
    <name>SWCP16-Porthcothan-Newquay</name>
    <trkseg>
      <trkpt lat="50.50831781474278" lon="-5.0220445644628455"></trkpt>
      <trkpt lat="50.50833" lon="-5.02213"></trkpt>
      <trkpt lat="50.50822" lon="-5.02219"></trkpt>
      <trkpt lat="50.50841" lon="-5.02258"></trkpt>
      <trkpt lat="50.50849" lon="-5.02292"></trkpt>
      <trkpt lat="50.50844" lon="-5.02314"></trkpt>
      <trkpt lat="50.50839" lon="-5.02359"></trkpt>
      <trkpt lat="50.50833" lon="-5.02361"></trkpt>
      <trkpt lat="50.50832" lon="-5.02383"></trkpt>
      <trkpt lat="50.50836" lon="-5.02399"></trkpt>
      <trkpt lat="50.50837" lon="-5.02425"></trkpt>
      <trkpt lat="50.50843" lon="-5.02443"></trkpt>
      <trkpt lat="50.50848" lon="-5.02449"></trkpt>
      <trkpt lat="50.50857" lon="-5.02482"></trkpt>
      <trkpt lat="50.50871" lon="-5.02572"></trkpt>
      <trkpt lat="50.50885" lon="-5.02608"></trkpt>
      <trkpt lat="50.50892" lon="-5.02636"></trkpt>
      <trkpt lat="50.50904" lon="-5.02707"></trkpt>
      <trkpt lat="50.50915" lon="-5.02738"></trkpt>
      <trkpt lat="50.50915" lon="-5.02744"></trkpt>
      <trkpt lat="50.50908" lon="-5.02791"></trkpt>
      <trkpt lat="50.509" lon="-5.02807"></trkpt>
      <trkpt lat="50.50895" lon="-5.02825"></trkpt>
      <trkpt lat="50.50895" lon="-5.02845"></trkpt>
      <trkpt lat="50.5089" lon="-5.02882"></trkpt>
      <trkpt lat="50.50883" lon="-5.02913"></trkpt>
      <trkpt lat="50.50876" lon="-5.0292"></trkpt>
      <trkpt lat="50.50862" lon="-5.02917"></trkpt>
      <trkpt lat="50.50859" lon="-5.02922"></trkpt>
      <trkpt lat="50.50858" lon="-5.02935"></trkpt>
      <trkpt lat="50.50859" lon="-5.02922"></trkpt>
      <trkpt lat="50.50849" lon="-5.02914"></trkpt>
      <trkpt lat="50.50847" lon="-5.02914"></trkpt>
      <trkpt lat="50.50846" lon="-5.02916"></trkpt>
      <trkpt lat="50.5085" lon="-5.02923"></trkpt>
      <trkpt lat="50.50854" lon="-5.02937"></trkpt>
      <trkpt lat="50.50855" lon="-5.02963"></trkpt>
      <trkpt lat="50.50848" lon="-5.03001"></trkpt>
      <trkpt lat="50.5085" lon="-5.03022"></trkpt>
      <trkpt lat="50.50857" lon="-5.0304"></trkpt>
      <trkpt lat="50.5086" lon="-5.03056"></trkpt>
      <trkpt lat="50.50861" lon="-5.03071"></trkpt>
      <trkpt lat="50.50857" lon="-5.03138"></trkpt>
      <trkpt lat="50.5086" lon="-5.03187"></trkpt>
      <trkpt lat="50.50831" lon="-5.03255"></trkpt>
      <trkpt lat="50.50819" lon="-5.03276"></trkpt>
      <trkpt lat="50.50797" lon="-5.033"></trkpt>
      <trkpt lat="50.5079" lon="-5.03317"></trkpt>
      <trkpt lat="50.50785" lon="-5.03335"></trkpt>
      <trkpt lat="50.50785" lon="-5.03359"></trkpt>
      <trkpt lat="50.5079" lon="-5.03388"></trkpt>
      <trkpt lat="50.5079" lon="-5.03399"></trkpt>
      <trkpt lat="50.50784" lon="-5.03405"></trkpt>
      <trkpt lat="50.50779" lon="-5.03416"></trkpt>
      <trkpt lat="50.50756" lon="-5.03441"></trkpt>
      <trkpt lat="50.50726" lon="-5.03466"></trkpt>
      <trkpt lat="50.50712" lon="-5.03481"></trkpt>
      <trkpt lat="50.50708" lon="-5.0348"></trkpt>
      <trkpt lat="50.50675" lon="-5.03397"></trkpt>
      <trkpt lat="50.5067" lon="-5.0339"></trkpt>
      <trkpt lat="50.50665" lon="-5.03388"></trkpt>
      <trkpt lat="50.50649" lon="-5.03392"></trkpt>
      <trkpt lat="50.50584" lon="-5.03428"></trkpt>
      <trkpt lat="50.50562" lon="-5.03435"></trkpt>
      <trkpt lat="50.5055" lon="-5.03436"></trkpt>
      <trkpt lat="50.50528" lon="-5.03431"></trkpt>
      <trkpt lat="50.50465" lon="-5.03407"></trkpt>
      <trkpt lat="50.50424" lon="-5.03391"></trkpt>
      <trkpt lat="50.50421" lon="-5.03387"></trkpt>
      <trkpt lat="50.50421" lon="-5.03376"></trkpt>
      <trkpt lat="50.50416" lon="-5.03372"></trkpt>
      <trkpt lat="50.50397" lon="-5.03377"></trkpt>
      <trkpt lat="50.50391" lon="-5.03386"></trkpt>
      <trkpt lat="50.50372" lon="-5.03403"></trkpt>
      <trkpt lat="50.50353" lon="-5.03408"></trkpt>
      <trkpt lat="50.50349" lon="-5.0342"></trkpt>
      <trkpt lat="50.50336" lon="-5.03427"></trkpt>
      <trkpt lat="50.50335" lon="-5.03442"></trkpt>
      <trkpt lat="50.50323" lon="-5.03495"></trkpt>
      <trkpt lat="50.50355" lon="-5.03538"></trkpt>
      <trkpt lat="50.50389" lon="-5.03576"></trkpt>
      <trkpt lat="50.5041" lon="-5.0359"></trkpt>
      <trkpt lat="50.50411" lon="-5.03596"></trkpt>
      <trkpt lat="50.50399" lon="-5.03629"></trkpt>
      <trkpt lat="50.50376" lon="-5.03646"></trkpt>
      <trkpt lat="50.50363" lon="-5.03662"></trkpt>
      <trkpt lat="50.50346" lon="-5.03697"></trkpt>
      <trkpt lat="50.50306" lon="-5.03787"></trkpt>
      <trkpt lat="50.50297" lon="-5.03813"></trkpt>
      <trkpt lat="50.50291" lon="-5.03822"></trkpt>
      <trkpt lat="50.503" lon="-5.03907"></trkpt>
      <trkpt lat="50.50296" lon="-5.03934"></trkpt>
      <trkpt lat="50.5029" lon="-5.03945"></trkpt>
      <trkpt lat="50.50283" lon="-5.03948"></trkpt>
      <trkpt lat="50.50259" lon="-5.03941"></trkpt>
      <trkpt lat="50.5025" lon="-5.0394"></trkpt>
      <trkpt lat="50.50245" lon="-5.03942"></trkpt>
      <trkpt lat="50.50238" lon="-5.03948"></trkpt>
      <trkpt lat="50.50225" lon="-5.03979"></trkpt>
      <trkpt lat="50.50222" lon="-5.04"></trkpt>
      <trkpt lat="50.50224" lon="-5.04018"></trkpt>
      <trkpt lat="50.50223" lon="-5.04053"></trkpt>
      <trkpt lat="50.5023" lon="-5.04136"></trkpt>
      <trkpt lat="50.50235" lon="-5.04158"></trkpt>
      <trkpt lat="50.50232" lon="-5.04174"></trkpt>
      <trkpt lat="50.50226" lon="-5.04187"></trkpt>
      <trkpt lat="50.50212" lon="-5.04195"></trkpt>
      <trkpt lat="50.502" lon="-5.04203"></trkpt>
      <trkpt lat="50.50185" lon="-5.04201"></trkpt>
      <trkpt lat="50.50151" lon="-5.04188"></trkpt>
      <trkpt lat="50.50066" lon="-5.04064"></trkpt>
      <trkpt lat="50.50055" lon="-5.04051"></trkpt>
      <trkpt lat="50.50029" lon="-5.04028"></trkpt>
      <trkpt lat="50.49974" lon="-5.04042"></trkpt>
      <trkpt lat="50.49911" lon="-5.0407"></trkpt>
      <trkpt lat="50.4991" lon="-5.0407"></trkpt>
      <trkpt lat="50.49887" lon="-5.04081"></trkpt>
      <trkpt lat="50.49874" lon="-5.04092"></trkpt>
      <trkpt lat="50.4986" lon="-5.04107"></trkpt>
      <trkpt lat="50.49848" lon="-5.04113"></trkpt>
      <trkpt lat="50.49839" lon="-5.04112"></trkpt>
      <trkpt lat="50.49828" lon="-5.04098"></trkpt>
      <trkpt lat="50.49744" lon="-5.03907"></trkpt>
      <trkpt lat="50.4971" lon="-5.03856"></trkpt>
      <trkpt lat="50.4957" lon="-5.03667"></trkpt>
      <trkpt lat="50.49524" lon="-5.03593"></trkpt>
      <trkpt lat="50.49493" lon="-5.0356"></trkpt>
      <trkpt lat="50.49477" lon="-5.03514"></trkpt>
      <trkpt lat="50.49459" lon="-5.0346"></trkpt>
      <trkpt lat="50.49387" lon="-5.03366"></trkpt>
      <trkpt lat="50.49286" lon="-5.03396"></trkpt>
      <trkpt lat="50.4922" lon="-5.03477"></trkpt>
      <trkpt lat="50.49189" lon="-5.03508"></trkpt>
      <trkpt lat="50.49183" lon="-5.03509"></trkpt>
      <trkpt lat="50.49182" lon="-5.03509"></trkpt>
      <trkpt lat="50.49141" lon="-5.03507"></trkpt>
      <trkpt lat="50.49115" lon="-5.03495"></trkpt>
      <trkpt lat="50.49084" lon="-5.03492"></trkpt>
      <trkpt lat="50.49055" lon="-5.03477"></trkpt>
      <trkpt lat="50.48996" lon="-5.03373"></trkpt>
      <trkpt lat="50.48973" lon="-5.03322"></trkpt>
      <trkpt lat="50.48925" lon="-5.03241"></trkpt>
      <trkpt lat="50.4891" lon="-5.03235"></trkpt>
      <trkpt lat="50.48899" lon="-5.03225"></trkpt>
      <trkpt lat="50.48893" lon="-5.03222"></trkpt>
      <trkpt lat="50.48848" lon="-5.03226"></trkpt>
      <trkpt lat="50.48834" lon="-5.03224"></trkpt>
      <trkpt lat="50.48812" lon="-5.03222"></trkpt>
      <trkpt lat="50.488" lon="-5.03226"></trkpt>
      <trkpt lat="50.4879" lon="-5.03232"></trkpt>
      <trkpt lat="50.48739" lon="-5.0329"></trkpt>
      <trkpt lat="50.48711" lon="-5.03281"></trkpt>
      <trkpt lat="50.48693" lon="-5.03272"></trkpt>
      <trkpt lat="50.48652" lon="-5.03254"></trkpt>
      <trkpt lat="50.48613" lon="-5.03244"></trkpt>
      <trkpt lat="50.48576" lon="-5.03254"></trkpt>
      <trkpt lat="50.48569" lon="-5.03259"></trkpt>
      <trkpt lat="50.48552" lon="-5.03285"></trkpt>
      <trkpt lat="50.48539" lon="-5.03285"></trkpt>
      <trkpt lat="50.48517" lon="-5.03295"></trkpt>
      <trkpt lat="50.48494" lon="-5.03297"></trkpt>
      <trkpt lat="50.48486" lon="-5.03307"></trkpt>
      <trkpt lat="50.48481" lon="-5.03319"></trkpt>
      <trkpt lat="50.48469" lon="-5.03318"></trkpt>
      <trkpt lat="50.48453" lon="-5.0331"></trkpt>
      <trkpt lat="50.48445" lon="-5.03314"></trkpt>
      <trkpt lat="50.48439" lon="-5.03314"></trkpt>
      <trkpt lat="50.48423" lon="-5.03301"></trkpt>
      <trkpt lat="50.4841" lon="-5.03295"></trkpt>
      <trkpt lat="50.48393" lon="-5.03291"></trkpt>
      <trkpt lat="50.48374" lon="-5.03297"></trkpt>
      <trkpt lat="50.48329" lon="-5.03284"></trkpt>
      <trkpt lat="50.48312" lon="-5.03278"></trkpt>
      <trkpt lat="50.48265" lon="-5.03349"></trkpt>
      <trkpt lat="50.48244" lon="-5.03346"></trkpt>
      <trkpt lat="50.48228" lon="-5.03341"></trkpt>
      <trkpt lat="50.48212" lon="-5.03351"></trkpt>
      <trkpt lat="50.48201" lon="-5.03368"></trkpt>
      <trkpt lat="50.48164" lon="-5.0341"></trkpt>
      <trkpt lat="50.48136" lon="-5.03426"></trkpt>
      <trkpt lat="50.48108" lon="-5.03446"></trkpt>
      <trkpt lat="50.48104" lon="-5.03452"></trkpt>
      <trkpt lat="50.48084" lon="-5.03458"></trkpt>
      <trkpt lat="50.48058" lon="-5.03484"></trkpt>
      <trkpt lat="50.48038" lon="-5.03498"></trkpt>
      <trkpt lat="50.48038" lon="-5.03499"></trkpt>
      <trkpt lat="50.48027" lon="-5.03506"></trkpt>
      <trkpt lat="50.48009" lon="-5.03514"></trkpt>
      <trkpt lat="50.4799" lon="-5.03517"></trkpt>
      <trkpt lat="50.47976" lon="-5.03527"></trkpt>
      <trkpt lat="50.47965" lon="-5.03526"></trkpt>
      <trkpt lat="50.47888" lon="-5.03539"></trkpt>
      <trkpt lat="50.47848" lon="-5.03534"></trkpt>
      <trkpt lat="50.47787" lon="-5.03543"></trkpt>
      <trkpt lat="50.47729" lon="-5.03542"></trkpt>
      <trkpt lat="50.47682" lon="-5.03538"></trkpt>
      <trkpt lat="50.47661" lon="-5.03549"></trkpt>
      <trkpt lat="50.47615" lon="-5.03591"></trkpt>
      <trkpt lat="50.47609" lon="-5.03592"></trkpt>
      <trkpt lat="50.47603" lon="-5.03589"></trkpt>
      <trkpt lat="50.47589" lon="-5.03597"></trkpt>
      <trkpt lat="50.47565" lon="-5.03604"></trkpt>
      <trkpt lat="50.47555" lon="-5.03614"></trkpt>
      <trkpt lat="50.47541" lon="-5.03638"></trkpt>
      <trkpt lat="50.4753" lon="-5.03675"></trkpt>
      <trkpt lat="50.47519" lon="-5.03721"></trkpt>
      <trkpt lat="50.47519" lon="-5.03746"></trkpt>
      <trkpt lat="50.47516" lon="-5.0376"></trkpt>
      <trkpt lat="50.47512" lon="-5.03762"></trkpt>
      <trkpt lat="50.47509" lon="-5.03769"></trkpt>
      <trkpt lat="50.47502" lon="-5.03776"></trkpt>
      <trkpt lat="50.47493" lon="-5.03776"></trkpt>
      <trkpt lat="50.47484" lon="-5.0377"></trkpt>
      <trkpt lat="50.47452" lon="-5.03772"></trkpt>
      <trkpt lat="50.47441" lon="-5.03766"></trkpt>
      <trkpt lat="50.47431" lon="-5.03755"></trkpt>
      <trkpt lat="50.47425" lon="-5.03742"></trkpt>
      <trkpt lat="50.47389" lon="-5.03707"></trkpt>
      <trkpt lat="50.47366" lon="-5.03688"></trkpt>
      <trkpt lat="50.47359" lon="-5.03673"></trkpt>
      <trkpt lat="50.47342" lon="-5.03666"></trkpt>
      <trkpt lat="50.47206" lon="-5.03553"></trkpt>
      <trkpt lat="50.47202" lon="-5.03539"></trkpt>
      <trkpt lat="50.47195" lon="-5.03444"></trkpt>
      <trkpt lat="50.47193" lon="-5.03438"></trkpt>
      <trkpt lat="50.47187" lon="-5.03433"></trkpt>
      <trkpt lat="50.4718" lon="-5.03423"></trkpt>
      <trkpt lat="50.47171" lon="-5.03415"></trkpt>
      <trkpt lat="50.47164" lon="-5.03403"></trkpt>
      <trkpt lat="50.47155" lon="-5.03394"></trkpt>
      <trkpt lat="50.47105" lon="-5.03381"></trkpt>
      <trkpt lat="50.471" lon="-5.03371"></trkpt>
      <trkpt lat="50.47074" lon="-5.03349"></trkpt>
      <trkpt lat="50.47056" lon="-5.03341"></trkpt>
      <trkpt lat="50.47051" lon="-5.03334"></trkpt>
      <trkpt lat="50.4703" lon="-5.03319"></trkpt>
      <trkpt lat="50.47022" lon="-5.03319"></trkpt>
      <trkpt lat="50.46991" lon="-5.03294"></trkpt>
      <trkpt lat="50.46983" lon="-5.03293"></trkpt>
      <trkpt lat="50.46976" lon="-5.03287"></trkpt>
      <trkpt lat="50.46964" lon="-5.03263"></trkpt>
      <trkpt lat="50.46958" lon="-5.0322"></trkpt>
      <trkpt lat="50.46966" lon="-5.03207"></trkpt>
      <trkpt lat="50.46959" lon="-5.03205"></trkpt>
      <trkpt lat="50.46947" lon="-5.03219"></trkpt>
      <trkpt lat="50.4693" lon="-5.03217"></trkpt>
      <trkpt lat="50.46912" lon="-5.03223"></trkpt>
      <trkpt lat="50.46895" lon="-5.03207"></trkpt>
      <trkpt lat="50.46878" lon="-5.03192"></trkpt>
      <trkpt lat="50.46869" lon="-5.0319"></trkpt>
      <trkpt lat="50.46861" lon="-5.03183"></trkpt>
      <trkpt lat="50.46835" lon="-5.03184"></trkpt>
      <trkpt lat="50.46793" lon="-5.03163"></trkpt>
      <trkpt lat="50.46761" lon="-5.03141"></trkpt>
      <trkpt lat="50.46733" lon="-5.03143"></trkpt>
      <trkpt lat="50.46723" lon="-5.03156"></trkpt>
      <trkpt lat="50.46708" lon="-5.03153"></trkpt>
      <trkpt lat="50.46617" lon="-5.03166"></trkpt>
      <trkpt lat="50.46567" lon="-5.03161"></trkpt>
      <trkpt lat="50.46537" lon="-5.03167"></trkpt>
      <trkpt lat="50.46516" lon="-5.03178"></trkpt>
      <trkpt lat="50.4651" lon="-5.03178"></trkpt>
      <trkpt lat="50.46503" lon="-5.03175"></trkpt>
      <trkpt lat="50.46494" lon="-5.0316"></trkpt>
      <trkpt lat="50.46482" lon="-5.03223"></trkpt>
      <trkpt lat="50.46482" lon="-5.03238"></trkpt>
      <trkpt lat="50.465" lon="-5.0328"></trkpt>
      <trkpt lat="50.46502" lon="-5.03289"></trkpt>
      <trkpt lat="50.46501" lon="-5.03295"></trkpt>
      <trkpt lat="50.46497" lon="-5.03299"></trkpt>
      <trkpt lat="50.46504" lon="-5.03308"></trkpt>
      <trkpt lat="50.46497" lon="-5.03299"></trkpt>
      <trkpt lat="50.46501" lon="-5.03295"></trkpt>
      <trkpt lat="50.46506" lon="-5.033"></trkpt>
      <trkpt lat="50.46507" lon="-5.03305"></trkpt>
      <trkpt lat="50.46509" lon="-5.03306"></trkpt>
      <trkpt lat="50.46526" lon="-5.0334"></trkpt>
      <trkpt lat="50.46545" lon="-5.03353"></trkpt>
      <trkpt lat="50.46552" lon="-5.03363"></trkpt>
      <trkpt lat="50.46565" lon="-5.03387"></trkpt>
      <trkpt lat="50.46606" lon="-5.03448"></trkpt>
      <trkpt lat="50.46621" lon="-5.03498"></trkpt>
      <trkpt lat="50.46626" lon="-5.03551"></trkpt>
      <trkpt lat="50.46622" lon="-5.03555"></trkpt>
      <trkpt lat="50.4662" lon="-5.03582"></trkpt>
      <trkpt lat="50.46622" lon="-5.0362"></trkpt>
      <trkpt lat="50.46626" lon="-5.03627"></trkpt>
      <trkpt lat="50.46626" lon="-5.0364"></trkpt>
      <trkpt lat="50.46599" lon="-5.0373"></trkpt>
      <trkpt lat="50.4658" lon="-5.03769"></trkpt>
      <trkpt lat="50.46549" lon="-5.0379"></trkpt>
      <trkpt lat="50.46548" lon="-5.0379"></trkpt>
      <trkpt lat="50.46526" lon="-5.03811"></trkpt>
      <trkpt lat="50.46515" lon="-5.03825"></trkpt>
      <trkpt lat="50.46501" lon="-5.03852"></trkpt>
      <trkpt lat="50.46494" lon="-5.03869"></trkpt>
      <trkpt lat="50.4649" lon="-5.03889"></trkpt>
      <trkpt lat="50.46471" lon="-5.0404"></trkpt>
      <trkpt lat="50.4646" lon="-5.04072"></trkpt>
      <trkpt lat="50.46448" lon="-5.041"></trkpt>
      <trkpt lat="50.46422" lon="-5.04146"></trkpt>
      <trkpt lat="50.46419" lon="-5.04148"></trkpt>
      <trkpt lat="50.46388" lon="-5.04142"></trkpt>
      <trkpt lat="50.46341" lon="-5.04129"></trkpt>
      <trkpt lat="50.46323" lon="-5.04127"></trkpt>
      <trkpt lat="50.4632" lon="-5.04125"></trkpt>
      <trkpt lat="50.46315" lon="-5.0411"></trkpt>
      <trkpt lat="50.46307" lon="-5.041"></trkpt>
      <trkpt lat="50.46282" lon="-5.04087"></trkpt>
      <trkpt lat="50.4623" lon="-5.04055"></trkpt>
      <trkpt lat="50.4621" lon="-5.04048"></trkpt>
      <trkpt lat="50.46192" lon="-5.04039"></trkpt>
      <trkpt lat="50.46176" lon="-5.04026"></trkpt>
      <trkpt lat="50.46153" lon="-5.03987"></trkpt>
      <trkpt lat="50.46138" lon="-5.03968"></trkpt>
      <trkpt lat="50.46136" lon="-5.03962"></trkpt>
      <trkpt lat="50.46134" lon="-5.03956"></trkpt>
      <trkpt lat="50.46132" lon="-5.03911"></trkpt>
      <trkpt lat="50.46148" lon="-5.03858"></trkpt>
      <trkpt lat="50.46155" lon="-5.03842"></trkpt>
      <trkpt lat="50.46156" lon="-5.03836"></trkpt>
      <trkpt lat="50.46153" lon="-5.03819"></trkpt>
      <trkpt lat="50.46148" lon="-5.03811"></trkpt>
      <trkpt lat="50.46143" lon="-5.03797"></trkpt>
      <trkpt lat="50.46139" lon="-5.03792"></trkpt>
      <trkpt lat="50.4611" lon="-5.0377"></trkpt>
      <trkpt lat="50.46058" lon="-5.03745"></trkpt>
      <trkpt lat="50.46047" lon="-5.03729"></trkpt>
      <trkpt lat="50.46031" lon="-5.03714"></trkpt>
      <trkpt lat="50.46" lon="-5.03699"></trkpt>
      <trkpt lat="50.4598" lon="-5.03697"></trkpt>
      <trkpt lat="50.45968" lon="-5.03699"></trkpt>
      <trkpt lat="50.4596" lon="-5.03705"></trkpt>
      <trkpt lat="50.45948" lon="-5.03733"></trkpt>
      <trkpt lat="50.45938" lon="-5.03749"></trkpt>
      <trkpt lat="50.45933" lon="-5.03753"></trkpt>
      <trkpt lat="50.45926" lon="-5.03753"></trkpt>
      <trkpt lat="50.45922" lon="-5.03757"></trkpt>
      <trkpt lat="50.45916" lon="-5.03768"></trkpt>
      <trkpt lat="50.45904" lon="-5.03802"></trkpt>
      <trkpt lat="50.45891" lon="-5.03823"></trkpt>
      <trkpt lat="50.4589" lon="-5.03823"></trkpt>
      <trkpt lat="50.45887" lon="-5.03847"></trkpt>
      <trkpt lat="50.45888" lon="-5.03902"></trkpt>
      <trkpt lat="50.45896" lon="-5.03948"></trkpt>
      <trkpt lat="50.45897" lon="-5.0397"></trkpt>
      <trkpt lat="50.45904" lon="-5.04007"></trkpt>
      <trkpt lat="50.45902" lon="-5.04015"></trkpt>
      <trkpt lat="50.45897" lon="-5.04025"></trkpt>
      <trkpt lat="50.45897" lon="-5.04036"></trkpt>
      <trkpt lat="50.45894" lon="-5.04062"></trkpt>
      <trkpt lat="50.45889" lon="-5.04085"></trkpt>
      <trkpt lat="50.45883" lon="-5.0415"></trkpt>
      <trkpt lat="50.45881" lon="-5.04161"></trkpt>
      <trkpt lat="50.45875" lon="-5.04164"></trkpt>
      <trkpt lat="50.45865" lon="-5.04157"></trkpt>
      <trkpt lat="50.45852" lon="-5.04136"></trkpt>
      <trkpt lat="50.45803" lon="-5.04088"></trkpt>
      <trkpt lat="50.45779" lon="-5.0405"></trkpt>
      <trkpt lat="50.45758" lon="-5.04031"></trkpt>
      <trkpt lat="50.45739" lon="-5.04023"></trkpt>
      <trkpt lat="50.45729" lon="-5.04026"></trkpt>
      <trkpt lat="50.45703" lon="-5.0404"></trkpt>
      <trkpt lat="50.45656" lon="-5.04051"></trkpt>
      <trkpt lat="50.45655" lon="-5.04051"></trkpt>
      <trkpt lat="50.45634" lon="-5.04058"></trkpt>
      <trkpt lat="50.4562" lon="-5.04058"></trkpt>
      <trkpt lat="50.4561" lon="-5.04055"></trkpt>
      <trkpt lat="50.45595" lon="-5.04042"></trkpt>
      <trkpt lat="50.45578" lon="-5.03992"></trkpt>
      <trkpt lat="50.45569" lon="-5.0397"></trkpt>
      <trkpt lat="50.45546" lon="-5.03924"></trkpt>
      <trkpt lat="50.45539" lon="-5.03916"></trkpt>
      <trkpt lat="50.45491" lon="-5.03893"></trkpt>
      <trkpt lat="50.45439" lon="-5.03855"></trkpt>
      <trkpt lat="50.45425" lon="-5.03853"></trkpt>
      <trkpt lat="50.45404" lon="-5.03855"></trkpt>
      <trkpt lat="50.45399" lon="-5.03859"></trkpt>
      <trkpt lat="50.4539" lon="-5.03862"></trkpt>
      <trkpt lat="50.4536" lon="-5.03864"></trkpt>
      <trkpt lat="50.45353" lon="-5.03853"></trkpt>
      <trkpt lat="50.45346" lon="-5.03823"></trkpt>
      <trkpt lat="50.45342" lon="-5.03816"></trkpt>
      <trkpt lat="50.45335" lon="-5.03812"></trkpt>
      <trkpt lat="50.45297" lon="-5.038"></trkpt>
      <trkpt lat="50.45289" lon="-5.0379"></trkpt>
      <trkpt lat="50.45279" lon="-5.03783"></trkpt>
      <trkpt lat="50.45273" lon="-5.03783"></trkpt>
      <trkpt lat="50.45256" lon="-5.03788"></trkpt>
      <trkpt lat="50.45252" lon="-5.03792"></trkpt>
      <trkpt lat="50.45219" lon="-5.03807"></trkpt>
      <trkpt lat="50.45194" lon="-5.03801"></trkpt>
      <trkpt lat="50.4516" lon="-5.03804"></trkpt>
      <trkpt lat="50.45145" lon="-5.03815"></trkpt>
      <trkpt lat="50.451" lon="-5.03826"></trkpt>
      <trkpt lat="50.45069" lon="-5.03837"></trkpt>
      <trkpt lat="50.45041" lon="-5.03864"></trkpt>
      <trkpt lat="50.45023" lon="-5.03876"></trkpt>
      <trkpt lat="50.45009" lon="-5.03879"></trkpt>
      <trkpt lat="50.44974" lon="-5.03878"></trkpt>
      <trkpt lat="50.44957" lon="-5.03882"></trkpt>
      <trkpt lat="50.44938" lon="-5.03889"></trkpt>
      <trkpt lat="50.44759" lon="-5.03998"></trkpt>
      <trkpt lat="50.44719" lon="-5.04028"></trkpt>
      <trkpt lat="50.44693" lon="-5.04053"></trkpt>
      <trkpt lat="50.44687" lon="-5.04062"></trkpt>
      <trkpt lat="50.4467" lon="-5.04094"></trkpt>
      <trkpt lat="50.44664" lon="-5.04106"></trkpt>
      <trkpt lat="50.44647" lon="-5.04118"></trkpt>
      <trkpt lat="50.44633" lon="-5.04123"></trkpt>
      <trkpt lat="50.44611" lon="-5.04119"></trkpt>
      <trkpt lat="50.44549" lon="-5.04128"></trkpt>
      <trkpt lat="50.44535" lon="-5.04125"></trkpt>
      <trkpt lat="50.44529" lon="-5.0409"></trkpt>
      <trkpt lat="50.44532" lon="-5.04082"></trkpt>
      <trkpt lat="50.44532" lon="-5.04079"></trkpt>
      <trkpt lat="50.44531" lon="-5.04077"></trkpt>
      <trkpt lat="50.44527" lon="-5.04077"></trkpt>
      <trkpt lat="50.44526" lon="-5.04058"></trkpt>
      <trkpt lat="50.44515" lon="-5.04028"></trkpt>
      <trkpt lat="50.44495" lon="-5.04053"></trkpt>
      <trkpt lat="50.44478" lon="-5.04071"></trkpt>
      <trkpt lat="50.44472" lon="-5.04073"></trkpt>
      <trkpt lat="50.44465" lon="-5.04072"></trkpt>
      <trkpt lat="50.4446" lon="-5.04067"></trkpt>
      <trkpt lat="50.44456" lon="-5.0406"></trkpt>
      <trkpt lat="50.44446" lon="-5.04083"></trkpt>
      <trkpt lat="50.44437" lon="-5.04074"></trkpt>
      <trkpt lat="50.44429" lon="-5.04061"></trkpt>
      <trkpt lat="50.44402" lon="-5.0412"></trkpt>
      <trkpt lat="50.44378" lon="-5.04168"></trkpt>
      <trkpt lat="50.44367" lon="-5.04184"></trkpt>
      <trkpt lat="50.44357" lon="-5.04209"></trkpt>
      <trkpt lat="50.44345" lon="-5.04211"></trkpt>
      <trkpt lat="50.44312" lon="-5.04225"></trkpt>
      <trkpt lat="50.44296" lon="-5.0423"></trkpt>
      <trkpt lat="50.44254" lon="-5.04226"></trkpt>
      <trkpt lat="50.44231" lon="-5.04231"></trkpt>
      <trkpt lat="50.44222" lon="-5.04235"></trkpt>
      <trkpt lat="50.44208" lon="-5.04252"></trkpt>
      <trkpt lat="50.44194" lon="-5.04279"></trkpt>
      <trkpt lat="50.44178" lon="-5.04286"></trkpt>
      <trkpt lat="50.4416" lon="-5.04305"></trkpt>
      <trkpt lat="50.44144" lon="-5.04333"></trkpt>
      <trkpt lat="50.44126" lon="-5.04355"></trkpt>
      <trkpt lat="50.44117" lon="-5.04372"></trkpt>
      <trkpt lat="50.4411" lon="-5.04395"></trkpt>
      <trkpt lat="50.44114" lon="-5.04412"></trkpt>
      <trkpt lat="50.44119" lon="-5.0442"></trkpt>
      <trkpt lat="50.4412" lon="-5.04432"></trkpt>
      <trkpt lat="50.44116" lon="-5.04445"></trkpt>
      <trkpt lat="50.44091" lon="-5.04478"></trkpt>
      <trkpt lat="50.4406" lon="-5.0453"></trkpt>
      <trkpt lat="50.44" lon="-5.04596"></trkpt>
      <trkpt lat="50.43976" lon="-5.0463"></trkpt>
      <trkpt lat="50.43923" lon="-5.0469"></trkpt>
      <trkpt lat="50.43899" lon="-5.04712"></trkpt>
      <trkpt lat="50.43866" lon="-5.04728"></trkpt>
      <trkpt lat="50.43839" lon="-5.04733"></trkpt>
      <trkpt lat="50.43825" lon="-5.0473"></trkpt>
      <trkpt lat="50.43798" lon="-5.04717"></trkpt>
      <trkpt lat="50.43754" lon="-5.04688"></trkpt>
      <trkpt lat="50.43734" lon="-5.04681"></trkpt>
      <trkpt lat="50.43728" lon="-5.04683"></trkpt>
      <trkpt lat="50.43713" lon="-5.04703"></trkpt>
      <trkpt lat="50.43705" lon="-5.04713"></trkpt>
      <trkpt lat="50.43699" lon="-5.04738"></trkpt>
      <trkpt lat="50.43695" lon="-5.04747"></trkpt>
      <trkpt lat="50.43659" lon="-5.04798"></trkpt>
      <trkpt lat="50.43638" lon="-5.04812"></trkpt>
      <trkpt lat="50.43606" lon="-5.04838"></trkpt>
      <trkpt lat="50.43575" lon="-5.04871"></trkpt>
      <trkpt lat="50.43554" lon="-5.04883"></trkpt>
      <trkpt lat="50.4355" lon="-5.04883"></trkpt>
      <trkpt lat="50.43541" lon="-5.04876"></trkpt>
      <trkpt lat="50.43534" lon="-5.04874"></trkpt>
      <trkpt lat="50.43505" lon="-5.04875"></trkpt>
      <trkpt lat="50.43496" lon="-5.04879"></trkpt>
      <trkpt lat="50.4349" lon="-5.04885"></trkpt>
      <trkpt lat="50.43488" lon="-5.04911"></trkpt>
      <trkpt lat="50.43476" lon="-5.04928"></trkpt>
      <trkpt lat="50.43408" lon="-5.04976"></trkpt>
      <trkpt lat="50.43397" lon="-5.04989"></trkpt>
      <trkpt lat="50.43389" lon="-5.05003"></trkpt>
      <trkpt lat="50.43381" lon="-5.05028"></trkpt>
      <trkpt lat="50.43361" lon="-5.05108"></trkpt>
      <trkpt lat="50.43359" lon="-5.05135"></trkpt>
      <trkpt lat="50.4336" lon="-5.05168"></trkpt>
      <trkpt lat="50.43344" lon="-5.05211"></trkpt>
      <trkpt lat="50.43335" lon="-5.05225"></trkpt>
      <trkpt lat="50.43322" lon="-5.05224"></trkpt>
      <trkpt lat="50.43303" lon="-5.05206"></trkpt>
      <trkpt lat="50.43273" lon="-5.05205"></trkpt>
      <trkpt lat="50.43256" lon="-5.05209"></trkpt>
      <trkpt lat="50.43242" lon="-5.05218"></trkpt>
      <trkpt lat="50.43233" lon="-5.05227"></trkpt>
      <trkpt lat="50.4321" lon="-5.05253"></trkpt>
      <trkpt lat="50.43184" lon="-5.05291"></trkpt>
      <trkpt lat="50.43172" lon="-5.05299"></trkpt>
      <trkpt lat="50.43144" lon="-5.05308"></trkpt>
      <trkpt lat="50.43131" lon="-5.05309"></trkpt>
      <trkpt lat="50.43084" lon="-5.05303"></trkpt>
      <trkpt lat="50.43031" lon="-5.05314"></trkpt>
      <trkpt lat="50.4302" lon="-5.05323"></trkpt>
      <trkpt lat="50.43017" lon="-5.05328"></trkpt>
      <trkpt lat="50.43014" lon="-5.05343"></trkpt>
      <trkpt lat="50.43012" lon="-5.05403"></trkpt>
      <trkpt lat="50.4301" lon="-5.0542"></trkpt>
      <trkpt lat="50.4299" lon="-5.05471"></trkpt>
      <trkpt lat="50.42972" lon="-5.05505"></trkpt>
      <trkpt lat="50.4296" lon="-5.05523"></trkpt>
      <trkpt lat="50.4295" lon="-5.05526"></trkpt>
      <trkpt lat="50.42941" lon="-5.05527"></trkpt>
      <trkpt lat="50.42891" lon="-5.05508"></trkpt>
      <trkpt lat="50.42857" lon="-5.05502"></trkpt>
      <trkpt lat="50.42844" lon="-5.05497"></trkpt>
      <trkpt lat="50.42831" lon="-5.05489"></trkpt>
      <trkpt lat="50.42825" lon="-5.05475"></trkpt>
      <trkpt lat="50.42821" lon="-5.05459"></trkpt>
      <trkpt lat="50.42792" lon="-5.05471"></trkpt>
      <trkpt lat="50.42768" lon="-5.05485"></trkpt>
      <trkpt lat="50.42736" lon="-5.05513"></trkpt>
      <trkpt lat="50.42746" lon="-5.05541"></trkpt>
      <trkpt lat="50.42754" lon="-5.05559"></trkpt>
      <trkpt lat="50.42752" lon="-5.05563"></trkpt>
      <trkpt lat="50.4275" lon="-5.05574"></trkpt>
      <trkpt lat="50.42749" lon="-5.05603"></trkpt>
      <trkpt lat="50.4275" lon="-5.05633"></trkpt>
      <trkpt lat="50.42747" lon="-5.05669"></trkpt>
      <trkpt lat="50.42748" lon="-5.05688"></trkpt>
      <trkpt lat="50.42747" lon="-5.05691"></trkpt>
      <trkpt lat="50.42722" lon="-5.05716"></trkpt>
      <trkpt lat="50.42717" lon="-5.05735"></trkpt>
      <trkpt lat="50.42717" lon="-5.05754"></trkpt>
      <trkpt lat="50.4272" lon="-5.05774"></trkpt>
      <trkpt lat="50.4273" lon="-5.05811"></trkpt>
      <trkpt lat="50.42733" lon="-5.05832"></trkpt>
      <trkpt lat="50.42733" lon="-5.05853"></trkpt>
      <trkpt lat="50.42728" lon="-5.05883"></trkpt>
      <trkpt lat="50.4271" lon="-5.05938"></trkpt>
      <trkpt lat="50.42687" lon="-5.05993"></trkpt>
      <trkpt lat="50.42679" lon="-5.06033"></trkpt>
      <trkpt lat="50.42665" lon="-5.06058"></trkpt>
      <trkpt lat="50.42659" lon="-5.06063"></trkpt>
      <trkpt lat="50.42652" lon="-5.0606"></trkpt>
      <trkpt lat="50.42648" lon="-5.06055"></trkpt>
      <trkpt lat="50.4265" lon="-5.06026"></trkpt>
      <trkpt lat="50.42649" lon="-5.05987"></trkpt>
      <trkpt lat="50.42645" lon="-5.05977"></trkpt>
      <trkpt lat="50.4262" lon="-5.05933"></trkpt>
      <trkpt lat="50.42618" lon="-5.05927"></trkpt>
      <trkpt lat="50.42609" lon="-5.05875"></trkpt>
      <trkpt lat="50.42598" lon="-5.05846"></trkpt>
      <trkpt lat="50.42594" lon="-5.05828"></trkpt>
      <trkpt lat="50.4259" lon="-5.05786"></trkpt>
      <trkpt lat="50.42589" lon="-5.05762"></trkpt>
      <trkpt lat="50.42593" lon="-5.0574"></trkpt>
      <trkpt lat="50.42619" lon="-5.05679"></trkpt>
      <trkpt lat="50.42636" lon="-5.05651"></trkpt>
      <trkpt lat="50.42639" lon="-5.05636"></trkpt>
      <trkpt lat="50.42642" lon="-5.056"></trkpt>
      <trkpt lat="50.42638" lon="-5.05581"></trkpt>
      <trkpt lat="50.42631" lon="-5.05576"></trkpt>
      <trkpt lat="50.42626" lon="-5.05568"></trkpt>
      <trkpt lat="50.42622" lon="-5.05549"></trkpt>
      <trkpt lat="50.42612" lon="-5.05451"></trkpt>
      <trkpt lat="50.4259" lon="-5.05402"></trkpt>
      <trkpt lat="50.42581" lon="-5.05386"></trkpt>
      <trkpt lat="50.42568" lon="-5.0537"></trkpt>
      <trkpt lat="50.42556" lon="-5.05361"></trkpt>
      <trkpt lat="50.42529" lon="-5.05437"></trkpt>
      <trkpt lat="50.42457" lon="-5.05537"></trkpt>
      <trkpt lat="50.42427" lon="-5.05618"></trkpt>
      <trkpt lat="50.42399" lon="-5.05658"></trkpt>
      <trkpt lat="50.42385" lon="-5.05669"></trkpt>
      <trkpt lat="50.42378" lon="-5.05671"></trkpt>
      <trkpt lat="50.42368" lon="-5.05681"></trkpt>
      <trkpt lat="50.42355" lon="-5.05686"></trkpt>
      <trkpt lat="50.4236" lon="-5.05717"></trkpt>
      <trkpt lat="50.42361" lon="-5.05724"></trkpt>
      <trkpt lat="50.42388" lon="-5.0579"></trkpt>
      <trkpt lat="50.42395" lon="-5.05815"></trkpt>
      <trkpt lat="50.42398" lon="-5.05844"></trkpt>
      <trkpt lat="50.42393" lon="-5.05903"></trkpt>
      <trkpt lat="50.4239" lon="-5.05924"></trkpt>
      <trkpt lat="50.4238" lon="-5.05947"></trkpt>
      <trkpt lat="50.42372" lon="-5.05972"></trkpt>
      <trkpt lat="50.42354" lon="-5.06046"></trkpt>
      <trkpt lat="50.42353" lon="-5.06099"></trkpt>
      <trkpt lat="50.4235" lon="-5.06125"></trkpt>
      <trkpt lat="50.42342" lon="-5.06144"></trkpt>
      <trkpt lat="50.4234" lon="-5.06143"></trkpt>
      <trkpt lat="50.42331" lon="-5.06172"></trkpt>
      <trkpt lat="50.42311" lon="-5.0622"></trkpt>
      <trkpt lat="50.42288" lon="-5.06262"></trkpt>
      <trkpt lat="50.42236" lon="-5.06335"></trkpt>
      <trkpt lat="50.42139" lon="-5.064"></trkpt>
      <trkpt lat="50.42134" lon="-5.064"></trkpt>
      <trkpt lat="50.42125" lon="-5.06421"></trkpt>
      <trkpt lat="50.42121" lon="-5.06449"></trkpt>
      <trkpt lat="50.4212" lon="-5.06562"></trkpt>
      <trkpt lat="50.42114" lon="-5.06612"></trkpt>
      <trkpt lat="50.42107" lon="-5.06636"></trkpt>
      <trkpt lat="50.42095" lon="-5.06662"></trkpt>
      <trkpt lat="50.42079" lon="-5.06684"></trkpt>
      <trkpt lat="50.42047" lon="-5.0671"></trkpt>
      <trkpt lat="50.42026" lon="-5.06716"></trkpt>
      <trkpt lat="50.41999" lon="-5.06714"></trkpt>
      <trkpt lat="50.41996" lon="-5.06726"></trkpt>
      <trkpt lat="50.41925" lon="-5.06835"></trkpt>
      <trkpt lat="50.41924" lon="-5.06835"></trkpt>
      <trkpt lat="50.41907" lon="-5.06863"></trkpt>
      <trkpt lat="50.41879" lon="-5.06956"></trkpt>
      <trkpt lat="50.41868" lon="-5.07004"></trkpt>
      <trkpt lat="50.41848" lon="-5.07041"></trkpt>
      <trkpt lat="50.41814" lon="-5.07083"></trkpt>
      <trkpt lat="50.41785" lon="-5.07125"></trkpt>
      <trkpt lat="50.4178" lon="-5.07136"></trkpt>
      <trkpt lat="50.41778" lon="-5.07159"></trkpt>
      <trkpt lat="50.41773" lon="-5.07173"></trkpt>
      <trkpt lat="50.41753" lon="-5.07171"></trkpt>
      <trkpt lat="50.4175" lon="-5.07168"></trkpt>
      <trkpt lat="50.41703" lon="-5.07242"></trkpt>
      <trkpt lat="50.41661" lon="-5.07347"></trkpt>
      <trkpt lat="50.41654" lon="-5.07348"></trkpt>
      <trkpt lat="50.41641" lon="-5.07391"></trkpt>
      <trkpt lat="50.41632" lon="-5.07449"></trkpt>
      <trkpt lat="50.41624" lon="-5.07486"></trkpt>
      <trkpt lat="50.41611" lon="-5.07514"></trkpt>
      <trkpt lat="50.41602" lon="-5.07529"></trkpt>
      <trkpt lat="50.41512" lon="-5.0764"></trkpt>
      <trkpt lat="50.41483" lon="-5.07684"></trkpt>
      <trkpt lat="50.41451" lon="-5.0774"></trkpt>
      <trkpt lat="50.41433" lon="-5.07781"></trkpt>
      <trkpt lat="50.41432" lon="-5.07789"></trkpt>
      <trkpt lat="50.41421" lon="-5.07822"></trkpt>
      <trkpt lat="50.41413" lon="-5.07902"></trkpt>
      <trkpt lat="50.41412" lon="-5.07982"></trkpt>
      <trkpt lat="50.41414" lon="-5.07991"></trkpt>
      <trkpt lat="50.41411" lon="-5.08035"></trkpt>
      <trkpt lat="50.41403" lon="-5.08069"></trkpt>
      <trkpt lat="50.41358" lon="-5.08225"></trkpt>
      <trkpt lat="50.4135" lon="-5.08275"></trkpt>
      <trkpt lat="50.41353" lon="-5.08308"></trkpt>
      <trkpt lat="50.41359" lon="-5.08335"></trkpt>
      <trkpt lat="50.41362" lon="-5.08391"></trkpt>
      <trkpt lat="50.41362" lon="-5.08428"></trkpt>
      <trkpt lat="50.41379" lon="-5.08436"></trkpt>
      <trkpt lat="50.41392" lon="-5.08448"></trkpt>
      <trkpt lat="50.41412" lon="-5.0852"></trkpt>
      <trkpt lat="50.41429" lon="-5.08526"></trkpt>
    </trkseg>
  </trk>
</gpx>
