<?xml version="1.0" encoding="UTF-8"?>
<gpx version="1.1" creator="swcp-walk (imported from OS Maps route 33833244)"
     xmlns="http://www.topografix.com/GPX/1/1">
  <metadata>
    <name>SWCP17-Newquay-Perranporth</name>
  </metadata>
  <trk>
    <name>SWCP17-Newquay-Perranporth</name>
    <trkseg>
      <trkpt lat="50.41428639381937" lon="-5.085102237761106"></trkpt>
      <trkpt lat="50.41426" lon="-5.08525"></trkpt>
      <trkpt lat="50.41434" lon="-5.08528"></trkpt>
      <trkpt lat="50.4144" lon="-5.08535"></trkpt>
      <trkpt lat="50.41447" lon="-5.08531"></trkpt>
      <trkpt lat="50.41453" lon="-5.08564"></trkpt>
      <trkpt lat="50.41465" lon="-5.08554"></trkpt>
      <trkpt lat="50.4147" lon="-5.08559"></trkpt>
      <trkpt lat="50.41488" lon="-5.08558"></trkpt>
      <trkpt lat="50.41505" lon="-5.08563"></trkpt>
      <trkpt lat="50.41515" lon="-5.08571"></trkpt>
      <trkpt lat="50.41525" lon="-5.08585"></trkpt>
      <trkpt lat="50.41526" lon="-5.08591"></trkpt>
      <trkpt lat="50.41532" lon="-5.08598"></trkpt>
      <trkpt lat="50.41513" lon="-5.08659"></trkpt>
      <trkpt lat="50.41507" lon="-5.08656"></trkpt>
      <trkpt lat="50.41502" lon="-5.08664"></trkpt>
      <trkpt lat="50.415" lon="-5.08691"></trkpt>
      <trkpt lat="50.41546" lon="-5.08725"></trkpt>
      <trkpt lat="50.41574" lon="-5.08755"></trkpt>
      <trkpt lat="50.41658" lon="-5.08832"></trkpt>
      <trkpt lat="50.41723" lon="-5.08898"></trkpt>
      <trkpt lat="50.4173" lon="-5.08908"></trkpt>
      <trkpt lat="50.41803" lon="-5.08955"></trkpt>
      <trkpt lat="50.41813" lon="-5.08927"></trkpt>
      <trkpt lat="50.41882" lon="-5.08834"></trkpt>
      <trkpt lat="50.41886" lon="-5.08832"></trkpt>
      <trkpt lat="50.4188" lon="-5.08812"></trkpt>
      <trkpt lat="50.41892" lon="-5.08786"></trkpt>
      <trkpt lat="50.4188" lon="-5.08812"></trkpt>
      <trkpt lat="50.41886" lon="-5.08832"></trkpt>
      <trkpt lat="50.41898" lon="-5.08831"></trkpt>
      <trkpt lat="50.41964" lon="-5.08849"></trkpt>
      <trkpt lat="50.41993" lon="-5.08864"></trkpt>
      <trkpt lat="50.42007" lon="-5.08875"></trkpt>
      <trkpt lat="50.42017" lon="-5.0889"></trkpt>
      <trkpt lat="50.42017" lon="-5.0888"></trkpt>
      <trkpt lat="50.4203" lon="-5.08856"></trkpt>
      <trkpt lat="50.42017" lon="-5.0888"></trkpt>
      <trkpt lat="50.42017" lon="-5.0889"></trkpt>
      <trkpt lat="50.42023" lon="-5.08907"></trkpt>
      <trkpt lat="50.42027" lon="-5.08934"></trkpt>
      <trkpt lat="50.42026" lon="-5.08953"></trkpt>
      <trkpt lat="50.42023" lon="-5.08976"></trkpt>
      <trkpt lat="50.42016" lon="-5.09004"></trkpt>
      <trkpt lat="50.42007" lon="-5.09026"></trkpt>
      <trkpt lat="50.41992" lon="-5.0911"></trkpt>
      <trkpt lat="50.41995" lon="-5.09179"></trkpt>
      <trkpt lat="50.41995" lon="-5.09188"></trkpt>
      <trkpt lat="50.42008" lon="-5.09246"></trkpt>
      <trkpt lat="50.4202" lon="-5.09328"></trkpt>
      <trkpt lat="50.42036" lon="-5.0939"></trkpt>
      <trkpt lat="50.42068" lon="-5.09464"></trkpt>
      <trkpt lat="50.42118" lon="-5.09527"></trkpt>
      <trkpt lat="50.42132" lon="-5.09551"></trkpt>
      <trkpt lat="50.4215" lon="-5.09569"></trkpt>
      <trkpt lat="50.42201" lon="-5.09646"></trkpt>
      <trkpt lat="50.4222" lon="-5.09685"></trkpt>
      <trkpt lat="50.42221" lon="-5.09702"></trkpt>
      <trkpt lat="50.42218" lon="-5.09712"></trkpt>
      <trkpt lat="50.42213" lon="-5.09744"></trkpt>
      <trkpt lat="50.42205" lon="-5.09762"></trkpt>
      <trkpt lat="50.42194" lon="-5.09775"></trkpt>
      <trkpt lat="50.42178" lon="-5.09784"></trkpt>
      <trkpt lat="50.42149" lon="-5.09787"></trkpt>
      <trkpt lat="50.42134" lon="-5.09781"></trkpt>
      <trkpt lat="50.42125" lon="-5.09781"></trkpt>
      <trkpt lat="50.42108" lon="-5.09787"></trkpt>
      <trkpt lat="50.42062" lon="-5.09782"></trkpt>
      <trkpt lat="50.42061" lon="-5.09768"></trkpt>
      <trkpt lat="50.42098" lon="-5.0977"></trkpt>
      <trkpt lat="50.42106" lon="-5.09761"></trkpt>
      <trkpt lat="50.42114" lon="-5.09733"></trkpt>
      <trkpt lat="50.42116" lon="-5.09729"></trkpt>
      <trkpt lat="50.42119" lon="-5.09729"></trkpt>
      <trkpt lat="50.42121" lon="-5.09717"></trkpt>
      <trkpt lat="50.42139" lon="-5.09715"></trkpt>
      <trkpt lat="50.42177" lon="-5.09731"></trkpt>
      <trkpt lat="50.42181" lon="-5.09728"></trkpt>
      <trkpt lat="50.42185" lon="-5.09714"></trkpt>
      <trkpt lat="50.42194" lon="-5.09724"></trkpt>
      <trkpt lat="50.42185" lon="-5.09714"></trkpt>
      <trkpt lat="50.42181" lon="-5.09728"></trkpt>
      <trkpt lat="50.42177" lon="-5.09731"></trkpt>
      <trkpt lat="50.42139" lon="-5.09715"></trkpt>
      <trkpt lat="50.42121" lon="-5.09717"></trkpt>
      <trkpt lat="50.4211" lon="-5.09673"></trkpt>
      <trkpt lat="50.42105" lon="-5.09666"></trkpt>
      <trkpt lat="50.42096" lon="-5.09661"></trkpt>
      <trkpt lat="50.42083" lon="-5.09658"></trkpt>
      <trkpt lat="50.42038" lon="-5.09671"></trkpt>
      <trkpt lat="50.42025" lon="-5.09672"></trkpt>
      <trkpt lat="50.42016" lon="-5.09678"></trkpt>
      <trkpt lat="50.42015" lon="-5.09683"></trkpt>
      <trkpt lat="50.41989" lon="-5.09691"></trkpt>
      <trkpt lat="50.41974" lon="-5.09691"></trkpt>
      <trkpt lat="50.41947" lon="-5.09704"></trkpt>
      <trkpt lat="50.41932" lon="-5.09704"></trkpt>
      <trkpt lat="50.41911" lon="-5.09694"></trkpt>
      <trkpt lat="50.41903" lon="-5.09675"></trkpt>
      <trkpt lat="50.41896" lon="-5.09672"></trkpt>
      <trkpt lat="50.41894" lon="-5.09678"></trkpt>
      <trkpt lat="50.4189" lon="-5.0968"></trkpt>
      <trkpt lat="50.41885" lon="-5.09679"></trkpt>
      <trkpt lat="50.41883" lon="-5.09673"></trkpt>
      <trkpt lat="50.41842" lon="-5.09705"></trkpt>
      <trkpt lat="50.41853" lon="-5.09747"></trkpt>
      <trkpt lat="50.41843" lon="-5.0977"></trkpt>
      <trkpt lat="50.41749" lon="-5.09853"></trkpt>
      <trkpt lat="50.41627" lon="-5.09943"></trkpt>
      <trkpt lat="50.41605" lon="-5.09872"></trkpt>
      <trkpt lat="50.41494" lon="-5.09963"></trkpt>
      <trkpt lat="50.41423" lon="-5.10011"></trkpt>
      <trkpt lat="50.41398" lon="-5.10032"></trkpt>
      <trkpt lat="50.41376" lon="-5.10052"></trkpt>
      <trkpt lat="50.41365" lon="-5.10064"></trkpt>
      <trkpt lat="50.41341" lon="-5.10105"></trkpt>
      <trkpt lat="50.4133" lon="-5.10136"></trkpt>
      <trkpt lat="50.41311" lon="-5.10159"></trkpt>
      <trkpt lat="50.41275" lon="-5.10222"></trkpt>
      <trkpt lat="50.41272" lon="-5.10226"></trkpt>
      <trkpt lat="50.41257" lon="-5.10218"></trkpt>
      <trkpt lat="50.41257" lon="-5.10238"></trkpt>
      <trkpt lat="50.41254" lon="-5.10263"></trkpt>
      <trkpt lat="50.41241" lon="-5.10262"></trkpt>
      <trkpt lat="50.41233" lon="-5.10327"></trkpt>
      <trkpt lat="50.41228" lon="-5.10386"></trkpt>
      <trkpt lat="50.41231" lon="-5.10467"></trkpt>
      <trkpt lat="50.41242" lon="-5.10654"></trkpt>
      <trkpt lat="50.41258" lon="-5.10762"></trkpt>
      <trkpt lat="50.41296" lon="-5.10941"></trkpt>
      <trkpt lat="50.41316" lon="-5.11044"></trkpt>
      <trkpt lat="50.41302" lon="-5.11049"></trkpt>
      <trkpt lat="50.41286" lon="-5.11051"></trkpt>
      <trkpt lat="50.41267" lon="-5.11059"></trkpt>
      <trkpt lat="50.41262" lon="-5.11066"></trkpt>
      <trkpt lat="50.41176" lon="-5.11095"></trkpt>
      <trkpt lat="50.41114" lon="-5.11101"></trkpt>
      <trkpt lat="50.41099" lon="-5.1143"></trkpt>
      <trkpt lat="50.41096" lon="-5.11464"></trkpt>
      <trkpt lat="50.4109" lon="-5.11473"></trkpt>
      <trkpt lat="50.41078" lon="-5.11551"></trkpt>
      <trkpt lat="50.41071" lon="-5.11571"></trkpt>
      <trkpt lat="50.41074" lon="-5.11647"></trkpt>
      <trkpt lat="50.41079" lon="-5.11686"></trkpt>
      <trkpt lat="50.41092" lon="-5.11736"></trkpt>
      <trkpt lat="50.41101" lon="-5.11831"></trkpt>
      <trkpt lat="50.41137" lon="-5.12016"></trkpt>
      <trkpt lat="50.41146" lon="-5.12064"></trkpt>
      <trkpt lat="50.41163" lon="-5.12103"></trkpt>
      <trkpt lat="50.41179" lon="-5.12157"></trkpt>
      <trkpt lat="50.41162" lon="-5.12204"></trkpt>
      <trkpt lat="50.41151" lon="-5.12248"></trkpt>
      <trkpt lat="50.41142" lon="-5.12293"></trkpt>
      <trkpt lat="50.4111" lon="-5.12269"></trkpt>
      <trkpt lat="50.4111" lon="-5.12308"></trkpt>
      <trkpt lat="50.41108" lon="-5.12345"></trkpt>
      <trkpt lat="50.41089" lon="-5.12398"></trkpt>
      <trkpt lat="50.4109" lon="-5.12408"></trkpt>
      <trkpt lat="50.41098" lon="-5.12424"></trkpt>
      <trkpt lat="50.41114" lon="-5.12446"></trkpt>
      <trkpt lat="50.41098" lon="-5.12424"></trkpt>
      <trkpt lat="50.4109" lon="-5.12408"></trkpt>
      <trkpt lat="50.41089" lon="-5.12398"></trkpt>
      <trkpt lat="50.41108" lon="-5.12345"></trkpt>
      <trkpt lat="50.41113" lon="-5.1218"></trkpt>
      <trkpt lat="50.41121" lon="-5.12118"></trkpt>
      <trkpt lat="50.4111" lon="-5.12065"></trkpt>
      <trkpt lat="50.41101" lon="-5.12038"></trkpt>
      <trkpt lat="50.41078" lon="-5.11858"></trkpt>
      <trkpt lat="50.41073" lon="-5.11809"></trkpt>
      <trkpt lat="50.41061" lon="-5.11758"></trkpt>
      <trkpt lat="50.4106" lon="-5.11724"></trkpt>
      <trkpt lat="50.4104" lon="-5.11646"></trkpt>
      <trkpt lat="50.41014" lon="-5.11411"></trkpt>
      <trkpt lat="50.41009" lon="-5.11395"></trkpt>
      <trkpt lat="50.41007" lon="-5.11373"></trkpt>
      <trkpt lat="50.41009" lon="-5.11335"></trkpt>
      <trkpt lat="50.40993" lon="-5.11334"></trkpt>
      <trkpt lat="50.40988" lon="-5.11328"></trkpt>
      <trkpt lat="50.40982" lon="-5.11338"></trkpt>
      <trkpt lat="50.40979" lon="-5.11337"></trkpt>
      <trkpt lat="50.40982" lon="-5.11338"></trkpt>
      <trkpt lat="50.40988" lon="-5.11328"></trkpt>
      <trkpt lat="50.40993" lon="-5.11334"></trkpt>
      <trkpt lat="50.41009" lon="-5.11335"></trkpt>
      <trkpt lat="50.41014" lon="-5.11242"></trkpt>
      <trkpt lat="50.41018" lon="-5.11206"></trkpt>
      <trkpt lat="50.41027" lon="-5.11161"></trkpt>
      <trkpt lat="50.41044" lon="-5.11099"></trkpt>
      <trkpt lat="50.41049" lon="-5.11093"></trkpt>
      <trkpt lat="50.41044" lon="-5.11081"></trkpt>
      <trkpt lat="50.41042" lon="-5.11068"></trkpt>
      <trkpt lat="50.41043" lon="-5.10983"></trkpt>
      <trkpt lat="50.41025" lon="-5.1078"></trkpt>
      <trkpt lat="50.41023" lon="-5.10723"></trkpt>
      <trkpt lat="50.41025" lon="-5.10715"></trkpt>
      <trkpt lat="50.41028" lon="-5.10711"></trkpt>
      <trkpt lat="50.41023" lon="-5.10703"></trkpt>
      <trkpt lat="50.4102" lon="-5.10685"></trkpt>
      <trkpt lat="50.41014" lon="-5.10532"></trkpt>
      <trkpt lat="50.41022" lon="-5.10498"></trkpt>
      <trkpt lat="50.41036" lon="-5.1045"></trkpt>
      <trkpt lat="50.41022" lon="-5.10436"></trkpt>
      <trkpt lat="50.41002" lon="-5.10441"></trkpt>
      <trkpt lat="50.40981" lon="-5.10443"></trkpt>
      <trkpt lat="50.40971" lon="-5.10441"></trkpt>
      <trkpt lat="50.40963" lon="-5.10435"></trkpt>
      <trkpt lat="50.40948" lon="-5.10415"></trkpt>
      <trkpt lat="50.40937" lon="-5.10397"></trkpt>
      <trkpt lat="50.40909" lon="-5.10357"></trkpt>
      <trkpt lat="50.40896" lon="-5.10332"></trkpt>
      <trkpt lat="50.40885" lon="-5.10283"></trkpt>
      <trkpt lat="50.40871" lon="-5.10205"></trkpt>
      <trkpt lat="50.40865" lon="-5.1013"></trkpt>
      <trkpt lat="50.4083" lon="-5.10008"></trkpt>
      <trkpt lat="50.40824" lon="-5.09961"></trkpt>
      <trkpt lat="50.4081" lon="-5.09818"></trkpt>
      <trkpt lat="50.40818" lon="-5.09744"></trkpt>
      <trkpt lat="50.40817" lon="-5.09667"></trkpt>
      <trkpt lat="50.40808" lon="-5.09577"></trkpt>
      <trkpt lat="50.40791" lon="-5.09505"></trkpt>
      <trkpt lat="50.40789" lon="-5.09425"></trkpt>
      <trkpt lat="50.40776" lon="-5.09352"></trkpt>
      <trkpt lat="50.40759" lon="-5.09296"></trkpt>
      <trkpt lat="50.40683" lon="-5.09113"></trkpt>
      <trkpt lat="50.40657" lon="-5.0902"></trkpt>
      <trkpt lat="50.40656" lon="-5.08908"></trkpt>
      <trkpt lat="50.4065" lon="-5.08814"></trkpt>
      <trkpt lat="50.40646" lon="-5.08783"></trkpt>
      <trkpt lat="50.40626" lon="-5.0869"></trkpt>
      <trkpt lat="50.40617" lon="-5.08635"></trkpt>
      <trkpt lat="50.40626" lon="-5.08638"></trkpt>
      <trkpt lat="50.40622" lon="-5.08618"></trkpt>
      <trkpt lat="50.40612" lon="-5.08504"></trkpt>
      <trkpt lat="50.40617" lon="-5.08377"></trkpt>
      <trkpt lat="50.4062" lon="-5.08357"></trkpt>
      <trkpt lat="50.40624" lon="-5.08342"></trkpt>
      <trkpt lat="50.40628" lon="-5.08335"></trkpt>
      <trkpt lat="50.40643" lon="-5.08321"></trkpt>
      <trkpt lat="50.40628" lon="-5.08273"></trkpt>
      <trkpt lat="50.4062" lon="-5.08239"></trkpt>
      <trkpt lat="50.40611" lon="-5.08168"></trkpt>
      <trkpt lat="50.4061" lon="-5.08142"></trkpt>
      <trkpt lat="50.4061" lon="-5.08093"></trkpt>
      <trkpt lat="50.40614" lon="-5.07995"></trkpt>
      <trkpt lat="50.40613" lon="-5.07932"></trkpt>
      <trkpt lat="50.40608" lon="-5.07886"></trkpt>
      <trkpt lat="50.40602" lon="-5.07851"></trkpt>
      <trkpt lat="50.40588" lon="-5.07792"></trkpt>
      <trkpt lat="50.40578" lon="-5.07802"></trkpt>
      <trkpt lat="50.40578" lon="-5.07806"></trkpt>
      <trkpt lat="50.40586" lon="-5.07838"></trkpt>
      <trkpt lat="50.40569" lon="-5.07864"></trkpt>
      <trkpt lat="50.4056" lon="-5.0787"></trkpt>
      <trkpt lat="50.40556" lon="-5.07876"></trkpt>
      <trkpt lat="50.40553" lon="-5.07885"></trkpt>
      <trkpt lat="50.40525" lon="-5.07908"></trkpt>
      <trkpt lat="50.40493" lon="-5.07941"></trkpt>
      <trkpt lat="50.40466" lon="-5.07991"></trkpt>
      <trkpt lat="50.40454" lon="-5.0801"></trkpt>
      <trkpt lat="50.40434" lon="-5.08024"></trkpt>
      <trkpt lat="50.40409" lon="-5.0808"></trkpt>
      <trkpt lat="50.40392" lon="-5.08126"></trkpt>
      <trkpt lat="50.40385" lon="-5.08141"></trkpt>
      <trkpt lat="50.4038" lon="-5.08152"></trkpt>
      <trkpt lat="50.40377" lon="-5.0819"></trkpt>
      <trkpt lat="50.4037" lon="-5.08213"></trkpt>
      <trkpt lat="50.40359" lon="-5.08324"></trkpt>
      <trkpt lat="50.40361" lon="-5.08363"></trkpt>
      <trkpt lat="50.40357" lon="-5.08397"></trkpt>
      <trkpt lat="50.40348" lon="-5.08432"></trkpt>
      <trkpt lat="50.40346" lon="-5.08459"></trkpt>
      <trkpt lat="50.4034" lon="-5.08496"></trkpt>
      <trkpt lat="50.40339" lon="-5.08557"></trkpt>
      <trkpt lat="50.40334" lon="-5.08606"></trkpt>
      <trkpt lat="50.40332" lon="-5.08652"></trkpt>
      <trkpt lat="50.40322" lon="-5.08711"></trkpt>
      <trkpt lat="50.40327" lon="-5.08806"></trkpt>
      <trkpt lat="50.40331" lon="-5.08818"></trkpt>
      <trkpt lat="50.40338" lon="-5.08829"></trkpt>
      <trkpt lat="50.40368" lon="-5.08925"></trkpt>
      <trkpt lat="50.40373" lon="-5.08928"></trkpt>
      <trkpt lat="50.40379" lon="-5.08936"></trkpt>
      <trkpt lat="50.40401" lon="-5.09026"></trkpt>
      <trkpt lat="50.40414" lon="-5.0907"></trkpt>
      <trkpt lat="50.40431" lon="-5.09111"></trkpt>
      <trkpt lat="50.40465" lon="-5.09171"></trkpt>
      <trkpt lat="50.4059" lon="-5.0944"></trkpt>
      <trkpt lat="50.40611" lon="-5.09491"></trkpt>
      <trkpt lat="50.40622" lon="-5.09532"></trkpt>
      <trkpt lat="50.40628" lon="-5.09575"></trkpt>
      <trkpt lat="50.4064" lon="-5.09735"></trkpt>
      <trkpt lat="50.40641" lon="-5.09771"></trkpt>
      <trkpt lat="50.40642" lon="-5.09815"></trkpt>
      <trkpt lat="50.40634" lon="-5.09895"></trkpt>
      <trkpt lat="50.4061" lon="-5.09951"></trkpt>
      <trkpt lat="50.40596" lon="-5.09975"></trkpt>
      <trkpt lat="50.40588" lon="-5.09985"></trkpt>
      <trkpt lat="50.40562" lon="-5.09991"></trkpt>
      <trkpt lat="50.4054" lon="-5.09984"></trkpt>
      <trkpt lat="50.40507" lon="-5.09968"></trkpt>
      <trkpt lat="50.40483" lon="-5.09948"></trkpt>
      <trkpt lat="50.4046" lon="-5.09918"></trkpt>
      <trkpt lat="50.40457" lon="-5.09933"></trkpt>
      <trkpt lat="50.40457" lon="-5.09949"></trkpt>
      <trkpt lat="50.40465" lon="-5.09961"></trkpt>
      <trkpt lat="50.40476" lon="-5.10001"></trkpt>
      <trkpt lat="50.40488" lon="-5.10019"></trkpt>
      <trkpt lat="50.40503" lon="-5.10025"></trkpt>
      <trkpt lat="50.40517" lon="-5.10043"></trkpt>
      <trkpt lat="50.4053" lon="-5.10063"></trkpt>
      <trkpt lat="50.4054" lon="-5.10085"></trkpt>
      <trkpt lat="50.40631" lon="-5.10077"></trkpt>
      <trkpt lat="50.4068" lon="-5.10083"></trkpt>
      <trkpt lat="50.40693" lon="-5.10088"></trkpt>
      <trkpt lat="50.40707" lon="-5.101"></trkpt>
      <trkpt lat="50.40723" lon="-5.10121"></trkpt>
      <trkpt lat="50.40763" lon="-5.10159"></trkpt>
      <trkpt lat="50.4077" lon="-5.10174"></trkpt>
      <trkpt lat="50.40778" lon="-5.10194"></trkpt>
      <trkpt lat="50.40782" lon="-5.10224"></trkpt>
      <trkpt lat="50.40782" lon="-5.10255"></trkpt>
      <trkpt lat="50.4078" lon="-5.10294"></trkpt>
      <trkpt lat="50.40781" lon="-5.10341"></trkpt>
      <trkpt lat="50.40782" lon="-5.10388"></trkpt>
      <trkpt lat="50.40781" lon="-5.10431"></trkpt>
      <trkpt lat="50.40782" lon="-5.1046"></trkpt>
      <trkpt lat="50.40799" lon="-5.10565"></trkpt>
      <trkpt lat="50.40799" lon="-5.10585"></trkpt>
      <trkpt lat="50.40794" lon="-5.10613"></trkpt>
      <trkpt lat="50.40799" lon="-5.10638"></trkpt>
      <trkpt lat="50.40836" lon="-5.10708"></trkpt>
      <trkpt lat="50.40836" lon="-5.10755"></trkpt>
      <trkpt lat="50.40849" lon="-5.1077"></trkpt>
      <trkpt lat="50.40862" lon="-5.10867"></trkpt>
      <trkpt lat="50.40863" lon="-5.10888"></trkpt>
      <trkpt lat="50.40862" lon="-5.10913"></trkpt>
      <trkpt lat="50.40846" lon="-5.10984"></trkpt>
      <trkpt lat="50.40827" lon="-5.11049"></trkpt>
      <trkpt lat="50.40811" lon="-5.11094"></trkpt>
      <trkpt lat="50.40777" lon="-5.11139"></trkpt>
      <trkpt lat="50.40768" lon="-5.11141"></trkpt>
      <trkpt lat="50.40765" lon="-5.11145"></trkpt>
      <trkpt lat="50.40757" lon="-5.11163"></trkpt>
      <trkpt lat="50.40752" lon="-5.11168"></trkpt>
      <trkpt lat="50.4074" lon="-5.11174"></trkpt>
      <trkpt lat="50.40725" lon="-5.11206"></trkpt>
      <trkpt lat="50.40709" lon="-5.11228"></trkpt>
      <trkpt lat="50.40696" lon="-5.11239"></trkpt>
      <trkpt lat="50.40658" lon="-5.11251"></trkpt>
      <trkpt lat="50.4064" lon="-5.1125"></trkpt>
      <trkpt lat="50.4063" lon="-5.11257"></trkpt>
      <trkpt lat="50.40618" lon="-5.11272"></trkpt>
      <trkpt lat="50.40628" lon="-5.11277"></trkpt>
      <trkpt lat="50.40632" lon="-5.11283"></trkpt>
      <trkpt lat="50.40638" lon="-5.11331"></trkpt>
      <trkpt lat="50.40647" lon="-5.11362"></trkpt>
      <trkpt lat="50.40647" lon="-5.11381"></trkpt>
      <trkpt lat="50.40651" lon="-5.11415"></trkpt>
      <trkpt lat="50.4065" lon="-5.1144"></trkpt>
      <trkpt lat="50.40615" lon="-5.11532"></trkpt>
      <trkpt lat="50.40593" lon="-5.11568"></trkpt>
      <trkpt lat="50.40582" lon="-5.11596"></trkpt>
      <trkpt lat="50.40559" lon="-5.1166"></trkpt>
      <trkpt lat="50.40541" lon="-5.11719"></trkpt>
      <trkpt lat="50.40533" lon="-5.11741"></trkpt>
      <trkpt lat="50.40504" lon="-5.11794"></trkpt>
      <trkpt lat="50.405" lon="-5.11797"></trkpt>
      <trkpt lat="50.40491" lon="-5.11797"></trkpt>
      <trkpt lat="50.40477" lon="-5.11804"></trkpt>
      <trkpt lat="50.40466" lon="-5.11837"></trkpt>
      <trkpt lat="50.40455" lon="-5.11858"></trkpt>
      <trkpt lat="50.4043" lon="-5.11879"></trkpt>
      <trkpt lat="50.40427" lon="-5.11887"></trkpt>
      <trkpt lat="50.40423" lon="-5.11914"></trkpt>
      <trkpt lat="50.40429" lon="-5.11924"></trkpt>
      <trkpt lat="50.40438" lon="-5.11932"></trkpt>
      <trkpt lat="50.40444" lon="-5.11941"></trkpt>
      <trkpt lat="50.40449" lon="-5.11949"></trkpt>
      <trkpt lat="50.40455" lon="-5.11966"></trkpt>
      <trkpt lat="50.40469" lon="-5.11984"></trkpt>
      <trkpt lat="50.40483" lon="-5.12007"></trkpt>
      <trkpt lat="50.40495" lon="-5.12019"></trkpt>
      <trkpt lat="50.40502" lon="-5.12022"></trkpt>
      <trkpt lat="50.4052" lon="-5.12064"></trkpt>
      <trkpt lat="50.40472" lon="-5.12125"></trkpt>
      <trkpt lat="50.40457" lon="-5.12161"></trkpt>
      <trkpt lat="50.40459" lon="-5.12216"></trkpt>
      <trkpt lat="50.40455" lon="-5.12253"></trkpt>
      <trkpt lat="50.4046" lon="-5.12261"></trkpt>
      <trkpt lat="50.40464" lon="-5.12274"></trkpt>
      <trkpt lat="50.40463" lon="-5.12328"></trkpt>
      <trkpt lat="50.40469" lon="-5.1237"></trkpt>
      <trkpt lat="50.40468" lon="-5.12386"></trkpt>
      <trkpt lat="50.40464" lon="-5.12416"></trkpt>
      <trkpt lat="50.40459" lon="-5.12432"></trkpt>
      <trkpt lat="50.40433" lon="-5.1248"></trkpt>
      <trkpt lat="50.4043" lon="-5.1249"></trkpt>
      <trkpt lat="50.4043" lon="-5.12499"></trkpt>
      <trkpt lat="50.40434" lon="-5.12511"></trkpt>
      <trkpt lat="50.4044" lon="-5.12522"></trkpt>
      <trkpt lat="50.40439" lon="-5.12555"></trkpt>
      <trkpt lat="50.40436" lon="-5.12561"></trkpt>
      <trkpt lat="50.40421" lon="-5.12562"></trkpt>
      <trkpt lat="50.40414" lon="-5.12565"></trkpt>
      <trkpt lat="50.40404" lon="-5.12565"></trkpt>
      <trkpt lat="50.40394" lon="-5.12574"></trkpt>
      <trkpt lat="50.40383" lon="-5.12575"></trkpt>
      <trkpt lat="50.40381" lon="-5.12579"></trkpt>
      <trkpt lat="50.4038" lon="-5.12597"></trkpt>
      <trkpt lat="50.40383" lon="-5.1262"></trkpt>
      <trkpt lat="50.40416" lon="-5.12647"></trkpt>
      <trkpt lat="50.40427" lon="-5.12662"></trkpt>
      <trkpt lat="50.40439" lon="-5.12694"></trkpt>
      <trkpt lat="50.4045" lon="-5.12699"></trkpt>
      <trkpt lat="50.40458" lon="-5.12715"></trkpt>
      <trkpt lat="50.40461" lon="-5.12728"></trkpt>
      <trkpt lat="50.4046" lon="-5.12737"></trkpt>
      <trkpt lat="50.40455" lon="-5.12752"></trkpt>
      <trkpt lat="50.40454" lon="-5.12774"></trkpt>
      <trkpt lat="50.40459" lon="-5.12785"></trkpt>
      <trkpt lat="50.40472" lon="-5.12798"></trkpt>
      <trkpt lat="50.40473" lon="-5.12833"></trkpt>
      <trkpt lat="50.4048" lon="-5.1284"></trkpt>
      <trkpt lat="50.40485" lon="-5.12855"></trkpt>
      <trkpt lat="50.40488" lon="-5.1288"></trkpt>
      <trkpt lat="50.40487" lon="-5.12904"></trkpt>
      <trkpt lat="50.40479" lon="-5.12933"></trkpt>
      <trkpt lat="50.40473" lon="-5.12944"></trkpt>
      <trkpt lat="50.40474" lon="-5.1295"></trkpt>
      <trkpt lat="50.40481" lon="-5.12965"></trkpt>
      <trkpt lat="50.40483" lon="-5.12974"></trkpt>
      <trkpt lat="50.40485" lon="-5.13033"></trkpt>
      <trkpt lat="50.40461" lon="-5.13019"></trkpt>
      <trkpt lat="50.40485" lon="-5.13033"></trkpt>
      <trkpt lat="50.40493" lon="-5.13042"></trkpt>
      <trkpt lat="50.40509" lon="-5.13079"></trkpt>
      <trkpt lat="50.40521" lon="-5.13099"></trkpt>
      <trkpt lat="50.40542" lon="-5.13109"></trkpt>
      <trkpt lat="50.40556" lon="-5.13108"></trkpt>
      <trkpt lat="50.40561" lon="-5.13116"></trkpt>
      <trkpt lat="50.40569" lon="-5.13135"></trkpt>
      <trkpt lat="50.4057" lon="-5.13156"></trkpt>
      <trkpt lat="50.40572" lon="-5.13159"></trkpt>
      <trkpt lat="50.40578" lon="-5.13158"></trkpt>
      <trkpt lat="50.40582" lon="-5.13163"></trkpt>
      <trkpt lat="50.40592" lon="-5.13236"></trkpt>
      <trkpt lat="50.40589" lon="-5.13256"></trkpt>
      <trkpt lat="50.40608" lon="-5.1328"></trkpt>
      <trkpt lat="50.40618" lon="-5.13285"></trkpt>
      <trkpt lat="50.40644" lon="-5.13287"></trkpt>
      <trkpt lat="50.40651" lon="-5.13296"></trkpt>
      <trkpt lat="50.40658" lon="-5.13317"></trkpt>
      <trkpt lat="50.40664" lon="-5.13319"></trkpt>
      <trkpt lat="50.40691" lon="-5.13377"></trkpt>
      <trkpt lat="50.40702" lon="-5.13405"></trkpt>
      <trkpt lat="50.40746" lon="-5.13484"></trkpt>
      <trkpt lat="50.4077" lon="-5.13522"></trkpt>
      <trkpt lat="50.40778" lon="-5.1356"></trkpt>
      <trkpt lat="50.40721" lon="-5.13633"></trkpt>
      <trkpt lat="50.40699" lon="-5.13647"></trkpt>
      <trkpt lat="50.40447" lon="-5.13695"></trkpt>
      <trkpt lat="50.40437" lon="-5.13694"></trkpt>
      <trkpt lat="50.40392" lon="-5.1373"></trkpt>
      <trkpt lat="50.40378" lon="-5.13733"></trkpt>
      <trkpt lat="50.40352" lon="-5.137"></trkpt>
      <trkpt lat="50.40346" lon="-5.13692"></trkpt>
      <trkpt lat="50.40331" lon="-5.1366"></trkpt>
      <trkpt lat="50.40305" lon="-5.13629"></trkpt>
      <trkpt lat="50.40275" lon="-5.13585"></trkpt>
      <trkpt lat="50.40258" lon="-5.13571"></trkpt>
      <trkpt lat="50.40241" lon="-5.13566"></trkpt>
      <trkpt lat="50.4019" lon="-5.13534"></trkpt>
      <trkpt lat="50.4017" lon="-5.13517"></trkpt>
      <trkpt lat="50.40131" lon="-5.13516"></trkpt>
      <trkpt lat="50.40127" lon="-5.13521"></trkpt>
      <trkpt lat="50.40122" lon="-5.13551"></trkpt>
      <trkpt lat="50.40116" lon="-5.13566"></trkpt>
      <trkpt lat="50.40108" lon="-5.13581"></trkpt>
      <trkpt lat="50.40099" lon="-5.13609"></trkpt>
      <trkpt lat="50.4009" lon="-5.13646"></trkpt>
      <trkpt lat="50.4009" lon="-5.13658"></trkpt>
      <trkpt lat="50.4009" lon="-5.13665"></trkpt>
      <trkpt lat="50.40096" lon="-5.13686"></trkpt>
      <trkpt lat="50.40106" lon="-5.13692"></trkpt>
      <trkpt lat="50.40117" lon="-5.13702"></trkpt>
      <trkpt lat="50.4013" lon="-5.13709"></trkpt>
      <trkpt lat="50.40157" lon="-5.13723"></trkpt>
      <trkpt lat="50.4017" lon="-5.13736"></trkpt>
      <trkpt lat="50.40182" lon="-5.13765"></trkpt>
      <trkpt lat="50.40192" lon="-5.13799"></trkpt>
      <trkpt lat="50.40192" lon="-5.13817"></trkpt>
      <trkpt lat="50.40198" lon="-5.13845"></trkpt>
      <trkpt lat="50.40203" lon="-5.13886"></trkpt>
      <trkpt lat="50.4019" lon="-5.1395"></trkpt>
      <trkpt lat="50.402" lon="-5.13965"></trkpt>
      <trkpt lat="50.40213" lon="-5.1396"></trkpt>
      <trkpt lat="50.40227" lon="-5.13952"></trkpt>
      <trkpt lat="50.40232" lon="-5.13952"></trkpt>
      <trkpt lat="50.40246" lon="-5.13963"></trkpt>
      <trkpt lat="50.40259" lon="-5.13984"></trkpt>
      <trkpt lat="50.40335" lon="-5.1417"></trkpt>
      <trkpt lat="50.40343" lon="-5.14194"></trkpt>
      <trkpt lat="50.40347" lon="-5.1423"></trkpt>
      <trkpt lat="50.40356" lon="-5.14262"></trkpt>
      <trkpt lat="50.4044" lon="-5.1443"></trkpt>
      <trkpt lat="50.4045" lon="-5.14458"></trkpt>
      <trkpt lat="50.40458" lon="-5.14497"></trkpt>
      <trkpt lat="50.40455" lon="-5.14547"></trkpt>
      <trkpt lat="50.40455" lon="-5.14564"></trkpt>
      <trkpt lat="50.40447" lon="-5.1459"></trkpt>
      <trkpt lat="50.40436" lon="-5.14606"></trkpt>
      <trkpt lat="50.40401" lon="-5.14638"></trkpt>
      <trkpt lat="50.40386" lon="-5.14642"></trkpt>
      <trkpt lat="50.40321" lon="-5.14643"></trkpt>
      <trkpt lat="50.40303" lon="-5.14641"></trkpt>
      <trkpt lat="50.40286" lon="-5.14631"></trkpt>
      <trkpt lat="50.40278" lon="-5.14635"></trkpt>
      <trkpt lat="50.40265" lon="-5.14649"></trkpt>
      <trkpt lat="50.40225" lon="-5.14696"></trkpt>
      <trkpt lat="50.40178" lon="-5.14733"></trkpt>
      <trkpt lat="50.40164" lon="-5.14734"></trkpt>
      <trkpt lat="50.40139" lon="-5.14722"></trkpt>
      <trkpt lat="50.40102" lon="-5.14691"></trkpt>
      <trkpt lat="50.40062" lon="-5.14667"></trkpt>
      <trkpt lat="50.39998" lon="-5.14622"></trkpt>
      <trkpt lat="50.3996" lon="-5.1459"></trkpt>
      <trkpt lat="50.39929" lon="-5.14553"></trkpt>
      <trkpt lat="50.39865" lon="-5.14432"></trkpt>
      <trkpt lat="50.39854" lon="-5.14419"></trkpt>
      <trkpt lat="50.3982" lon="-5.1439"></trkpt>
      <trkpt lat="50.39788" lon="-5.1437"></trkpt>
      <trkpt lat="50.39763" lon="-5.14349"></trkpt>
      <trkpt lat="50.39681" lon="-5.14309"></trkpt>
      <trkpt lat="50.39669" lon="-5.14299"></trkpt>
      <trkpt lat="50.39649" lon="-5.14276"></trkpt>
      <trkpt lat="50.39624" lon="-5.14254"></trkpt>
      <trkpt lat="50.396" lon="-5.14243"></trkpt>
      <trkpt lat="50.39558" lon="-5.14209"></trkpt>
      <trkpt lat="50.39545" lon="-5.14204"></trkpt>
      <trkpt lat="50.39498" lon="-5.14198"></trkpt>
      <trkpt lat="50.39455" lon="-5.14214"></trkpt>
      <trkpt lat="50.39417" lon="-5.1424"></trkpt>
      <trkpt lat="50.39392" lon="-5.14247"></trkpt>
      <trkpt lat="50.39355" lon="-5.14257"></trkpt>
      <trkpt lat="50.39357" lon="-5.14288"></trkpt>
      <trkpt lat="50.39353" lon="-5.14311"></trkpt>
      <trkpt lat="50.3934" lon="-5.14333"></trkpt>
      <trkpt lat="50.39337" lon="-5.14343"></trkpt>
      <trkpt lat="50.39307" lon="-5.14365"></trkpt>
      <trkpt lat="50.393" lon="-5.14367"></trkpt>
      <trkpt lat="50.39294" lon="-5.14365"></trkpt>
      <trkpt lat="50.39293" lon="-5.14387"></trkpt>
      <trkpt lat="50.393" lon="-5.14414"></trkpt>
      <trkpt lat="50.39291" lon="-5.14424"></trkpt>
      <trkpt lat="50.3928" lon="-5.14428"></trkpt>
      <trkpt lat="50.39273" lon="-5.14428"></trkpt>
      <trkpt lat="50.39265" lon="-5.14427"></trkpt>
      <trkpt lat="50.39256" lon="-5.14421"></trkpt>
      <trkpt lat="50.39234" lon="-5.14391"></trkpt>
      <trkpt lat="50.39204" lon="-5.14369"></trkpt>
      <trkpt lat="50.39168" lon="-5.14351"></trkpt>
      <trkpt lat="50.39162" lon="-5.14354"></trkpt>
      <trkpt lat="50.3913" lon="-5.14332"></trkpt>
      <trkpt lat="50.39111" lon="-5.14324"></trkpt>
      <trkpt lat="50.39099" lon="-5.143"></trkpt>
      <trkpt lat="50.39068" lon="-5.14316"></trkpt>
      <trkpt lat="50.39052" lon="-5.14318"></trkpt>
      <trkpt lat="50.39031" lon="-5.14332"></trkpt>
      <trkpt lat="50.38972" lon="-5.14344"></trkpt>
      <trkpt lat="50.38945" lon="-5.14358"></trkpt>
      <trkpt lat="50.38934" lon="-5.14354"></trkpt>
      <trkpt lat="50.38914" lon="-5.14357"></trkpt>
      <trkpt lat="50.38898" lon="-5.14366"></trkpt>
      <trkpt lat="50.38884" lon="-5.1439"></trkpt>
      <trkpt lat="50.38868" lon="-5.14447"></trkpt>
      <trkpt lat="50.38829" lon="-5.14527"></trkpt>
      <trkpt lat="50.38824" lon="-5.14528"></trkpt>
      <trkpt lat="50.38804" lon="-5.14511"></trkpt>
      <trkpt lat="50.38822" lon="-5.14553"></trkpt>
      <trkpt lat="50.38827" lon="-5.14571"></trkpt>
      <trkpt lat="50.38827" lon="-5.14579"></trkpt>
      <trkpt lat="50.38834" lon="-5.14594"></trkpt>
      <trkpt lat="50.38837" lon="-5.14596"></trkpt>
      <trkpt lat="50.38966" lon="-5.14711"></trkpt>
      <trkpt lat="50.38972" lon="-5.14722"></trkpt>
      <trkpt lat="50.38977" lon="-5.14743"></trkpt>
      <trkpt lat="50.38982" lon="-5.14814"></trkpt>
      <trkpt lat="50.38971" lon="-5.14876"></trkpt>
      <trkpt lat="50.38932" lon="-5.15002"></trkpt>
      <trkpt lat="50.38914" lon="-5.15058"></trkpt>
      <trkpt lat="50.38911" lon="-5.15086"></trkpt>
      <trkpt lat="50.38897" lon="-5.15155"></trkpt>
      <trkpt lat="50.38879" lon="-5.15204"></trkpt>
      <trkpt lat="50.38871" lon="-5.15254"></trkpt>
      <trkpt lat="50.38851" lon="-5.15312"></trkpt>
      <trkpt lat="50.38849" lon="-5.15322"></trkpt>
      <trkpt lat="50.38849" lon="-5.15342"></trkpt>
      <trkpt lat="50.38845" lon="-5.15379"></trkpt>
      <trkpt lat="50.38837" lon="-5.15405"></trkpt>
      <trkpt lat="50.38829" lon="-5.15416"></trkpt>
      <trkpt lat="50.38824" lon="-5.15419"></trkpt>
      <trkpt lat="50.38824" lon="-5.1542"></trkpt>
      <trkpt lat="50.38809" lon="-5.15425"></trkpt>
      <trkpt lat="50.38796" lon="-5.15422"></trkpt>
      <trkpt lat="50.38754" lon="-5.15403"></trkpt>
      <trkpt lat="50.38731" lon="-5.15402"></trkpt>
      <trkpt lat="50.3869" lon="-5.15381"></trkpt>
      <trkpt lat="50.38671" lon="-5.15366"></trkpt>
      <trkpt lat="50.38626" lon="-5.15319"></trkpt>
      <trkpt lat="50.3861" lon="-5.15287"></trkpt>
      <trkpt lat="50.38603" lon="-5.15277"></trkpt>
      <trkpt lat="50.38584" lon="-5.15261"></trkpt>
      <trkpt lat="50.38567" lon="-5.15252"></trkpt>
      <trkpt lat="50.3855" lon="-5.15254"></trkpt>
      <trkpt lat="50.38547" lon="-5.15257"></trkpt>
      <trkpt lat="50.38542" lon="-5.15278"></trkpt>
      <trkpt lat="50.38538" lon="-5.15285"></trkpt>
      <trkpt lat="50.38534" lon="-5.15288"></trkpt>
      <trkpt lat="50.38526" lon="-5.15286"></trkpt>
      <trkpt lat="50.38522" lon="-5.15276"></trkpt>
      <trkpt lat="50.38495" lon="-5.15215"></trkpt>
      <trkpt lat="50.38476" lon="-5.15182"></trkpt>
      <trkpt lat="50.38464" lon="-5.15141"></trkpt>
      <trkpt lat="50.38454" lon="-5.15121"></trkpt>
      <trkpt lat="50.38433" lon="-5.15099"></trkpt>
      <trkpt lat="50.38399" lon="-5.15086"></trkpt>
      <trkpt lat="50.38249" lon="-5.15054"></trkpt>
      <trkpt lat="50.3821" lon="-5.15037"></trkpt>
      <trkpt lat="50.38207" lon="-5.1503"></trkpt>
      <trkpt lat="50.38196" lon="-5.14928"></trkpt>
      <trkpt lat="50.38194" lon="-5.1492"></trkpt>
      <trkpt lat="50.38167" lon="-5.14894"></trkpt>
      <trkpt lat="50.38164" lon="-5.14893"></trkpt>
      <trkpt lat="50.38125" lon="-5.14914"></trkpt>
      <trkpt lat="50.38103" lon="-5.14917"></trkpt>
      <trkpt lat="50.38077" lon="-5.14959"></trkpt>
      <trkpt lat="50.38016" lon="-5.1502"></trkpt>
      <trkpt lat="50.38013" lon="-5.15026"></trkpt>
      <trkpt lat="50.38009" lon="-5.15064"></trkpt>
      <trkpt lat="50.3801" lon="-5.15067"></trkpt>
      <trkpt lat="50.38025" lon="-5.1507"></trkpt>
      <trkpt lat="50.38032" lon="-5.15078"></trkpt>
      <trkpt lat="50.38049" lon="-5.15126"></trkpt>
      <trkpt lat="50.38046" lon="-5.15163"></trkpt>
      <trkpt lat="50.38041" lon="-5.15234"></trkpt>
      <trkpt lat="50.38034" lon="-5.15259"></trkpt>
      <trkpt lat="50.38003" lon="-5.15314"></trkpt>
      <trkpt lat="50.37996" lon="-5.15337"></trkpt>
      <trkpt lat="50.37992" lon="-5.15362"></trkpt>
      <trkpt lat="50.37982" lon="-5.15376"></trkpt>
      <trkpt lat="50.37975" lon="-5.1538"></trkpt>
      <trkpt lat="50.37967" lon="-5.15379"></trkpt>
      <trkpt lat="50.3796" lon="-5.15375"></trkpt>
      <trkpt lat="50.3791" lon="-5.15238"></trkpt>
      <trkpt lat="50.37813" lon="-5.15076"></trkpt>
      <trkpt lat="50.37801" lon="-5.15037"></trkpt>
      <trkpt lat="50.37784" lon="-5.14997"></trkpt>
      <trkpt lat="50.37774" lon="-5.14978"></trkpt>
      <trkpt lat="50.37767" lon="-5.14955"></trkpt>
      <trkpt lat="50.37732" lon="-5.14893"></trkpt>
      <trkpt lat="50.37718" lon="-5.14869"></trkpt>
      <trkpt lat="50.37706" lon="-5.14855"></trkpt>
      <trkpt lat="50.37696" lon="-5.1484"></trkpt>
      <trkpt lat="50.37673" lon="-5.14813"></trkpt>
      <trkpt lat="50.37655" lon="-5.14768"></trkpt>
      <trkpt lat="50.37651" lon="-5.14761"></trkpt>
      <trkpt lat="50.37644" lon="-5.14759"></trkpt>
      <trkpt lat="50.37634" lon="-5.14746"></trkpt>
      <trkpt lat="50.37624" lon="-5.14723"></trkpt>
      <trkpt lat="50.37616" lon="-5.14682"></trkpt>
      <trkpt lat="50.37611" lon="-5.14667"></trkpt>
      <trkpt lat="50.37593" lon="-5.14619"></trkpt>
      <trkpt lat="50.37587" lon="-5.14607"></trkpt>
      <trkpt lat="50.37578" lon="-5.14594"></trkpt>
      <trkpt lat="50.37554" lon="-5.1458"></trkpt>
      <trkpt lat="50.37528" lon="-5.14549"></trkpt>
      <trkpt lat="50.37515" lon="-5.14546"></trkpt>
      <trkpt lat="50.37481" lon="-5.14524"></trkpt>
      <trkpt lat="50.37439" lon="-5.14534"></trkpt>
      <trkpt lat="50.37434" lon="-5.14541"></trkpt>
      <trkpt lat="50.37427" lon="-5.14539"></trkpt>
      <trkpt lat="50.37423" lon="-5.1454"></trkpt>
      <trkpt lat="50.37421" lon="-5.14544"></trkpt>
      <trkpt lat="50.37424" lon="-5.14595"></trkpt>
      <trkpt lat="50.37433" lon="-5.14609"></trkpt>
      <trkpt lat="50.3745" lon="-5.14613"></trkpt>
      <trkpt lat="50.37464" lon="-5.14594"></trkpt>
      <trkpt lat="50.37464" lon="-5.14566"></trkpt>
      <trkpt lat="50.37465" lon="-5.14566"></trkpt>
      <trkpt lat="50.37464" lon="-5.14594"></trkpt>
      <trkpt lat="50.3745" lon="-5.14613"></trkpt>
      <trkpt lat="50.37452" lon="-5.14619"></trkpt>
      <trkpt lat="50.37453" lon="-5.14634"></trkpt>
      <trkpt lat="50.37289" lon="-5.14688"></trkpt>
      <trkpt lat="50.37145" lon="-5.14723"></trkpt>
      <trkpt lat="50.36875" lon="-5.14804"></trkpt>
      <trkpt lat="50.36762" lon="-5.14831"></trkpt>
      <trkpt lat="50.36697" lon="-5.14843"></trkpt>
      <trkpt lat="50.36643" lon="-5.14858"></trkpt>
      <trkpt lat="50.36177" lon="-5.14982"></trkpt>
      <trkpt lat="50.36158" lon="-5.15022"></trkpt>
      <trkpt lat="50.36136" lon="-5.15043"></trkpt>
      <trkpt lat="50.36126" lon="-5.15047"></trkpt>
      <trkpt lat="50.36101" lon="-5.1507"></trkpt>
      <trkpt lat="50.36086" lon="-5.15065"></trkpt>
      <trkpt lat="50.36033" lon="-5.15085"></trkpt>
      <trkpt lat="50.35891" lon="-5.15113"></trkpt>
      <trkpt lat="50.35883" lon="-5.15098"></trkpt>
      <trkpt lat="50.35891" lon="-5.15092"></trkpt>
      <trkpt lat="50.35881" lon="-5.1509"></trkpt>
      <trkpt lat="50.35881" lon="-5.15088"></trkpt>
      <trkpt lat="50.35891" lon="-5.15087"></trkpt>
      <trkpt lat="50.35891" lon="-5.15085"></trkpt>
      <trkpt lat="50.35881" lon="-5.15083"></trkpt>
      <trkpt lat="50.35891" lon="-5.15081"></trkpt>
      <trkpt lat="50.35891" lon="-5.15074"></trkpt>
      <trkpt lat="50.35875" lon="-5.15069"></trkpt>
      <trkpt lat="50.3587" lon="-5.15071"></trkpt>
      <trkpt lat="50.3581" lon="-5.15069"></trkpt>
      <trkpt lat="50.35806" lon="-5.15065"></trkpt>
      <trkpt lat="50.35805" lon="-5.1506"></trkpt>
      <trkpt lat="50.35806" lon="-5.15053"></trkpt>
      <trkpt lat="50.35793" lon="-5.15061"></trkpt>
      <trkpt lat="50.35759" lon="-5.15098"></trkpt>
      <trkpt lat="50.35753" lon="-5.151"></trkpt>
      <trkpt lat="50.35748" lon="-5.15098"></trkpt>
      <trkpt lat="50.35737" lon="-5.15106"></trkpt>
      <trkpt lat="50.35726" lon="-5.15123"></trkpt>
      <trkpt lat="50.35715" lon="-5.15144"></trkpt>
      <trkpt lat="50.35709" lon="-5.15162"></trkpt>
      <trkpt lat="50.35641" lon="-5.15196"></trkpt>
      <trkpt lat="50.3563" lon="-5.15214"></trkpt>
      <trkpt lat="50.35541" lon="-5.15263"></trkpt>
      <trkpt lat="50.35515" lon="-5.15271"></trkpt>
      <trkpt lat="50.35463" lon="-5.15272"></trkpt>
      <trkpt lat="50.35398" lon="-5.15284"></trkpt>
      <trkpt lat="50.35383" lon="-5.15279"></trkpt>
      <trkpt lat="50.35378" lon="-5.15279"></trkpt>
      <trkpt lat="50.35367" lon="-5.15288"></trkpt>
      <trkpt lat="50.35359" lon="-5.15291"></trkpt>
      <trkpt lat="50.35338" lon="-5.15293"></trkpt>
      <trkpt lat="50.35304" lon="-5.15301"></trkpt>
      <trkpt lat="50.35252" lon="-5.15327"></trkpt>
      <trkpt lat="50.35241" lon="-5.15324"></trkpt>
      <trkpt lat="50.352" lon="-5.15333"></trkpt>
      <trkpt lat="50.35176" lon="-5.15318"></trkpt>
      <trkpt lat="50.3516" lon="-5.15315"></trkpt>
      <trkpt lat="50.34927" lon="-5.15396"></trkpt>
      <trkpt lat="50.3486" lon="-5.1542"></trkpt>
      <trkpt lat="50.34735" lon="-5.15424"></trkpt>
      <trkpt lat="50.34686" lon="-5.15373"></trkpt>
      <trkpt lat="50.34661" lon="-5.15372"></trkpt>
      <trkpt lat="50.34642" lon="-5.15379"></trkpt>
      <trkpt lat="50.34614" lon="-5.15369"></trkpt>
      <trkpt lat="50.34613" lon="-5.15389"></trkpt>
      <trkpt lat="50.34618" lon="-5.15391"></trkpt>
      <trkpt lat="50.3462" lon="-5.15396"></trkpt>
      <trkpt lat="50.3462" lon="-5.15406"></trkpt>
      <trkpt lat="50.34599" lon="-5.1549"></trkpt>
      <trkpt lat="50.34592" lon="-5.15492"></trkpt>
      <trkpt lat="50.34597" lon="-5.15505"></trkpt>
      <trkpt lat="50.346" lon="-5.15523"></trkpt>
      <trkpt lat="50.34608" lon="-5.15526"></trkpt>
      <trkpt lat="50.3461" lon="-5.15531"></trkpt>
    </trkseg>
  </trk>
</gpx>
