<?xml version="1.0" encoding="UTF-8"?>
<gpx version="1.1" creator="swcp-walk (imported from OS Maps route 33834348)"
     xmlns="http://www.topografix.com/GPX/1/1">
  <metadata>
    <name>SWCP18-Perranporth-Portreath</name>
  </metadata>
  <trk>
    <name>SWCP18-Perranporth-Portreath</name>
    <trkseg>
      <trkpt lat="50.346792116329596" lon="-5.157883023028177"></trkpt>
      <trkpt lat="50.34675" lon="-5.15791"></trkpt>
      <trkpt lat="50.34677" lon="-5.15816"></trkpt>
      <trkpt lat="50.34676" lon="-5.15839"></trkpt>
      <trkpt lat="50.34674" lon="-5.15847"></trkpt>
      <trkpt lat="50.3467" lon="-5.15851"></trkpt>
      <trkpt lat="50.34657" lon="-5.15856"></trkpt>
      <trkpt lat="50.34652" lon="-5.15897"></trkpt>
      <trkpt lat="50.3463" lon="-5.15893"></trkpt>
      <trkpt lat="50.34616" lon="-5.15895"></trkpt>
      <trkpt lat="50.34612" lon="-5.15898"></trkpt>
      <trkpt lat="50.34598" lon="-5.15996"></trkpt>
      <trkpt lat="50.34595" lon="-5.16021"></trkpt>
      <trkpt lat="50.34596" lon="-5.16077"></trkpt>
      <trkpt lat="50.34598" lon="-5.1609"></trkpt>
      <trkpt lat="50.34605" lon="-5.16105"></trkpt>
      <trkpt lat="50.34611" lon="-5.16131"></trkpt>
      <trkpt lat="50.34611" lon="-5.16144"></trkpt>
      <trkpt lat="50.34602" lon="-5.16154"></trkpt>
      <trkpt lat="50.346" lon="-5.16158"></trkpt>
      <trkpt lat="50.34599" lon="-5.16178"></trkpt>
      <trkpt lat="50.34596" lon="-5.16183"></trkpt>
      <trkpt lat="50.34588" lon="-5.1619"></trkpt>
      <trkpt lat="50.34571" lon="-5.16201"></trkpt>
      <trkpt lat="50.34567" lon="-5.16209"></trkpt>
      <trkpt lat="50.34512" lon="-5.16206"></trkpt>
      <trkpt lat="50.34494" lon="-5.16216"></trkpt>
      <trkpt lat="50.34468" lon="-5.16241"></trkpt>
      <trkpt lat="50.34456" lon="-5.16264"></trkpt>
      <trkpt lat="50.34438" lon="-5.16327"></trkpt>
      <trkpt lat="50.34429" lon="-5.16367"></trkpt>
      <trkpt lat="50.34427" lon="-5.16408"></trkpt>
      <trkpt lat="50.34421" lon="-5.16498"></trkpt>
      <trkpt lat="50.34417" lon="-5.16508"></trkpt>
      <trkpt lat="50.34414" lon="-5.16512"></trkpt>
      <trkpt lat="50.3441" lon="-5.1653"></trkpt>
      <trkpt lat="50.34403" lon="-5.16723"></trkpt>
      <trkpt lat="50.34401" lon="-5.16733"></trkpt>
      <trkpt lat="50.34396" lon="-5.16756"></trkpt>
      <trkpt lat="50.34391" lon="-5.16761"></trkpt>
      <trkpt lat="50.3432" lon="-5.16782"></trkpt>
      <trkpt lat="50.34262" lon="-5.16835"></trkpt>
      <trkpt lat="50.34227" lon="-5.16857"></trkpt>
      <trkpt lat="50.34187" lon="-5.16873"></trkpt>
      <trkpt lat="50.34146" lon="-5.16882"></trkpt>
      <trkpt lat="50.34124" lon="-5.16897"></trkpt>
      <trkpt lat="50.34119" lon="-5.16903"></trkpt>
      <trkpt lat="50.34117" lon="-5.1691"></trkpt>
      <trkpt lat="50.34108" lon="-5.1694"></trkpt>
      <trkpt lat="50.34103" lon="-5.16946"></trkpt>
      <trkpt lat="50.34101" lon="-5.1696"></trkpt>
      <trkpt lat="50.3411" lon="-5.16986"></trkpt>
      <trkpt lat="50.34113" lon="-5.17002"></trkpt>
      <trkpt lat="50.34113" lon="-5.1702"></trkpt>
      <trkpt lat="50.34111" lon="-5.1704"></trkpt>
      <trkpt lat="50.34105" lon="-5.17073"></trkpt>
      <trkpt lat="50.34087" lon="-5.1712"></trkpt>
      <trkpt lat="50.34073" lon="-5.17143"></trkpt>
      <trkpt lat="50.34069" lon="-5.17154"></trkpt>
      <trkpt lat="50.34059" lon="-5.17215"></trkpt>
      <trkpt lat="50.34049" lon="-5.17239"></trkpt>
      <trkpt lat="50.34028" lon="-5.17303"></trkpt>
      <trkpt lat="50.34016" lon="-5.17328"></trkpt>
      <trkpt lat="50.34003" lon="-5.17408"></trkpt>
      <trkpt lat="50.33995" lon="-5.17439"></trkpt>
      <trkpt lat="50.33991" lon="-5.17495"></trkpt>
      <trkpt lat="50.33991" lon="-5.17496"></trkpt>
      <trkpt lat="50.3397" lon="-5.17601"></trkpt>
      <trkpt lat="50.33969" lon="-5.17675"></trkpt>
      <trkpt lat="50.33974" lon="-5.1781"></trkpt>
      <trkpt lat="50.3397" lon="-5.17905"></trkpt>
      <trkpt lat="50.33966" lon="-5.17907"></trkpt>
      <trkpt lat="50.3396" lon="-5.17907"></trkpt>
      <trkpt lat="50.33952" lon="-5.17921"></trkpt>
      <trkpt lat="50.33948" lon="-5.17934"></trkpt>
      <trkpt lat="50.33931" lon="-5.17991"></trkpt>
      <trkpt lat="50.33929" lon="-5.17992"></trkpt>
      <trkpt lat="50.33925" lon="-5.1799"></trkpt>
      <trkpt lat="50.33923" lon="-5.17985"></trkpt>
      <trkpt lat="50.33925" lon="-5.17971"></trkpt>
      <trkpt lat="50.33921" lon="-5.1795"></trkpt>
      <trkpt lat="50.33916" lon="-5.17936"></trkpt>
      <trkpt lat="50.33898" lon="-5.17906"></trkpt>
      <trkpt lat="50.33891" lon="-5.17901"></trkpt>
      <trkpt lat="50.33887" lon="-5.17901"></trkpt>
      <trkpt lat="50.33868" lon="-5.17915"></trkpt>
      <trkpt lat="50.33864" lon="-5.17925"></trkpt>
      <trkpt lat="50.33843" lon="-5.17946"></trkpt>
      <trkpt lat="50.33827" lon="-5.1795"></trkpt>
      <trkpt lat="50.33811" lon="-5.17943"></trkpt>
      <trkpt lat="50.33795" lon="-5.1793"></trkpt>
      <trkpt lat="50.3379" lon="-5.17928"></trkpt>
      <trkpt lat="50.33783" lon="-5.1793"></trkpt>
      <trkpt lat="50.33766" lon="-5.17928"></trkpt>
      <trkpt lat="50.33739" lon="-5.17909"></trkpt>
      <trkpt lat="50.33724" lon="-5.17896"></trkpt>
      <trkpt lat="50.33712" lon="-5.17893"></trkpt>
      <trkpt lat="50.33702" lon="-5.17898"></trkpt>
      <trkpt lat="50.33697" lon="-5.17897"></trkpt>
      <trkpt lat="50.33692" lon="-5.17889"></trkpt>
      <trkpt lat="50.33684" lon="-5.17884"></trkpt>
      <trkpt lat="50.33647" lon="-5.1788"></trkpt>
      <trkpt lat="50.336" lon="-5.17861"></trkpt>
      <trkpt lat="50.3359" lon="-5.17863"></trkpt>
      <trkpt lat="50.33566" lon="-5.17876"></trkpt>
      <trkpt lat="50.33539" lon="-5.17904"></trkpt>
      <trkpt lat="50.33529" lon="-5.17909"></trkpt>
      <trkpt lat="50.33507" lon="-5.17915"></trkpt>
      <trkpt lat="50.33484" lon="-5.17929"></trkpt>
      <trkpt lat="50.33474" lon="-5.1793"></trkpt>
      <trkpt lat="50.33464" lon="-5.17928"></trkpt>
      <trkpt lat="50.33453" lon="-5.17921"></trkpt>
      <trkpt lat="50.33423" lon="-5.17921"></trkpt>
      <trkpt lat="50.33398" lon="-5.1792"></trkpt>
      <trkpt lat="50.33384" lon="-5.17923"></trkpt>
      <trkpt lat="50.33368" lon="-5.1795"></trkpt>
      <trkpt lat="50.33351" lon="-5.18"></trkpt>
      <trkpt lat="50.33322" lon="-5.18042"></trkpt>
      <trkpt lat="50.33266" lon="-5.18147"></trkpt>
      <trkpt lat="50.33262" lon="-5.18164"></trkpt>
      <trkpt lat="50.33255" lon="-5.18168"></trkpt>
      <trkpt lat="50.33251" lon="-5.18174"></trkpt>
      <trkpt lat="50.33249" lon="-5.18184"></trkpt>
      <trkpt lat="50.33246" lon="-5.18187"></trkpt>
      <trkpt lat="50.33241" lon="-5.18195"></trkpt>
      <trkpt lat="50.33237" lon="-5.18221"></trkpt>
      <trkpt lat="50.33221" lon="-5.18284"></trkpt>
      <trkpt lat="50.33228" lon="-5.18381"></trkpt>
      <trkpt lat="50.33225" lon="-5.18443"></trkpt>
      <trkpt lat="50.33222" lon="-5.18464"></trkpt>
      <trkpt lat="50.33213" lon="-5.18488"></trkpt>
      <trkpt lat="50.33209" lon="-5.18492"></trkpt>
      <trkpt lat="50.33207" lon="-5.18507"></trkpt>
      <trkpt lat="50.33198" lon="-5.18518"></trkpt>
      <trkpt lat="50.33188" lon="-5.18551"></trkpt>
      <trkpt lat="50.33182" lon="-5.18582"></trkpt>
      <trkpt lat="50.3317" lon="-5.18623"></trkpt>
      <trkpt lat="50.33169" lon="-5.18623"></trkpt>
      <trkpt lat="50.33154" lon="-5.18682"></trkpt>
      <trkpt lat="50.3313" lon="-5.18738"></trkpt>
      <trkpt lat="50.33122" lon="-5.18747"></trkpt>
      <trkpt lat="50.33109" lon="-5.18751"></trkpt>
      <trkpt lat="50.33061" lon="-5.18752"></trkpt>
      <trkpt lat="50.33049" lon="-5.18759"></trkpt>
      <trkpt lat="50.3301" lon="-5.18762"></trkpt>
      <trkpt lat="50.32988" lon="-5.18767"></trkpt>
      <trkpt lat="50.32976" lon="-5.18767"></trkpt>
      <trkpt lat="50.32972" lon="-5.18769"></trkpt>
      <trkpt lat="50.32963" lon="-5.18765"></trkpt>
      <trkpt lat="50.32945" lon="-5.18763"></trkpt>
      <trkpt lat="50.32937" lon="-5.18773"></trkpt>
      <trkpt lat="50.32928" lon="-5.18777"></trkpt>
      <trkpt lat="50.3292" lon="-5.18798"></trkpt>
      <trkpt lat="50.32907" lon="-5.18819"></trkpt>
      <trkpt lat="50.32888" lon="-5.18877"></trkpt>
      <trkpt lat="50.32878" lon="-5.18895"></trkpt>
      <trkpt lat="50.32863" lon="-5.18911"></trkpt>
      <trkpt lat="50.32811" lon="-5.18927"></trkpt>
      <trkpt lat="50.32801" lon="-5.18928"></trkpt>
      <trkpt lat="50.32786" lon="-5.18925"></trkpt>
      <trkpt lat="50.32776" lon="-5.18929"></trkpt>
      <trkpt lat="50.32754" lon="-5.18948"></trkpt>
      <trkpt lat="50.32742" lon="-5.18965"></trkpt>
      <trkpt lat="50.32721" lon="-5.1901"></trkpt>
      <trkpt lat="50.32709" lon="-5.1904"></trkpt>
      <trkpt lat="50.32691" lon="-5.19059"></trkpt>
      <trkpt lat="50.32673" lon="-5.19073"></trkpt>
      <trkpt lat="50.32667" lon="-5.19073"></trkpt>
      <trkpt lat="50.32657" lon="-5.19062"></trkpt>
      <trkpt lat="50.32654" lon="-5.19052"></trkpt>
      <trkpt lat="50.32639" lon="-5.19036"></trkpt>
      <trkpt lat="50.32627" lon="-5.19034"></trkpt>
      <trkpt lat="50.32623" lon="-5.19036"></trkpt>
      <trkpt lat="50.32601" lon="-5.1909"></trkpt>
      <trkpt lat="50.3259" lon="-5.19099"></trkpt>
      <trkpt lat="50.32582" lon="-5.19126"></trkpt>
      <trkpt lat="50.32572" lon="-5.19142"></trkpt>
      <trkpt lat="50.32569" lon="-5.19151"></trkpt>
      <trkpt lat="50.32568" lon="-5.19152"></trkpt>
      <trkpt lat="50.32566" lon="-5.1917"></trkpt>
      <trkpt lat="50.32567" lon="-5.19183"></trkpt>
      <trkpt lat="50.32573" lon="-5.19194"></trkpt>
      <trkpt lat="50.3258" lon="-5.19222"></trkpt>
      <trkpt lat="50.32582" lon="-5.19239"></trkpt>
      <trkpt lat="50.32589" lon="-5.19251"></trkpt>
      <trkpt lat="50.3259" lon="-5.19257"></trkpt>
      <trkpt lat="50.32589" lon="-5.19266"></trkpt>
      <trkpt lat="50.32581" lon="-5.19296"></trkpt>
      <trkpt lat="50.32573" lon="-5.19316"></trkpt>
      <trkpt lat="50.32565" lon="-5.19348"></trkpt>
      <trkpt lat="50.3256" lon="-5.194"></trkpt>
      <trkpt lat="50.32551" lon="-5.19448"></trkpt>
      <trkpt lat="50.32559" lon="-5.19443"></trkpt>
      <trkpt lat="50.32551" lon="-5.19448"></trkpt>
      <trkpt lat="50.32512" lon="-5.19522"></trkpt>
      <trkpt lat="50.32501" lon="-5.19533"></trkpt>
      <trkpt lat="50.32462" lon="-5.19557"></trkpt>
      <trkpt lat="50.3245" lon="-5.19557"></trkpt>
      <trkpt lat="50.32447" lon="-5.19571"></trkpt>
      <trkpt lat="50.32445" lon="-5.19574"></trkpt>
      <trkpt lat="50.3244" lon="-5.1958"></trkpt>
      <trkpt lat="50.32429" lon="-5.19581"></trkpt>
      <trkpt lat="50.32375" lon="-5.19567"></trkpt>
      <trkpt lat="50.3236" lon="-5.19569"></trkpt>
      <trkpt lat="50.32344" lon="-5.19568"></trkpt>
      <trkpt lat="50.32337" lon="-5.19562"></trkpt>
      <trkpt lat="50.32318" lon="-5.19514"></trkpt>
      <trkpt lat="50.32308" lon="-5.195"></trkpt>
      <trkpt lat="50.32275" lon="-5.19452"></trkpt>
      <trkpt lat="50.32187" lon="-5.19311"></trkpt>
      <trkpt lat="50.32159" lon="-5.19283"></trkpt>
      <trkpt lat="50.32149" lon="-5.19284"></trkpt>
      <trkpt lat="50.32138" lon="-5.19293"></trkpt>
      <trkpt lat="50.32136" lon="-5.19297"></trkpt>
      <trkpt lat="50.32135" lon="-5.19308"></trkpt>
      <trkpt lat="50.32134" lon="-5.19316"></trkpt>
      <trkpt lat="50.32134" lon="-5.19344"></trkpt>
      <trkpt lat="50.32138" lon="-5.19355"></trkpt>
      <trkpt lat="50.32148" lon="-5.1937"></trkpt>
      <trkpt lat="50.3215" lon="-5.19375"></trkpt>
      <trkpt lat="50.32149" lon="-5.1938"></trkpt>
      <trkpt lat="50.32159" lon="-5.19391"></trkpt>
      <trkpt lat="50.32175" lon="-5.19439"></trkpt>
      <trkpt lat="50.32184" lon="-5.19495"></trkpt>
      <trkpt lat="50.32185" lon="-5.19542"></trkpt>
      <trkpt lat="50.32178" lon="-5.19624"></trkpt>
      <trkpt lat="50.32162" lon="-5.1972"></trkpt>
      <trkpt lat="50.32157" lon="-5.19733"></trkpt>
      <trkpt lat="50.32152" lon="-5.19737"></trkpt>
      <trkpt lat="50.32132" lon="-5.19773"></trkpt>
      <trkpt lat="50.3206" lon="-5.199"></trkpt>
      <trkpt lat="50.32047" lon="-5.19899"></trkpt>
      <trkpt lat="50.32042" lon="-5.19901"></trkpt>
      <trkpt lat="50.32001" lon="-5.19931"></trkpt>
      <trkpt lat="50.31967" lon="-5.19969"></trkpt>
      <trkpt lat="50.31926" lon="-5.20037"></trkpt>
      <trkpt lat="50.31912" lon="-5.20069"></trkpt>
      <trkpt lat="50.31888" lon="-5.20127"></trkpt>
      <trkpt lat="50.31834" lon="-5.20247"></trkpt>
      <trkpt lat="50.31832" lon="-5.20254"></trkpt>
      <trkpt lat="50.31839" lon="-5.2025"></trkpt>
      <trkpt lat="50.31864" lon="-5.20231"></trkpt>
      <trkpt lat="50.31889" lon="-5.20221"></trkpt>
      <trkpt lat="50.31907" lon="-5.20242"></trkpt>
      <trkpt lat="50.31916" lon="-5.2025"></trkpt>
      <trkpt lat="50.31984" lon="-5.2027"></trkpt>
      <trkpt lat="50.31987" lon="-5.20271"></trkpt>
      <trkpt lat="50.32001" lon="-5.20288"></trkpt>
      <trkpt lat="50.3202" lon="-5.20334"></trkpt>
      <trkpt lat="50.32045" lon="-5.2036"></trkpt>
      <trkpt lat="50.32056" lon="-5.20383"></trkpt>
      <trkpt lat="50.32062" lon="-5.20391"></trkpt>
      <trkpt lat="50.32078" lon="-5.20404"></trkpt>
      <trkpt lat="50.32127" lon="-5.2043"></trkpt>
      <trkpt lat="50.32149" lon="-5.20451"></trkpt>
      <trkpt lat="50.32176" lon="-5.20488"></trkpt>
      <trkpt lat="50.3218" lon="-5.20497"></trkpt>
      <trkpt lat="50.32181" lon="-5.20498"></trkpt>
      <trkpt lat="50.32174" lon="-5.20514"></trkpt>
      <trkpt lat="50.32167" lon="-5.20513"></trkpt>
      <trkpt lat="50.32166" lon="-5.20517"></trkpt>
      <trkpt lat="50.3217" lon="-5.2053"></trkpt>
      <trkpt lat="50.32168" lon="-5.20536"></trkpt>
      <trkpt lat="50.32163" lon="-5.20536"></trkpt>
      <trkpt lat="50.32159" lon="-5.20527"></trkpt>
      <trkpt lat="50.32152" lon="-5.20535"></trkpt>
      <trkpt lat="50.32136" lon="-5.20562"></trkpt>
      <trkpt lat="50.32131" lon="-5.20567"></trkpt>
      <trkpt lat="50.32128" lon="-5.20568"></trkpt>
      <trkpt lat="50.32123" lon="-5.2056"></trkpt>
      <trkpt lat="50.32096" lon="-5.20606"></trkpt>
      <trkpt lat="50.3209" lon="-5.20641"></trkpt>
      <trkpt lat="50.32042" lon="-5.20811"></trkpt>
      <trkpt lat="50.32038" lon="-5.20833"></trkpt>
      <trkpt lat="50.32039" lon="-5.20853"></trkpt>
      <trkpt lat="50.32043" lon="-5.2087"></trkpt>
      <trkpt lat="50.32043" lon="-5.2089"></trkpt>
      <trkpt lat="50.32033" lon="-5.20949"></trkpt>
      <trkpt lat="50.32033" lon="-5.20977"></trkpt>
      <trkpt lat="50.32033" lon="-5.21"></trkpt>
      <trkpt lat="50.32028" lon="-5.21034"></trkpt>
      <trkpt lat="50.32036" lon="-5.21122"></trkpt>
      <trkpt lat="50.32038" lon="-5.21163"></trkpt>
      <trkpt lat="50.32033" lon="-5.21191"></trkpt>
      <trkpt lat="50.32033" lon="-5.21203"></trkpt>
      <trkpt lat="50.32049" lon="-5.2123"></trkpt>
      <trkpt lat="50.32067" lon="-5.21248"></trkpt>
      <trkpt lat="50.32071" lon="-5.21262"></trkpt>
      <trkpt lat="50.32072" lon="-5.21278"></trkpt>
      <trkpt lat="50.32076" lon="-5.21295"></trkpt>
      <trkpt lat="50.32076" lon="-5.21321"></trkpt>
      <trkpt lat="50.32073" lon="-5.21343"></trkpt>
      <trkpt lat="50.32074" lon="-5.21368"></trkpt>
      <trkpt lat="50.32061" lon="-5.21416"></trkpt>
      <trkpt lat="50.32049" lon="-5.2145"></trkpt>
      <trkpt lat="50.32046" lon="-5.21469"></trkpt>
      <trkpt lat="50.32036" lon="-5.21537"></trkpt>
      <trkpt lat="50.32038" lon="-5.21545"></trkpt>
      <trkpt lat="50.32044" lon="-5.2155"></trkpt>
      <trkpt lat="50.32058" lon="-5.2159"></trkpt>
      <trkpt lat="50.32068" lon="-5.21712"></trkpt>
      <trkpt lat="50.32066" lon="-5.21734"></trkpt>
      <trkpt lat="50.32061" lon="-5.21754"></trkpt>
      <trkpt lat="50.32051" lon="-5.21769"></trkpt>
      <trkpt lat="50.32046" lon="-5.21786"></trkpt>
      <trkpt lat="50.32048" lon="-5.21803"></trkpt>
      <trkpt lat="50.32038" lon="-5.2186"></trkpt>
      <trkpt lat="50.32046" lon="-5.21898"></trkpt>
      <trkpt lat="50.32057" lon="-5.21922"></trkpt>
      <trkpt lat="50.32067" lon="-5.2193"></trkpt>
      <trkpt lat="50.32075" lon="-5.21948"></trkpt>
      <trkpt lat="50.32091" lon="-5.21962"></trkpt>
      <trkpt lat="50.321" lon="-5.21974"></trkpt>
      <trkpt lat="50.32112" lon="-5.22"></trkpt>
      <trkpt lat="50.32118" lon="-5.22022"></trkpt>
      <trkpt lat="50.32135" lon="-5.22058"></trkpt>
      <trkpt lat="50.32136" lon="-5.22095"></trkpt>
      <trkpt lat="50.32129" lon="-5.2213"></trkpt>
      <trkpt lat="50.32121" lon="-5.22157"></trkpt>
      <trkpt lat="50.32117" lon="-5.22185"></trkpt>
      <trkpt lat="50.32096" lon="-5.22264"></trkpt>
      <trkpt lat="50.32091" lon="-5.22277"></trkpt>
      <trkpt lat="50.32074" lon="-5.223"></trkpt>
      <trkpt lat="50.32059" lon="-5.22335"></trkpt>
      <trkpt lat="50.3204" lon="-5.22389"></trkpt>
      <trkpt lat="50.31993" lon="-5.22545"></trkpt>
      <trkpt lat="50.31984" lon="-5.22562"></trkpt>
      <trkpt lat="50.3194" lon="-5.22631"></trkpt>
      <trkpt lat="50.31906" lon="-5.22718"></trkpt>
      <trkpt lat="50.31905" lon="-5.22718"></trkpt>
      <trkpt lat="50.31895" lon="-5.22745"></trkpt>
      <trkpt lat="50.31888" lon="-5.22769"></trkpt>
      <trkpt lat="50.31884" lon="-5.22796"></trkpt>
      <trkpt lat="50.31881" lon="-5.22805"></trkpt>
      <trkpt lat="50.31882" lon="-5.22826"></trkpt>
      <trkpt lat="50.31878" lon="-5.22893"></trkpt>
      <trkpt lat="50.3187" lon="-5.22942"></trkpt>
      <trkpt lat="50.31867" lon="-5.2295"></trkpt>
      <trkpt lat="50.31846" lon="-5.22988"></trkpt>
      <trkpt lat="50.31816" lon="-5.23207"></trkpt>
      <trkpt lat="50.31814" lon="-5.23273"></trkpt>
      <trkpt lat="50.31805" lon="-5.23331"></trkpt>
      <trkpt lat="50.31802" lon="-5.23336"></trkpt>
      <trkpt lat="50.31796" lon="-5.23338"></trkpt>
      <trkpt lat="50.31757" lon="-5.23338"></trkpt>
      <trkpt lat="50.31744" lon="-5.23329"></trkpt>
      <trkpt lat="50.31728" lon="-5.23327"></trkpt>
      <trkpt lat="50.31719" lon="-5.23314"></trkpt>
      <trkpt lat="50.31705" lon="-5.23304"></trkpt>
      <trkpt lat="50.31669" lon="-5.23301"></trkpt>
      <trkpt lat="50.31654" lon="-5.23303"></trkpt>
      <trkpt lat="50.31604" lon="-5.23321"></trkpt>
      <trkpt lat="50.31603" lon="-5.23321"></trkpt>
      <trkpt lat="50.31591" lon="-5.23331"></trkpt>
      <trkpt lat="50.31569" lon="-5.23341"></trkpt>
      <trkpt lat="50.31555" lon="-5.23353"></trkpt>
      <trkpt lat="50.31535" lon="-5.23364"></trkpt>
      <trkpt lat="50.31533" lon="-5.23364"></trkpt>
      <trkpt lat="50.31531" lon="-5.23359"></trkpt>
      <trkpt lat="50.31527" lon="-5.23356"></trkpt>
      <trkpt lat="50.3152" lon="-5.23356"></trkpt>
      <trkpt lat="50.31487" lon="-5.23398"></trkpt>
      <trkpt lat="50.31467" lon="-5.23381"></trkpt>
      <trkpt lat="50.31447" lon="-5.2337"></trkpt>
      <trkpt lat="50.31431" lon="-5.23357"></trkpt>
      <trkpt lat="50.31413" lon="-5.23339"></trkpt>
      <trkpt lat="50.31393" lon="-5.23326"></trkpt>
      <trkpt lat="50.3138" lon="-5.23307"></trkpt>
      <trkpt lat="50.31357" lon="-5.23297"></trkpt>
      <trkpt lat="50.31303" lon="-5.23279"></trkpt>
      <trkpt lat="50.31232" lon="-5.2321"></trkpt>
      <trkpt lat="50.31213" lon="-5.23198"></trkpt>
      <trkpt lat="50.31187" lon="-5.23185"></trkpt>
      <trkpt lat="50.31172" lon="-5.23181"></trkpt>
      <trkpt lat="50.31143" lon="-5.23186"></trkpt>
      <trkpt lat="50.31121" lon="-5.23185"></trkpt>
      <trkpt lat="50.3109" lon="-5.23179"></trkpt>
      <trkpt lat="50.3109" lon="-5.23178"></trkpt>
      <trkpt lat="50.31045" lon="-5.23172"></trkpt>
      <trkpt lat="50.31024" lon="-5.23172"></trkpt>
      <trkpt lat="50.31006" lon="-5.23177"></trkpt>
      <trkpt lat="50.30984" lon="-5.23174"></trkpt>
      <trkpt lat="50.30964" lon="-5.23175"></trkpt>
      <trkpt lat="50.30951" lon="-5.23181"></trkpt>
      <trkpt lat="50.30944" lon="-5.23187"></trkpt>
      <trkpt lat="50.30851" lon="-5.23203"></trkpt>
      <trkpt lat="50.30817" lon="-5.23246"></trkpt>
      <trkpt lat="50.30763" lon="-5.23278"></trkpt>
      <trkpt lat="50.30689" lon="-5.23287"></trkpt>
      <trkpt lat="50.30678" lon="-5.23284"></trkpt>
      <trkpt lat="50.30656" lon="-5.23266"></trkpt>
      <trkpt lat="50.30652" lon="-5.23266"></trkpt>
      <trkpt lat="50.30645" lon="-5.23273"></trkpt>
      <trkpt lat="50.30635" lon="-5.23276"></trkpt>
      <trkpt lat="50.30607" lon="-5.2327"></trkpt>
      <trkpt lat="50.30601" lon="-5.23274"></trkpt>
      <trkpt lat="50.30584" lon="-5.23296"></trkpt>
      <trkpt lat="50.30553" lon="-5.23304"></trkpt>
      <trkpt lat="50.3054" lon="-5.23315"></trkpt>
      <trkpt lat="50.30515" lon="-5.23314"></trkpt>
      <trkpt lat="50.30417" lon="-5.23342"></trkpt>
      <trkpt lat="50.30394" lon="-5.23357"></trkpt>
      <trkpt lat="50.30368" lon="-5.23369"></trkpt>
      <trkpt lat="50.30333" lon="-5.23377"></trkpt>
      <trkpt lat="50.30315" lon="-5.2339"></trkpt>
      <trkpt lat="50.30301" lon="-5.23409"></trkpt>
      <trkpt lat="50.30275" lon="-5.23433"></trkpt>
      <trkpt lat="50.30253" lon="-5.2345"></trkpt>
      <trkpt lat="50.30253" lon="-5.23451"></trkpt>
      <trkpt lat="50.30235" lon="-5.23459"></trkpt>
      <trkpt lat="50.30226" lon="-5.23458"></trkpt>
      <trkpt lat="50.30212" lon="-5.23446"></trkpt>
      <trkpt lat="50.3021" lon="-5.23433"></trkpt>
      <trkpt lat="50.30212" lon="-5.23377"></trkpt>
      <trkpt lat="50.30212" lon="-5.23357"></trkpt>
      <trkpt lat="50.30206" lon="-5.23354"></trkpt>
      <trkpt lat="50.30177" lon="-5.23392"></trkpt>
      <trkpt lat="50.30118" lon="-5.23443"></trkpt>
      <trkpt lat="50.3011" lon="-5.23454"></trkpt>
      <trkpt lat="50.30099" lon="-5.2346"></trkpt>
      <trkpt lat="50.30086" lon="-5.23459"></trkpt>
      <trkpt lat="50.30064" lon="-5.23445"></trkpt>
      <trkpt lat="50.30034" lon="-5.23417"></trkpt>
      <trkpt lat="50.30025" lon="-5.23406"></trkpt>
      <trkpt lat="50.30019" lon="-5.23393"></trkpt>
      <trkpt lat="50.30015" lon="-5.23394"></trkpt>
      <trkpt lat="50.30024" lon="-5.23422"></trkpt>
      <trkpt lat="50.30023" lon="-5.23436"></trkpt>
      <trkpt lat="50.30016" lon="-5.23447"></trkpt>
      <trkpt lat="50.30016" lon="-5.23448"></trkpt>
      <trkpt lat="50.30009" lon="-5.23456"></trkpt>
      <trkpt lat="50.2999" lon="-5.23409"></trkpt>
      <trkpt lat="50.29989" lon="-5.23399"></trkpt>
      <trkpt lat="50.29991" lon="-5.23393"></trkpt>
      <trkpt lat="50.29973" lon="-5.23381"></trkpt>
      <trkpt lat="50.29962" lon="-5.23371"></trkpt>
      <trkpt lat="50.29956" lon="-5.23356"></trkpt>
      <trkpt lat="50.29949" lon="-5.23325"></trkpt>
      <trkpt lat="50.29919" lon="-5.2322"></trkpt>
      <trkpt lat="50.29902" lon="-5.23165"></trkpt>
      <trkpt lat="50.299" lon="-5.23193"></trkpt>
      <trkpt lat="50.29911" lon="-5.23318"></trkpt>
      <trkpt lat="50.29928" lon="-5.23516"></trkpt>
      <trkpt lat="50.29932" lon="-5.2354"></trkpt>
      <trkpt lat="50.29931" lon="-5.23567"></trkpt>
      <trkpt lat="50.29927" lon="-5.23577"></trkpt>
      <trkpt lat="50.29919" lon="-5.23588"></trkpt>
      <trkpt lat="50.29906" lon="-5.23592"></trkpt>
      <trkpt lat="50.29892" lon="-5.23591"></trkpt>
      <trkpt lat="50.2982" lon="-5.23628"></trkpt>
      <trkpt lat="50.29791" lon="-5.23635"></trkpt>
      <trkpt lat="50.29787" lon="-5.23632"></trkpt>
      <trkpt lat="50.29776" lon="-5.23606"></trkpt>
      <trkpt lat="50.29767" lon="-5.23597"></trkpt>
      <trkpt lat="50.29727" lon="-5.23603"></trkpt>
      <trkpt lat="50.29697" lon="-5.23625"></trkpt>
      <trkpt lat="50.29674" lon="-5.23656"></trkpt>
      <trkpt lat="50.29674" lon="-5.23657"></trkpt>
      <trkpt lat="50.29646" lon="-5.23688"></trkpt>
      <trkpt lat="50.29638" lon="-5.23701"></trkpt>
      <trkpt lat="50.29559" lon="-5.23763"></trkpt>
      <trkpt lat="50.29529" lon="-5.23782"></trkpt>
      <trkpt lat="50.29502" lon="-5.23792"></trkpt>
      <trkpt lat="50.29479" lon="-5.23808"></trkpt>
      <trkpt lat="50.29461" lon="-5.2383"></trkpt>
      <trkpt lat="50.29455" lon="-5.23843"></trkpt>
      <trkpt lat="50.29437" lon="-5.23861"></trkpt>
      <trkpt lat="50.29419" lon="-5.23885"></trkpt>
      <trkpt lat="50.29408" lon="-5.23904"></trkpt>
      <trkpt lat="50.29385" lon="-5.23932"></trkpt>
      <trkpt lat="50.29349" lon="-5.23926"></trkpt>
      <trkpt lat="50.29337" lon="-5.23944"></trkpt>
      <trkpt lat="50.29337" lon="-5.23945"></trkpt>
      <trkpt lat="50.29321" lon="-5.23965"></trkpt>
      <trkpt lat="50.2929" lon="-5.23993"></trkpt>
      <trkpt lat="50.29279" lon="-5.23998"></trkpt>
      <trkpt lat="50.29251" lon="-5.24004"></trkpt>
      <trkpt lat="50.29226" lon="-5.24016"></trkpt>
      <trkpt lat="50.29164" lon="-5.2404"></trkpt>
      <trkpt lat="50.29149" lon="-5.24041"></trkpt>
      <trkpt lat="50.29148" lon="-5.24041"></trkpt>
      <trkpt lat="50.29108" lon="-5.24049"></trkpt>
      <trkpt lat="50.29085" lon="-5.24069"></trkpt>
      <trkpt lat="50.29061" lon="-5.24102"></trkpt>
      <trkpt lat="50.29036" lon="-5.24141"></trkpt>
      <trkpt lat="50.29022" lon="-5.2418"></trkpt>
      <trkpt lat="50.29003" lon="-5.24217"></trkpt>
      <trkpt lat="50.28988" lon="-5.24221"></trkpt>
      <trkpt lat="50.28967" lon="-5.24218"></trkpt>
      <trkpt lat="50.28914" lon="-5.24186"></trkpt>
      <trkpt lat="50.28886" lon="-5.24167"></trkpt>
      <trkpt lat="50.28867" lon="-5.24149"></trkpt>
      <trkpt lat="50.28849" lon="-5.24144"></trkpt>
      <trkpt lat="50.28818" lon="-5.24144"></trkpt>
      <trkpt lat="50.28776" lon="-5.24138"></trkpt>
      <trkpt lat="50.28766" lon="-5.24132"></trkpt>
      <trkpt lat="50.28685" lon="-5.24045"></trkpt>
      <trkpt lat="50.28676" lon="-5.24037"></trkpt>
      <trkpt lat="50.28618" lon="-5.24012"></trkpt>
      <trkpt lat="50.28556" lon="-5.23977"></trkpt>
      <trkpt lat="50.28534" lon="-5.23962"></trkpt>
      <trkpt lat="50.28539" lon="-5.23975"></trkpt>
      <trkpt lat="50.28567" lon="-5.24021"></trkpt>
      <trkpt lat="50.28577" lon="-5.24039"></trkpt>
      <trkpt lat="50.28574" lon="-5.24046"></trkpt>
      <trkpt lat="50.28559" lon="-5.24065"></trkpt>
      <trkpt lat="50.28559" lon="-5.24086"></trkpt>
      <trkpt lat="50.28619" lon="-5.24373"></trkpt>
      <trkpt lat="50.2864" lon="-5.24467"></trkpt>
      <trkpt lat="50.2864" lon="-5.24477"></trkpt>
      <trkpt lat="50.28633" lon="-5.24484"></trkpt>
      <trkpt lat="50.28624" lon="-5.24486"></trkpt>
      <trkpt lat="50.28617" lon="-5.24476"></trkpt>
      <trkpt lat="50.28578" lon="-5.2446"></trkpt>
      <trkpt lat="50.28553" lon="-5.24439"></trkpt>
      <trkpt lat="50.28511" lon="-5.24413"></trkpt>
      <trkpt lat="50.28445" lon="-5.24385"></trkpt>
      <trkpt lat="50.28441" lon="-5.24387"></trkpt>
      <trkpt lat="50.28436" lon="-5.24408"></trkpt>
      <trkpt lat="50.2843" lon="-5.2442"></trkpt>
      <trkpt lat="50.28413" lon="-5.24447"></trkpt>
      <trkpt lat="50.28402" lon="-5.24471"></trkpt>
      <trkpt lat="50.28396" lon="-5.24474"></trkpt>
      <trkpt lat="50.28389" lon="-5.24473"></trkpt>
      <trkpt lat="50.28387" lon="-5.24468"></trkpt>
      <trkpt lat="50.28383" lon="-5.24479"></trkpt>
      <trkpt lat="50.28372" lon="-5.24525"></trkpt>
      <trkpt lat="50.28362" lon="-5.24549"></trkpt>
      <trkpt lat="50.28235" lon="-5.24851"></trkpt>
      <trkpt lat="50.2821" lon="-5.24882"></trkpt>
      <trkpt lat="50.28203" lon="-5.24909"></trkpt>
      <trkpt lat="50.28195" lon="-5.24923"></trkpt>
      <trkpt lat="50.28182" lon="-5.24938"></trkpt>
      <trkpt lat="50.28173" lon="-5.24941"></trkpt>
      <trkpt lat="50.2816" lon="-5.24955"></trkpt>
      <trkpt lat="50.28151" lon="-5.2496"></trkpt>
      <trkpt lat="50.28142" lon="-5.24969"></trkpt>
      <trkpt lat="50.2813" lon="-5.24995"></trkpt>
      <trkpt lat="50.28122" lon="-5.25004"></trkpt>
      <trkpt lat="50.28115" lon="-5.25006"></trkpt>
      <trkpt lat="50.28112" lon="-5.25011"></trkpt>
      <trkpt lat="50.28104" lon="-5.25023"></trkpt>
      <trkpt lat="50.28108" lon="-5.25039"></trkpt>
      <trkpt lat="50.28074" lon="-5.25223"></trkpt>
      <trkpt lat="50.28066" lon="-5.25247"></trkpt>
      <trkpt lat="50.28053" lon="-5.25271"></trkpt>
      <trkpt lat="50.28046" lon="-5.25273"></trkpt>
      <trkpt lat="50.2803" lon="-5.25267"></trkpt>
      <trkpt lat="50.28022" lon="-5.25266"></trkpt>
      <trkpt lat="50.28018" lon="-5.25269"></trkpt>
      <trkpt lat="50.28016" lon="-5.25274"></trkpt>
      <trkpt lat="50.28011" lon="-5.25305"></trkpt>
      <trkpt lat="50.2801" lon="-5.25335"></trkpt>
      <trkpt lat="50.28015" lon="-5.25409"></trkpt>
      <trkpt lat="50.28007" lon="-5.25473"></trkpt>
      <trkpt lat="50.28008" lon="-5.25491"></trkpt>
      <trkpt lat="50.2802" lon="-5.25547"></trkpt>
      <trkpt lat="50.28026" lon="-5.25565"></trkpt>
      <trkpt lat="50.2802" lon="-5.25618"></trkpt>
      <trkpt lat="50.28015" lon="-5.25642"></trkpt>
      <trkpt lat="50.28014" lon="-5.25655"></trkpt>
      <trkpt lat="50.28005" lon="-5.25668"></trkpt>
      <trkpt lat="50.28" lon="-5.25695"></trkpt>
      <trkpt lat="50.27976" lon="-5.25742"></trkpt>
      <trkpt lat="50.2797" lon="-5.25746"></trkpt>
      <trkpt lat="50.27961" lon="-5.25761"></trkpt>
      <trkpt lat="50.27961" lon="-5.25765"></trkpt>
      <trkpt lat="50.2795" lon="-5.258"></trkpt>
      <trkpt lat="50.27942" lon="-5.25835"></trkpt>
      <trkpt lat="50.27931" lon="-5.25883"></trkpt>
      <trkpt lat="50.27928" lon="-5.25905"></trkpt>
      <trkpt lat="50.27917" lon="-5.2594"></trkpt>
      <trkpt lat="50.2791" lon="-5.25952"></trkpt>
      <trkpt lat="50.27885" lon="-5.25977"></trkpt>
      <trkpt lat="50.27874" lon="-5.25981"></trkpt>
      <trkpt lat="50.2782" lon="-5.25954"></trkpt>
      <trkpt lat="50.27804" lon="-5.25953"></trkpt>
      <trkpt lat="50.27786" lon="-5.25935"></trkpt>
      <trkpt lat="50.27771" lon="-5.25926"></trkpt>
      <trkpt lat="50.27754" lon="-5.25927"></trkpt>
      <trkpt lat="50.2774" lon="-5.2594"></trkpt>
      <trkpt lat="50.27738" lon="-5.2594"></trkpt>
      <trkpt lat="50.27733" lon="-5.25948"></trkpt>
      <trkpt lat="50.27727" lon="-5.25951"></trkpt>
      <trkpt lat="50.27723" lon="-5.25951"></trkpt>
      <trkpt lat="50.27717" lon="-5.25943"></trkpt>
      <trkpt lat="50.27709" lon="-5.25945"></trkpt>
      <trkpt lat="50.277" lon="-5.25959"></trkpt>
      <trkpt lat="50.27697" lon="-5.25961"></trkpt>
      <trkpt lat="50.27685" lon="-5.25959"></trkpt>
      <trkpt lat="50.27683" lon="-5.25954"></trkpt>
      <trkpt lat="50.27676" lon="-5.25964"></trkpt>
      <trkpt lat="50.27671" lon="-5.25978"></trkpt>
      <trkpt lat="50.27658" lon="-5.25988"></trkpt>
      <trkpt lat="50.27634" lon="-5.25997"></trkpt>
      <trkpt lat="50.27635" lon="-5.2601"></trkpt>
      <trkpt lat="50.27631" lon="-5.2602"></trkpt>
      <trkpt lat="50.27631" lon="-5.26021"></trkpt>
      <trkpt lat="50.27617" lon="-5.26036"></trkpt>
      <trkpt lat="50.27609" lon="-5.26058"></trkpt>
      <trkpt lat="50.27603" lon="-5.26062"></trkpt>
      <trkpt lat="50.27598" lon="-5.26141"></trkpt>
      <trkpt lat="50.27586" lon="-5.26176"></trkpt>
      <trkpt lat="50.27576" lon="-5.26198"></trkpt>
      <trkpt lat="50.27565" lon="-5.26205"></trkpt>
      <trkpt lat="50.27551" lon="-5.2621"></trkpt>
      <trkpt lat="50.27529" lon="-5.26211"></trkpt>
      <trkpt lat="50.27491" lon="-5.26209"></trkpt>
      <trkpt lat="50.27474" lon="-5.26213"></trkpt>
      <trkpt lat="50.27465" lon="-5.26219"></trkpt>
      <trkpt lat="50.27457" lon="-5.26227"></trkpt>
      <trkpt lat="50.27438" lon="-5.26236"></trkpt>
      <trkpt lat="50.27435" lon="-5.26241"></trkpt>
      <trkpt lat="50.27427" lon="-5.26263"></trkpt>
      <trkpt lat="50.27426" lon="-5.26273"></trkpt>
      <trkpt lat="50.2743" lon="-5.26308"></trkpt>
      <trkpt lat="50.2747" lon="-5.26404"></trkpt>
      <trkpt lat="50.27475" lon="-5.26428"></trkpt>
      <trkpt lat="50.27481" lon="-5.26437"></trkpt>
      <trkpt lat="50.27487" lon="-5.26458"></trkpt>
      <trkpt lat="50.27487" lon="-5.26466"></trkpt>
      <trkpt lat="50.27473" lon="-5.26591"></trkpt>
      <trkpt lat="50.27475" lon="-5.26608"></trkpt>
      <trkpt lat="50.27469" lon="-5.26622"></trkpt>
      <trkpt lat="50.27456" lon="-5.26738"></trkpt>
      <trkpt lat="50.27458" lon="-5.26755"></trkpt>
      <trkpt lat="50.27455" lon="-5.26802"></trkpt>
      <trkpt lat="50.27446" lon="-5.26874"></trkpt>
      <trkpt lat="50.27438" lon="-5.26899"></trkpt>
      <trkpt lat="50.27435" lon="-5.26939"></trkpt>
      <trkpt lat="50.27425" lon="-5.26989"></trkpt>
      <trkpt lat="50.2742" lon="-5.27038"></trkpt>
      <trkpt lat="50.2742" lon="-5.27098"></trkpt>
      <trkpt lat="50.27417" lon="-5.27131"></trkpt>
      <trkpt lat="50.27397" lon="-5.27201"></trkpt>
      <trkpt lat="50.27387" lon="-5.2727"></trkpt>
      <trkpt lat="50.2738" lon="-5.27341"></trkpt>
      <trkpt lat="50.27378" lon="-5.27386"></trkpt>
      <trkpt lat="50.27372" lon="-5.27423"></trkpt>
      <trkpt lat="50.27366" lon="-5.27437"></trkpt>
      <trkpt lat="50.27352" lon="-5.27493"></trkpt>
      <trkpt lat="50.27351" lon="-5.27515"></trkpt>
      <trkpt lat="50.27336" lon="-5.2761"></trkpt>
      <trkpt lat="50.27336" lon="-5.27618"></trkpt>
      <trkpt lat="50.27334" lon="-5.27624"></trkpt>
      <trkpt lat="50.27323" lon="-5.27637"></trkpt>
      <trkpt lat="50.27313" lon="-5.27633"></trkpt>
      <trkpt lat="50.27208" lon="-5.27735"></trkpt>
      <trkpt lat="50.2718" lon="-5.27764"></trkpt>
      <trkpt lat="50.27157" lon="-5.27794"></trkpt>
      <trkpt lat="50.27134" lon="-5.27835"></trkpt>
      <trkpt lat="50.27097" lon="-5.2792"></trkpt>
      <trkpt lat="50.27091" lon="-5.2793"></trkpt>
      <trkpt lat="50.27087" lon="-5.2796"></trkpt>
      <trkpt lat="50.27077" lon="-5.27972"></trkpt>
      <trkpt lat="50.27076" lon="-5.2798"></trkpt>
      <trkpt lat="50.2706" lon="-5.27994"></trkpt>
      <trkpt lat="50.27035" lon="-5.28045"></trkpt>
      <trkpt lat="50.27034" lon="-5.28054"></trkpt>
      <trkpt lat="50.2703" lon="-5.28061"></trkpt>
      <trkpt lat="50.27027" lon="-5.2806"></trkpt>
      <trkpt lat="50.27027" lon="-5.28079"></trkpt>
      <trkpt lat="50.27022" lon="-5.28077"></trkpt>
      <trkpt lat="50.26998" lon="-5.28129"></trkpt>
      <trkpt lat="50.26961" lon="-5.28186"></trkpt>
      <trkpt lat="50.26924" lon="-5.28235"></trkpt>
      <trkpt lat="50.26905" lon="-5.28253"></trkpt>
      <trkpt lat="50.26891" lon="-5.28266"></trkpt>
      <trkpt lat="50.26872" lon="-5.28301"></trkpt>
      <trkpt lat="50.26861" lon="-5.28325"></trkpt>
      <trkpt lat="50.26859" lon="-5.28334"></trkpt>
      <trkpt lat="50.26855" lon="-5.2834"></trkpt>
      <trkpt lat="50.26848" lon="-5.28344"></trkpt>
      <trkpt lat="50.26819" lon="-5.28385"></trkpt>
      <trkpt lat="50.26778" lon="-5.28462"></trkpt>
      <trkpt lat="50.26774" lon="-5.28467"></trkpt>
      <trkpt lat="50.26722" lon="-5.28454"></trkpt>
      <trkpt lat="50.26674" lon="-5.28429"></trkpt>
      <trkpt lat="50.26648" lon="-5.28411"></trkpt>
      <trkpt lat="50.26636" lon="-5.2841"></trkpt>
      <trkpt lat="50.26613" lon="-5.28397"></trkpt>
      <trkpt lat="50.26601" lon="-5.28397"></trkpt>
      <trkpt lat="50.26582" lon="-5.2839"></trkpt>
      <trkpt lat="50.26528" lon="-5.28388"></trkpt>
      <trkpt lat="50.26519" lon="-5.28393"></trkpt>
      <trkpt lat="50.26507" lon="-5.28405"></trkpt>
      <trkpt lat="50.26488" lon="-5.28418"></trkpt>
      <trkpt lat="50.26467" lon="-5.28429"></trkpt>
      <trkpt lat="50.26461" lon="-5.28435"></trkpt>
      <trkpt lat="50.26456" lon="-5.28445"></trkpt>
      <trkpt lat="50.26452" lon="-5.28461"></trkpt>
      <trkpt lat="50.26443" lon="-5.28471"></trkpt>
      <trkpt lat="50.26437" lon="-5.28471"></trkpt>
      <trkpt lat="50.26429" lon="-5.28464"></trkpt>
      <trkpt lat="50.26382" lon="-5.28572"></trkpt>
      <trkpt lat="50.2638" lon="-5.28591"></trkpt>
      <trkpt lat="50.26373" lon="-5.28612"></trkpt>
      <trkpt lat="50.26372" lon="-5.28612"></trkpt>
      <trkpt lat="50.26358" lon="-5.28639"></trkpt>
      <trkpt lat="50.26349" lon="-5.28629"></trkpt>
      <trkpt lat="50.26313" lon="-5.28714"></trkpt>
      <trkpt lat="50.26301" lon="-5.28747"></trkpt>
      <trkpt lat="50.26297" lon="-5.28774"></trkpt>
      <trkpt lat="50.26293" lon="-5.28892"></trkpt>
      <trkpt lat="50.26293" lon="-5.28943"></trkpt>
      <trkpt lat="50.26285" lon="-5.29065"></trkpt>
      <trkpt lat="50.26288" lon="-5.29101"></trkpt>
      <trkpt lat="50.26291" lon="-5.29124"></trkpt>
      <trkpt lat="50.26291" lon="-5.29145"></trkpt>
      <trkpt lat="50.26289" lon="-5.29153"></trkpt>
      <trkpt lat="50.26286" lon="-5.29159"></trkpt>
      <trkpt lat="50.26279" lon="-5.29159"></trkpt>
      <trkpt lat="50.26272" lon="-5.29154"></trkpt>
      <trkpt lat="50.26261" lon="-5.29139"></trkpt>
      <trkpt lat="50.26229" lon="-5.29079"></trkpt>
      <trkpt lat="50.26224" lon="-5.29065"></trkpt>
      <trkpt lat="50.26209" lon="-5.28995"></trkpt>
      <trkpt lat="50.26204" lon="-5.28983"></trkpt>
      <trkpt lat="50.26183" lon="-5.2895"></trkpt>
      <trkpt lat="50.2617" lon="-5.28939"></trkpt>
      <trkpt lat="50.2616" lon="-5.28923"></trkpt>
      <trkpt lat="50.26151" lon="-5.28901"></trkpt>
      <trkpt lat="50.26147" lon="-5.28885"></trkpt>
      <trkpt lat="50.26143" lon="-5.28859"></trkpt>
      <trkpt lat="50.26138" lon="-5.28848"></trkpt>
    </trkseg>
  </trk>
</gpx>
