<?xml version="1.0" encoding="UTF-8"?>
<gpx version="1.1" creator="swcp-walk (imported from OS Maps route 33834387)"
     xmlns="http://www.topografix.com/GPX/1/1">
  <metadata>
    <name>SWCP19-Portreath-Hayle</name>
  </metadata>
  <trk>
    <name>SWCP19-Portreath-Hayle</name>
    <trkseg>
      <trkpt lat="50.26129203383044" lon="-5.288531993679726"></trkpt>
      <trkpt lat="50.26124" lon="-5.28844"></trkpt>
      <trkpt lat="50.26091" lon="-5.28877"></trkpt>
      <trkpt lat="50.2606" lon="-5.28903"></trkpt>
      <trkpt lat="50.26053" lon="-5.28921"></trkpt>
      <trkpt lat="50.26051" lon="-5.28933"></trkpt>
      <trkpt lat="50.26049" lon="-5.28975"></trkpt>
      <trkpt lat="50.26051" lon="-5.29054"></trkpt>
      <trkpt lat="50.26056" lon="-5.29135"></trkpt>
      <trkpt lat="50.26059" lon="-5.29168"></trkpt>
      <trkpt lat="50.26068" lon="-5.29217"></trkpt>
      <trkpt lat="50.26077" lon="-5.29248"></trkpt>
      <trkpt lat="50.26078" lon="-5.2926"></trkpt>
      <trkpt lat="50.26076" lon="-5.29271"></trkpt>
      <trkpt lat="50.2607" lon="-5.29278"></trkpt>
      <trkpt lat="50.26058" lon="-5.29286"></trkpt>
      <trkpt lat="50.26048" lon="-5.29286"></trkpt>
      <trkpt lat="50.26042" lon="-5.29281"></trkpt>
      <trkpt lat="50.26038" lon="-5.29285"></trkpt>
      <trkpt lat="50.26038" lon="-5.29294"></trkpt>
      <trkpt lat="50.26042" lon="-5.29304"></trkpt>
      <trkpt lat="50.26054" lon="-5.29395"></trkpt>
      <trkpt lat="50.2608" lon="-5.29546"></trkpt>
      <trkpt lat="50.26078" lon="-5.29549"></trkpt>
      <trkpt lat="50.26079" lon="-5.29566"></trkpt>
      <trkpt lat="50.26078" lon="-5.29549"></trkpt>
      <trkpt lat="50.2608" lon="-5.29546"></trkpt>
      <trkpt lat="50.26084" lon="-5.29572"></trkpt>
      <trkpt lat="50.26083" lon="-5.2961"></trkpt>
      <trkpt lat="50.26081" lon="-5.29615"></trkpt>
      <trkpt lat="50.26068" lon="-5.29627"></trkpt>
      <trkpt lat="50.26055" lon="-5.29646"></trkpt>
      <trkpt lat="50.26029" lon="-5.29713"></trkpt>
      <trkpt lat="50.2603" lon="-5.29723"></trkpt>
      <trkpt lat="50.26032" lon="-5.29727"></trkpt>
      <trkpt lat="50.26041" lon="-5.29727"></trkpt>
      <trkpt lat="50.26044" lon="-5.2973"></trkpt>
      <trkpt lat="50.2605" lon="-5.29747"></trkpt>
      <trkpt lat="50.26044" lon="-5.29765"></trkpt>
      <trkpt lat="50.26041" lon="-5.29783"></trkpt>
      <trkpt lat="50.26041" lon="-5.29796"></trkpt>
      <trkpt lat="50.26048" lon="-5.29815"></trkpt>
      <trkpt lat="50.26053" lon="-5.29821"></trkpt>
      <trkpt lat="50.26067" lon="-5.29831"></trkpt>
      <trkpt lat="50.26068" lon="-5.29842"></trkpt>
      <trkpt lat="50.26074" lon="-5.29849"></trkpt>
      <trkpt lat="50.26121" lon="-5.29858"></trkpt>
      <trkpt lat="50.26129" lon="-5.29869"></trkpt>
      <trkpt lat="50.26142" lon="-5.29903"></trkpt>
      <trkpt lat="50.26144" lon="-5.29923"></trkpt>
      <trkpt lat="50.26146" lon="-5.29955"></trkpt>
      <trkpt lat="50.26142" lon="-5.30051"></trkpt>
      <trkpt lat="50.26135" lon="-5.30107"></trkpt>
      <trkpt lat="50.26132" lon="-5.30113"></trkpt>
      <trkpt lat="50.26088" lon="-5.30148"></trkpt>
      <trkpt lat="50.26078" lon="-5.30152"></trkpt>
      <trkpt lat="50.26027" lon="-5.30186"></trkpt>
      <trkpt lat="50.26016" lon="-5.30201"></trkpt>
      <trkpt lat="50.25998" lon="-5.3022"></trkpt>
      <trkpt lat="50.25966" lon="-5.30256"></trkpt>
      <trkpt lat="50.25928" lon="-5.30281"></trkpt>
      <trkpt lat="50.25923" lon="-5.30287"></trkpt>
      <trkpt lat="50.259" lon="-5.3034"></trkpt>
      <trkpt lat="50.25885" lon="-5.30393"></trkpt>
      <trkpt lat="50.25852" lon="-5.30463"></trkpt>
      <trkpt lat="50.25843" lon="-5.30497"></trkpt>
      <trkpt lat="50.25842" lon="-5.30518"></trkpt>
      <trkpt lat="50.25855" lon="-5.30603"></trkpt>
      <trkpt lat="50.2586" lon="-5.30617"></trkpt>
      <trkpt lat="50.25859" lon="-5.30625"></trkpt>
      <trkpt lat="50.25845" lon="-5.30662"></trkpt>
      <trkpt lat="50.25845" lon="-5.30663"></trkpt>
      <trkpt lat="50.25787" lon="-5.30809"></trkpt>
      <trkpt lat="50.25751" lon="-5.30868"></trkpt>
      <trkpt lat="50.25693" lon="-5.30907"></trkpt>
      <trkpt lat="50.25683" lon="-5.30911"></trkpt>
      <trkpt lat="50.25676" lon="-5.3091"></trkpt>
      <trkpt lat="50.25636" lon="-5.30845"></trkpt>
      <trkpt lat="50.25634" lon="-5.30843"></trkpt>
      <trkpt lat="50.25627" lon="-5.30846"></trkpt>
      <trkpt lat="50.25622" lon="-5.30852"></trkpt>
      <trkpt lat="50.25621" lon="-5.30874"></trkpt>
      <trkpt lat="50.25625" lon="-5.30925"></trkpt>
      <trkpt lat="50.25628" lon="-5.30946"></trkpt>
      <trkpt lat="50.25617" lon="-5.30933"></trkpt>
      <trkpt lat="50.25603" lon="-5.30905"></trkpt>
      <trkpt lat="50.25577" lon="-5.30879"></trkpt>
      <trkpt lat="50.25572" lon="-5.30881"></trkpt>
      <trkpt lat="50.25566" lon="-5.30872"></trkpt>
      <trkpt lat="50.25556" lon="-5.30869"></trkpt>
      <trkpt lat="50.25557" lon="-5.30909"></trkpt>
      <trkpt lat="50.25541" lon="-5.30889"></trkpt>
      <trkpt lat="50.25525" lon="-5.30866"></trkpt>
      <trkpt lat="50.25521" lon="-5.30865"></trkpt>
      <trkpt lat="50.25525" lon="-5.30898"></trkpt>
      <trkpt lat="50.25524" lon="-5.30903"></trkpt>
      <trkpt lat="50.25521" lon="-5.30905"></trkpt>
      <trkpt lat="50.25513" lon="-5.30896"></trkpt>
      <trkpt lat="50.2549" lon="-5.30913"></trkpt>
      <trkpt lat="50.25482" lon="-5.30912"></trkpt>
      <trkpt lat="50.25475" lon="-5.30915"></trkpt>
      <trkpt lat="50.25458" lon="-5.30937"></trkpt>
      <trkpt lat="50.25446" lon="-5.30941"></trkpt>
      <trkpt lat="50.25431" lon="-5.30955"></trkpt>
      <trkpt lat="50.25417" lon="-5.30972"></trkpt>
      <trkpt lat="50.25407" lon="-5.3098"></trkpt>
      <trkpt lat="50.25391" lon="-5.31001"></trkpt>
      <trkpt lat="50.2538" lon="-5.3101"></trkpt>
      <trkpt lat="50.25379" lon="-5.3102"></trkpt>
      <trkpt lat="50.25346" lon="-5.31078"></trkpt>
      <trkpt lat="50.25303" lon="-5.31163"></trkpt>
      <trkpt lat="50.25301" lon="-5.31164"></trkpt>
      <trkpt lat="50.25262" lon="-5.31159"></trkpt>
      <trkpt lat="50.25259" lon="-5.3116"></trkpt>
      <trkpt lat="50.25242" lon="-5.31183"></trkpt>
      <trkpt lat="50.2523" lon="-5.31211"></trkpt>
      <trkpt lat="50.25226" lon="-5.31217"></trkpt>
      <trkpt lat="50.25218" lon="-5.31223"></trkpt>
      <trkpt lat="50.25212" lon="-5.31232"></trkpt>
      <trkpt lat="50.25198" lon="-5.31264"></trkpt>
      <trkpt lat="50.25185" lon="-5.31279"></trkpt>
      <trkpt lat="50.25179" lon="-5.3129"></trkpt>
      <trkpt lat="50.25173" lon="-5.3131"></trkpt>
      <trkpt lat="50.25148" lon="-5.31347"></trkpt>
      <trkpt lat="50.25043" lon="-5.31362"></trkpt>
      <trkpt lat="50.25034" lon="-5.31361"></trkpt>
      <trkpt lat="50.25029" lon="-5.31358"></trkpt>
      <trkpt lat="50.25027" lon="-5.3136"></trkpt>
      <trkpt lat="50.24988" lon="-5.31295"></trkpt>
      <trkpt lat="50.24984" lon="-5.31293"></trkpt>
      <trkpt lat="50.2498" lon="-5.31296"></trkpt>
      <trkpt lat="50.24968" lon="-5.31321"></trkpt>
      <trkpt lat="50.24949" lon="-5.31345"></trkpt>
      <trkpt lat="50.24926" lon="-5.31358"></trkpt>
      <trkpt lat="50.24899" lon="-5.31387"></trkpt>
      <trkpt lat="50.2488" lon="-5.3141"></trkpt>
      <trkpt lat="50.24874" lon="-5.31422"></trkpt>
      <trkpt lat="50.24864" lon="-5.31465"></trkpt>
      <trkpt lat="50.24864" lon="-5.31466"></trkpt>
      <trkpt lat="50.24851" lon="-5.31506"></trkpt>
      <trkpt lat="50.24804" lon="-5.31708"></trkpt>
      <trkpt lat="50.24782" lon="-5.31767"></trkpt>
      <trkpt lat="50.24734" lon="-5.31871"></trkpt>
      <trkpt lat="50.24591" lon="-5.32077"></trkpt>
      <trkpt lat="50.24575" lon="-5.32103"></trkpt>
      <trkpt lat="50.24573" lon="-5.32113"></trkpt>
      <trkpt lat="50.24567" lon="-5.32123"></trkpt>
      <trkpt lat="50.24567" lon="-5.32124"></trkpt>
      <trkpt lat="50.24498" lon="-5.32216"></trkpt>
      <trkpt lat="50.24473" lon="-5.3224"></trkpt>
      <trkpt lat="50.24438" lon="-5.32261"></trkpt>
      <trkpt lat="50.24421" lon="-5.32274"></trkpt>
      <trkpt lat="50.2441" lon="-5.32292"></trkpt>
      <trkpt lat="50.2439" lon="-5.32348"></trkpt>
      <trkpt lat="50.24372" lon="-5.3239"></trkpt>
      <trkpt lat="50.24361" lon="-5.32401"></trkpt>
      <trkpt lat="50.24331" lon="-5.32442"></trkpt>
      <trkpt lat="50.24319" lon="-5.32456"></trkpt>
      <trkpt lat="50.24309" lon="-5.32477"></trkpt>
      <trkpt lat="50.24275" lon="-5.32573"></trkpt>
      <trkpt lat="50.24251" lon="-5.32636"></trkpt>
      <trkpt lat="50.24229" lon="-5.32679"></trkpt>
      <trkpt lat="50.24198" lon="-5.32748"></trkpt>
      <trkpt lat="50.24144" lon="-5.32831"></trkpt>
      <trkpt lat="50.24136" lon="-5.32842"></trkpt>
      <trkpt lat="50.24128" lon="-5.32863"></trkpt>
      <trkpt lat="50.24125" lon="-5.32885"></trkpt>
      <trkpt lat="50.241" lon="-5.32977"></trkpt>
      <trkpt lat="50.24086" lon="-5.33015"></trkpt>
      <trkpt lat="50.24065" lon="-5.33087"></trkpt>
      <trkpt lat="50.24065" lon="-5.33103"></trkpt>
      <trkpt lat="50.24067" lon="-5.33131"></trkpt>
      <trkpt lat="50.24066" lon="-5.33142"></trkpt>
      <trkpt lat="50.2406" lon="-5.33158"></trkpt>
      <trkpt lat="50.24054" lon="-5.33196"></trkpt>
      <trkpt lat="50.2404" lon="-5.33221"></trkpt>
      <trkpt lat="50.24037" lon="-5.33235"></trkpt>
      <trkpt lat="50.24034" lon="-5.33264"></trkpt>
      <trkpt lat="50.24029" lon="-5.33281"></trkpt>
      <trkpt lat="50.24014" lon="-5.33305"></trkpt>
      <trkpt lat="50.23997" lon="-5.3334"></trkpt>
      <trkpt lat="50.23985" lon="-5.33378"></trkpt>
      <trkpt lat="50.23953" lon="-5.33443"></trkpt>
      <trkpt lat="50.23925" lon="-5.33523"></trkpt>
      <trkpt lat="50.23922" lon="-5.33538"></trkpt>
      <trkpt lat="50.23924" lon="-5.33558"></trkpt>
      <trkpt lat="50.23919" lon="-5.33592"></trkpt>
      <trkpt lat="50.23919" lon="-5.33606"></trkpt>
      <trkpt lat="50.23926" lon="-5.33661"></trkpt>
      <trkpt lat="50.23926" lon="-5.33671"></trkpt>
      <trkpt lat="50.23919" lon="-5.33698"></trkpt>
      <trkpt lat="50.23909" lon="-5.33706"></trkpt>
      <trkpt lat="50.23907" lon="-5.33713"></trkpt>
      <trkpt lat="50.23906" lon="-5.33739"></trkpt>
      <trkpt lat="50.23901" lon="-5.3378"></trkpt>
      <trkpt lat="50.23895" lon="-5.33799"></trkpt>
      <trkpt lat="50.23878" lon="-5.33838"></trkpt>
      <trkpt lat="50.23874" lon="-5.33868"></trkpt>
      <trkpt lat="50.23868" lon="-5.3388"></trkpt>
      <trkpt lat="50.23844" lon="-5.33911"></trkpt>
      <trkpt lat="50.23841" lon="-5.33927"></trkpt>
      <trkpt lat="50.23808" lon="-5.33983"></trkpt>
      <trkpt lat="50.23794" lon="-5.34019"></trkpt>
      <trkpt lat="50.23795" lon="-5.34063"></trkpt>
      <trkpt lat="50.23806" lon="-5.34091"></trkpt>
      <trkpt lat="50.23807" lon="-5.34106"></trkpt>
      <trkpt lat="50.2378" lon="-5.34179"></trkpt>
      <trkpt lat="50.23763" lon="-5.34277"></trkpt>
      <trkpt lat="50.23735" lon="-5.34377"></trkpt>
      <trkpt lat="50.23733" lon="-5.34394"></trkpt>
      <trkpt lat="50.23726" lon="-5.34414"></trkpt>
      <trkpt lat="50.23725" lon="-5.34448"></trkpt>
      <trkpt lat="50.23724" lon="-5.34503"></trkpt>
      <trkpt lat="50.2373" lon="-5.3453"></trkpt>
      <trkpt lat="50.23738" lon="-5.3463"></trkpt>
      <trkpt lat="50.23749" lon="-5.34665"></trkpt>
      <trkpt lat="50.23755" lon="-5.34722"></trkpt>
      <trkpt lat="50.23764" lon="-5.34737"></trkpt>
      <trkpt lat="50.23779" lon="-5.3478"></trkpt>
      <trkpt lat="50.23817" lon="-5.34925"></trkpt>
      <trkpt lat="50.23854" lon="-5.35049"></trkpt>
      <trkpt lat="50.23864" lon="-5.35072"></trkpt>
      <trkpt lat="50.23889" lon="-5.35149"></trkpt>
      <trkpt lat="50.2391" lon="-5.35174"></trkpt>
      <trkpt lat="50.23937" lon="-5.35201"></trkpt>
      <trkpt lat="50.23951" lon="-5.35207"></trkpt>
      <trkpt lat="50.23957" lon="-5.35213"></trkpt>
      <trkpt lat="50.23983" lon="-5.35254"></trkpt>
      <trkpt lat="50.23986" lon="-5.35264"></trkpt>
      <trkpt lat="50.23981" lon="-5.35317"></trkpt>
      <trkpt lat="50.23975" lon="-5.35353"></trkpt>
      <trkpt lat="50.23972" lon="-5.35385"></trkpt>
      <trkpt lat="50.23965" lon="-5.35422"></trkpt>
      <trkpt lat="50.23959" lon="-5.35441"></trkpt>
      <trkpt lat="50.23958" lon="-5.3546"></trkpt>
      <trkpt lat="50.23958" lon="-5.3551"></trkpt>
      <trkpt lat="50.23963" lon="-5.356"></trkpt>
      <trkpt lat="50.23958" lon="-5.35636"></trkpt>
      <trkpt lat="50.23953" lon="-5.35645"></trkpt>
      <trkpt lat="50.23945" lon="-5.35655"></trkpt>
      <trkpt lat="50.23929" lon="-5.35669"></trkpt>
      <trkpt lat="50.23906" lon="-5.35675"></trkpt>
      <trkpt lat="50.23894" lon="-5.35684"></trkpt>
      <trkpt lat="50.23885" lon="-5.35698"></trkpt>
      <trkpt lat="50.23866" lon="-5.35711"></trkpt>
      <trkpt lat="50.23856" lon="-5.35709"></trkpt>
      <trkpt lat="50.23853" lon="-5.35712"></trkpt>
      <trkpt lat="50.23832" lon="-5.3579"></trkpt>
      <trkpt lat="50.23827" lon="-5.35801"></trkpt>
      <trkpt lat="50.23823" lon="-5.35816"></trkpt>
      <trkpt lat="50.23823" lon="-5.35834"></trkpt>
      <trkpt lat="50.23826" lon="-5.3586"></trkpt>
      <trkpt lat="50.23828" lon="-5.3589"></trkpt>
      <trkpt lat="50.23835" lon="-5.35945"></trkpt>
      <trkpt lat="50.23834" lon="-5.35976"></trkpt>
      <trkpt lat="50.23836" lon="-5.35984"></trkpt>
      <trkpt lat="50.23847" lon="-5.36008"></trkpt>
      <trkpt lat="50.23847" lon="-5.36031"></trkpt>
      <trkpt lat="50.23806" lon="-5.36123"></trkpt>
      <trkpt lat="50.238" lon="-5.36129"></trkpt>
      <trkpt lat="50.23789" lon="-5.36134"></trkpt>
      <trkpt lat="50.23779" lon="-5.36136"></trkpt>
      <trkpt lat="50.23768" lon="-5.36134"></trkpt>
      <trkpt lat="50.23761" lon="-5.36127"></trkpt>
      <trkpt lat="50.23747" lon="-5.36108"></trkpt>
      <trkpt lat="50.23737" lon="-5.36121"></trkpt>
      <trkpt lat="50.23732" lon="-5.3612"></trkpt>
      <trkpt lat="50.23727" lon="-5.36112"></trkpt>
      <trkpt lat="50.23724" lon="-5.3612"></trkpt>
      <trkpt lat="50.23716" lon="-5.36127"></trkpt>
      <trkpt lat="50.23711" lon="-5.36136"></trkpt>
      <trkpt lat="50.23701" lon="-5.36141"></trkpt>
      <trkpt lat="50.23674" lon="-5.36147"></trkpt>
      <trkpt lat="50.23677" lon="-5.3619"></trkpt>
      <trkpt lat="50.23676" lon="-5.36204"></trkpt>
      <trkpt lat="50.23674" lon="-5.36212"></trkpt>
      <trkpt lat="50.23682" lon="-5.36211"></trkpt>
      <trkpt lat="50.23687" lon="-5.36224"></trkpt>
      <trkpt lat="50.23692" lon="-5.36231"></trkpt>
      <trkpt lat="50.237" lon="-5.36295"></trkpt>
      <trkpt lat="50.2371" lon="-5.36332"></trkpt>
      <trkpt lat="50.2372" lon="-5.36399"></trkpt>
      <trkpt lat="50.23727" lon="-5.3643"></trkpt>
      <trkpt lat="50.23733" lon="-5.36449"></trkpt>
      <trkpt lat="50.23735" lon="-5.36467"></trkpt>
      <trkpt lat="50.23732" lon="-5.365"></trkpt>
      <trkpt lat="50.23728" lon="-5.36514"></trkpt>
      <trkpt lat="50.2371" lon="-5.36553"></trkpt>
      <trkpt lat="50.23702" lon="-5.36566"></trkpt>
      <trkpt lat="50.23683" lon="-5.36586"></trkpt>
      <trkpt lat="50.23671" lon="-5.36595"></trkpt>
      <trkpt lat="50.23657" lon="-5.36614"></trkpt>
      <trkpt lat="50.23633" lon="-5.36654"></trkpt>
      <trkpt lat="50.23626" lon="-5.36676"></trkpt>
      <trkpt lat="50.23611" lon="-5.36718"></trkpt>
      <trkpt lat="50.2361" lon="-5.36736"></trkpt>
      <trkpt lat="50.23586" lon="-5.36797"></trkpt>
      <trkpt lat="50.23577" lon="-5.3683"></trkpt>
      <trkpt lat="50.23574" lon="-5.36846"></trkpt>
      <trkpt lat="50.23563" lon="-5.36849"></trkpt>
      <trkpt lat="50.2357" lon="-5.36891"></trkpt>
      <trkpt lat="50.23582" lon="-5.36933"></trkpt>
      <trkpt lat="50.23617" lon="-5.37021"></trkpt>
      <trkpt lat="50.23629" lon="-5.3707"></trkpt>
      <trkpt lat="50.2363" lon="-5.37114"></trkpt>
      <trkpt lat="50.23625" lon="-5.3723"></trkpt>
      <trkpt lat="50.23627" lon="-5.37246"></trkpt>
      <trkpt lat="50.23632" lon="-5.37295"></trkpt>
      <trkpt lat="50.2364" lon="-5.37329"></trkpt>
      <trkpt lat="50.23655" lon="-5.37375"></trkpt>
      <trkpt lat="50.23666" lon="-5.37394"></trkpt>
      <trkpt lat="50.23815" lon="-5.3753"></trkpt>
      <trkpt lat="50.23821" lon="-5.37542"></trkpt>
      <trkpt lat="50.23828" lon="-5.37552"></trkpt>
      <trkpt lat="50.23859" lon="-5.37574"></trkpt>
      <trkpt lat="50.2387" lon="-5.37591"></trkpt>
      <trkpt lat="50.23884" lon="-5.37598"></trkpt>
      <trkpt lat="50.23902" lon="-5.37613"></trkpt>
      <trkpt lat="50.23948" lon="-5.37659"></trkpt>
      <trkpt lat="50.23998" lon="-5.37722"></trkpt>
      <trkpt lat="50.24016" lon="-5.37739"></trkpt>
      <trkpt lat="50.24028" lon="-5.3776"></trkpt>
      <trkpt lat="50.24035" lon="-5.37768"></trkpt>
      <trkpt lat="50.24056" lon="-5.37778"></trkpt>
      <trkpt lat="50.24078" lon="-5.37799"></trkpt>
      <trkpt lat="50.24104" lon="-5.3781"></trkpt>
      <trkpt lat="50.24138" lon="-5.37831"></trkpt>
      <trkpt lat="50.24159" lon="-5.37841"></trkpt>
      <trkpt lat="50.24179" lon="-5.37863"></trkpt>
      <trkpt lat="50.24201" lon="-5.37879"></trkpt>
      <trkpt lat="50.24209" lon="-5.37888"></trkpt>
      <trkpt lat="50.24219" lon="-5.37936"></trkpt>
      <trkpt lat="50.24219" lon="-5.37951"></trkpt>
      <trkpt lat="50.24215" lon="-5.37966"></trkpt>
      <trkpt lat="50.24216" lon="-5.37989"></trkpt>
      <trkpt lat="50.24212" lon="-5.38012"></trkpt>
      <trkpt lat="50.24176" lon="-5.38062"></trkpt>
      <trkpt lat="50.24156" lon="-5.38094"></trkpt>
      <trkpt lat="50.24114" lon="-5.38151"></trkpt>
      <trkpt lat="50.24079" lon="-5.38208"></trkpt>
      <trkpt lat="50.24064" lon="-5.38232"></trkpt>
      <trkpt lat="50.24051" lon="-5.38262"></trkpt>
      <trkpt lat="50.24031" lon="-5.38325"></trkpt>
      <trkpt lat="50.24031" lon="-5.38337"></trkpt>
      <trkpt lat="50.24024" lon="-5.38368"></trkpt>
      <trkpt lat="50.24022" lon="-5.38388"></trkpt>
      <trkpt lat="50.24015" lon="-5.38402"></trkpt>
      <trkpt lat="50.24008" lon="-5.38413"></trkpt>
      <trkpt lat="50.23995" lon="-5.38419"></trkpt>
      <trkpt lat="50.23983" lon="-5.38422"></trkpt>
      <trkpt lat="50.23966" lon="-5.38416"></trkpt>
      <trkpt lat="50.23964" lon="-5.38418"></trkpt>
      <trkpt lat="50.23952" lon="-5.38443"></trkpt>
      <trkpt lat="50.23947" lon="-5.38467"></trkpt>
      <trkpt lat="50.23944" lon="-5.38491"></trkpt>
      <trkpt lat="50.23959" lon="-5.38694"></trkpt>
      <trkpt lat="50.2396" lon="-5.38765"></trkpt>
      <trkpt lat="50.23959" lon="-5.38893"></trkpt>
      <trkpt lat="50.23964" lon="-5.38915"></trkpt>
      <trkpt lat="50.23956" lon="-5.38943"></trkpt>
      <trkpt lat="50.2395" lon="-5.3898"></trkpt>
      <trkpt lat="50.23943" lon="-5.39002"></trkpt>
      <trkpt lat="50.23941" lon="-5.39017"></trkpt>
      <trkpt lat="50.23942" lon="-5.39053"></trkpt>
      <trkpt lat="50.23939" lon="-5.39078"></trkpt>
      <trkpt lat="50.2394" lon="-5.39086"></trkpt>
      <trkpt lat="50.23947" lon="-5.39109"></trkpt>
      <trkpt lat="50.23962" lon="-5.39124"></trkpt>
      <trkpt lat="50.2399" lon="-5.3914"></trkpt>
      <trkpt lat="50.23999" lon="-5.39152"></trkpt>
      <trkpt lat="50.24008" lon="-5.39171"></trkpt>
      <trkpt lat="50.24017" lon="-5.39186"></trkpt>
      <trkpt lat="50.24025" lon="-5.39211"></trkpt>
      <trkpt lat="50.24037" lon="-5.39251"></trkpt>
      <trkpt lat="50.24042" lon="-5.39276"></trkpt>
      <trkpt lat="50.24048" lon="-5.39336"></trkpt>
      <trkpt lat="50.24047" lon="-5.39355"></trkpt>
      <trkpt lat="50.24042" lon="-5.39375"></trkpt>
      <trkpt lat="50.24036" lon="-5.39391"></trkpt>
      <trkpt lat="50.24011" lon="-5.39422"></trkpt>
      <trkpt lat="50.24" lon="-5.3943"></trkpt>
      <trkpt lat="50.23985" lon="-5.39438"></trkpt>
      <trkpt lat="50.23976" lon="-5.39442"></trkpt>
      <trkpt lat="50.2396" lon="-5.39443"></trkpt>
      <trkpt lat="50.23934" lon="-5.39435"></trkpt>
      <trkpt lat="50.23925" lon="-5.39428"></trkpt>
      <trkpt lat="50.23918" lon="-5.39419"></trkpt>
      <trkpt lat="50.23893" lon="-5.39416"></trkpt>
      <trkpt lat="50.2379" lon="-5.39382"></trkpt>
      <trkpt lat="50.23783" lon="-5.39382"></trkpt>
      <trkpt lat="50.23763" lon="-5.39395"></trkpt>
      <trkpt lat="50.23765" lon="-5.39409"></trkpt>
      <trkpt lat="50.23765" lon="-5.39414"></trkpt>
      <trkpt lat="50.23764" lon="-5.39414"></trkpt>
      <trkpt lat="50.23765" lon="-5.39409"></trkpt>
      <trkpt lat="50.23763" lon="-5.39395"></trkpt>
      <trkpt lat="50.23756" lon="-5.39393"></trkpt>
      <trkpt lat="50.23741" lon="-5.39377"></trkpt>
      <trkpt lat="50.23722" lon="-5.39353"></trkpt>
      <trkpt lat="50.23703" lon="-5.39322"></trkpt>
      <trkpt lat="50.23664" lon="-5.39272"></trkpt>
      <trkpt lat="50.23629" lon="-5.39246"></trkpt>
      <trkpt lat="50.23615" lon="-5.39251"></trkpt>
      <trkpt lat="50.23605" lon="-5.39248"></trkpt>
      <trkpt lat="50.23591" lon="-5.39225"></trkpt>
      <trkpt lat="50.23582" lon="-5.39217"></trkpt>
      <trkpt lat="50.2355" lon="-5.39212"></trkpt>
      <trkpt lat="50.23525" lon="-5.39204"></trkpt>
      <trkpt lat="50.23483" lon="-5.39195"></trkpt>
      <trkpt lat="50.23417" lon="-5.3915"></trkpt>
      <trkpt lat="50.23406" lon="-5.39139"></trkpt>
      <trkpt lat="50.23354" lon="-5.39101"></trkpt>
      <trkpt lat="50.23318" lon="-5.39095"></trkpt>
      <trkpt lat="50.23288" lon="-5.39096"></trkpt>
      <trkpt lat="50.23268" lon="-5.39091"></trkpt>
      <trkpt lat="50.23249" lon="-5.39093"></trkpt>
      <trkpt lat="50.23232" lon="-5.3909"></trkpt>
      <trkpt lat="50.23212" lon="-5.391"></trkpt>
      <trkpt lat="50.23157" lon="-5.39073"></trkpt>
      <trkpt lat="50.23135" lon="-5.39094"></trkpt>
      <trkpt lat="50.23117" lon="-5.39105"></trkpt>
      <trkpt lat="50.23101" lon="-5.39107"></trkpt>
      <trkpt lat="50.23098" lon="-5.39095"></trkpt>
      <trkpt lat="50.23099" lon="-5.39095"></trkpt>
      <trkpt lat="50.23097" lon="-5.3905"></trkpt>
      <trkpt lat="50.23094" lon="-5.3904"></trkpt>
      <trkpt lat="50.23074" lon="-5.39002"></trkpt>
      <trkpt lat="50.23069" lon="-5.38944"></trkpt>
      <trkpt lat="50.23074" lon="-5.38923"></trkpt>
      <trkpt lat="50.23054" lon="-5.3891"></trkpt>
      <trkpt lat="50.23025" lon="-5.38904"></trkpt>
      <trkpt lat="50.23031" lon="-5.3885"></trkpt>
      <trkpt lat="50.23034" lon="-5.38841"></trkpt>
      <trkpt lat="50.23029" lon="-5.38824"></trkpt>
      <trkpt lat="50.23028" lon="-5.38801"></trkpt>
      <trkpt lat="50.23018" lon="-5.38769"></trkpt>
      <trkpt lat="50.23008" lon="-5.38757"></trkpt>
      <trkpt lat="50.22985" lon="-5.38746"></trkpt>
      <trkpt lat="50.2298" lon="-5.38735"></trkpt>
      <trkpt lat="50.22968" lon="-5.38737"></trkpt>
      <trkpt lat="50.22964" lon="-5.38734"></trkpt>
      <trkpt lat="50.22962" lon="-5.38737"></trkpt>
      <trkpt lat="50.22937" lon="-5.38738"></trkpt>
      <trkpt lat="50.2292" lon="-5.38747"></trkpt>
      <trkpt lat="50.22938" lon="-5.38825"></trkpt>
      <trkpt lat="50.22942" lon="-5.38833"></trkpt>
      <trkpt lat="50.22942" lon="-5.38847"></trkpt>
      <trkpt lat="50.2293" lon="-5.38853"></trkpt>
      <trkpt lat="50.22904" lon="-5.38875"></trkpt>
      <trkpt lat="50.22896" lon="-5.38885"></trkpt>
      <trkpt lat="50.22896" lon="-5.38886"></trkpt>
      <trkpt lat="50.22853" lon="-5.3892"></trkpt>
      <trkpt lat="50.22846" lon="-5.38922"></trkpt>
      <trkpt lat="50.22821" lon="-5.38912"></trkpt>
      <trkpt lat="50.22799" lon="-5.38892"></trkpt>
      <trkpt lat="50.2278" lon="-5.3887"></trkpt>
      <trkpt lat="50.22746" lon="-5.3888"></trkpt>
      <trkpt lat="50.2273" lon="-5.38888"></trkpt>
      <trkpt lat="50.22676" lon="-5.38958"></trkpt>
      <trkpt lat="50.2267" lon="-5.3896"></trkpt>
      <trkpt lat="50.22663" lon="-5.38969"></trkpt>
      <trkpt lat="50.22649" lon="-5.38979"></trkpt>
      <trkpt lat="50.22636" lon="-5.38998"></trkpt>
      <trkpt lat="50.22658" lon="-5.39063"></trkpt>
      <trkpt lat="50.22657" lon="-5.39084"></trkpt>
      <trkpt lat="50.22658" lon="-5.39092"></trkpt>
      <trkpt lat="50.22645" lon="-5.39109"></trkpt>
      <trkpt lat="50.22624" lon="-5.39158"></trkpt>
      <trkpt lat="50.22572" lon="-5.39226"></trkpt>
      <trkpt lat="50.22557" lon="-5.39256"></trkpt>
      <trkpt lat="50.22553" lon="-5.39257"></trkpt>
      <trkpt lat="50.22552" lon="-5.39255"></trkpt>
      <trkpt lat="50.22541" lon="-5.39275"></trkpt>
      <trkpt lat="50.2253" lon="-5.39308"></trkpt>
      <trkpt lat="50.22522" lon="-5.39316"></trkpt>
      <trkpt lat="50.22513" lon="-5.39319"></trkpt>
      <trkpt lat="50.22499" lon="-5.39318"></trkpt>
      <trkpt lat="50.22487" lon="-5.39317"></trkpt>
      <trkpt lat="50.22481" lon="-5.39376"></trkpt>
      <trkpt lat="50.22475" lon="-5.39387"></trkpt>
      <trkpt lat="50.2247" lon="-5.39404"></trkpt>
      <trkpt lat="50.22463" lon="-5.39414"></trkpt>
      <trkpt lat="50.22456" lon="-5.39433"></trkpt>
      <trkpt lat="50.22451" lon="-5.39461"></trkpt>
      <trkpt lat="50.22449" lon="-5.3949"></trkpt>
      <trkpt lat="50.22447" lon="-5.39497"></trkpt>
      <trkpt lat="50.22435" lon="-5.39506"></trkpt>
      <trkpt lat="50.22433" lon="-5.39517"></trkpt>
      <trkpt lat="50.22426" lon="-5.39533"></trkpt>
      <trkpt lat="50.22416" lon="-5.39543"></trkpt>
      <trkpt lat="50.22417" lon="-5.39549"></trkpt>
      <trkpt lat="50.22416" lon="-5.39543"></trkpt>
      <trkpt lat="50.22393" lon="-5.39553"></trkpt>
      <trkpt lat="50.2236" lon="-5.39573"></trkpt>
      <trkpt lat="50.22325" lon="-5.39583"></trkpt>
      <trkpt lat="50.22308" lon="-5.39593"></trkpt>
      <trkpt lat="50.2228" lon="-5.39597"></trkpt>
      <trkpt lat="50.2226" lon="-5.39597"></trkpt>
      <trkpt lat="50.22169" lon="-5.39618"></trkpt>
      <trkpt lat="50.22142" lon="-5.39634"></trkpt>
      <trkpt lat="50.22133" lon="-5.39642"></trkpt>
      <trkpt lat="50.22127" lon="-5.39638"></trkpt>
      <trkpt lat="50.22119" lon="-5.39637"></trkpt>
      <trkpt lat="50.2211" lon="-5.39643"></trkpt>
      <trkpt lat="50.22099" lon="-5.39627"></trkpt>
      <trkpt lat="50.22075" lon="-5.39631"></trkpt>
      <trkpt lat="50.22057" lon="-5.39624"></trkpt>
      <trkpt lat="50.22039" lon="-5.39627"></trkpt>
      <trkpt lat="50.22031" lon="-5.39645"></trkpt>
      <trkpt lat="50.22031" lon="-5.39646"></trkpt>
      <trkpt lat="50.22017" lon="-5.39664"></trkpt>
      <trkpt lat="50.22011" lon="-5.39663"></trkpt>
      <trkpt lat="50.22" lon="-5.39654"></trkpt>
      <trkpt lat="50.21981" lon="-5.39673"></trkpt>
      <trkpt lat="50.21966" lon="-5.3967"></trkpt>
      <trkpt lat="50.2195" lon="-5.39674"></trkpt>
      <trkpt lat="50.21938" lon="-5.39686"></trkpt>
      <trkpt lat="50.21922" lon="-5.39687"></trkpt>
      <trkpt lat="50.21915" lon="-5.3969"></trkpt>
      <trkpt lat="50.21893" lon="-5.39712"></trkpt>
      <trkpt lat="50.21882" lon="-5.39727"></trkpt>
      <trkpt lat="50.21878" lon="-5.3973"></trkpt>
      <trkpt lat="50.21849" lon="-5.3973"></trkpt>
      <trkpt lat="50.21844" lon="-5.39734"></trkpt>
      <trkpt lat="50.21841" lon="-5.3974"></trkpt>
      <trkpt lat="50.21837" lon="-5.39746"></trkpt>
      <trkpt lat="50.21818" lon="-5.3976"></trkpt>
      <trkpt lat="50.21806" lon="-5.39783"></trkpt>
      <trkpt lat="50.21796" lon="-5.39794"></trkpt>
      <trkpt lat="50.2179" lon="-5.39806"></trkpt>
      <trkpt lat="50.21769" lon="-5.39817"></trkpt>
      <trkpt lat="50.21762" lon="-5.39824"></trkpt>
      <trkpt lat="50.21745" lon="-5.39823"></trkpt>
      <trkpt lat="50.21725" lon="-5.39829"></trkpt>
      <trkpt lat="50.21692" lon="-5.39846"></trkpt>
      <trkpt lat="50.21681" lon="-5.39847"></trkpt>
      <trkpt lat="50.21671" lon="-5.39844"></trkpt>
      <trkpt lat="50.21665" lon="-5.39836"></trkpt>
      <trkpt lat="50.21653" lon="-5.39834"></trkpt>
      <trkpt lat="50.21648" lon="-5.39836"></trkpt>
      <trkpt lat="50.21632" lon="-5.39832"></trkpt>
      <trkpt lat="50.21626" lon="-5.39833"></trkpt>
      <trkpt lat="50.21605" lon="-5.39847"></trkpt>
      <trkpt lat="50.2159" lon="-5.39865"></trkpt>
      <trkpt lat="50.21542" lon="-5.39799"></trkpt>
      <trkpt lat="50.21517" lon="-5.3983"></trkpt>
      <trkpt lat="50.21507" lon="-5.39851"></trkpt>
      <trkpt lat="50.21496" lon="-5.39858"></trkpt>
      <trkpt lat="50.21476" lon="-5.39885"></trkpt>
      <trkpt lat="50.21473" lon="-5.39883"></trkpt>
      <trkpt lat="50.2143" lon="-5.39957"></trkpt>
      <trkpt lat="50.21424" lon="-5.39995"></trkpt>
      <trkpt lat="50.21416" lon="-5.40013"></trkpt>
      <trkpt lat="50.21409" lon="-5.40039"></trkpt>
      <trkpt lat="50.214" lon="-5.40053"></trkpt>
      <trkpt lat="50.21387" lon="-5.40094"></trkpt>
      <trkpt lat="50.21384" lon="-5.40099"></trkpt>
      <trkpt lat="50.21368" lon="-5.40106"></trkpt>
      <trkpt lat="50.21378" lon="-5.40111"></trkpt>
      <trkpt lat="50.21368" lon="-5.40106"></trkpt>
      <trkpt lat="50.21353" lon="-5.40104"></trkpt>
      <trkpt lat="50.21338" lon="-5.40107"></trkpt>
      <trkpt lat="50.2132" lon="-5.40125"></trkpt>
      <trkpt lat="50.21307" lon="-5.40132"></trkpt>
      <trkpt lat="50.21277" lon="-5.40137"></trkpt>
      <trkpt lat="50.21266" lon="-5.40144"></trkpt>
      <trkpt lat="50.21254" lon="-5.40165"></trkpt>
      <trkpt lat="50.21237" lon="-5.40215"></trkpt>
      <trkpt lat="50.21234" lon="-5.40219"></trkpt>
      <trkpt lat="50.21209" lon="-5.40222"></trkpt>
      <trkpt lat="50.21195" lon="-5.40227"></trkpt>
      <trkpt lat="50.21191" lon="-5.40232"></trkpt>
      <trkpt lat="50.21176" lon="-5.40234"></trkpt>
      <trkpt lat="50.21172" lon="-5.40238"></trkpt>
      <trkpt lat="50.21162" lon="-5.40272"></trkpt>
      <trkpt lat="50.21149" lon="-5.40287"></trkpt>
      <trkpt lat="50.21145" lon="-5.40296"></trkpt>
      <trkpt lat="50.21133" lon="-5.40293"></trkpt>
      <trkpt lat="50.2111" lon="-5.40297"></trkpt>
      <trkpt lat="50.21102" lon="-5.40301"></trkpt>
      <trkpt lat="50.21093" lon="-5.40314"></trkpt>
      <trkpt lat="50.21067" lon="-5.40327"></trkpt>
      <trkpt lat="50.21064" lon="-5.40347"></trkpt>
      <trkpt lat="50.21051" lon="-5.40369"></trkpt>
      <trkpt lat="50.21034" lon="-5.4042"></trkpt>
      <trkpt lat="50.21028" lon="-5.40444"></trkpt>
      <trkpt lat="50.20999" lon="-5.40453"></trkpt>
      <trkpt lat="50.20971" lon="-5.40447"></trkpt>
      <trkpt lat="50.20968" lon="-5.4045"></trkpt>
      <trkpt lat="50.20952" lon="-5.40494"></trkpt>
      <trkpt lat="50.20942" lon="-5.40506"></trkpt>
      <trkpt lat="50.20928" lon="-5.40489"></trkpt>
      <trkpt lat="50.20942" lon="-5.40506"></trkpt>
      <trkpt lat="50.20938" lon="-5.40511"></trkpt>
      <trkpt lat="50.20933" lon="-5.40524"></trkpt>
      <trkpt lat="50.20927" lon="-5.40529"></trkpt>
      <trkpt lat="50.20916" lon="-5.40547"></trkpt>
      <trkpt lat="50.20911" lon="-5.40552"></trkpt>
      <trkpt lat="50.20907" lon="-5.40564"></trkpt>
      <trkpt lat="50.20899" lon="-5.40579"></trkpt>
      <trkpt lat="50.20889" lon="-5.40618"></trkpt>
      <trkpt lat="50.20842" lon="-5.40704"></trkpt>
      <trkpt lat="50.2083" lon="-5.40719"></trkpt>
      <trkpt lat="50.20824" lon="-5.40736"></trkpt>
      <trkpt lat="50.20812" lon="-5.40758"></trkpt>
      <trkpt lat="50.20815" lon="-5.40788"></trkpt>
      <trkpt lat="50.20815" lon="-5.40822"></trkpt>
      <trkpt lat="50.20813" lon="-5.40842"></trkpt>
      <trkpt lat="50.20803" lon="-5.40872"></trkpt>
      <trkpt lat="50.20791" lon="-5.40897"></trkpt>
      <trkpt lat="50.20771" lon="-5.40927"></trkpt>
      <trkpt lat="50.20752" lon="-5.40928"></trkpt>
      <trkpt lat="50.20745" lon="-5.40931"></trkpt>
      <trkpt lat="50.20722" lon="-5.40959"></trkpt>
      <trkpt lat="50.20734" lon="-5.4097"></trkpt>
      <trkpt lat="50.20722" lon="-5.40959"></trkpt>
      <trkpt lat="50.20718" lon="-5.40964"></trkpt>
      <trkpt lat="50.20714" lon="-5.40977"></trkpt>
      <trkpt lat="50.20705" lon="-5.41018"></trkpt>
      <trkpt lat="50.20704" lon="-5.41031"></trkpt>
      <trkpt lat="50.20682" lon="-5.41087"></trkpt>
      <trkpt lat="50.20671" lon="-5.411"></trkpt>
      <trkpt lat="50.20667" lon="-5.411"></trkpt>
      <trkpt lat="50.20648" lon="-5.4108"></trkpt>
      <trkpt lat="50.20643" lon="-5.41082"></trkpt>
      <trkpt lat="50.20625" lon="-5.41102"></trkpt>
      <trkpt lat="50.20609" lon="-5.41137"></trkpt>
      <trkpt lat="50.20607" lon="-5.4115"></trkpt>
      <trkpt lat="50.20598" lon="-5.4116"></trkpt>
      <trkpt lat="50.20577" lon="-5.41207"></trkpt>
      <trkpt lat="50.20572" lon="-5.41215"></trkpt>
      <trkpt lat="50.20564" lon="-5.4122"></trkpt>
      <trkpt lat="50.20545" lon="-5.41223"></trkpt>
      <trkpt lat="50.20521" lon="-5.41235"></trkpt>
      <trkpt lat="50.20502" lon="-5.41251"></trkpt>
      <trkpt lat="50.20497" lon="-5.41259"></trkpt>
      <trkpt lat="50.20495" lon="-5.41269"></trkpt>
      <trkpt lat="50.20495" lon="-5.41278"></trkpt>
      <trkpt lat="50.20499" lon="-5.41294"></trkpt>
      <trkpt lat="50.20499" lon="-5.41307"></trkpt>
      <trkpt lat="50.20504" lon="-5.41336"></trkpt>
      <trkpt lat="50.20505" lon="-5.41361"></trkpt>
      <trkpt lat="50.20507" lon="-5.41372"></trkpt>
      <trkpt lat="50.20486" lon="-5.41406"></trkpt>
      <trkpt lat="50.20479" lon="-5.41411"></trkpt>
      <trkpt lat="50.20467" lon="-5.41413"></trkpt>
      <trkpt lat="50.20456" lon="-5.41412"></trkpt>
      <trkpt lat="50.20446" lon="-5.41415"></trkpt>
      <trkpt lat="50.20434" lon="-5.41427"></trkpt>
      <trkpt lat="50.20416" lon="-5.41453"></trkpt>
      <trkpt lat="50.20412" lon="-5.41471"></trkpt>
      <trkpt lat="50.20412" lon="-5.41483"></trkpt>
      <trkpt lat="50.20414" lon="-5.41493"></trkpt>
      <trkpt lat="50.20421" lon="-5.41507"></trkpt>
      <trkpt lat="50.20422" lon="-5.41527"></trkpt>
      <trkpt lat="50.20435" lon="-5.41579"></trkpt>
      <trkpt lat="50.20435" lon="-5.41587"></trkpt>
      <trkpt lat="50.20441" lon="-5.41604"></trkpt>
      <trkpt lat="50.20437" lon="-5.41612"></trkpt>
      <trkpt lat="50.2043" lon="-5.41617"></trkpt>
      <trkpt lat="50.20414" lon="-5.41633"></trkpt>
      <trkpt lat="50.20417" lon="-5.41651"></trkpt>
      <trkpt lat="50.20412" lon="-5.41664"></trkpt>
      <trkpt lat="50.20356" lon="-5.41767"></trkpt>
      <trkpt lat="50.20344" lon="-5.41799"></trkpt>
      <trkpt lat="50.20321" lon="-5.41845"></trkpt>
      <trkpt lat="50.20307" lon="-5.41841"></trkpt>
      <trkpt lat="50.20269" lon="-5.41847"></trkpt>
      <trkpt lat="50.20214" lon="-5.41957"></trkpt>
      <trkpt lat="50.20212" lon="-5.41992"></trkpt>
      <trkpt lat="50.20201" lon="-5.42014"></trkpt>
      <trkpt lat="50.20184" lon="-5.42077"></trkpt>
      <trkpt lat="50.2017" lon="-5.42091"></trkpt>
      <trkpt lat="50.20141" lon="-5.42157"></trkpt>
      <trkpt lat="50.20135" lon="-5.42179"></trkpt>
      <trkpt lat="50.20123" lon="-5.42197"></trkpt>
      <trkpt lat="50.20106" lon="-5.42232"></trkpt>
      <trkpt lat="50.20101" lon="-5.42238"></trkpt>
      <trkpt lat="50.20088" lon="-5.42269"></trkpt>
      <trkpt lat="50.20081" lon="-5.4228"></trkpt>
      <trkpt lat="50.20053" lon="-5.42374"></trkpt>
      <trkpt lat="50.20037" lon="-5.42393"></trkpt>
      <trkpt lat="50.2004" lon="-5.42407"></trkpt>
      <trkpt lat="50.20041" lon="-5.42445"></trkpt>
      <trkpt lat="50.2003" lon="-5.42471"></trkpt>
      <trkpt lat="50.19996" lon="-5.42603"></trkpt>
      <trkpt lat="50.19985" lon="-5.42635"></trkpt>
      <trkpt lat="50.19955" lon="-5.42687"></trkpt>
      <trkpt lat="50.19954" lon="-5.42696"></trkpt>
      <trkpt lat="50.19944" lon="-5.42709"></trkpt>
      <trkpt lat="50.19935" lon="-5.42728"></trkpt>
      <trkpt lat="50.19916" lon="-5.42751"></trkpt>
      <trkpt lat="50.19911" lon="-5.42755"></trkpt>
      <trkpt lat="50.19896" lon="-5.42758"></trkpt>
      <trkpt lat="50.19877" lon="-5.4277"></trkpt>
      <trkpt lat="50.19877" lon="-5.42771"></trkpt>
      <trkpt lat="50.19861" lon="-5.42773"></trkpt>
      <trkpt lat="50.19836" lon="-5.42758"></trkpt>
      <trkpt lat="50.19831" lon="-5.42759"></trkpt>
      <trkpt lat="50.19827" lon="-5.42776"></trkpt>
      <trkpt lat="50.19814" lon="-5.42809"></trkpt>
      <trkpt lat="50.19807" lon="-5.42811"></trkpt>
      <trkpt lat="50.19801" lon="-5.42843"></trkpt>
      <trkpt lat="50.19774" lon="-5.42919"></trkpt>
      <trkpt lat="50.19766" lon="-5.42936"></trkpt>
      <trkpt lat="50.19743" lon="-5.42971"></trkpt>
      <trkpt lat="50.19724" lon="-5.42986"></trkpt>
      <trkpt lat="50.19701" lon="-5.43"></trkpt>
      <trkpt lat="50.19683" lon="-5.43017"></trkpt>
      <trkpt lat="50.19673" lon="-5.4302"></trkpt>
      <trkpt lat="50.19661" lon="-5.43017"></trkpt>
      <trkpt lat="50.19657" lon="-5.43018"></trkpt>
      <trkpt lat="50.19655" lon="-5.43021"></trkpt>
      <trkpt lat="50.19638" lon="-5.43026"></trkpt>
      <trkpt lat="50.19631" lon="-5.43021"></trkpt>
      <trkpt lat="50.19621" lon="-5.43006"></trkpt>
      <trkpt lat="50.19612" lon="-5.42985"></trkpt>
      <trkpt lat="50.19608" lon="-5.42979"></trkpt>
      <trkpt lat="50.196" lon="-5.42994"></trkpt>
      <trkpt lat="50.19591" lon="-5.43003"></trkpt>
      <trkpt lat="50.19576" lon="-5.43006"></trkpt>
      <trkpt lat="50.1956" lon="-5.43001"></trkpt>
      <trkpt lat="50.19533" lon="-5.43028"></trkpt>
      <trkpt lat="50.19499" lon="-5.43048"></trkpt>
      <trkpt lat="50.19487" lon="-5.43066"></trkpt>
      <trkpt lat="50.19455" lon="-5.43087"></trkpt>
      <trkpt lat="50.19449" lon="-5.43094"></trkpt>
      <trkpt lat="50.1943" lon="-5.43104"></trkpt>
      <trkpt lat="50.19418" lon="-5.43121"></trkpt>
      <trkpt lat="50.1939" lon="-5.43141"></trkpt>
      <trkpt lat="50.19368" lon="-5.43161"></trkpt>
      <trkpt lat="50.19354" lon="-5.43169"></trkpt>
      <trkpt lat="50.19323" lon="-5.43181"></trkpt>
      <trkpt lat="50.19289" lon="-5.43179"></trkpt>
      <trkpt lat="50.19273" lon="-5.43175"></trkpt>
      <trkpt lat="50.19258" lon="-5.43174"></trkpt>
      <trkpt lat="50.19238" lon="-5.4315"></trkpt>
      <trkpt lat="50.19223" lon="-5.43126"></trkpt>
      <trkpt lat="50.19208" lon="-5.43108"></trkpt>
      <trkpt lat="50.19194" lon="-5.43097"></trkpt>
      <trkpt lat="50.19166" lon="-5.4309"></trkpt>
      <trkpt lat="50.19155" lon="-5.43087"></trkpt>
      <trkpt lat="50.19132" lon="-5.43072"></trkpt>
      <trkpt lat="50.19124" lon="-5.43064"></trkpt>
      <trkpt lat="50.19114" lon="-5.43049"></trkpt>
      <trkpt lat="50.19107" lon="-5.43032"></trkpt>
      <trkpt lat="50.191" lon="-5.43007"></trkpt>
      <trkpt lat="50.19096" lon="-5.42978"></trkpt>
      <trkpt lat="50.19096" lon="-5.42934"></trkpt>
      <trkpt lat="50.19086" lon="-5.42925"></trkpt>
      <trkpt lat="50.19073" lon="-5.42935"></trkpt>
      <trkpt lat="50.19051" lon="-5.42832"></trkpt>
      <trkpt lat="50.19057" lon="-5.42825"></trkpt>
      <trkpt lat="50.19054" lon="-5.42813"></trkpt>
      <trkpt lat="50.19021" lon="-5.42843"></trkpt>
      <trkpt lat="50.18993" lon="-5.42728"></trkpt>
      <trkpt lat="50.18983" lon="-5.42735"></trkpt>
      <trkpt lat="50.1895" lon="-5.42583"></trkpt>
      <trkpt lat="50.18931" lon="-5.42408"></trkpt>
      <trkpt lat="50.18933" lon="-5.42391"></trkpt>
      <trkpt lat="50.18932" lon="-5.4236"></trkpt>
      <trkpt lat="50.18933" lon="-5.42344"></trkpt>
      <trkpt lat="50.18927" lon="-5.4233"></trkpt>
      <trkpt lat="50.189" lon="-5.42327"></trkpt>
      <trkpt lat="50.18884" lon="-5.42316"></trkpt>
      <trkpt lat="50.18876" lon="-5.42302"></trkpt>
      <trkpt lat="50.18865" lon="-5.4227"></trkpt>
    </trkseg>
  </trk>
</gpx>
