<?xml version="1.0" encoding="UTF-8"?>
<gpx version="1.1" creator="swcp-walk (imported from OS Maps route 33834443)"
     xmlns="http://www.topografix.com/GPX/1/1">
  <metadata>
    <name>SWCP20-Hayle-StIves</name>
  </metadata>
  <trk>
    <name>SWCP20-Hayle-StIves</name>
    <trkseg>
      <trkpt lat="50.18818915810857" lon="-5.4221478269832915"></trkpt>
      <trkpt lat="50.18817" lon="-5.42224"></trkpt>
      <trkpt lat="50.18813" lon="-5.4223"></trkpt>
      <trkpt lat="50.18802" lon="-5.42225"></trkpt>
      <trkpt lat="50.18793" lon="-5.4227"></trkpt>
      <trkpt lat="50.18783" lon="-5.42295"></trkpt>
      <trkpt lat="50.18785" lon="-5.42309"></trkpt>
      <trkpt lat="50.18782" lon="-5.4232"></trkpt>
      <trkpt lat="50.18779" lon="-5.42323"></trkpt>
      <trkpt lat="50.18763" lon="-5.42328"></trkpt>
      <trkpt lat="50.18749" lon="-5.42325"></trkpt>
      <trkpt lat="50.18734" lon="-5.42313"></trkpt>
      <trkpt lat="50.18731" lon="-5.42307"></trkpt>
      <trkpt lat="50.1863" lon="-5.42198"></trkpt>
      <trkpt lat="50.18595" lon="-5.4217"></trkpt>
      <trkpt lat="50.18577" lon="-5.42161"></trkpt>
      <trkpt lat="50.1856" lon="-5.42159"></trkpt>
      <trkpt lat="50.18532" lon="-5.42146"></trkpt>
      <trkpt lat="50.18495" lon="-5.42126"></trkpt>
      <trkpt lat="50.18472" lon="-5.42117"></trkpt>
      <trkpt lat="50.1845" lon="-5.42157"></trkpt>
      <trkpt lat="50.18447" lon="-5.4218"></trkpt>
      <trkpt lat="50.18435" lon="-5.42212"></trkpt>
      <trkpt lat="50.18442" lon="-5.42247"></trkpt>
      <trkpt lat="50.18445" lon="-5.42281"></trkpt>
      <trkpt lat="50.18446" lon="-5.42309"></trkpt>
      <trkpt lat="50.1845" lon="-5.4231"></trkpt>
      <trkpt lat="50.18496" lon="-5.4234"></trkpt>
      <trkpt lat="50.18496" lon="-5.42339"></trkpt>
      <trkpt lat="50.1855" lon="-5.42375"></trkpt>
      <trkpt lat="50.18554" lon="-5.4242"></trkpt>
      <trkpt lat="50.18561" lon="-5.42434"></trkpt>
      <trkpt lat="50.18514" lon="-5.42519"></trkpt>
      <trkpt lat="50.18513" lon="-5.42531"></trkpt>
      <trkpt lat="50.18502" lon="-5.42545"></trkpt>
      <trkpt lat="50.18464" lon="-5.42579"></trkpt>
      <trkpt lat="50.18449" lon="-5.42587"></trkpt>
      <trkpt lat="50.18442" lon="-5.42596"></trkpt>
      <trkpt lat="50.18429" lon="-5.42627"></trkpt>
      <trkpt lat="50.18423" lon="-5.42646"></trkpt>
      <trkpt lat="50.18356" lon="-5.42817"></trkpt>
      <trkpt lat="50.18355" lon="-5.42817"></trkpt>
      <trkpt lat="50.18304" lon="-5.4296"></trkpt>
      <trkpt lat="50.18291" lon="-5.42969"></trkpt>
      <trkpt lat="50.18234" lon="-5.4294"></trkpt>
      <trkpt lat="50.18233" lon="-5.42936"></trkpt>
      <trkpt lat="50.18172" lon="-5.42982"></trkpt>
      <trkpt lat="50.1813" lon="-5.43"></trkpt>
      <trkpt lat="50.17985" lon="-5.43046"></trkpt>
      <trkpt lat="50.17937" lon="-5.43074"></trkpt>
      <trkpt lat="50.17894" lon="-5.43107"></trkpt>
      <trkpt lat="50.17855" lon="-5.43149"></trkpt>
      <trkpt lat="50.17814" lon="-5.43198"></trkpt>
      <trkpt lat="50.17774" lon="-5.43254"></trkpt>
      <trkpt lat="50.17741" lon="-5.4331"></trkpt>
      <trkpt lat="50.17709" lon="-5.4337"></trkpt>
      <trkpt lat="50.17676" lon="-5.43441"></trkpt>
      <trkpt lat="50.17664" lon="-5.43468"></trkpt>
      <trkpt lat="50.17651" lon="-5.43503"></trkpt>
      <trkpt lat="50.17633" lon="-5.43559"></trkpt>
      <trkpt lat="50.17616" lon="-5.43626"></trkpt>
      <trkpt lat="50.17625" lon="-5.43631"></trkpt>
      <trkpt lat="50.17613" lon="-5.43684"></trkpt>
      <trkpt lat="50.17588" lon="-5.43781"></trkpt>
      <trkpt lat="50.17588" lon="-5.43868"></trkpt>
      <trkpt lat="50.17597" lon="-5.43948"></trkpt>
      <trkpt lat="50.17597" lon="-5.43973"></trkpt>
      <trkpt lat="50.17595" lon="-5.44008"></trkpt>
      <trkpt lat="50.17595" lon="-5.44043"></trkpt>
      <trkpt lat="50.17598" lon="-5.44064"></trkpt>
      <trkpt lat="50.17622" lon="-5.44182"></trkpt>
      <trkpt lat="50.17636" lon="-5.44274"></trkpt>
      <trkpt lat="50.17638" lon="-5.44283"></trkpt>
      <trkpt lat="50.17646" lon="-5.44279"></trkpt>
      <trkpt lat="50.17733" lon="-5.44285"></trkpt>
      <trkpt lat="50.17753" lon="-5.44282"></trkpt>
      <trkpt lat="50.17773" lon="-5.44273"></trkpt>
      <trkpt lat="50.17799" lon="-5.44246"></trkpt>
      <trkpt lat="50.17817" lon="-5.44258"></trkpt>
      <trkpt lat="50.17821" lon="-5.44255"></trkpt>
      <trkpt lat="50.17898" lon="-5.44247"></trkpt>
      <trkpt lat="50.17951" lon="-5.44255"></trkpt>
      <trkpt lat="50.17966" lon="-5.44255"></trkpt>
      <trkpt lat="50.17971" lon="-5.44251"></trkpt>
      <trkpt lat="50.18002" lon="-5.4421"></trkpt>
      <trkpt lat="50.18012" lon="-5.44179"></trkpt>
      <trkpt lat="50.18017" lon="-5.44152"></trkpt>
      <trkpt lat="50.18039" lon="-5.44081"></trkpt>
      <trkpt lat="50.1813" lon="-5.4389"></trkpt>
      <trkpt lat="50.18154" lon="-5.43835"></trkpt>
      <trkpt lat="50.1816" lon="-5.43817"></trkpt>
      <trkpt lat="50.1817" lon="-5.43763"></trkpt>
      <trkpt lat="50.18177" lon="-5.43745"></trkpt>
      <trkpt lat="50.18177" lon="-5.43746"></trkpt>
      <trkpt lat="50.18182" lon="-5.43729"></trkpt>
      <trkpt lat="50.1819" lon="-5.43721"></trkpt>
      <trkpt lat="50.18245" lon="-5.43696"></trkpt>
      <trkpt lat="50.18372" lon="-5.43683"></trkpt>
      <trkpt lat="50.18428" lon="-5.43674"></trkpt>
      <trkpt lat="50.18459" lon="-5.43666"></trkpt>
      <trkpt lat="50.18498" lon="-5.43645"></trkpt>
      <trkpt lat="50.18526" lon="-5.43621"></trkpt>
      <trkpt lat="50.18557" lon="-5.43585"></trkpt>
      <trkpt lat="50.18567" lon="-5.43583"></trkpt>
      <trkpt lat="50.18631" lon="-5.43615"></trkpt>
      <trkpt lat="50.18666" lon="-5.43628"></trkpt>
      <trkpt lat="50.18701" lon="-5.43656"></trkpt>
      <trkpt lat="50.1871" lon="-5.43661"></trkpt>
      <trkpt lat="50.18726" lon="-5.43665"></trkpt>
      <trkpt lat="50.18752" lon="-5.43663"></trkpt>
      <trkpt lat="50.18764" lon="-5.43667"></trkpt>
      <trkpt lat="50.18767" lon="-5.43679"></trkpt>
      <trkpt lat="50.18783" lon="-5.43694"></trkpt>
      <trkpt lat="50.18806" lon="-5.43673"></trkpt>
      <trkpt lat="50.1881" lon="-5.43671"></trkpt>
      <trkpt lat="50.18813" lon="-5.43674"></trkpt>
      <trkpt lat="50.18823" lon="-5.43652"></trkpt>
      <trkpt lat="50.18828" lon="-5.43649"></trkpt>
      <trkpt lat="50.18882" lon="-5.43649"></trkpt>
      <trkpt lat="50.18896" lon="-5.43646"></trkpt>
      <trkpt lat="50.18958" lon="-5.43596"></trkpt>
      <trkpt lat="50.18986" lon="-5.43583"></trkpt>
      <trkpt lat="50.19006" lon="-5.4357"></trkpt>
      <trkpt lat="50.19025" lon="-5.43571"></trkpt>
      <trkpt lat="50.19038" lon="-5.43555"></trkpt>
      <trkpt lat="50.19025" lon="-5.43571"></trkpt>
      <trkpt lat="50.19034" lon="-5.4358"></trkpt>
      <trkpt lat="50.19039" lon="-5.43581"></trkpt>
      <trkpt lat="50.1906" lon="-5.43601"></trkpt>
      <trkpt lat="50.19134" lon="-5.43704"></trkpt>
      <trkpt lat="50.19159" lon="-5.43734"></trkpt>
      <trkpt lat="50.19182" lon="-5.43699"></trkpt>
      <trkpt lat="50.1923" lon="-5.43792"></trkpt>
      <trkpt lat="50.19246" lon="-5.43838"></trkpt>
      <trkpt lat="50.1927" lon="-5.43921"></trkpt>
      <trkpt lat="50.19301" lon="-5.44017"></trkpt>
      <trkpt lat="50.19304" lon="-5.44036"></trkpt>
      <trkpt lat="50.19316" lon="-5.44063"></trkpt>
      <trkpt lat="50.19319" lon="-5.44084"></trkpt>
      <trkpt lat="50.19327" lon="-5.4412"></trkpt>
      <trkpt lat="50.19327" lon="-5.44148"></trkpt>
      <trkpt lat="50.19337" lon="-5.44179"></trkpt>
      <trkpt lat="50.19338" lon="-5.44205"></trkpt>
      <trkpt lat="50.19352" lon="-5.44238"></trkpt>
      <trkpt lat="50.19354" lon="-5.44265"></trkpt>
      <trkpt lat="50.19352" lon="-5.44285"></trkpt>
      <trkpt lat="50.19361" lon="-5.44365"></trkpt>
      <trkpt lat="50.1936" lon="-5.44375"></trkpt>
      <trkpt lat="50.19365" lon="-5.44465"></trkpt>
      <trkpt lat="50.19364" lon="-5.44506"></trkpt>
      <trkpt lat="50.19359" lon="-5.44527"></trkpt>
      <trkpt lat="50.19357" lon="-5.44544"></trkpt>
      <trkpt lat="50.19362" lon="-5.44588"></trkpt>
      <trkpt lat="50.19362" lon="-5.44602"></trkpt>
      <trkpt lat="50.19368" lon="-5.44639"></trkpt>
      <trkpt lat="50.19369" lon="-5.44656"></trkpt>
      <trkpt lat="50.19373" lon="-5.44682"></trkpt>
      <trkpt lat="50.19372" lon="-5.44689"></trkpt>
      <trkpt lat="50.19375" lon="-5.447"></trkpt>
      <trkpt lat="50.19378" lon="-5.44724"></trkpt>
      <trkpt lat="50.19405" lon="-5.44799"></trkpt>
      <trkpt lat="50.19408" lon="-5.44793"></trkpt>
      <trkpt lat="50.1941" lon="-5.44797"></trkpt>
      <trkpt lat="50.19413" lon="-5.44796"></trkpt>
      <trkpt lat="50.19418" lon="-5.44801"></trkpt>
      <trkpt lat="50.19425" lon="-5.44798"></trkpt>
      <trkpt lat="50.19436" lon="-5.44801"></trkpt>
      <trkpt lat="50.19439" lon="-5.44805"></trkpt>
      <trkpt lat="50.1944" lon="-5.44814"></trkpt>
      <trkpt lat="50.19439" lon="-5.44805"></trkpt>
      <trkpt lat="50.19436" lon="-5.44801"></trkpt>
      <trkpt lat="50.19425" lon="-5.44798"></trkpt>
      <trkpt lat="50.19418" lon="-5.44801"></trkpt>
      <trkpt lat="50.19417" lon="-5.44808"></trkpt>
      <trkpt lat="50.19409" lon="-5.44807"></trkpt>
      <trkpt lat="50.19437" lon="-5.44893"></trkpt>
      <trkpt lat="50.19445" lon="-5.44927"></trkpt>
      <trkpt lat="50.19449" lon="-5.4495"></trkpt>
      <trkpt lat="50.19451" lon="-5.44954"></trkpt>
      <trkpt lat="50.1947" lon="-5.44975"></trkpt>
      <trkpt lat="50.19475" lon="-5.44993"></trkpt>
      <trkpt lat="50.19488" lon="-5.45136"></trkpt>
      <trkpt lat="50.19487" lon="-5.45161"></trkpt>
      <trkpt lat="50.19479" lon="-5.45197"></trkpt>
      <trkpt lat="50.19491" lon="-5.45303"></trkpt>
      <trkpt lat="50.19501" lon="-5.45347"></trkpt>
      <trkpt lat="50.19516" lon="-5.45372"></trkpt>
      <trkpt lat="50.19533" lon="-5.45391"></trkpt>
      <trkpt lat="50.19544" lon="-5.45424"></trkpt>
      <trkpt lat="50.19595" lon="-5.45504"></trkpt>
      <trkpt lat="50.19612" lon="-5.45549"></trkpt>
      <trkpt lat="50.19632" lon="-5.45567"></trkpt>
      <trkpt lat="50.19693" lon="-5.45565"></trkpt>
      <trkpt lat="50.19698" lon="-5.45554"></trkpt>
      <trkpt lat="50.19703" lon="-5.45548"></trkpt>
      <trkpt lat="50.19727" lon="-5.45537"></trkpt>
      <trkpt lat="50.19744" lon="-5.45537"></trkpt>
      <trkpt lat="50.19758" lon="-5.45541"></trkpt>
      <trkpt lat="50.19772" lon="-5.45551"></trkpt>
      <trkpt lat="50.19791" lon="-5.45558"></trkpt>
      <trkpt lat="50.19798" lon="-5.45564"></trkpt>
      <trkpt lat="50.19803" lon="-5.45568"></trkpt>
      <trkpt lat="50.19811" lon="-5.45582"></trkpt>
      <trkpt lat="50.19812" lon="-5.45595"></trkpt>
      <trkpt lat="50.19816" lon="-5.45613"></trkpt>
      <trkpt lat="50.19818" lon="-5.45638"></trkpt>
      <trkpt lat="50.19818" lon="-5.45661"></trkpt>
      <trkpt lat="50.19813" lon="-5.45685"></trkpt>
      <trkpt lat="50.19789" lon="-5.45757"></trkpt>
      <trkpt lat="50.19782" lon="-5.45784"></trkpt>
      <trkpt lat="50.1978" lon="-5.45809"></trkpt>
      <trkpt lat="50.19776" lon="-5.45826"></trkpt>
      <trkpt lat="50.19759" lon="-5.46005"></trkpt>
      <trkpt lat="50.19755" lon="-5.46034"></trkpt>
      <trkpt lat="50.19748" lon="-5.46051"></trkpt>
      <trkpt lat="50.19743" lon="-5.46081"></trkpt>
      <trkpt lat="50.19743" lon="-5.46112"></trkpt>
      <trkpt lat="50.19745" lon="-5.46122"></trkpt>
      <trkpt lat="50.19748" lon="-5.46123"></trkpt>
      <trkpt lat="50.19749" lon="-5.46151"></trkpt>
      <trkpt lat="50.19752" lon="-5.46165"></trkpt>
      <trkpt lat="50.1975" lon="-5.46206"></trkpt>
      <trkpt lat="50.19752" lon="-5.46227"></trkpt>
      <trkpt lat="50.19751" lon="-5.4627"></trkpt>
      <trkpt lat="50.1975" lon="-5.46275"></trkpt>
      <trkpt lat="50.19747" lon="-5.46279"></trkpt>
      <trkpt lat="50.1972" lon="-5.46297"></trkpt>
      <trkpt lat="50.19753" lon="-5.46365"></trkpt>
      <trkpt lat="50.19767" lon="-5.46401"></trkpt>
      <trkpt lat="50.19791" lon="-5.46463"></trkpt>
      <trkpt lat="50.198" lon="-5.46494"></trkpt>
      <trkpt lat="50.19801" lon="-5.46515"></trkpt>
      <trkpt lat="50.19798" lon="-5.46546"></trkpt>
      <trkpt lat="50.19794" lon="-5.46573"></trkpt>
      <trkpt lat="50.19809" lon="-5.46586"></trkpt>
      <trkpt lat="50.19834" lon="-5.46604"></trkpt>
      <trkpt lat="50.19839" lon="-5.4662"></trkpt>
      <trkpt lat="50.19838" lon="-5.46633"></trkpt>
      <trkpt lat="50.19843" lon="-5.46642"></trkpt>
      <trkpt lat="50.19848" lon="-5.4666"></trkpt>
      <trkpt lat="50.19851" lon="-5.4666"></trkpt>
      <trkpt lat="50.19857" lon="-5.46693"></trkpt>
      <trkpt lat="50.19854" lon="-5.467"></trkpt>
      <trkpt lat="50.19842" lon="-5.46718"></trkpt>
      <trkpt lat="50.19843" lon="-5.46731"></trkpt>
      <trkpt lat="50.19877" lon="-5.46818"></trkpt>
      <trkpt lat="50.19884" lon="-5.46829"></trkpt>
      <trkpt lat="50.19877" lon="-5.4684"></trkpt>
      <trkpt lat="50.19883" lon="-5.46858"></trkpt>
      <trkpt lat="50.19925" lon="-5.46933"></trkpt>
      <trkpt lat="50.19951" lon="-5.4697"></trkpt>
      <trkpt lat="50.2" lon="-5.47019"></trkpt>
      <trkpt lat="50.20095" lon="-5.47073"></trkpt>
      <trkpt lat="50.20147" lon="-5.47114"></trkpt>
      <trkpt lat="50.20187" lon="-5.47129"></trkpt>
      <trkpt lat="50.20217" lon="-5.47137"></trkpt>
      <trkpt lat="50.20242" lon="-5.47138"></trkpt>
      <trkpt lat="50.20281" lon="-5.47128"></trkpt>
      <trkpt lat="50.2028" lon="-5.47128"></trkpt>
      <trkpt lat="50.2033" lon="-5.47112"></trkpt>
      <trkpt lat="50.20356" lon="-5.47107"></trkpt>
      <trkpt lat="50.20414" lon="-5.47116"></trkpt>
      <trkpt lat="50.20456" lon="-5.47133"></trkpt>
      <trkpt lat="50.20493" lon="-5.47153"></trkpt>
      <trkpt lat="50.20528" lon="-5.47161"></trkpt>
      <trkpt lat="50.20577" lon="-5.47163"></trkpt>
      <trkpt lat="50.20581" lon="-5.47168"></trkpt>
      <trkpt lat="50.2061" lon="-5.47218"></trkpt>
      <trkpt lat="50.20621" lon="-5.47227"></trkpt>
      <trkpt lat="50.20635" lon="-5.47233"></trkpt>
      <trkpt lat="50.20646" lon="-5.47246"></trkpt>
      <trkpt lat="50.20657" lon="-5.4726"></trkpt>
      <trkpt lat="50.20667" lon="-5.47277"></trkpt>
      <trkpt lat="50.20687" lon="-5.47319"></trkpt>
      <trkpt lat="50.2071" lon="-5.47391"></trkpt>
      <trkpt lat="50.20731" lon="-5.47469"></trkpt>
      <trkpt lat="50.20736" lon="-5.4748"></trkpt>
      <trkpt lat="50.20756" lon="-5.47506"></trkpt>
      <trkpt lat="50.2075" lon="-5.4748"></trkpt>
      <trkpt lat="50.20746" lon="-5.47452"></trkpt>
      <trkpt lat="50.20747" lon="-5.47447"></trkpt>
      <trkpt lat="50.2075" lon="-5.47446"></trkpt>
      <trkpt lat="50.20753" lon="-5.47449"></trkpt>
      <trkpt lat="50.20768" lon="-5.47485"></trkpt>
      <trkpt lat="50.20776" lon="-5.47503"></trkpt>
      <trkpt lat="50.20802" lon="-5.47578"></trkpt>
      <trkpt lat="50.20809" lon="-5.47583"></trkpt>
      <trkpt lat="50.20886" lon="-5.47711"></trkpt>
      <trkpt lat="50.20894" lon="-5.47735"></trkpt>
      <trkpt lat="50.20917" lon="-5.47766"></trkpt>
      <trkpt lat="50.20935" lon="-5.47775"></trkpt>
      <trkpt lat="50.20937" lon="-5.47772"></trkpt>
      <trkpt lat="50.20965" lon="-5.47778"></trkpt>
      <trkpt lat="50.20992" lon="-5.47777"></trkpt>
      <trkpt lat="50.20992" lon="-5.4778"></trkpt>
      <trkpt lat="50.2102" lon="-5.47776"></trkpt>
      <trkpt lat="50.21066" lon="-5.47758"></trkpt>
      <trkpt lat="50.2108" lon="-5.47762"></trkpt>
      <trkpt lat="50.21092" lon="-5.47769"></trkpt>
      <trkpt lat="50.21102" lon="-5.47784"></trkpt>
      <trkpt lat="50.21131" lon="-5.47862"></trkpt>
      <trkpt lat="50.21142" lon="-5.47881"></trkpt>
      <trkpt lat="50.21155" lon="-5.47897"></trkpt>
      <trkpt lat="50.21163" lon="-5.47895"></trkpt>
      <trkpt lat="50.2118" lon="-5.47903"></trkpt>
      <trkpt lat="50.21215" lon="-5.47934"></trkpt>
      <trkpt lat="50.21221" lon="-5.47932"></trkpt>
      <trkpt lat="50.21236" lon="-5.47944"></trkpt>
      <trkpt lat="50.21242" lon="-5.47956"></trkpt>
      <trkpt lat="50.2126" lon="-5.47965"></trkpt>
    </trkseg>
  </trk>
</gpx>
