<?xml version="1.0" encoding="UTF-8"?>
<gpx version="1.1" creator="swcp-walk (imported from OS Maps route 33834512)"
     xmlns="http://www.topografix.com/GPX/1/1">
  <metadata>
    <name>SWCP21-StIves-Pendeen</name>
  </metadata>
  <trk>
    <name>SWCP21-StIves-Pendeen</name>
    <trkseg>
      <trkpt lat="50.21248832207257" lon="-5.4794729625303376"></trkpt>
      <trkpt lat="50.21246" lon="-5.47958"></trkpt>
      <trkpt lat="50.21281" lon="-5.47976"></trkpt>
      <trkpt lat="50.21283" lon="-5.47973"></trkpt>
      <trkpt lat="50.21359" lon="-5.47988"></trkpt>
      <trkpt lat="50.21434" lon="-5.47989"></trkpt>
      <trkpt lat="50.21454" lon="-5.4798"></trkpt>
      <trkpt lat="50.21486" lon="-5.47954"></trkpt>
      <trkpt lat="50.21505" lon="-5.4791"></trkpt>
      <trkpt lat="50.21511" lon="-5.47899"></trkpt>
      <trkpt lat="50.21515" lon="-5.47865"></trkpt>
      <trkpt lat="50.21515" lon="-5.47813"></trkpt>
      <trkpt lat="50.21521" lon="-5.47788"></trkpt>
      <trkpt lat="50.21517" lon="-5.47784"></trkpt>
      <trkpt lat="50.21517" lon="-5.47777"></trkpt>
      <trkpt lat="50.21529" lon="-5.47748"></trkpt>
      <trkpt lat="50.21517" lon="-5.47777"></trkpt>
      <trkpt lat="50.21517" lon="-5.47784"></trkpt>
      <trkpt lat="50.21521" lon="-5.47788"></trkpt>
      <trkpt lat="50.21537" lon="-5.47756"></trkpt>
      <trkpt lat="50.21548" lon="-5.47724"></trkpt>
      <trkpt lat="50.21564" lon="-5.47729"></trkpt>
      <trkpt lat="50.21572" lon="-5.47711"></trkpt>
      <trkpt lat="50.21568" lon="-5.47658"></trkpt>
      <trkpt lat="50.21581" lon="-5.47659"></trkpt>
      <trkpt lat="50.2159" lon="-5.47657"></trkpt>
      <trkpt lat="50.21598" lon="-5.47648"></trkpt>
      <trkpt lat="50.21606" lon="-5.47632"></trkpt>
      <trkpt lat="50.21608" lon="-5.47604"></trkpt>
      <trkpt lat="50.21613" lon="-5.47585"></trkpt>
      <trkpt lat="50.21619" lon="-5.4758"></trkpt>
      <trkpt lat="50.21635" lon="-5.47581"></trkpt>
      <trkpt lat="50.21649" lon="-5.47576"></trkpt>
      <trkpt lat="50.21663" lon="-5.47571"></trkpt>
      <trkpt lat="50.21669" lon="-5.47578"></trkpt>
      <trkpt lat="50.21672" lon="-5.47614"></trkpt>
      <trkpt lat="50.21677" lon="-5.47613"></trkpt>
      <trkpt lat="50.21678" lon="-5.47634"></trkpt>
      <trkpt lat="50.21683" lon="-5.47651"></trkpt>
      <trkpt lat="50.21694" lon="-5.47671"></trkpt>
      <trkpt lat="50.2172" lon="-5.47681"></trkpt>
      <trkpt lat="50.21738" lon="-5.47679"></trkpt>
      <trkpt lat="50.21751" lon="-5.47673"></trkpt>
      <trkpt lat="50.21753" lon="-5.47663"></trkpt>
      <trkpt lat="50.21752" lon="-5.47654"></trkpt>
      <trkpt lat="50.21766" lon="-5.47626"></trkpt>
      <trkpt lat="50.21769" lon="-5.47615"></trkpt>
      <trkpt lat="50.21766" lon="-5.47626"></trkpt>
      <trkpt lat="50.21752" lon="-5.47654"></trkpt>
      <trkpt lat="50.21761" lon="-5.47657"></trkpt>
      <trkpt lat="50.21778" lon="-5.47677"></trkpt>
      <trkpt lat="50.21816" lon="-5.47679"></trkpt>
      <trkpt lat="50.21822" lon="-5.47684"></trkpt>
      <trkpt lat="50.21828" lon="-5.47683"></trkpt>
      <trkpt lat="50.21831" lon="-5.47676"></trkpt>
      <trkpt lat="50.21836" lon="-5.47678"></trkpt>
      <trkpt lat="50.21844" lon="-5.47686"></trkpt>
      <trkpt lat="50.21857" lon="-5.47718"></trkpt>
      <trkpt lat="50.21865" lon="-5.4775"></trkpt>
      <trkpt lat="50.21879" lon="-5.47784"></trkpt>
      <trkpt lat="50.21869" lon="-5.4784"></trkpt>
      <trkpt lat="50.21866" lon="-5.47876"></trkpt>
      <trkpt lat="50.21859" lon="-5.47905"></trkpt>
      <trkpt lat="50.21855" lon="-5.47928"></trkpt>
      <trkpt lat="50.21852" lon="-5.47935"></trkpt>
      <trkpt lat="50.21846" lon="-5.47938"></trkpt>
      <trkpt lat="50.21809" lon="-5.47946"></trkpt>
      <trkpt lat="50.2178" lon="-5.47952"></trkpt>
      <trkpt lat="50.21771" lon="-5.47949"></trkpt>
      <trkpt lat="50.21755" lon="-5.47948"></trkpt>
      <trkpt lat="50.21735" lon="-5.4794"></trkpt>
      <trkpt lat="50.21719" lon="-5.47925"></trkpt>
      <trkpt lat="50.21709" lon="-5.4791"></trkpt>
      <trkpt lat="50.21688" lon="-5.47908"></trkpt>
      <trkpt lat="50.21686" lon="-5.47912"></trkpt>
      <trkpt lat="50.21674" lon="-5.4791"></trkpt>
      <trkpt lat="50.21653" lon="-5.47885"></trkpt>
      <trkpt lat="50.21646" lon="-5.47896"></trkpt>
      <trkpt lat="50.21631" lon="-5.4791"></trkpt>
      <trkpt lat="50.21617" lon="-5.47914"></trkpt>
      <trkpt lat="50.21611" lon="-5.47911"></trkpt>
      <trkpt lat="50.21592" lon="-5.4789"></trkpt>
      <trkpt lat="50.21577" lon="-5.47942"></trkpt>
      <trkpt lat="50.21547" lon="-5.48067"></trkpt>
      <trkpt lat="50.2154" lon="-5.48081"></trkpt>
      <trkpt lat="50.21537" lon="-5.48094"></trkpt>
      <trkpt lat="50.21526" lon="-5.48112"></trkpt>
      <trkpt lat="50.21525" lon="-5.48109"></trkpt>
      <trkpt lat="50.21537" lon="-5.4815"></trkpt>
      <trkpt lat="50.21527" lon="-5.48199"></trkpt>
      <trkpt lat="50.21518" lon="-5.48217"></trkpt>
      <trkpt lat="50.21503" lon="-5.4826"></trkpt>
      <trkpt lat="50.21498" lon="-5.48271"></trkpt>
      <trkpt lat="50.21485" lon="-5.48283"></trkpt>
      <trkpt lat="50.21483" lon="-5.48304"></trkpt>
      <trkpt lat="50.21484" lon="-5.48319"></trkpt>
      <trkpt lat="50.21478" lon="-5.48331"></trkpt>
      <trkpt lat="50.21472" lon="-5.48366"></trkpt>
      <trkpt lat="50.21472" lon="-5.48372"></trkpt>
      <trkpt lat="50.21453" lon="-5.48434"></trkpt>
      <trkpt lat="50.21443" lon="-5.48453"></trkpt>
      <trkpt lat="50.21431" lon="-5.48457"></trkpt>
      <trkpt lat="50.21424" lon="-5.48468"></trkpt>
      <trkpt lat="50.21419" lon="-5.48481"></trkpt>
      <trkpt lat="50.21421" lon="-5.48486"></trkpt>
      <trkpt lat="50.21421" lon="-5.48494"></trkpt>
      <trkpt lat="50.21423" lon="-5.48493"></trkpt>
      <trkpt lat="50.2142" lon="-5.48537"></trkpt>
      <trkpt lat="50.21432" lon="-5.48654"></trkpt>
      <trkpt lat="50.21437" lon="-5.48664"></trkpt>
      <trkpt lat="50.21445" lon="-5.48699"></trkpt>
      <trkpt lat="50.21454" lon="-5.48723"></trkpt>
      <trkpt lat="50.21461" lon="-5.48727"></trkpt>
      <trkpt lat="50.21472" lon="-5.48714"></trkpt>
      <trkpt lat="50.21475" lon="-5.48714"></trkpt>
      <trkpt lat="50.21499" lon="-5.48724"></trkpt>
      <trkpt lat="50.21505" lon="-5.48728"></trkpt>
      <trkpt lat="50.21527" lon="-5.48757"></trkpt>
      <trkpt lat="50.21527" lon="-5.48763"></trkpt>
      <trkpt lat="50.21538" lon="-5.48781"></trkpt>
      <trkpt lat="50.21542" lon="-5.488"></trkpt>
      <trkpt lat="50.21556" lon="-5.48821"></trkpt>
      <trkpt lat="50.21572" lon="-5.48843"></trkpt>
      <trkpt lat="50.21581" lon="-5.48839"></trkpt>
      <trkpt lat="50.21585" lon="-5.48844"></trkpt>
      <trkpt lat="50.21594" lon="-5.48862"></trkpt>
      <trkpt lat="50.2161" lon="-5.48924"></trkpt>
      <trkpt lat="50.21614" lon="-5.48957"></trkpt>
      <trkpt lat="50.216" lon="-5.49093"></trkpt>
      <trkpt lat="50.21602" lon="-5.49096"></trkpt>
      <trkpt lat="50.21608" lon="-5.4913"></trkpt>
      <trkpt lat="50.21609" lon="-5.49156"></trkpt>
      <trkpt lat="50.21615" lon="-5.49168"></trkpt>
      <trkpt lat="50.21618" lon="-5.49179"></trkpt>
      <trkpt lat="50.21615" lon="-5.49191"></trkpt>
      <trkpt lat="50.21616" lon="-5.49202"></trkpt>
      <trkpt lat="50.21618" lon="-5.49204"></trkpt>
      <trkpt lat="50.21618" lon="-5.49208"></trkpt>
      <trkpt lat="50.21616" lon="-5.49212"></trkpt>
      <trkpt lat="50.21618" lon="-5.49233"></trkpt>
      <trkpt lat="50.21618" lon="-5.49252"></trkpt>
      <trkpt lat="50.21616" lon="-5.49267"></trkpt>
      <trkpt lat="50.21617" lon="-5.49281"></trkpt>
      <trkpt lat="50.21623" lon="-5.49293"></trkpt>
      <trkpt lat="50.21633" lon="-5.49308"></trkpt>
      <trkpt lat="50.21634" lon="-5.49314"></trkpt>
      <trkpt lat="50.21652" lon="-5.49351"></trkpt>
      <trkpt lat="50.21683" lon="-5.49375"></trkpt>
      <trkpt lat="50.21702" lon="-5.49404"></trkpt>
      <trkpt lat="50.2172" lon="-5.49411"></trkpt>
      <trkpt lat="50.21728" lon="-5.49424"></trkpt>
      <trkpt lat="50.21736" lon="-5.49423"></trkpt>
      <trkpt lat="50.21744" lon="-5.49439"></trkpt>
      <trkpt lat="50.21754" lon="-5.49451"></trkpt>
      <trkpt lat="50.21761" lon="-5.49453"></trkpt>
      <trkpt lat="50.21768" lon="-5.4946"></trkpt>
      <trkpt lat="50.2178" lon="-5.49484"></trkpt>
      <trkpt lat="50.21793" lon="-5.49517"></trkpt>
      <trkpt lat="50.21839" lon="-5.49551"></trkpt>
      <trkpt lat="50.21844" lon="-5.49559"></trkpt>
      <trkpt lat="50.21851" lon="-5.49577"></trkpt>
      <trkpt lat="50.21863" lon="-5.49608"></trkpt>
      <trkpt lat="50.21869" lon="-5.49644"></trkpt>
      <trkpt lat="50.21878" lon="-5.49682"></trkpt>
      <trkpt lat="50.2188" lon="-5.49763"></trkpt>
      <trkpt lat="50.21879" lon="-5.49789"></trkpt>
      <trkpt lat="50.21876" lon="-5.49818"></trkpt>
      <trkpt lat="50.21858" lon="-5.49848"></trkpt>
      <trkpt lat="50.21838" lon="-5.49872"></trkpt>
      <trkpt lat="50.21835" lon="-5.49887"></trkpt>
      <trkpt lat="50.21829" lon="-5.49904"></trkpt>
      <trkpt lat="50.21814" lon="-5.49916"></trkpt>
      <trkpt lat="50.21794" lon="-5.49921"></trkpt>
      <trkpt lat="50.2178" lon="-5.49929"></trkpt>
      <trkpt lat="50.21759" lon="-5.49951"></trkpt>
      <trkpt lat="50.21759" lon="-5.49955"></trkpt>
      <trkpt lat="50.21745" lon="-5.49981"></trkpt>
      <trkpt lat="50.2174" lon="-5.49987"></trkpt>
      <trkpt lat="50.21727" lon="-5.50003"></trkpt>
      <trkpt lat="50.21725" lon="-5.50011"></trkpt>
      <trkpt lat="50.21723" lon="-5.50034"></trkpt>
      <trkpt lat="50.21732" lon="-5.50149"></trkpt>
      <trkpt lat="50.21741" lon="-5.50196"></trkpt>
      <trkpt lat="50.21744" lon="-5.50225"></trkpt>
      <trkpt lat="50.21739" lon="-5.50265"></trkpt>
      <trkpt lat="50.21738" lon="-5.50293"></trkpt>
      <trkpt lat="50.21735" lon="-5.50306"></trkpt>
      <trkpt lat="50.21735" lon="-5.50307"></trkpt>
      <trkpt lat="50.21732" lon="-5.50314"></trkpt>
      <trkpt lat="50.21724" lon="-5.50314"></trkpt>
      <trkpt lat="50.21719" lon="-5.50322"></trkpt>
      <trkpt lat="50.21709" lon="-5.50333"></trkpt>
      <trkpt lat="50.21702" lon="-5.5036"></trkpt>
      <trkpt lat="50.217" lon="-5.50386"></trkpt>
      <trkpt lat="50.21693" lon="-5.5042"></trkpt>
      <trkpt lat="50.21694" lon="-5.50475"></trkpt>
      <trkpt lat="50.21701" lon="-5.50491"></trkpt>
      <trkpt lat="50.21698" lon="-5.50502"></trkpt>
      <trkpt lat="50.21698" lon="-5.50521"></trkpt>
      <trkpt lat="50.21697" lon="-5.50539"></trkpt>
      <trkpt lat="50.21702" lon="-5.50568"></trkpt>
      <trkpt lat="50.21701" lon="-5.50577"></trkpt>
      <trkpt lat="50.21683" lon="-5.50594"></trkpt>
      <trkpt lat="50.21671" lon="-5.50612"></trkpt>
      <trkpt lat="50.21656" lon="-5.50627"></trkpt>
      <trkpt lat="50.21659" lon="-5.50651"></trkpt>
      <trkpt lat="50.21679" lon="-5.50734"></trkpt>
      <trkpt lat="50.21695" lon="-5.50769"></trkpt>
      <trkpt lat="50.21704" lon="-5.50802"></trkpt>
      <trkpt lat="50.21711" lon="-5.50837"></trkpt>
      <trkpt lat="50.21713" lon="-5.50861"></trkpt>
      <trkpt lat="50.21714" lon="-5.50873"></trkpt>
      <trkpt lat="50.21694" lon="-5.50918"></trkpt>
      <trkpt lat="50.21679" lon="-5.50925"></trkpt>
      <trkpt lat="50.21672" lon="-5.50932"></trkpt>
      <trkpt lat="50.21658" lon="-5.50933"></trkpt>
      <trkpt lat="50.21626" lon="-5.50953"></trkpt>
      <trkpt lat="50.21589" lon="-5.50948"></trkpt>
      <trkpt lat="50.21582" lon="-5.50942"></trkpt>
      <trkpt lat="50.21574" lon="-5.50944"></trkpt>
      <trkpt lat="50.21567" lon="-5.50939"></trkpt>
      <trkpt lat="50.21544" lon="-5.50944"></trkpt>
      <trkpt lat="50.21541" lon="-5.50954"></trkpt>
      <trkpt lat="50.21532" lon="-5.50959"></trkpt>
      <trkpt lat="50.21519" lon="-5.50953"></trkpt>
      <trkpt lat="50.2151" lon="-5.5097"></trkpt>
      <trkpt lat="50.21504" lon="-5.50993"></trkpt>
      <trkpt lat="50.21502" lon="-5.51023"></trkpt>
      <trkpt lat="50.21506" lon="-5.51044"></trkpt>
      <trkpt lat="50.21506" lon="-5.51072"></trkpt>
      <trkpt lat="50.21509" lon="-5.51093"></trkpt>
      <trkpt lat="50.21505" lon="-5.51149"></trkpt>
      <trkpt lat="50.2149" lon="-5.51198"></trkpt>
      <trkpt lat="50.21491" lon="-5.51216"></trkpt>
      <trkpt lat="50.21488" lon="-5.51227"></trkpt>
      <trkpt lat="50.21491" lon="-5.51253"></trkpt>
      <trkpt lat="50.21489" lon="-5.51257"></trkpt>
      <trkpt lat="50.21491" lon="-5.51277"></trkpt>
      <trkpt lat="50.21487" lon="-5.5128"></trkpt>
      <trkpt lat="50.21489" lon="-5.51297"></trkpt>
      <trkpt lat="50.21489" lon="-5.51331"></trkpt>
      <trkpt lat="50.21489" lon="-5.51332"></trkpt>
      <trkpt lat="50.21485" lon="-5.51384"></trkpt>
      <trkpt lat="50.21489" lon="-5.51414"></trkpt>
      <trkpt lat="50.21484" lon="-5.51453"></trkpt>
      <trkpt lat="50.21486" lon="-5.51471"></trkpt>
      <trkpt lat="50.21481" lon="-5.51489"></trkpt>
      <trkpt lat="50.2148" lon="-5.51509"></trkpt>
      <trkpt lat="50.21472" lon="-5.51536"></trkpt>
      <trkpt lat="50.21472" lon="-5.51555"></trkpt>
      <trkpt lat="50.2146" lon="-5.51593"></trkpt>
      <trkpt lat="50.21458" lon="-5.51609"></trkpt>
      <trkpt lat="50.21461" lon="-5.51624"></trkpt>
      <trkpt lat="50.21456" lon="-5.5166"></trkpt>
      <trkpt lat="50.21462" lon="-5.51702"></trkpt>
      <trkpt lat="50.2146" lon="-5.51726"></trkpt>
      <trkpt lat="50.21454" lon="-5.51754"></trkpt>
      <trkpt lat="50.21449" lon="-5.51763"></trkpt>
      <trkpt lat="50.21451" lon="-5.51775"></trkpt>
      <trkpt lat="50.21449" lon="-5.51829"></trkpt>
      <trkpt lat="50.2144" lon="-5.51858"></trkpt>
      <trkpt lat="50.21442" lon="-5.51879"></trkpt>
      <trkpt lat="50.21447" lon="-5.51908"></trkpt>
      <trkpt lat="50.21446" lon="-5.51917"></trkpt>
      <trkpt lat="50.21433" lon="-5.51919"></trkpt>
      <trkpt lat="50.2142" lon="-5.51915"></trkpt>
      <trkpt lat="50.21405" lon="-5.51921"></trkpt>
      <trkpt lat="50.21404" lon="-5.51926"></trkpt>
      <trkpt lat="50.21404" lon="-5.51966"></trkpt>
      <trkpt lat="50.21401" lon="-5.5199"></trkpt>
      <trkpt lat="50.21397" lon="-5.52065"></trkpt>
      <trkpt lat="50.21401" lon="-5.52096"></trkpt>
      <trkpt lat="50.21385" lon="-5.52182"></trkpt>
      <trkpt lat="50.21373" lon="-5.52207"></trkpt>
      <trkpt lat="50.21362" lon="-5.52265"></trkpt>
      <trkpt lat="50.21353" lon="-5.52364"></trkpt>
      <trkpt lat="50.21341" lon="-5.52393"></trkpt>
      <trkpt lat="50.21326" lon="-5.52468"></trkpt>
      <trkpt lat="50.21321" lon="-5.5248"></trkpt>
      <trkpt lat="50.21309" lon="-5.52501"></trkpt>
      <trkpt lat="50.21287" lon="-5.5254"></trkpt>
      <trkpt lat="50.21282" lon="-5.52575"></trkpt>
      <trkpt lat="50.21284" lon="-5.52618"></trkpt>
      <trkpt lat="50.2129" lon="-5.52628"></trkpt>
      <trkpt lat="50.21295" lon="-5.52654"></trkpt>
      <trkpt lat="50.21298" lon="-5.527"></trkpt>
      <trkpt lat="50.21292" lon="-5.52731"></trkpt>
      <trkpt lat="50.213" lon="-5.52754"></trkpt>
      <trkpt lat="50.21304" lon="-5.52775"></trkpt>
      <trkpt lat="50.21303" lon="-5.52802"></trkpt>
      <trkpt lat="50.21304" lon="-5.52802"></trkpt>
      <trkpt lat="50.21307" lon="-5.52852"></trkpt>
      <trkpt lat="50.21298" lon="-5.52924"></trkpt>
      <trkpt lat="50.21287" lon="-5.52975"></trkpt>
      <trkpt lat="50.21286" lon="-5.53002"></trkpt>
      <trkpt lat="50.21275" lon="-5.53092"></trkpt>
      <trkpt lat="50.21272" lon="-5.5314"></trkpt>
      <trkpt lat="50.21274" lon="-5.53208"></trkpt>
      <trkpt lat="50.21283" lon="-5.53274"></trkpt>
      <trkpt lat="50.2129" lon="-5.53398"></trkpt>
      <trkpt lat="50.2129" lon="-5.53447"></trkpt>
      <trkpt lat="50.21384" lon="-5.53517"></trkpt>
      <trkpt lat="50.21389" lon="-5.53514"></trkpt>
      <trkpt lat="50.2139" lon="-5.53526"></trkpt>
      <trkpt lat="50.21389" lon="-5.53547"></trkpt>
      <trkpt lat="50.2138" lon="-5.53604"></trkpt>
      <trkpt lat="50.21368" lon="-5.53637"></trkpt>
      <trkpt lat="50.21357" lon="-5.5367"></trkpt>
      <trkpt lat="50.21355" lon="-5.53687"></trkpt>
      <trkpt lat="50.21349" lon="-5.53708"></trkpt>
      <trkpt lat="50.21349" lon="-5.53716"></trkpt>
      <trkpt lat="50.21341" lon="-5.53726"></trkpt>
      <trkpt lat="50.21337" lon="-5.53738"></trkpt>
      <trkpt lat="50.2133" lon="-5.53806"></trkpt>
      <trkpt lat="50.21318" lon="-5.53839"></trkpt>
      <trkpt lat="50.21312" lon="-5.53845"></trkpt>
      <trkpt lat="50.21307" lon="-5.53861"></trkpt>
      <trkpt lat="50.21281" lon="-5.53906"></trkpt>
      <trkpt lat="50.21276" lon="-5.53923"></trkpt>
      <trkpt lat="50.2126" lon="-5.53959"></trkpt>
      <trkpt lat="50.2124" lon="-5.5399"></trkpt>
      <trkpt lat="50.21233" lon="-5.54006"></trkpt>
      <trkpt lat="50.21224" lon="-5.54013"></trkpt>
      <trkpt lat="50.21215" lon="-5.54043"></trkpt>
      <trkpt lat="50.21213" lon="-5.54075"></trkpt>
      <trkpt lat="50.21208" lon="-5.54081"></trkpt>
      <trkpt lat="50.21206" lon="-5.54089"></trkpt>
      <trkpt lat="50.21187" lon="-5.54111"></trkpt>
      <trkpt lat="50.21185" lon="-5.54117"></trkpt>
      <trkpt lat="50.2118" lon="-5.5412"></trkpt>
      <trkpt lat="50.21178" lon="-5.54127"></trkpt>
      <trkpt lat="50.21174" lon="-5.54132"></trkpt>
      <trkpt lat="50.21173" lon="-5.54138"></trkpt>
      <trkpt lat="50.21165" lon="-5.54145"></trkpt>
      <trkpt lat="50.21161" lon="-5.54159"></trkpt>
      <trkpt lat="50.21151" lon="-5.54173"></trkpt>
      <trkpt lat="50.21148" lon="-5.54184"></trkpt>
      <trkpt lat="50.21141" lon="-5.54191"></trkpt>
      <trkpt lat="50.21121" lon="-5.54218"></trkpt>
      <trkpt lat="50.21104" lon="-5.5423"></trkpt>
      <trkpt lat="50.21102" lon="-5.54239"></trkpt>
      <trkpt lat="50.21084" lon="-5.54271"></trkpt>
      <trkpt lat="50.21081" lon="-5.54274"></trkpt>
      <trkpt lat="50.21081" lon="-5.54286"></trkpt>
      <trkpt lat="50.21072" lon="-5.543"></trkpt>
      <trkpt lat="50.21073" lon="-5.54306"></trkpt>
      <trkpt lat="50.21081" lon="-5.54323"></trkpt>
      <trkpt lat="50.21081" lon="-5.54326"></trkpt>
      <trkpt lat="50.21073" lon="-5.54323"></trkpt>
      <trkpt lat="50.21069" lon="-5.54326"></trkpt>
      <trkpt lat="50.21066" lon="-5.54325"></trkpt>
      <trkpt lat="50.21056" lon="-5.54317"></trkpt>
      <trkpt lat="50.21054" lon="-5.54325"></trkpt>
      <trkpt lat="50.21057" lon="-5.54331"></trkpt>
      <trkpt lat="50.21066" lon="-5.54339"></trkpt>
      <trkpt lat="50.21071" lon="-5.54346"></trkpt>
      <trkpt lat="50.21088" lon="-5.54386"></trkpt>
      <trkpt lat="50.21099" lon="-5.54422"></trkpt>
      <trkpt lat="50.21108" lon="-5.54496"></trkpt>
      <trkpt lat="50.21114" lon="-5.54525"></trkpt>
      <trkpt lat="50.21126" lon="-5.54567"></trkpt>
      <trkpt lat="50.21133" lon="-5.54601"></trkpt>
      <trkpt lat="50.21133" lon="-5.54631"></trkpt>
      <trkpt lat="50.21138" lon="-5.54641"></trkpt>
      <trkpt lat="50.21139" lon="-5.54649"></trkpt>
      <trkpt lat="50.21145" lon="-5.54651"></trkpt>
      <trkpt lat="50.21149" lon="-5.5466"></trkpt>
      <trkpt lat="50.2115" lon="-5.54675"></trkpt>
      <trkpt lat="50.21155" lon="-5.54682"></trkpt>
      <trkpt lat="50.21156" lon="-5.54697"></trkpt>
      <trkpt lat="50.2116" lon="-5.54706"></trkpt>
      <trkpt lat="50.2116" lon="-5.54726"></trkpt>
      <trkpt lat="50.21163" lon="-5.54748"></trkpt>
      <trkpt lat="50.21161" lon="-5.54758"></trkpt>
      <trkpt lat="50.21163" lon="-5.5477"></trkpt>
      <trkpt lat="50.21163" lon="-5.54789"></trkpt>
      <trkpt lat="50.21159" lon="-5.54815"></trkpt>
      <trkpt lat="50.21155" lon="-5.54827"></trkpt>
      <trkpt lat="50.21146" lon="-5.5484"></trkpt>
      <trkpt lat="50.21127" lon="-5.54858"></trkpt>
      <trkpt lat="50.21112" lon="-5.54878"></trkpt>
      <trkpt lat="50.21103" lon="-5.54898"></trkpt>
      <trkpt lat="50.21095" lon="-5.54907"></trkpt>
      <trkpt lat="50.21083" lon="-5.5491"></trkpt>
      <trkpt lat="50.21066" lon="-5.5492"></trkpt>
      <trkpt lat="50.21061" lon="-5.54912"></trkpt>
      <trkpt lat="50.21046" lon="-5.54902"></trkpt>
      <trkpt lat="50.21038" lon="-5.54902"></trkpt>
      <trkpt lat="50.21009" lon="-5.54941"></trkpt>
      <trkpt lat="50.21001" lon="-5.54944"></trkpt>
      <trkpt lat="50.20988" lon="-5.54958"></trkpt>
      <trkpt lat="50.20969" lon="-5.54966"></trkpt>
      <trkpt lat="50.20951" lon="-5.54973"></trkpt>
      <trkpt lat="50.2094" lon="-5.54987"></trkpt>
      <trkpt lat="50.20933" lon="-5.55003"></trkpt>
      <trkpt lat="50.20926" lon="-5.55025"></trkpt>
      <trkpt lat="50.20925" lon="-5.55033"></trkpt>
      <trkpt lat="50.20914" lon="-5.55061"></trkpt>
      <trkpt lat="50.20915" lon="-5.5507"></trkpt>
      <trkpt lat="50.20913" lon="-5.55087"></trkpt>
      <trkpt lat="50.20905" lon="-5.55119"></trkpt>
      <trkpt lat="50.209" lon="-5.55131"></trkpt>
      <trkpt lat="50.20887" lon="-5.55182"></trkpt>
      <trkpt lat="50.20886" lon="-5.55216"></trkpt>
      <trkpt lat="50.20884" lon="-5.55224"></trkpt>
      <trkpt lat="50.20883" lon="-5.55246"></trkpt>
      <trkpt lat="50.20879" lon="-5.55263"></trkpt>
      <trkpt lat="50.20877" lon="-5.55297"></trkpt>
      <trkpt lat="50.20874" lon="-5.55315"></trkpt>
      <trkpt lat="50.20867" lon="-5.55325"></trkpt>
      <trkpt lat="50.2086" lon="-5.55331"></trkpt>
      <trkpt lat="50.20843" lon="-5.55339"></trkpt>
      <trkpt lat="50.20831" lon="-5.5534"></trkpt>
      <trkpt lat="50.2082" lon="-5.55329"></trkpt>
      <trkpt lat="50.20802" lon="-5.55323"></trkpt>
      <trkpt lat="50.20792" lon="-5.55309"></trkpt>
      <trkpt lat="50.20768" lon="-5.55286"></trkpt>
      <trkpt lat="50.20755" lon="-5.5528"></trkpt>
      <trkpt lat="50.207" lon="-5.55257"></trkpt>
      <trkpt lat="50.20691" lon="-5.55249"></trkpt>
      <trkpt lat="50.20677" lon="-5.55244"></trkpt>
      <trkpt lat="50.20645" lon="-5.55238"></trkpt>
      <trkpt lat="50.20595" lon="-5.5526"></trkpt>
      <trkpt lat="50.20574" lon="-5.55267"></trkpt>
      <trkpt lat="50.20555" lon="-5.55287"></trkpt>
      <trkpt lat="50.20546" lon="-5.55289"></trkpt>
      <trkpt lat="50.20539" lon="-5.55303"></trkpt>
      <trkpt lat="50.20521" lon="-5.55314"></trkpt>
      <trkpt lat="50.20499" lon="-5.55322"></trkpt>
      <trkpt lat="50.2049" lon="-5.55323"></trkpt>
      <trkpt lat="50.20473" lon="-5.55347"></trkpt>
      <trkpt lat="50.20451" lon="-5.55367"></trkpt>
      <trkpt lat="50.20436" lon="-5.55366"></trkpt>
      <trkpt lat="50.20422" lon="-5.55375"></trkpt>
      <trkpt lat="50.20416" lon="-5.55384"></trkpt>
      <trkpt lat="50.20406" lon="-5.55389"></trkpt>
      <trkpt lat="50.20395" lon="-5.55399"></trkpt>
      <trkpt lat="50.20376" lon="-5.554"></trkpt>
      <trkpt lat="50.20371" lon="-5.55406"></trkpt>
      <trkpt lat="50.20374" lon="-5.55416"></trkpt>
      <trkpt lat="50.20371" lon="-5.55424"></trkpt>
      <trkpt lat="50.20365" lon="-5.55429"></trkpt>
      <trkpt lat="50.20357" lon="-5.55431"></trkpt>
      <trkpt lat="50.20345" lon="-5.55437"></trkpt>
      <trkpt lat="50.20319" lon="-5.55463"></trkpt>
      <trkpt lat="50.20315" lon="-5.55485"></trkpt>
      <trkpt lat="50.203" lon="-5.55508"></trkpt>
      <trkpt lat="50.20295" lon="-5.55507"></trkpt>
      <trkpt lat="50.20293" lon="-5.55503"></trkpt>
      <trkpt lat="50.20289" lon="-5.55504"></trkpt>
      <trkpt lat="50.20286" lon="-5.55512"></trkpt>
      <trkpt lat="50.20287" lon="-5.55522"></trkpt>
      <trkpt lat="50.20296" lon="-5.55539"></trkpt>
      <trkpt lat="50.20307" lon="-5.55544"></trkpt>
      <trkpt lat="50.20315" lon="-5.55562"></trkpt>
      <trkpt lat="50.20329" lon="-5.55633"></trkpt>
      <trkpt lat="50.2033" lon="-5.55659"></trkpt>
      <trkpt lat="50.20336" lon="-5.55674"></trkpt>
      <trkpt lat="50.20346" lon="-5.55683"></trkpt>
      <trkpt lat="50.20349" lon="-5.55704"></trkpt>
      <trkpt lat="50.20352" lon="-5.55723"></trkpt>
      <trkpt lat="50.20358" lon="-5.55744"></trkpt>
      <trkpt lat="50.20355" lon="-5.55755"></trkpt>
      <trkpt lat="50.20355" lon="-5.55765"></trkpt>
      <trkpt lat="50.20359" lon="-5.55793"></trkpt>
      <trkpt lat="50.20364" lon="-5.55817"></trkpt>
      <trkpt lat="50.20366" lon="-5.55853"></trkpt>
      <trkpt lat="50.20368" lon="-5.55858"></trkpt>
      <trkpt lat="50.2037" lon="-5.55873"></trkpt>
      <trkpt lat="50.20377" lon="-5.55898"></trkpt>
      <trkpt lat="50.20382" lon="-5.55906"></trkpt>
      <trkpt lat="50.20383" lon="-5.55926"></trkpt>
      <trkpt lat="50.20376" lon="-5.5595"></trkpt>
      <trkpt lat="50.20373" lon="-5.55976"></trkpt>
      <trkpt lat="50.20355" lon="-5.55989"></trkpt>
      <trkpt lat="50.20344" lon="-5.55994"></trkpt>
      <trkpt lat="50.20331" lon="-5.56012"></trkpt>
      <trkpt lat="50.20321" lon="-5.56018"></trkpt>
      <trkpt lat="50.20304" lon="-5.56018"></trkpt>
      <trkpt lat="50.20292" lon="-5.56032"></trkpt>
      <trkpt lat="50.20288" lon="-5.56049"></trkpt>
      <trkpt lat="50.20281" lon="-5.56058"></trkpt>
      <trkpt lat="50.20282" lon="-5.56066"></trkpt>
      <trkpt lat="50.20269" lon="-5.5611"></trkpt>
      <trkpt lat="50.20252" lon="-5.56112"></trkpt>
      <trkpt lat="50.20245" lon="-5.56117"></trkpt>
      <trkpt lat="50.20241" lon="-5.56131"></trkpt>
      <trkpt lat="50.20233" lon="-5.56137"></trkpt>
      <trkpt lat="50.20232" lon="-5.56141"></trkpt>
      <trkpt lat="50.20236" lon="-5.56146"></trkpt>
      <trkpt lat="50.20235" lon="-5.5615"></trkpt>
      <trkpt lat="50.20229" lon="-5.56153"></trkpt>
      <trkpt lat="50.20224" lon="-5.56161"></trkpt>
      <trkpt lat="50.2022" lon="-5.56176"></trkpt>
      <trkpt lat="50.20194" lon="-5.56195"></trkpt>
      <trkpt lat="50.2018" lon="-5.56192"></trkpt>
      <trkpt lat="50.20159" lon="-5.56204"></trkpt>
      <trkpt lat="50.20151" lon="-5.56203"></trkpt>
      <trkpt lat="50.2015" lon="-5.56206"></trkpt>
      <trkpt lat="50.20144" lon="-5.56205"></trkpt>
      <trkpt lat="50.20133" lon="-5.56224"></trkpt>
      <trkpt lat="50.20132" lon="-5.56249"></trkpt>
      <trkpt lat="50.20128" lon="-5.56262"></trkpt>
      <trkpt lat="50.20118" lon="-5.56274"></trkpt>
      <trkpt lat="50.20113" lon="-5.56302"></trkpt>
      <trkpt lat="50.20103" lon="-5.56344"></trkpt>
      <trkpt lat="50.201" lon="-5.56349"></trkpt>
      <trkpt lat="50.20091" lon="-5.56354"></trkpt>
      <trkpt lat="50.2007" lon="-5.56393"></trkpt>
      <trkpt lat="50.20037" lon="-5.5641"></trkpt>
      <trkpt lat="50.20007" lon="-5.5642"></trkpt>
      <trkpt lat="50.19981" lon="-5.56433"></trkpt>
      <trkpt lat="50.19965" lon="-5.56426"></trkpt>
      <trkpt lat="50.1996" lon="-5.56431"></trkpt>
      <trkpt lat="50.19948" lon="-5.5643"></trkpt>
      <trkpt lat="50.19941" lon="-5.5642"></trkpt>
      <trkpt lat="50.1994" lon="-5.5641"></trkpt>
      <trkpt lat="50.19931" lon="-5.56404"></trkpt>
      <trkpt lat="50.19913" lon="-5.5641"></trkpt>
      <trkpt lat="50.19901" lon="-5.56438"></trkpt>
      <trkpt lat="50.19898" lon="-5.56453"></trkpt>
      <trkpt lat="50.199" lon="-5.5647"></trkpt>
      <trkpt lat="50.19896" lon="-5.565"></trkpt>
      <trkpt lat="50.19882" lon="-5.5654"></trkpt>
      <trkpt lat="50.19879" lon="-5.56552"></trkpt>
      <trkpt lat="50.19875" lon="-5.56555"></trkpt>
      <trkpt lat="50.19871" lon="-5.56569"></trkpt>
      <trkpt lat="50.19868" lon="-5.56573"></trkpt>
      <trkpt lat="50.19863" lon="-5.56588"></trkpt>
      <trkpt lat="50.19863" lon="-5.56597"></trkpt>
      <trkpt lat="50.1986" lon="-5.56602"></trkpt>
      <trkpt lat="50.19859" lon="-5.5661"></trkpt>
      <trkpt lat="50.19855" lon="-5.56618"></trkpt>
      <trkpt lat="50.19856" lon="-5.56626"></trkpt>
      <trkpt lat="50.19847" lon="-5.56636"></trkpt>
      <trkpt lat="50.19846" lon="-5.56651"></trkpt>
      <trkpt lat="50.19841" lon="-5.56656"></trkpt>
      <trkpt lat="50.19835" lon="-5.56676"></trkpt>
      <trkpt lat="50.19823" lon="-5.56697"></trkpt>
      <trkpt lat="50.1982" lon="-5.56726"></trkpt>
      <trkpt lat="50.1981" lon="-5.56749"></trkpt>
      <trkpt lat="50.19801" lon="-5.56762"></trkpt>
      <trkpt lat="50.19798" lon="-5.5677"></trkpt>
      <trkpt lat="50.19798" lon="-5.56777"></trkpt>
      <trkpt lat="50.19788" lon="-5.56792"></trkpt>
      <trkpt lat="50.19765" lon="-5.56836"></trkpt>
      <trkpt lat="50.1973" lon="-5.56921"></trkpt>
      <trkpt lat="50.19728" lon="-5.56934"></trkpt>
      <trkpt lat="50.19724" lon="-5.56944"></trkpt>
      <trkpt lat="50.19723" lon="-5.56962"></trkpt>
      <trkpt lat="50.19728" lon="-5.56968"></trkpt>
      <trkpt lat="50.19733" lon="-5.56967"></trkpt>
      <trkpt lat="50.19734" lon="-5.56974"></trkpt>
      <trkpt lat="50.19741" lon="-5.56979"></trkpt>
      <trkpt lat="50.19745" lon="-5.56985"></trkpt>
      <trkpt lat="50.19748" lon="-5.56996"></trkpt>
      <trkpt lat="50.19761" lon="-5.57049"></trkpt>
      <trkpt lat="50.19766" lon="-5.57087"></trkpt>
      <trkpt lat="50.19769" lon="-5.571"></trkpt>
      <trkpt lat="50.19778" lon="-5.57189"></trkpt>
      <trkpt lat="50.19785" lon="-5.57222"></trkpt>
      <trkpt lat="50.19801" lon="-5.57266"></trkpt>
      <trkpt lat="50.19817" lon="-5.5729"></trkpt>
      <trkpt lat="50.19839" lon="-5.57315"></trkpt>
      <trkpt lat="50.19859" lon="-5.5737"></trkpt>
      <trkpt lat="50.19888" lon="-5.57421"></trkpt>
      <trkpt lat="50.19922" lon="-5.57456"></trkpt>
      <trkpt lat="50.19928" lon="-5.57476"></trkpt>
      <trkpt lat="50.19912" lon="-5.57504"></trkpt>
      <trkpt lat="50.19911" lon="-5.57504"></trkpt>
      <trkpt lat="50.19894" lon="-5.57536"></trkpt>
      <trkpt lat="50.19864" lon="-5.5756"></trkpt>
      <trkpt lat="50.19848" lon="-5.57576"></trkpt>
      <trkpt lat="50.19814" lon="-5.57639"></trkpt>
      <trkpt lat="50.19789" lon="-5.57668"></trkpt>
      <trkpt lat="50.1978" lon="-5.57666"></trkpt>
      <trkpt lat="50.19772" lon="-5.5767"></trkpt>
      <trkpt lat="50.19765" lon="-5.57661"></trkpt>
      <trkpt lat="50.19735" lon="-5.57621"></trkpt>
      <trkpt lat="50.19685" lon="-5.57589"></trkpt>
      <trkpt lat="50.19647" lon="-5.57522"></trkpt>
      <trkpt lat="50.19624" lon="-5.57504"></trkpt>
      <trkpt lat="50.19607" lon="-5.57496"></trkpt>
      <trkpt lat="50.19585" lon="-5.57481"></trkpt>
      <trkpt lat="50.19576" lon="-5.57452"></trkpt>
      <trkpt lat="50.19564" lon="-5.57424"></trkpt>
      <trkpt lat="50.19547" lon="-5.57402"></trkpt>
      <trkpt lat="50.19543" lon="-5.57429"></trkpt>
      <trkpt lat="50.19534" lon="-5.57448"></trkpt>
      <trkpt lat="50.19532" lon="-5.57471"></trkpt>
      <trkpt lat="50.19512" lon="-5.5748"></trkpt>
      <trkpt lat="50.19504" lon="-5.575"></trkpt>
      <trkpt lat="50.19503" lon="-5.57515"></trkpt>
      <trkpt lat="50.19496" lon="-5.57523"></trkpt>
      <trkpt lat="50.19508" lon="-5.57537"></trkpt>
      <trkpt lat="50.19501" lon="-5.57552"></trkpt>
      <trkpt lat="50.19504" lon="-5.57568"></trkpt>
      <trkpt lat="50.19499" lon="-5.5758"></trkpt>
      <trkpt lat="50.19503" lon="-5.57608"></trkpt>
      <trkpt lat="50.19485" lon="-5.57648"></trkpt>
      <trkpt lat="50.19472" lon="-5.57649"></trkpt>
      <trkpt lat="50.19468" lon="-5.57636"></trkpt>
      <trkpt lat="50.19453" lon="-5.57627"></trkpt>
      <trkpt lat="50.1945" lon="-5.57625"></trkpt>
      <trkpt lat="50.19422" lon="-5.57627"></trkpt>
      <trkpt lat="50.19418" lon="-5.57725"></trkpt>
      <trkpt lat="50.19412" lon="-5.57785"></trkpt>
      <trkpt lat="50.19404" lon="-5.57799"></trkpt>
      <trkpt lat="50.19397" lon="-5.57797"></trkpt>
      <trkpt lat="50.19389" lon="-5.57798"></trkpt>
      <trkpt lat="50.19374" lon="-5.57809"></trkpt>
      <trkpt lat="50.19363" lon="-5.57811"></trkpt>
      <trkpt lat="50.19323" lon="-5.57852"></trkpt>
      <trkpt lat="50.19305" lon="-5.57895"></trkpt>
      <trkpt lat="50.19298" lon="-5.5792"></trkpt>
      <trkpt lat="50.19299" lon="-5.57925"></trkpt>
      <trkpt lat="50.19297" lon="-5.57932"></trkpt>
      <trkpt lat="50.19292" lon="-5.57941"></trkpt>
      <trkpt lat="50.19283" lon="-5.57968"></trkpt>
      <trkpt lat="50.19276" lon="-5.57975"></trkpt>
      <trkpt lat="50.19267" lon="-5.57998"></trkpt>
      <trkpt lat="50.19256" lon="-5.58032"></trkpt>
      <trkpt lat="50.1926" lon="-5.58076"></trkpt>
      <trkpt lat="50.19258" lon="-5.58122"></trkpt>
      <trkpt lat="50.19278" lon="-5.58162"></trkpt>
      <trkpt lat="50.19312" lon="-5.58186"></trkpt>
      <trkpt lat="50.19329" lon="-5.58202"></trkpt>
      <trkpt lat="50.19357" lon="-5.58235"></trkpt>
      <trkpt lat="50.1941" lon="-5.58293"></trkpt>
      <trkpt lat="50.19423" lon="-5.583"></trkpt>
      <trkpt lat="50.19441" lon="-5.58311"></trkpt>
      <trkpt lat="50.19479" lon="-5.58385"></trkpt>
      <trkpt lat="50.1948" lon="-5.58456"></trkpt>
      <trkpt lat="50.19473" lon="-5.58478"></trkpt>
      <trkpt lat="50.19453" lon="-5.58491"></trkpt>
      <trkpt lat="50.19438" lon="-5.5849"></trkpt>
      <trkpt lat="50.19423" lon="-5.58477"></trkpt>
      <trkpt lat="50.19385" lon="-5.58472"></trkpt>
      <trkpt lat="50.19322" lon="-5.58457"></trkpt>
      <trkpt lat="50.19311" lon="-5.58447"></trkpt>
      <trkpt lat="50.19299" lon="-5.58444"></trkpt>
      <trkpt lat="50.19272" lon="-5.5845"></trkpt>
      <trkpt lat="50.19262" lon="-5.58461"></trkpt>
      <trkpt lat="50.1926" lon="-5.58476"></trkpt>
      <trkpt lat="50.19232" lon="-5.58475"></trkpt>
      <trkpt lat="50.19213" lon="-5.5846"></trkpt>
      <trkpt lat="50.19192" lon="-5.5845"></trkpt>
      <trkpt lat="50.1919" lon="-5.5844"></trkpt>
      <trkpt lat="50.19185" lon="-5.58434"></trkpt>
      <trkpt lat="50.19168" lon="-5.58427"></trkpt>
      <trkpt lat="50.19167" lon="-5.58416"></trkpt>
      <trkpt lat="50.1916" lon="-5.5841"></trkpt>
      <trkpt lat="50.1913" lon="-5.58401"></trkpt>
      <trkpt lat="50.19127" lon="-5.58393"></trkpt>
      <trkpt lat="50.19121" lon="-5.58391"></trkpt>
      <trkpt lat="50.19103" lon="-5.58392"></trkpt>
      <trkpt lat="50.19095" lon="-5.58408"></trkpt>
      <trkpt lat="50.19085" lon="-5.58429"></trkpt>
      <trkpt lat="50.19028" lon="-5.58482"></trkpt>
      <trkpt lat="50.19025" lon="-5.58498"></trkpt>
      <trkpt lat="50.19029" lon="-5.58518"></trkpt>
      <trkpt lat="50.19028" lon="-5.58529"></trkpt>
      <trkpt lat="50.1903" lon="-5.58539"></trkpt>
      <trkpt lat="50.1903" lon="-5.58561"></trkpt>
      <trkpt lat="50.19027" lon="-5.58572"></trkpt>
      <trkpt lat="50.19029" lon="-5.58582"></trkpt>
      <trkpt lat="50.19028" lon="-5.5859"></trkpt>
      <trkpt lat="50.19041" lon="-5.58616"></trkpt>
      <trkpt lat="50.19063" lon="-5.58738"></trkpt>
      <trkpt lat="50.19056" lon="-5.58792"></trkpt>
      <trkpt lat="50.19041" lon="-5.58835"></trkpt>
      <trkpt lat="50.18983" lon="-5.58912"></trkpt>
      <trkpt lat="50.18983" lon="-5.58913"></trkpt>
      <trkpt lat="50.18955" lon="-5.58932"></trkpt>
      <trkpt lat="50.18919" lon="-5.58933"></trkpt>
      <trkpt lat="50.18898" lon="-5.58946"></trkpt>
      <trkpt lat="50.1887" lon="-5.5898"></trkpt>
      <trkpt lat="50.18845" lon="-5.59026"></trkpt>
      <trkpt lat="50.18832" lon="-5.59058"></trkpt>
      <trkpt lat="50.18823" lon="-5.59113"></trkpt>
      <trkpt lat="50.18797" lon="-5.59146"></trkpt>
      <trkpt lat="50.18786" lon="-5.59173"></trkpt>
      <trkpt lat="50.18788" lon="-5.59182"></trkpt>
      <trkpt lat="50.18822" lon="-5.59208"></trkpt>
      <trkpt lat="50.18826" lon="-5.59223"></trkpt>
      <trkpt lat="50.1884" lon="-5.59233"></trkpt>
      <trkpt lat="50.18851" lon="-5.59252"></trkpt>
      <trkpt lat="50.18852" lon="-5.59297"></trkpt>
      <trkpt lat="50.1885" lon="-5.59303"></trkpt>
      <trkpt lat="50.18855" lon="-5.59319"></trkpt>
      <trkpt lat="50.18854" lon="-5.59326"></trkpt>
      <trkpt lat="50.18855" lon="-5.59336"></trkpt>
      <trkpt lat="50.18849" lon="-5.59347"></trkpt>
      <trkpt lat="50.18845" lon="-5.59359"></trkpt>
      <trkpt lat="50.18838" lon="-5.5937"></trkpt>
      <trkpt lat="50.18838" lon="-5.59371"></trkpt>
      <trkpt lat="50.18826" lon="-5.59375"></trkpt>
      <trkpt lat="50.18808" lon="-5.59394"></trkpt>
      <trkpt lat="50.18808" lon="-5.59399"></trkpt>
      <trkpt lat="50.18815" lon="-5.59418"></trkpt>
      <trkpt lat="50.18814" lon="-5.5943"></trkpt>
      <trkpt lat="50.18818" lon="-5.59439"></trkpt>
      <trkpt lat="50.18819" lon="-5.59463"></trkpt>
      <trkpt lat="50.18816" lon="-5.59492"></trkpt>
      <trkpt lat="50.18803" lon="-5.59511"></trkpt>
      <trkpt lat="50.18806" lon="-5.59524"></trkpt>
      <trkpt lat="50.18811" lon="-5.59523"></trkpt>
      <trkpt lat="50.18822" lon="-5.59542"></trkpt>
      <trkpt lat="50.1882" lon="-5.5955"></trkpt>
      <trkpt lat="50.18821" lon="-5.59557"></trkpt>
      <trkpt lat="50.1883" lon="-5.59585"></trkpt>
      <trkpt lat="50.18845" lon="-5.59601"></trkpt>
      <trkpt lat="50.18849" lon="-5.59617"></trkpt>
      <trkpt lat="50.18848" lon="-5.59638"></trkpt>
      <trkpt lat="50.18846" lon="-5.59656"></trkpt>
      <trkpt lat="50.18853" lon="-5.59682"></trkpt>
      <trkpt lat="50.18863" lon="-5.59696"></trkpt>
      <trkpt lat="50.18867" lon="-5.59715"></trkpt>
      <trkpt lat="50.18866" lon="-5.59718"></trkpt>
      <trkpt lat="50.18869" lon="-5.59736"></trkpt>
      <trkpt lat="50.18882" lon="-5.59768"></trkpt>
      <trkpt lat="50.1888" lon="-5.59775"></trkpt>
      <trkpt lat="50.18883" lon="-5.59809"></trkpt>
      <trkpt lat="50.18889" lon="-5.59851"></trkpt>
      <trkpt lat="50.18872" lon="-5.59934"></trkpt>
      <trkpt lat="50.18862" lon="-5.60012"></trkpt>
      <trkpt lat="50.18798" lon="-5.60088"></trkpt>
      <trkpt lat="50.18758" lon="-5.60161"></trkpt>
      <trkpt lat="50.1875" lon="-5.60184"></trkpt>
      <trkpt lat="50.18741" lon="-5.60175"></trkpt>
      <trkpt lat="50.18698" lon="-5.60131"></trkpt>
      <trkpt lat="50.18672" lon="-5.60119"></trkpt>
      <trkpt lat="50.18586" lon="-5.60208"></trkpt>
      <trkpt lat="50.18532" lon="-5.60293"></trkpt>
      <trkpt lat="50.1849" lon="-5.60341"></trkpt>
      <trkpt lat="50.18491" lon="-5.60387"></trkpt>
      <trkpt lat="50.18479" lon="-5.60487"></trkpt>
      <trkpt lat="50.18484" lon="-5.60577"></trkpt>
      <trkpt lat="50.18498" lon="-5.60671"></trkpt>
      <trkpt lat="50.18497" lon="-5.60689"></trkpt>
      <trkpt lat="50.18483" lon="-5.60711"></trkpt>
      <trkpt lat="50.18465" lon="-5.60717"></trkpt>
      <trkpt lat="50.18423" lon="-5.60708"></trkpt>
      <trkpt lat="50.18393" lon="-5.60701"></trkpt>
      <trkpt lat="50.18367" lon="-5.60703"></trkpt>
      <trkpt lat="50.18356" lon="-5.60713"></trkpt>
      <trkpt lat="50.18352" lon="-5.6071"></trkpt>
      <trkpt lat="50.18344" lon="-5.60714"></trkpt>
      <trkpt lat="50.18339" lon="-5.60706"></trkpt>
      <trkpt lat="50.18337" lon="-5.60713"></trkpt>
      <trkpt lat="50.18329" lon="-5.60699"></trkpt>
      <trkpt lat="50.18317" lon="-5.60708"></trkpt>
      <trkpt lat="50.183" lon="-5.60683"></trkpt>
      <trkpt lat="50.18281" lon="-5.60666"></trkpt>
      <trkpt lat="50.18272" lon="-5.60666"></trkpt>
      <trkpt lat="50.18263" lon="-5.60659"></trkpt>
      <trkpt lat="50.18227" lon="-5.60645"></trkpt>
      <trkpt lat="50.18202" lon="-5.60617"></trkpt>
      <trkpt lat="50.18169" lon="-5.60597"></trkpt>
      <trkpt lat="50.18147" lon="-5.60563"></trkpt>
      <trkpt lat="50.18121" lon="-5.60558"></trkpt>
      <trkpt lat="50.18095" lon="-5.60527"></trkpt>
      <trkpt lat="50.18081" lon="-5.60533"></trkpt>
      <trkpt lat="50.18072" lon="-5.60528"></trkpt>
      <trkpt lat="50.18068" lon="-5.60531"></trkpt>
      <trkpt lat="50.18062" lon="-5.60525"></trkpt>
      <trkpt lat="50.18053" lon="-5.60529"></trkpt>
      <trkpt lat="50.18056" lon="-5.60538"></trkpt>
      <trkpt lat="50.18065" lon="-5.60538"></trkpt>
      <trkpt lat="50.18064" lon="-5.6054"></trkpt>
      <trkpt lat="50.18065" lon="-5.60548"></trkpt>
      <trkpt lat="50.1807" lon="-5.60554"></trkpt>
      <trkpt lat="50.18071" lon="-5.60559"></trkpt>
      <trkpt lat="50.18069" lon="-5.60568"></trkpt>
      <trkpt lat="50.18054" lon="-5.60603"></trkpt>
      <trkpt lat="50.18055" lon="-5.60629"></trkpt>
      <trkpt lat="50.1805" lon="-5.60741"></trkpt>
      <trkpt lat="50.18041" lon="-5.60813"></trkpt>
      <trkpt lat="50.18047" lon="-5.60844"></trkpt>
      <trkpt lat="50.18068" lon="-5.60945"></trkpt>
      <trkpt lat="50.18056" lon="-5.6099"></trkpt>
      <trkpt lat="50.18049" lon="-5.61003"></trkpt>
      <trkpt lat="50.18053" lon="-5.6102"></trkpt>
      <trkpt lat="50.1806" lon="-5.61034"></trkpt>
      <trkpt lat="50.18064" lon="-5.6106"></trkpt>
      <trkpt lat="50.18072" lon="-5.61077"></trkpt>
      <trkpt lat="50.18074" lon="-5.61091"></trkpt>
      <trkpt lat="50.18071" lon="-5.61097"></trkpt>
      <trkpt lat="50.1807" lon="-5.61112"></trkpt>
      <trkpt lat="50.18076" lon="-5.61137"></trkpt>
      <trkpt lat="50.18076" lon="-5.61182"></trkpt>
      <trkpt lat="50.1808" lon="-5.61218"></trkpt>
      <trkpt lat="50.18075" lon="-5.61234"></trkpt>
      <trkpt lat="50.18071" lon="-5.61246"></trkpt>
      <trkpt lat="50.1806" lon="-5.61263"></trkpt>
      <trkpt lat="50.18061" lon="-5.61268"></trkpt>
      <trkpt lat="50.18057" lon="-5.61279"></trkpt>
      <trkpt lat="50.18056" lon="-5.61292"></trkpt>
      <trkpt lat="50.18032" lon="-5.61319"></trkpt>
      <trkpt lat="50.18007" lon="-5.61336"></trkpt>
      <trkpt lat="50.17988" lon="-5.61364"></trkpt>
      <trkpt lat="50.17967" lon="-5.61367"></trkpt>
      <trkpt lat="50.17956" lon="-5.61374"></trkpt>
      <trkpt lat="50.17903" lon="-5.61482"></trkpt>
      <trkpt lat="50.17878" lon="-5.61487"></trkpt>
      <trkpt lat="50.17859" lon="-5.61515"></trkpt>
      <trkpt lat="50.17845" lon="-5.61516"></trkpt>
      <trkpt lat="50.17807" lon="-5.61529"></trkpt>
      <trkpt lat="50.17783" lon="-5.61557"></trkpt>
      <trkpt lat="50.17776" lon="-5.61573"></trkpt>
      <trkpt lat="50.1775" lon="-5.61583"></trkpt>
      <trkpt lat="50.1775" lon="-5.6159"></trkpt>
      <trkpt lat="50.17746" lon="-5.61594"></trkpt>
      <trkpt lat="50.17746" lon="-5.61602"></trkpt>
      <trkpt lat="50.17717" lon="-5.61672"></trkpt>
      <trkpt lat="50.17699" lon="-5.6168"></trkpt>
      <trkpt lat="50.17648" lon="-5.61702"></trkpt>
      <trkpt lat="50.17633" lon="-5.61721"></trkpt>
      <trkpt lat="50.17604" lon="-5.61714"></trkpt>
      <trkpt lat="50.17589" lon="-5.61723"></trkpt>
      <trkpt lat="50.17533" lon="-5.61726"></trkpt>
      <trkpt lat="50.17547" lon="-5.61792"></trkpt>
      <trkpt lat="50.17548" lon="-5.61816"></trkpt>
      <trkpt lat="50.17554" lon="-5.6185"></trkpt>
      <trkpt lat="50.17547" lon="-5.61866"></trkpt>
      <trkpt lat="50.1752" lon="-5.61864"></trkpt>
      <trkpt lat="50.17492" lon="-5.61844"></trkpt>
      <trkpt lat="50.17484" lon="-5.61847"></trkpt>
      <trkpt lat="50.17478" lon="-5.61836"></trkpt>
      <trkpt lat="50.1747" lon="-5.61837"></trkpt>
      <trkpt lat="50.17456" lon="-5.61828"></trkpt>
      <trkpt lat="50.17444" lon="-5.61812"></trkpt>
      <trkpt lat="50.17437" lon="-5.61811"></trkpt>
      <trkpt lat="50.17425" lon="-5.61799"></trkpt>
      <trkpt lat="50.17418" lon="-5.61798"></trkpt>
      <trkpt lat="50.17405" lon="-5.61806"></trkpt>
      <trkpt lat="50.17395" lon="-5.61805"></trkpt>
      <trkpt lat="50.17393" lon="-5.61796"></trkpt>
      <trkpt lat="50.17381" lon="-5.61789"></trkpt>
      <trkpt lat="50.17376" lon="-5.61791"></trkpt>
      <trkpt lat="50.17344" lon="-5.61782"></trkpt>
      <trkpt lat="50.17291" lon="-5.6181"></trkpt>
      <trkpt lat="50.17278" lon="-5.61834"></trkpt>
      <trkpt lat="50.1726" lon="-5.61847"></trkpt>
      <trkpt lat="50.17254" lon="-5.61885"></trkpt>
      <trkpt lat="50.17254" lon="-5.61929"></trkpt>
      <trkpt lat="50.17257" lon="-5.62002"></trkpt>
      <trkpt lat="50.17252" lon="-5.62035"></trkpt>
      <trkpt lat="50.17251" lon="-5.62067"></trkpt>
      <trkpt lat="50.17231" lon="-5.62094"></trkpt>
      <trkpt lat="50.17218" lon="-5.62123"></trkpt>
      <trkpt lat="50.172" lon="-5.62178"></trkpt>
      <trkpt lat="50.17168" lon="-5.62236"></trkpt>
      <trkpt lat="50.17164" lon="-5.62234"></trkpt>
      <trkpt lat="50.17157" lon="-5.62242"></trkpt>
      <trkpt lat="50.17159" lon="-5.62276"></trkpt>
      <trkpt lat="50.17156" lon="-5.62287"></trkpt>
      <trkpt lat="50.17134" lon="-5.62287"></trkpt>
      <trkpt lat="50.17114" lon="-5.62278"></trkpt>
      <trkpt lat="50.17102" lon="-5.62274"></trkpt>
      <trkpt lat="50.17066" lon="-5.62279"></trkpt>
      <trkpt lat="50.17029" lon="-5.6227"></trkpt>
      <trkpt lat="50.17011" lon="-5.62278"></trkpt>
      <trkpt lat="50.16995" lon="-5.62291"></trkpt>
      <trkpt lat="50.1697" lon="-5.62294"></trkpt>
      <trkpt lat="50.1696" lon="-5.62338"></trkpt>
      <trkpt lat="50.16951" lon="-5.62349"></trkpt>
      <trkpt lat="50.16942" lon="-5.6237"></trkpt>
      <trkpt lat="50.16908" lon="-5.624"></trkpt>
      <trkpt lat="50.16879" lon="-5.62419"></trkpt>
      <trkpt lat="50.16866" lon="-5.6244"></trkpt>
      <trkpt lat="50.16851" lon="-5.62453"></trkpt>
      <trkpt lat="50.16841" lon="-5.62453"></trkpt>
      <trkpt lat="50.16819" lon="-5.62501"></trkpt>
      <trkpt lat="50.16818" lon="-5.6252"></trkpt>
      <trkpt lat="50.16828" lon="-5.62563"></trkpt>
      <trkpt lat="50.16828" lon="-5.62605"></trkpt>
      <trkpt lat="50.16807" lon="-5.62613"></trkpt>
      <trkpt lat="50.16797" lon="-5.62628"></trkpt>
      <trkpt lat="50.16789" lon="-5.6265"></trkpt>
      <trkpt lat="50.16775" lon="-5.62668"></trkpt>
      <trkpt lat="50.1676" lon="-5.62678"></trkpt>
      <trkpt lat="50.16761" lon="-5.62688"></trkpt>
      <trkpt lat="50.16758" lon="-5.62697"></trkpt>
      <trkpt lat="50.16752" lon="-5.62706"></trkpt>
      <trkpt lat="50.16743" lon="-5.62736"></trkpt>
      <trkpt lat="50.16732" lon="-5.62762"></trkpt>
      <trkpt lat="50.16699" lon="-5.62791"></trkpt>
      <trkpt lat="50.16686" lon="-5.62847"></trkpt>
      <trkpt lat="50.16677" lon="-5.62932"></trkpt>
      <trkpt lat="50.16671" lon="-5.62946"></trkpt>
      <trkpt lat="50.16668" lon="-5.62971"></trkpt>
      <trkpt lat="50.16662" lon="-5.62994"></trkpt>
      <trkpt lat="50.16637" lon="-5.63037"></trkpt>
      <trkpt lat="50.16626" lon="-5.63044"></trkpt>
      <trkpt lat="50.16618" lon="-5.63052"></trkpt>
      <trkpt lat="50.16613" lon="-5.63074"></trkpt>
      <trkpt lat="50.16623" lon="-5.63104"></trkpt>
      <trkpt lat="50.16623" lon="-5.63109"></trkpt>
      <trkpt lat="50.16618" lon="-5.63117"></trkpt>
      <trkpt lat="50.16618" lon="-5.63124"></trkpt>
      <trkpt lat="50.16606" lon="-5.63128"></trkpt>
      <trkpt lat="50.16609" lon="-5.63148"></trkpt>
      <trkpt lat="50.16607" lon="-5.63154"></trkpt>
      <trkpt lat="50.16603" lon="-5.63156"></trkpt>
      <trkpt lat="50.16595" lon="-5.63154"></trkpt>
      <trkpt lat="50.16594" lon="-5.63165"></trkpt>
      <trkpt lat="50.16597" lon="-5.63182"></trkpt>
      <trkpt lat="50.16597" lon="-5.63209"></trkpt>
      <trkpt lat="50.16595" lon="-5.63224"></trkpt>
      <trkpt lat="50.16586" lon="-5.63243"></trkpt>
      <trkpt lat="50.16583" lon="-5.63255"></trkpt>
      <trkpt lat="50.16582" lon="-5.6327"></trkpt>
      <trkpt lat="50.16606" lon="-5.63306"></trkpt>
      <trkpt lat="50.16603" lon="-5.63316"></trkpt>
      <trkpt lat="50.16604" lon="-5.63333"></trkpt>
      <trkpt lat="50.16596" lon="-5.63365"></trkpt>
      <trkpt lat="50.16594" lon="-5.63453"></trkpt>
      <trkpt lat="50.16608" lon="-5.63479"></trkpt>
      <trkpt lat="50.16606" lon="-5.63523"></trkpt>
      <trkpt lat="50.16618" lon="-5.63582"></trkpt>
      <trkpt lat="50.16613" lon="-5.63626"></trkpt>
      <trkpt lat="50.16606" lon="-5.63654"></trkpt>
      <trkpt lat="50.16606" lon="-5.63665"></trkpt>
      <trkpt lat="50.16604" lon="-5.637"></trkpt>
      <trkpt lat="50.1661" lon="-5.63735"></trkpt>
      <trkpt lat="50.16627" lon="-5.6376"></trkpt>
      <trkpt lat="50.16631" lon="-5.63795"></trkpt>
      <trkpt lat="50.16643" lon="-5.6384"></trkpt>
      <trkpt lat="50.16641" lon="-5.63866"></trkpt>
      <trkpt lat="50.16623" lon="-5.6389"></trkpt>
      <trkpt lat="50.16594" lon="-5.63922"></trkpt>
      <trkpt lat="50.16596" lon="-5.63948"></trkpt>
      <trkpt lat="50.16611" lon="-5.63996"></trkpt>
      <trkpt lat="50.16606" lon="-5.64039"></trkpt>
      <trkpt lat="50.16607" lon="-5.64054"></trkpt>
      <trkpt lat="50.166" lon="-5.64108"></trkpt>
      <trkpt lat="50.16594" lon="-5.64138"></trkpt>
      <trkpt lat="50.16595" lon="-5.64157"></trkpt>
      <trkpt lat="50.16612" lon="-5.6421"></trkpt>
      <trkpt lat="50.16623" lon="-5.64231"></trkpt>
      <trkpt lat="50.16647" lon="-5.64236"></trkpt>
      <trkpt lat="50.16655" lon="-5.64249"></trkpt>
      <trkpt lat="50.16674" lon="-5.64349"></trkpt>
      <trkpt lat="50.16666" lon="-5.64469"></trkpt>
      <trkpt lat="50.16666" lon="-5.6447"></trkpt>
      <trkpt lat="50.16655" lon="-5.64594"></trkpt>
      <trkpt lat="50.16658" lon="-5.64603"></trkpt>
      <trkpt lat="50.16657" lon="-5.64636"></trkpt>
      <trkpt lat="50.16642" lon="-5.647"></trkpt>
      <trkpt lat="50.16626" lon="-5.64823"></trkpt>
      <trkpt lat="50.16615" lon="-5.64942"></trkpt>
      <trkpt lat="50.16604" lon="-5.64989"></trkpt>
      <trkpt lat="50.16584" lon="-5.65029"></trkpt>
      <trkpt lat="50.16571" lon="-5.65076"></trkpt>
      <trkpt lat="50.16556" lon="-5.65117"></trkpt>
      <trkpt lat="50.16527" lon="-5.65205"></trkpt>
      <trkpt lat="50.16517" lon="-5.65276"></trkpt>
      <trkpt lat="50.16529" lon="-5.65359"></trkpt>
      <trkpt lat="50.16527" lon="-5.65368"></trkpt>
      <trkpt lat="50.16524" lon="-5.65381"></trkpt>
      <trkpt lat="50.16513" lon="-5.65391"></trkpt>
      <trkpt lat="50.16497" lon="-5.65395"></trkpt>
      <trkpt lat="50.16485" lon="-5.65404"></trkpt>
      <trkpt lat="50.16468" lon="-5.65411"></trkpt>
      <trkpt lat="50.16457" lon="-5.65434"></trkpt>
      <trkpt lat="50.16443" lon="-5.65447"></trkpt>
      <trkpt lat="50.16425" lon="-5.65476"></trkpt>
      <trkpt lat="50.16417" lon="-5.65475"></trkpt>
      <trkpt lat="50.16409" lon="-5.65468"></trkpt>
      <trkpt lat="50.16391" lon="-5.6546"></trkpt>
      <trkpt lat="50.1637" lon="-5.65453"></trkpt>
      <trkpt lat="50.16366" lon="-5.65455"></trkpt>
      <trkpt lat="50.16385" lon="-5.65476"></trkpt>
      <trkpt lat="50.16393" lon="-5.65493"></trkpt>
      <trkpt lat="50.16394" lon="-5.65501"></trkpt>
      <trkpt lat="50.1639" lon="-5.65512"></trkpt>
      <trkpt lat="50.16394" lon="-5.65528"></trkpt>
      <trkpt lat="50.16411" lon="-5.65553"></trkpt>
      <trkpt lat="50.16417" lon="-5.65568"></trkpt>
      <trkpt lat="50.16417" lon="-5.65576"></trkpt>
      <trkpt lat="50.16415" lon="-5.65581"></trkpt>
      <trkpt lat="50.16383" lon="-5.65596"></trkpt>
      <trkpt lat="50.16367" lon="-5.65599"></trkpt>
      <trkpt lat="50.16363" lon="-5.65596"></trkpt>
      <trkpt lat="50.16354" lon="-5.65596"></trkpt>
      <trkpt lat="50.16359" lon="-5.65604"></trkpt>
      <trkpt lat="50.1637" lon="-5.65608"></trkpt>
      <trkpt lat="50.16374" lon="-5.65605"></trkpt>
      <trkpt lat="50.16378" lon="-5.65609"></trkpt>
      <trkpt lat="50.16379" lon="-5.65624"></trkpt>
      <trkpt lat="50.16385" lon="-5.65652"></trkpt>
      <trkpt lat="50.1638" lon="-5.65663"></trkpt>
      <trkpt lat="50.16375" lon="-5.65665"></trkpt>
      <trkpt lat="50.16373" lon="-5.65671"></trkpt>
      <trkpt lat="50.16375" lon="-5.65684"></trkpt>
      <trkpt lat="50.16369" lon="-5.65691"></trkpt>
      <trkpt lat="50.16355" lon="-5.65718"></trkpt>
      <trkpt lat="50.16355" lon="-5.6573"></trkpt>
      <trkpt lat="50.16351" lon="-5.65738"></trkpt>
      <trkpt lat="50.16353" lon="-5.65756"></trkpt>
      <trkpt lat="50.16344" lon="-5.65777"></trkpt>
      <trkpt lat="50.16343" lon="-5.6582"></trkpt>
      <trkpt lat="50.16344" lon="-5.65867"></trkpt>
      <trkpt lat="50.16344" lon="-5.65868"></trkpt>
      <trkpt lat="50.16342" lon="-5.65888"></trkpt>
      <trkpt lat="50.16343" lon="-5.65894"></trkpt>
      <trkpt lat="50.16341" lon="-5.65916"></trkpt>
      <trkpt lat="50.1634" lon="-5.65956"></trkpt>
      <trkpt lat="50.16347" lon="-5.66048"></trkpt>
      <trkpt lat="50.16354" lon="-5.6608"></trkpt>
      <trkpt lat="50.16361" lon="-5.661"></trkpt>
      <trkpt lat="50.16371" lon="-5.66151"></trkpt>
      <trkpt lat="50.16385" lon="-5.66191"></trkpt>
      <trkpt lat="50.16393" lon="-5.66225"></trkpt>
      <trkpt lat="50.16414" lon="-5.66293"></trkpt>
      <trkpt lat="50.16421" lon="-5.66341"></trkpt>
      <trkpt lat="50.16432" lon="-5.66362"></trkpt>
      <trkpt lat="50.16451" lon="-5.66381"></trkpt>
      <trkpt lat="50.16457" lon="-5.66384"></trkpt>
      <trkpt lat="50.16466" lon="-5.66406"></trkpt>
      <trkpt lat="50.16467" lon="-5.66419"></trkpt>
      <trkpt lat="50.16464" lon="-5.66434"></trkpt>
      <trkpt lat="50.16469" lon="-5.66504"></trkpt>
      <trkpt lat="50.16484" lon="-5.66513"></trkpt>
      <trkpt lat="50.16506" lon="-5.66531"></trkpt>
      <trkpt lat="50.16504" lon="-5.66552"></trkpt>
      <trkpt lat="50.16507" lon="-5.66583"></trkpt>
      <trkpt lat="50.16499" lon="-5.6664"></trkpt>
      <trkpt lat="50.16499" lon="-5.66691"></trkpt>
      <trkpt lat="50.16496" lon="-5.6673"></trkpt>
      <trkpt lat="50.16491" lon="-5.66752"></trkpt>
      <trkpt lat="50.1648" lon="-5.66777"></trkpt>
      <trkpt lat="50.16475" lon="-5.66797"></trkpt>
      <trkpt lat="50.16477" lon="-5.6689"></trkpt>
      <trkpt lat="50.16486" lon="-5.66973"></trkpt>
      <trkpt lat="50.16483" lon="-5.66997"></trkpt>
      <trkpt lat="50.16467" lon="-5.67034"></trkpt>
      <trkpt lat="50.16459" lon="-5.67045"></trkpt>
    </trkseg>
  </trk>
</gpx>
