<?xml version="1.0" encoding="UTF-8"?>
<gpx version="1.1" creator="swcp-walk (imported from OS Maps route 33835411)"
     xmlns="http://www.topografix.com/GPX/1/1">
  <metadata>
    <name>SWCP22-Pendeen-SennenCove</name>
  </metadata>
  <trk>
    <name>SWCP22-Pendeen-SennenCove</name>
    <trkseg>
      <trkpt lat="50.164526057695866" lon="-5.670285591561111"></trkpt>
      <trkpt lat="50.16461" lon="-5.67043"></trkpt>
      <trkpt lat="50.16451" lon="-5.67058"></trkpt>
      <trkpt lat="50.16438" lon="-5.67062"></trkpt>
      <trkpt lat="50.1643" lon="-5.67057"></trkpt>
      <trkpt lat="50.16395" lon="-5.6702"></trkpt>
      <trkpt lat="50.16384" lon="-5.67013"></trkpt>
      <trkpt lat="50.16307" lon="-5.66984"></trkpt>
      <trkpt lat="50.16283" lon="-5.66981"></trkpt>
      <trkpt lat="50.16251" lon="-5.66986"></trkpt>
      <trkpt lat="50.16192" lon="-5.67002"></trkpt>
      <trkpt lat="50.1617" lon="-5.66999"></trkpt>
      <trkpt lat="50.16141" lon="-5.66964"></trkpt>
      <trkpt lat="50.1613" lon="-5.66943"></trkpt>
      <trkpt lat="50.16127" lon="-5.66946"></trkpt>
      <trkpt lat="50.16119" lon="-5.66945"></trkpt>
      <trkpt lat="50.16092" lon="-5.66967"></trkpt>
      <trkpt lat="50.16089" lon="-5.67001"></trkpt>
      <trkpt lat="50.16089" lon="-5.67002"></trkpt>
      <trkpt lat="50.1607" lon="-5.67074"></trkpt>
      <trkpt lat="50.1605" lon="-5.67119"></trkpt>
      <trkpt lat="50.16044" lon="-5.67123"></trkpt>
      <trkpt lat="50.16039" lon="-5.67134"></trkpt>
      <trkpt lat="50.1604" lon="-5.6714"></trkpt>
      <trkpt lat="50.16037" lon="-5.67154"></trkpt>
      <trkpt lat="50.16013" lon="-5.67187"></trkpt>
      <trkpt lat="50.16007" lon="-5.67214"></trkpt>
      <trkpt lat="50.16003" lon="-5.67224"></trkpt>
      <trkpt lat="50.15996" lon="-5.67231"></trkpt>
      <trkpt lat="50.15976" lon="-5.67285"></trkpt>
      <trkpt lat="50.15966" lon="-5.67325"></trkpt>
      <trkpt lat="50.1593" lon="-5.67405"></trkpt>
      <trkpt lat="50.15927" lon="-5.67429"></trkpt>
      <trkpt lat="50.15932" lon="-5.67456"></trkpt>
      <trkpt lat="50.15933" lon="-5.67488"></trkpt>
      <trkpt lat="50.1593" lon="-5.67504"></trkpt>
      <trkpt lat="50.15923" lon="-5.67548"></trkpt>
      <trkpt lat="50.15923" lon="-5.67573"></trkpt>
      <trkpt lat="50.15909" lon="-5.6767"></trkpt>
      <trkpt lat="50.15898" lon="-5.67698"></trkpt>
      <trkpt lat="50.15841" lon="-5.67778"></trkpt>
      <trkpt lat="50.1582" lon="-5.67788"></trkpt>
      <trkpt lat="50.1578" lon="-5.67842"></trkpt>
      <trkpt lat="50.15776" lon="-5.67862"></trkpt>
      <trkpt lat="50.1575" lon="-5.67892"></trkpt>
      <trkpt lat="50.15683" lon="-5.67977"></trkpt>
      <trkpt lat="50.15681" lon="-5.67977"></trkpt>
      <trkpt lat="50.15669" lon="-5.67978"></trkpt>
      <trkpt lat="50.15613" lon="-5.67962"></trkpt>
      <trkpt lat="50.15578" lon="-5.6794"></trkpt>
      <trkpt lat="50.15559" lon="-5.67934"></trkpt>
      <trkpt lat="50.15545" lon="-5.67971"></trkpt>
      <trkpt lat="50.1554" lon="-5.68005"></trkpt>
      <trkpt lat="50.15534" lon="-5.68031"></trkpt>
      <trkpt lat="50.15533" lon="-5.68031"></trkpt>
      <trkpt lat="50.15531" lon="-5.6804"></trkpt>
      <trkpt lat="50.15507" lon="-5.68099"></trkpt>
      <trkpt lat="50.15502" lon="-5.68101"></trkpt>
      <trkpt lat="50.15498" lon="-5.681"></trkpt>
      <trkpt lat="50.15487" lon="-5.68087"></trkpt>
      <trkpt lat="50.15485" lon="-5.68112"></trkpt>
      <trkpt lat="50.15474" lon="-5.6816"></trkpt>
      <trkpt lat="50.15465" lon="-5.68227"></trkpt>
      <trkpt lat="50.15453" lon="-5.68258"></trkpt>
      <trkpt lat="50.15374" lon="-5.68322"></trkpt>
      <trkpt lat="50.15336" lon="-5.68394"></trkpt>
      <trkpt lat="50.15331" lon="-5.68402"></trkpt>
      <trkpt lat="50.15298" lon="-5.68426"></trkpt>
      <trkpt lat="50.15282" lon="-5.68452"></trkpt>
      <trkpt lat="50.15233" lon="-5.68504"></trkpt>
      <trkpt lat="50.15225" lon="-5.6851"></trkpt>
      <trkpt lat="50.15198" lon="-5.68525"></trkpt>
      <trkpt lat="50.15151" lon="-5.68536"></trkpt>
      <trkpt lat="50.15142" lon="-5.6853"></trkpt>
      <trkpt lat="50.15132" lon="-5.68563"></trkpt>
      <trkpt lat="50.15123" lon="-5.68617"></trkpt>
      <trkpt lat="50.1512" lon="-5.68628"></trkpt>
      <trkpt lat="50.15117" lon="-5.68637"></trkpt>
      <trkpt lat="50.15093" lon="-5.68677"></trkpt>
      <trkpt lat="50.1502" lon="-5.68775"></trkpt>
      <trkpt lat="50.15002" lon="-5.68794"></trkpt>
      <trkpt lat="50.14969" lon="-5.68808"></trkpt>
      <trkpt lat="50.1492" lon="-5.68836"></trkpt>
      <trkpt lat="50.14904" lon="-5.68842"></trkpt>
      <trkpt lat="50.14898" lon="-5.68848"></trkpt>
      <trkpt lat="50.14891" lon="-5.68862"></trkpt>
      <trkpt lat="50.14859" lon="-5.6887"></trkpt>
      <trkpt lat="50.14851" lon="-5.68878"></trkpt>
      <trkpt lat="50.14799" lon="-5.68892"></trkpt>
      <trkpt lat="50.14789" lon="-5.68901"></trkpt>
      <trkpt lat="50.14782" lon="-5.68908"></trkpt>
      <trkpt lat="50.1477" lon="-5.68907"></trkpt>
      <trkpt lat="50.14744" lon="-5.68923"></trkpt>
      <trkpt lat="50.14748" lon="-5.68938"></trkpt>
      <trkpt lat="50.14761" lon="-5.68955"></trkpt>
      <trkpt lat="50.14748" lon="-5.68957"></trkpt>
      <trkpt lat="50.14707" lon="-5.68989"></trkpt>
      <trkpt lat="50.14661" lon="-5.69046"></trkpt>
      <trkpt lat="50.14631" lon="-5.69109"></trkpt>
      <trkpt lat="50.14626" lon="-5.69128"></trkpt>
      <trkpt lat="50.14583" lon="-5.69152"></trkpt>
      <trkpt lat="50.14583" lon="-5.69153"></trkpt>
      <trkpt lat="50.14572" lon="-5.69157"></trkpt>
      <trkpt lat="50.14562" lon="-5.69158"></trkpt>
      <trkpt lat="50.14545" lon="-5.69174"></trkpt>
      <trkpt lat="50.14528" lon="-5.69185"></trkpt>
      <trkpt lat="50.14494" lon="-5.69199"></trkpt>
      <trkpt lat="50.1445" lon="-5.69201"></trkpt>
      <trkpt lat="50.14413" lon="-5.6921"></trkpt>
      <trkpt lat="50.14394" lon="-5.69209"></trkpt>
      <trkpt lat="50.1438" lon="-5.69196"></trkpt>
      <trkpt lat="50.14362" lon="-5.69187"></trkpt>
      <trkpt lat="50.14337" lon="-5.69183"></trkpt>
      <trkpt lat="50.1432" lon="-5.6917"></trkpt>
      <trkpt lat="50.143" lon="-5.69147"></trkpt>
      <trkpt lat="50.14294" lon="-5.69136"></trkpt>
      <trkpt lat="50.14272" lon="-5.69105"></trkpt>
      <trkpt lat="50.1426" lon="-5.69099"></trkpt>
      <trkpt lat="50.14236" lon="-5.69063"></trkpt>
      <trkpt lat="50.14228" lon="-5.69056"></trkpt>
      <trkpt lat="50.14216" lon="-5.69057"></trkpt>
      <trkpt lat="50.14202" lon="-5.69054"></trkpt>
      <trkpt lat="50.14184" lon="-5.69045"></trkpt>
      <trkpt lat="50.14168" lon="-5.69053"></trkpt>
      <trkpt lat="50.14159" lon="-5.6906"></trkpt>
      <trkpt lat="50.14155" lon="-5.69069"></trkpt>
      <trkpt lat="50.14127" lon="-5.69085"></trkpt>
      <trkpt lat="50.141" lon="-5.69109"></trkpt>
      <trkpt lat="50.14079" lon="-5.69124"></trkpt>
      <trkpt lat="50.14062" lon="-5.69131"></trkpt>
      <trkpt lat="50.1405" lon="-5.6914"></trkpt>
      <trkpt lat="50.14029" lon="-5.6916"></trkpt>
      <trkpt lat="50.1401" lon="-5.69167"></trkpt>
      <trkpt lat="50.13998" lon="-5.69167"></trkpt>
      <trkpt lat="50.13981" lon="-5.69163"></trkpt>
      <trkpt lat="50.13975" lon="-5.69166"></trkpt>
      <trkpt lat="50.13961" lon="-5.69186"></trkpt>
      <trkpt lat="50.13949" lon="-5.69194"></trkpt>
      <trkpt lat="50.13936" lon="-5.69195"></trkpt>
      <trkpt lat="50.13906" lon="-5.69174"></trkpt>
      <trkpt lat="50.13867" lon="-5.69166"></trkpt>
      <trkpt lat="50.13842" lon="-5.69172"></trkpt>
      <trkpt lat="50.13809" lon="-5.69191"></trkpt>
      <trkpt lat="50.13777" lon="-5.69201"></trkpt>
      <trkpt lat="50.13758" lon="-5.69213"></trkpt>
      <trkpt lat="50.13732" lon="-5.69236"></trkpt>
      <trkpt lat="50.13715" lon="-5.69246"></trkpt>
      <trkpt lat="50.13649" lon="-5.693"></trkpt>
      <trkpt lat="50.1364" lon="-5.69313"></trkpt>
      <trkpt lat="50.13618" lon="-5.69357"></trkpt>
      <trkpt lat="50.13575" lon="-5.69418"></trkpt>
      <trkpt lat="50.13545" lon="-5.69439"></trkpt>
      <trkpt lat="50.13527" lon="-5.69461"></trkpt>
      <trkpt lat="50.13519" lon="-5.69483"></trkpt>
      <trkpt lat="50.13512" lon="-5.69515"></trkpt>
      <trkpt lat="50.13488" lon="-5.69582"></trkpt>
      <trkpt lat="50.13482" lon="-5.69622"></trkpt>
      <trkpt lat="50.13476" lon="-5.69665"></trkpt>
      <trkpt lat="50.13464" lon="-5.69725"></trkpt>
      <trkpt lat="50.13467" lon="-5.69773"></trkpt>
      <trkpt lat="50.13465" lon="-5.69806"></trkpt>
      <trkpt lat="50.13458" lon="-5.69839"></trkpt>
      <trkpt lat="50.13436" lon="-5.69903"></trkpt>
      <trkpt lat="50.13429" lon="-5.69941"></trkpt>
      <trkpt lat="50.13424" lon="-5.69948"></trkpt>
      <trkpt lat="50.13387" lon="-5.69997"></trkpt>
      <trkpt lat="50.13359" lon="-5.70056"></trkpt>
      <trkpt lat="50.13339" lon="-5.70087"></trkpt>
      <trkpt lat="50.13323" lon="-5.70099"></trkpt>
      <trkpt lat="50.13259" lon="-5.70127"></trkpt>
      <trkpt lat="50.13237" lon="-5.7013"></trkpt>
      <trkpt lat="50.13238" lon="-5.70126"></trkpt>
      <trkpt lat="50.13237" lon="-5.70126"></trkpt>
      <trkpt lat="50.13252" lon="-5.70065"></trkpt>
      <trkpt lat="50.13256" lon="-5.70038"></trkpt>
      <trkpt lat="50.13261" lon="-5.70029"></trkpt>
      <trkpt lat="50.13268" lon="-5.69998"></trkpt>
      <trkpt lat="50.13263" lon="-5.69912"></trkpt>
      <trkpt lat="50.13244" lon="-5.69811"></trkpt>
      <trkpt lat="50.13239" lon="-5.69764"></trkpt>
      <trkpt lat="50.13233" lon="-5.69756"></trkpt>
      <trkpt lat="50.13241" lon="-5.69728"></trkpt>
      <trkpt lat="50.13253" lon="-5.69702"></trkpt>
      <trkpt lat="50.13274" lon="-5.69664"></trkpt>
      <trkpt lat="50.13283" lon="-5.69645"></trkpt>
      <trkpt lat="50.13263" lon="-5.69623"></trkpt>
      <trkpt lat="50.13249" lon="-5.69614"></trkpt>
      <trkpt lat="50.13224" lon="-5.69631"></trkpt>
      <trkpt lat="50.13209" lon="-5.69662"></trkpt>
      <trkpt lat="50.13205" lon="-5.69665"></trkpt>
      <trkpt lat="50.13202" lon="-5.69662"></trkpt>
      <trkpt lat="50.13197" lon="-5.69618"></trkpt>
      <trkpt lat="50.13183" lon="-5.69639"></trkpt>
      <trkpt lat="50.13167" lon="-5.69657"></trkpt>
      <trkpt lat="50.13156" lon="-5.69662"></trkpt>
      <trkpt lat="50.13127" lon="-5.69664"></trkpt>
      <trkpt lat="50.13126" lon="-5.69673"></trkpt>
      <trkpt lat="50.13132" lon="-5.69721"></trkpt>
      <trkpt lat="50.13132" lon="-5.69722"></trkpt>
      <trkpt lat="50.13113" lon="-5.69824"></trkpt>
      <trkpt lat="50.13095" lon="-5.69893"></trkpt>
      <trkpt lat="50.13079" lon="-5.69934"></trkpt>
      <trkpt lat="50.13047" lon="-5.69961"></trkpt>
      <trkpt lat="50.13019" lon="-5.69992"></trkpt>
      <trkpt lat="50.12977" lon="-5.70019"></trkpt>
      <trkpt lat="50.12932" lon="-5.70028"></trkpt>
      <trkpt lat="50.12918" lon="-5.70037"></trkpt>
      <trkpt lat="50.12907" lon="-5.70049"></trkpt>
      <trkpt lat="50.12911" lon="-5.70068"></trkpt>
      <trkpt lat="50.12911" lon="-5.70084"></trkpt>
      <trkpt lat="50.12905" lon="-5.70105"></trkpt>
      <trkpt lat="50.1288" lon="-5.70148"></trkpt>
      <trkpt lat="50.1288" lon="-5.70149"></trkpt>
      <trkpt lat="50.12875" lon="-5.70155"></trkpt>
      <trkpt lat="50.12825" lon="-5.70195"></trkpt>
      <trkpt lat="50.12759" lon="-5.70279"></trkpt>
      <trkpt lat="50.12749" lon="-5.7028"></trkpt>
      <trkpt lat="50.12746" lon="-5.70313"></trkpt>
      <trkpt lat="50.12737" lon="-5.70345"></trkpt>
      <trkpt lat="50.12729" lon="-5.70373"></trkpt>
      <trkpt lat="50.12733" lon="-5.70375"></trkpt>
      <trkpt lat="50.12722" lon="-5.70464"></trkpt>
      <trkpt lat="50.12765" lon="-5.70581"></trkpt>
      <trkpt lat="50.12771" lon="-5.70609"></trkpt>
      <trkpt lat="50.12796" lon="-5.70672"></trkpt>
      <trkpt lat="50.12829" lon="-5.70812"></trkpt>
      <trkpt lat="50.12827" lon="-5.70816"></trkpt>
      <trkpt lat="50.12821" lon="-5.70819"></trkpt>
      <trkpt lat="50.12814" lon="-5.7082"></trkpt>
      <trkpt lat="50.12805" lon="-5.70808"></trkpt>
      <trkpt lat="50.12786" lon="-5.70792"></trkpt>
      <trkpt lat="50.12776" lon="-5.70791"></trkpt>
      <trkpt lat="50.1276" lon="-5.70809"></trkpt>
      <trkpt lat="50.12753" lon="-5.7082"></trkpt>
      <trkpt lat="50.12749" lon="-5.70822"></trkpt>
      <trkpt lat="50.12747" lon="-5.70816"></trkpt>
      <trkpt lat="50.1274" lon="-5.7082"></trkpt>
      <trkpt lat="50.12733" lon="-5.70846"></trkpt>
      <trkpt lat="50.12717" lon="-5.7088"></trkpt>
      <trkpt lat="50.1271" lon="-5.70881"></trkpt>
      <trkpt lat="50.12705" lon="-5.70877"></trkpt>
      <trkpt lat="50.12705" lon="-5.70864"></trkpt>
      <trkpt lat="50.12709" lon="-5.70846"></trkpt>
      <trkpt lat="50.12708" lon="-5.70843"></trkpt>
      <trkpt lat="50.12706" lon="-5.70838"></trkpt>
      <trkpt lat="50.12701" lon="-5.70804"></trkpt>
      <trkpt lat="50.12701" lon="-5.70793"></trkpt>
      <trkpt lat="50.12703" lon="-5.70784"></trkpt>
      <trkpt lat="50.12701" lon="-5.7077"></trkpt>
      <trkpt lat="50.12701" lon="-5.7076"></trkpt>
      <trkpt lat="50.12705" lon="-5.70735"></trkpt>
      <trkpt lat="50.12702" lon="-5.70717"></trkpt>
      <trkpt lat="50.12697" lon="-5.70711"></trkpt>
      <trkpt lat="50.12685" lon="-5.70662"></trkpt>
      <trkpt lat="50.12683" lon="-5.706"></trkpt>
      <trkpt lat="50.12686" lon="-5.70562"></trkpt>
      <trkpt lat="50.1264" lon="-5.70542"></trkpt>
      <trkpt lat="50.12628" lon="-5.70502"></trkpt>
      <trkpt lat="50.12621" lon="-5.70474"></trkpt>
      <trkpt lat="50.1262" lon="-5.70447"></trkpt>
      <trkpt lat="50.12626" lon="-5.70402"></trkpt>
      <trkpt lat="50.12611" lon="-5.70438"></trkpt>
      <trkpt lat="50.12604" lon="-5.70446"></trkpt>
      <trkpt lat="50.12597" lon="-5.70449"></trkpt>
      <trkpt lat="50.1253" lon="-5.70424"></trkpt>
      <trkpt lat="50.12422" lon="-5.70402"></trkpt>
      <trkpt lat="50.12295" lon="-5.70359"></trkpt>
      <trkpt lat="50.12273" lon="-5.70347"></trkpt>
      <trkpt lat="50.12272" lon="-5.70343"></trkpt>
      <trkpt lat="50.12264" lon="-5.70324"></trkpt>
      <trkpt lat="50.12258" lon="-5.70296"></trkpt>
      <trkpt lat="50.12241" lon="-5.70273"></trkpt>
      <trkpt lat="50.12222" lon="-5.70225"></trkpt>
      <trkpt lat="50.12201" lon="-5.70191"></trkpt>
      <trkpt lat="50.12192" lon="-5.70166"></trkpt>
      <trkpt lat="50.12172" lon="-5.70123"></trkpt>
      <trkpt lat="50.12152" lon="-5.70102"></trkpt>
      <trkpt lat="50.12134" lon="-5.70071"></trkpt>
      <trkpt lat="50.12093" lon="-5.6998"></trkpt>
      <trkpt lat="50.12069" lon="-5.69926"></trkpt>
      <trkpt lat="50.12045" lon="-5.69825"></trkpt>
      <trkpt lat="50.12025" lon="-5.69794"></trkpt>
      <trkpt lat="50.12004" lon="-5.69751"></trkpt>
      <trkpt lat="50.11987" lon="-5.6973"></trkpt>
      <trkpt lat="50.11965" lon="-5.69716"></trkpt>
      <trkpt lat="50.11953" lon="-5.69696"></trkpt>
      <trkpt lat="50.11913" lon="-5.69588"></trkpt>
      <trkpt lat="50.11838" lon="-5.69469"></trkpt>
      <trkpt lat="50.11799" lon="-5.69415"></trkpt>
      <trkpt lat="50.11819" lon="-5.69486"></trkpt>
      <trkpt lat="50.11812" lon="-5.69505"></trkpt>
      <trkpt lat="50.11812" lon="-5.69511"></trkpt>
      <trkpt lat="50.11808" lon="-5.6951"></trkpt>
      <trkpt lat="50.11804" lon="-5.69516"></trkpt>
      <trkpt lat="50.11802" lon="-5.69529"></trkpt>
      <trkpt lat="50.11801" lon="-5.69538"></trkpt>
      <trkpt lat="50.11823" lon="-5.69595"></trkpt>
      <trkpt lat="50.11829" lon="-5.69615"></trkpt>
      <trkpt lat="50.11836" lon="-5.69673"></trkpt>
      <trkpt lat="50.11855" lon="-5.69733"></trkpt>
      <trkpt lat="50.11858" lon="-5.69752"></trkpt>
      <trkpt lat="50.11859" lon="-5.69773"></trkpt>
      <trkpt lat="50.11858" lon="-5.69819"></trkpt>
      <trkpt lat="50.11863" lon="-5.69882"></trkpt>
      <trkpt lat="50.11868" lon="-5.69911"></trkpt>
      <trkpt lat="50.11872" lon="-5.69922"></trkpt>
      <trkpt lat="50.11873" lon="-5.69944"></trkpt>
      <trkpt lat="50.11869" lon="-5.69945"></trkpt>
      <trkpt lat="50.11857" lon="-5.69941"></trkpt>
      <trkpt lat="50.11854" lon="-5.69957"></trkpt>
      <trkpt lat="50.1185" lon="-5.69954"></trkpt>
      <trkpt lat="50.11845" lon="-5.69969"></trkpt>
      <trkpt lat="50.11843" lon="-5.69979"></trkpt>
      <trkpt lat="50.11832" lon="-5.69984"></trkpt>
      <trkpt lat="50.11774" lon="-5.69967"></trkpt>
      <trkpt lat="50.11753" lon="-5.69975"></trkpt>
      <trkpt lat="50.11733" lon="-5.69974"></trkpt>
      <trkpt lat="50.1171" lon="-5.69982"></trkpt>
      <trkpt lat="50.11703" lon="-5.69981"></trkpt>
      <trkpt lat="50.11649" lon="-5.69973"></trkpt>
      <trkpt lat="50.1163" lon="-5.6998"></trkpt>
      <trkpt lat="50.11625" lon="-5.6998"></trkpt>
      <trkpt lat="50.11626" lon="-5.6997"></trkpt>
      <trkpt lat="50.11619" lon="-5.69964"></trkpt>
      <trkpt lat="50.11613" lon="-5.69974"></trkpt>
      <trkpt lat="50.11604" lon="-5.69973"></trkpt>
      <trkpt lat="50.11606" lon="-5.69966"></trkpt>
      <trkpt lat="50.11587" lon="-5.69963"></trkpt>
      <trkpt lat="50.11583" lon="-5.69967"></trkpt>
      <trkpt lat="50.11557" lon="-5.6991"></trkpt>
      <trkpt lat="50.11532" lon="-5.69883"></trkpt>
      <trkpt lat="50.11518" lon="-5.69879"></trkpt>
      <trkpt lat="50.11512" lon="-5.69878"></trkpt>
      <trkpt lat="50.1149" lon="-5.69882"></trkpt>
      <trkpt lat="50.11462" lon="-5.69896"></trkpt>
      <trkpt lat="50.11457" lon="-5.69894"></trkpt>
      <trkpt lat="50.11449" lon="-5.6989"></trkpt>
      <trkpt lat="50.11432" lon="-5.6989"></trkpt>
      <trkpt lat="50.11455" lon="-5.69869"></trkpt>
      <trkpt lat="50.1151" lon="-5.69845"></trkpt>
      <trkpt lat="50.1154" lon="-5.6984"></trkpt>
      <trkpt lat="50.11513" lon="-5.69821"></trkpt>
      <trkpt lat="50.11485" lon="-5.69811"></trkpt>
      <trkpt lat="50.11464" lon="-5.69789"></trkpt>
      <trkpt lat="50.11443" lon="-5.6979"></trkpt>
      <trkpt lat="50.11423" lon="-5.69796"></trkpt>
      <trkpt lat="50.11405" lon="-5.69809"></trkpt>
      <trkpt lat="50.11377" lon="-5.69838"></trkpt>
      <trkpt lat="50.11349" lon="-5.6984"></trkpt>
      <trkpt lat="50.11333" lon="-5.69838"></trkpt>
      <trkpt lat="50.11325" lon="-5.69833"></trkpt>
      <trkpt lat="50.11321" lon="-5.69834"></trkpt>
      <trkpt lat="50.11312" lon="-5.69826"></trkpt>
      <trkpt lat="50.11307" lon="-5.69817"></trkpt>
      <trkpt lat="50.11285" lon="-5.69796"></trkpt>
      <trkpt lat="50.11263" lon="-5.69785"></trkpt>
      <trkpt lat="50.11251" lon="-5.69772"></trkpt>
      <trkpt lat="50.11248" lon="-5.69762"></trkpt>
      <trkpt lat="50.1124" lon="-5.69753"></trkpt>
      <trkpt lat="50.11238" lon="-5.69744"></trkpt>
      <trkpt lat="50.11232" lon="-5.69732"></trkpt>
      <trkpt lat="50.11232" lon="-5.69726"></trkpt>
      <trkpt lat="50.1122" lon="-5.69712"></trkpt>
      <trkpt lat="50.1121" lon="-5.69707"></trkpt>
      <trkpt lat="50.11191" lon="-5.69685"></trkpt>
      <trkpt lat="50.11188" lon="-5.69677"></trkpt>
      <trkpt lat="50.11182" lon="-5.6967"></trkpt>
      <trkpt lat="50.11149" lon="-5.69649"></trkpt>
      <trkpt lat="50.1113" lon="-5.69634"></trkpt>
      <trkpt lat="50.11111" lon="-5.69632"></trkpt>
      <trkpt lat="50.11094" lon="-5.69633"></trkpt>
      <trkpt lat="50.11089" lon="-5.69636"></trkpt>
      <trkpt lat="50.11078" lon="-5.69638"></trkpt>
      <trkpt lat="50.1104" lon="-5.69633"></trkpt>
      <trkpt lat="50.11033" lon="-5.69635"></trkpt>
      <trkpt lat="50.1101" lon="-5.69655"></trkpt>
      <trkpt lat="50.10999" lon="-5.69657"></trkpt>
      <trkpt lat="50.10998" lon="-5.69657"></trkpt>
      <trkpt lat="50.10992" lon="-5.6966"></trkpt>
      <trkpt lat="50.10978" lon="-5.69678"></trkpt>
      <trkpt lat="50.10963" lon="-5.6967"></trkpt>
      <trkpt lat="50.10947" lon="-5.69665"></trkpt>
      <trkpt lat="50.10909" lon="-5.69667"></trkpt>
      <trkpt lat="50.10884" lon="-5.69674"></trkpt>
      <trkpt lat="50.10862" lon="-5.69684"></trkpt>
      <trkpt lat="50.10843" lon="-5.69698"></trkpt>
      <trkpt lat="50.10828" lon="-5.697"></trkpt>
      <trkpt lat="50.10816" lon="-5.69692"></trkpt>
      <trkpt lat="50.10794" lon="-5.69656"></trkpt>
      <trkpt lat="50.10754" lon="-5.69639"></trkpt>
      <trkpt lat="50.10724" lon="-5.69657"></trkpt>
      <trkpt lat="50.10668" lon="-5.69679"></trkpt>
      <trkpt lat="50.10633" lon="-5.69684"></trkpt>
      <trkpt lat="50.10618" lon="-5.69675"></trkpt>
      <trkpt lat="50.10589" lon="-5.69659"></trkpt>
      <trkpt lat="50.10578" lon="-5.69659"></trkpt>
      <trkpt lat="50.10566" lon="-5.69668"></trkpt>
      <trkpt lat="50.10563" lon="-5.69674"></trkpt>
      <trkpt lat="50.1056" lon="-5.69673"></trkpt>
      <trkpt lat="50.10558" lon="-5.69679"></trkpt>
      <trkpt lat="50.10553" lon="-5.69673"></trkpt>
      <trkpt lat="50.10536" lon="-5.69671"></trkpt>
      <trkpt lat="50.10521" lon="-5.69657"></trkpt>
      <trkpt lat="50.10518" lon="-5.69651"></trkpt>
      <trkpt lat="50.10512" lon="-5.69657"></trkpt>
      <trkpt lat="50.10497" lon="-5.69639"></trkpt>
      <trkpt lat="50.10495" lon="-5.69627"></trkpt>
      <trkpt lat="50.10479" lon="-5.69632"></trkpt>
      <trkpt lat="50.1043" lon="-5.69639"></trkpt>
      <trkpt lat="50.10374" lon="-5.69629"></trkpt>
      <trkpt lat="50.10323" lon="-5.69584"></trkpt>
      <trkpt lat="50.10224" lon="-5.69607"></trkpt>
      <trkpt lat="50.10132" lon="-5.69644"></trkpt>
      <trkpt lat="50.10093" lon="-5.69639"></trkpt>
      <trkpt lat="50.10053" lon="-5.69649"></trkpt>
      <trkpt lat="50.10019" lon="-5.69658"></trkpt>
      <trkpt lat="50.099" lon="-5.6964"></trkpt>
      <trkpt lat="50.0989" lon="-5.69633"></trkpt>
      <trkpt lat="50.09836" lon="-5.6962"></trkpt>
      <trkpt lat="50.09754" lon="-5.69512"></trkpt>
      <trkpt lat="50.09748" lon="-5.69502"></trkpt>
      <trkpt lat="50.09714" lon="-5.69474"></trkpt>
      <trkpt lat="50.09706" lon="-5.69463"></trkpt>
      <trkpt lat="50.09697" lon="-5.6946"></trkpt>
      <trkpt lat="50.09682" lon="-5.69448"></trkpt>
      <trkpt lat="50.09673" lon="-5.69433"></trkpt>
      <trkpt lat="50.09664" lon="-5.6943"></trkpt>
      <trkpt lat="50.09647" lon="-5.69416"></trkpt>
      <trkpt lat="50.09622" lon="-5.69381"></trkpt>
      <trkpt lat="50.09611" lon="-5.69375"></trkpt>
      <trkpt lat="50.09602" lon="-5.69379"></trkpt>
      <trkpt lat="50.09593" lon="-5.69379"></trkpt>
      <trkpt lat="50.0959" lon="-5.69375"></trkpt>
      <trkpt lat="50.09588" lon="-5.69378"></trkpt>
      <trkpt lat="50.09579" lon="-5.6938"></trkpt>
      <trkpt lat="50.09567" lon="-5.69371"></trkpt>
      <trkpt lat="50.09563" lon="-5.69371"></trkpt>
      <trkpt lat="50.09554" lon="-5.69366"></trkpt>
      <trkpt lat="50.0955" lon="-5.69359"></trkpt>
      <trkpt lat="50.09545" lon="-5.69358"></trkpt>
      <trkpt lat="50.09543" lon="-5.69353"></trkpt>
      <trkpt lat="50.09539" lon="-5.69353"></trkpt>
      <trkpt lat="50.09537" lon="-5.69349"></trkpt>
      <trkpt lat="50.09525" lon="-5.69344"></trkpt>
      <trkpt lat="50.09514" lon="-5.69345"></trkpt>
      <trkpt lat="50.09477" lon="-5.69323"></trkpt>
      <trkpt lat="50.09476" lon="-5.6932"></trkpt>
      <trkpt lat="50.09457" lon="-5.69279"></trkpt>
      <trkpt lat="50.09452" lon="-5.69271"></trkpt>
      <trkpt lat="50.09445" lon="-5.69217"></trkpt>
      <trkpt lat="50.09447" lon="-5.69197"></trkpt>
      <trkpt lat="50.09443" lon="-5.69179"></trkpt>
      <trkpt lat="50.09445" lon="-5.69174"></trkpt>
      <trkpt lat="50.09442" lon="-5.69168"></trkpt>
      <trkpt lat="50.09442" lon="-5.69164"></trkpt>
      <trkpt lat="50.09435" lon="-5.69151"></trkpt>
      <trkpt lat="50.09426" lon="-5.69127"></trkpt>
      <trkpt lat="50.09414" lon="-5.69107"></trkpt>
      <trkpt lat="50.09406" lon="-5.69078"></trkpt>
      <trkpt lat="50.09391" lon="-5.69052"></trkpt>
      <trkpt lat="50.09383" lon="-5.69044"></trkpt>
      <trkpt lat="50.0938" lon="-5.69037"></trkpt>
      <trkpt lat="50.09329" lon="-5.68971"></trkpt>
      <trkpt lat="50.09318" lon="-5.68954"></trkpt>
      <trkpt lat="50.093" lon="-5.68942"></trkpt>
      <trkpt lat="50.09285" lon="-5.68925"></trkpt>
      <trkpt lat="50.09279" lon="-5.68923"></trkpt>
      <trkpt lat="50.0927" lon="-5.68907"></trkpt>
      <trkpt lat="50.09251" lon="-5.68893"></trkpt>
      <trkpt lat="50.09248" lon="-5.68888"></trkpt>
      <trkpt lat="50.09219" lon="-5.6887"></trkpt>
      <trkpt lat="50.0921" lon="-5.6887"></trkpt>
      <trkpt lat="50.09193" lon="-5.68863"></trkpt>
      <trkpt lat="50.09181" lon="-5.68866"></trkpt>
      <trkpt lat="50.09143" lon="-5.68859"></trkpt>
      <trkpt lat="50.09133" lon="-5.68864"></trkpt>
      <trkpt lat="50.09125" lon="-5.68864"></trkpt>
      <trkpt lat="50.09093" lon="-5.68851"></trkpt>
      <trkpt lat="50.09066" lon="-5.68834"></trkpt>
      <trkpt lat="50.09037" lon="-5.68814"></trkpt>
      <trkpt lat="50.08996" lon="-5.68802"></trkpt>
      <trkpt lat="50.08941" lon="-5.688"></trkpt>
      <trkpt lat="50.08842" lon="-5.6883"></trkpt>
      <trkpt lat="50.08781" lon="-5.68892"></trkpt>
      <trkpt lat="50.08773" lon="-5.68902"></trkpt>
      <trkpt lat="50.08725" lon="-5.68992"></trkpt>
      <trkpt lat="50.08718" lon="-5.69011"></trkpt>
      <trkpt lat="50.08683" lon="-5.6905"></trkpt>
      <trkpt lat="50.08641" lon="-5.69054"></trkpt>
      <trkpt lat="50.08593" lon="-5.6905"></trkpt>
      <trkpt lat="50.0858" lon="-5.69077"></trkpt>
      <trkpt lat="50.08556" lon="-5.69092"></trkpt>
      <trkpt lat="50.08524" lon="-5.69115"></trkpt>
      <trkpt lat="50.08483" lon="-5.69131"></trkpt>
      <trkpt lat="50.08356" lon="-5.69189"></trkpt>
      <trkpt lat="50.08349" lon="-5.6919"></trkpt>
      <trkpt lat="50.08303" lon="-5.69197"></trkpt>
      <trkpt lat="50.08279" lon="-5.69205"></trkpt>
      <trkpt lat="50.0823" lon="-5.69207"></trkpt>
      <trkpt lat="50.08198" lon="-5.69184"></trkpt>
      <trkpt lat="50.08133" lon="-5.69149"></trkpt>
      <trkpt lat="50.08116" lon="-5.69135"></trkpt>
      <trkpt lat="50.08092" lon="-5.69123"></trkpt>
      <trkpt lat="50.0808" lon="-5.69119"></trkpt>
      <trkpt lat="50.08051" lon="-5.69103"></trkpt>
      <trkpt lat="50.08029" lon="-5.69115"></trkpt>
      <trkpt lat="50.0802" lon="-5.69128"></trkpt>
      <trkpt lat="50.08012" lon="-5.69134"></trkpt>
      <trkpt lat="50.08004" lon="-5.69169"></trkpt>
      <trkpt lat="50.07994" lon="-5.69152"></trkpt>
      <trkpt lat="50.08004" lon="-5.69169"></trkpt>
      <trkpt lat="50.07968" lon="-5.69312"></trkpt>
      <trkpt lat="50.07936" lon="-5.69477"></trkpt>
      <trkpt lat="50.07902" lon="-5.69581"></trkpt>
      <trkpt lat="50.07869" lon="-5.69612"></trkpt>
      <trkpt lat="50.07857" lon="-5.69655"></trkpt>
      <trkpt lat="50.07837" lon="-5.69709"></trkpt>
      <trkpt lat="50.07837" lon="-5.69718"></trkpt>
      <trkpt lat="50.07843" lon="-5.69729"></trkpt>
      <trkpt lat="50.07841" lon="-5.6973"></trkpt>
      <trkpt lat="50.0782" lon="-5.69796"></trkpt>
      <trkpt lat="50.07807" lon="-5.69854"></trkpt>
      <trkpt lat="50.07801" lon="-5.69891"></trkpt>
      <trkpt lat="50.078" lon="-5.6991"></trkpt>
      <trkpt lat="50.07796" lon="-5.69927"></trkpt>
      <trkpt lat="50.07801" lon="-5.69947"></trkpt>
      <trkpt lat="50.07803" lon="-5.69967"></trkpt>
      <trkpt lat="50.07799" lon="-5.70015"></trkpt>
      <trkpt lat="50.07776" lon="-5.70133"></trkpt>
      <trkpt lat="50.07769" lon="-5.70175"></trkpt>
      <trkpt lat="50.07769" lon="-5.70218"></trkpt>
      <trkpt lat="50.07777" lon="-5.70277"></trkpt>
      <trkpt lat="50.07779" lon="-5.70348"></trkpt>
    </trkseg>
  </trk>
</gpx>
