<?xml version="1.0" encoding="UTF-8"?>
<gpx version="1.1" creator="swcp-walk (imported from OS Maps route 33835466)"
     xmlns="http://www.topografix.com/GPX/1/1">
  <metadata>
    <name>SWCP23-SennenCove-Lamorna</name>
  </metadata>
  <trk>
    <name>SWCP23-SennenCove-Lamorna</name>
    <trkseg>
      <trkpt lat="50.077809054814054" lon="-5.703449844584242"></trkpt>
      <trkpt lat="50.07779" lon="-5.70345"></trkpt>
      <trkpt lat="50.07774" lon="-5.70406"></trkpt>
      <trkpt lat="50.07763" lon="-5.7042"></trkpt>
      <trkpt lat="50.07762" lon="-5.70432"></trkpt>
      <trkpt lat="50.07762" lon="-5.70465"></trkpt>
      <trkpt lat="50.07763" lon="-5.70473"></trkpt>
      <trkpt lat="50.07766" lon="-5.70476"></trkpt>
      <trkpt lat="50.07778" lon="-5.70475"></trkpt>
      <trkpt lat="50.07782" lon="-5.7048"></trkpt>
      <trkpt lat="50.07782" lon="-5.70525"></trkpt>
      <trkpt lat="50.07781" lon="-5.70537"></trkpt>
      <trkpt lat="50.07771" lon="-5.70537"></trkpt>
      <trkpt lat="50.07769" lon="-5.70535"></trkpt>
      <trkpt lat="50.07765" lon="-5.70543"></trkpt>
      <trkpt lat="50.07765" lon="-5.70555"></trkpt>
      <trkpt lat="50.07736" lon="-5.70557"></trkpt>
      <trkpt lat="50.07734" lon="-5.70561"></trkpt>
      <trkpt lat="50.07729" lon="-5.70562"></trkpt>
      <trkpt lat="50.07717" lon="-5.70557"></trkpt>
      <trkpt lat="50.07713" lon="-5.7056"></trkpt>
      <trkpt lat="50.07705" lon="-5.70603"></trkpt>
      <trkpt lat="50.07705" lon="-5.70633"></trkpt>
      <trkpt lat="50.07696" lon="-5.70684"></trkpt>
      <trkpt lat="50.07693" lon="-5.70708"></trkpt>
      <trkpt lat="50.07695" lon="-5.70728"></trkpt>
      <trkpt lat="50.07691" lon="-5.7076"></trkpt>
      <trkpt lat="50.07687" lon="-5.70774"></trkpt>
      <trkpt lat="50.07684" lon="-5.70795"></trkpt>
      <trkpt lat="50.07678" lon="-5.70809"></trkpt>
      <trkpt lat="50.07678" lon="-5.7081"></trkpt>
      <trkpt lat="50.07665" lon="-5.70828"></trkpt>
      <trkpt lat="50.07656" lon="-5.70816"></trkpt>
      <trkpt lat="50.07643" lon="-5.70808"></trkpt>
      <trkpt lat="50.07626" lon="-5.70789"></trkpt>
      <trkpt lat="50.0761" lon="-5.70775"></trkpt>
      <trkpt lat="50.07582" lon="-5.70764"></trkpt>
      <trkpt lat="50.07567" lon="-5.70762"></trkpt>
      <trkpt lat="50.07545" lon="-5.70769"></trkpt>
      <trkpt lat="50.0746" lon="-5.70756"></trkpt>
      <trkpt lat="50.07458" lon="-5.70751"></trkpt>
      <trkpt lat="50.0746" lon="-5.70756"></trkpt>
      <trkpt lat="50.07428" lon="-5.70743"></trkpt>
      <trkpt lat="50.07408" lon="-5.70721"></trkpt>
      <trkpt lat="50.07371" lon="-5.70699"></trkpt>
      <trkpt lat="50.07347" lon="-5.70698"></trkpt>
      <trkpt lat="50.07314" lon="-5.70685"></trkpt>
      <trkpt lat="50.07283" lon="-5.70678"></trkpt>
      <trkpt lat="50.07259" lon="-5.70676"></trkpt>
      <trkpt lat="50.07235" lon="-5.707"></trkpt>
      <trkpt lat="50.07227" lon="-5.70721"></trkpt>
      <trkpt lat="50.07202" lon="-5.70711"></trkpt>
      <trkpt lat="50.07192" lon="-5.70713"></trkpt>
      <trkpt lat="50.07163" lon="-5.70743"></trkpt>
      <trkpt lat="50.07152" lon="-5.70772"></trkpt>
      <trkpt lat="50.07143" lon="-5.70806"></trkpt>
      <trkpt lat="50.07131" lon="-5.70827"></trkpt>
      <trkpt lat="50.07108" lon="-5.70851"></trkpt>
      <trkpt lat="50.07085" lon="-5.70879"></trkpt>
      <trkpt lat="50.07075" lon="-5.70912"></trkpt>
      <trkpt lat="50.0705" lon="-5.70934"></trkpt>
      <trkpt lat="50.07044" lon="-5.70944"></trkpt>
      <trkpt lat="50.07027" lon="-5.70945"></trkpt>
      <trkpt lat="50.07022" lon="-5.70949"></trkpt>
      <trkpt lat="50.07021" lon="-5.70973"></trkpt>
      <trkpt lat="50.06992" lon="-5.71008"></trkpt>
      <trkpt lat="50.06992" lon="-5.71011"></trkpt>
      <trkpt lat="50.0699" lon="-5.71021"></trkpt>
      <trkpt lat="50.06979" lon="-5.71043"></trkpt>
      <trkpt lat="50.06964" lon="-5.71061"></trkpt>
      <trkpt lat="50.06955" lon="-5.71065"></trkpt>
      <trkpt lat="50.06915" lon="-5.71118"></trkpt>
      <trkpt lat="50.06893" lon="-5.71166"></trkpt>
      <trkpt lat="50.06838" lon="-5.71245"></trkpt>
      <trkpt lat="50.06832" lon="-5.71265"></trkpt>
      <trkpt lat="50.06829" lon="-5.71283"></trkpt>
      <trkpt lat="50.06819" lon="-5.71298"></trkpt>
      <trkpt lat="50.06809" lon="-5.71319"></trkpt>
      <trkpt lat="50.06799" lon="-5.71353"></trkpt>
      <trkpt lat="50.068" lon="-5.71382"></trkpt>
      <trkpt lat="50.06812" lon="-5.71451"></trkpt>
      <trkpt lat="50.0681" lon="-5.71481"></trkpt>
      <trkpt lat="50.06817" lon="-5.71493"></trkpt>
      <trkpt lat="50.0681" lon="-5.71481"></trkpt>
      <trkpt lat="50.06807" lon="-5.71484"></trkpt>
      <trkpt lat="50.06789" lon="-5.71486"></trkpt>
      <trkpt lat="50.06781" lon="-5.71475"></trkpt>
      <trkpt lat="50.06778" lon="-5.71468"></trkpt>
      <trkpt lat="50.06761" lon="-5.7145"></trkpt>
      <trkpt lat="50.06745" lon="-5.71444"></trkpt>
      <trkpt lat="50.06716" lon="-5.71443"></trkpt>
      <trkpt lat="50.06703" lon="-5.7144"></trkpt>
      <trkpt lat="50.06681" lon="-5.71441"></trkpt>
      <trkpt lat="50.06661" lon="-5.71425"></trkpt>
      <trkpt lat="50.06644" lon="-5.71415"></trkpt>
      <trkpt lat="50.06633" lon="-5.71402"></trkpt>
      <trkpt lat="50.06624" lon="-5.71405"></trkpt>
      <trkpt lat="50.06618" lon="-5.71397"></trkpt>
      <trkpt lat="50.06616" lon="-5.71407"></trkpt>
      <trkpt lat="50.06601" lon="-5.71426"></trkpt>
      <trkpt lat="50.06585" lon="-5.71389"></trkpt>
      <trkpt lat="50.06574" lon="-5.71394"></trkpt>
      <trkpt lat="50.06569" lon="-5.71393"></trkpt>
      <trkpt lat="50.06564" lon="-5.71397"></trkpt>
      <trkpt lat="50.06556" lon="-5.71408"></trkpt>
      <trkpt lat="50.06542" lon="-5.71415"></trkpt>
      <trkpt lat="50.06539" lon="-5.71403"></trkpt>
      <trkpt lat="50.06525" lon="-5.71368"></trkpt>
      <trkpt lat="50.06501" lon="-5.7135"></trkpt>
      <trkpt lat="50.06478" lon="-5.71346"></trkpt>
      <trkpt lat="50.06478" lon="-5.71344"></trkpt>
      <trkpt lat="50.06464" lon="-5.71347"></trkpt>
      <trkpt lat="50.0646" lon="-5.71345"></trkpt>
      <trkpt lat="50.06453" lon="-5.71334"></trkpt>
      <trkpt lat="50.06436" lon="-5.71327"></trkpt>
      <trkpt lat="50.06395" lon="-5.71321"></trkpt>
      <trkpt lat="50.06383" lon="-5.71315"></trkpt>
      <trkpt lat="50.06371" lon="-5.71316"></trkpt>
      <trkpt lat="50.06352" lon="-5.71298"></trkpt>
      <trkpt lat="50.06348" lon="-5.71299"></trkpt>
      <trkpt lat="50.06344" lon="-5.71299"></trkpt>
      <trkpt lat="50.06337" lon="-5.71308"></trkpt>
      <trkpt lat="50.06333" lon="-5.71299"></trkpt>
      <trkpt lat="50.06315" lon="-5.71274"></trkpt>
      <trkpt lat="50.0629" lon="-5.7123"></trkpt>
      <trkpt lat="50.06282" lon="-5.712"></trkpt>
      <trkpt lat="50.06268" lon="-5.71129"></trkpt>
      <trkpt lat="50.0626" lon="-5.71105"></trkpt>
      <trkpt lat="50.06255" lon="-5.71116"></trkpt>
      <trkpt lat="50.06248" lon="-5.7112"></trkpt>
      <trkpt lat="50.06241" lon="-5.71161"></trkpt>
      <trkpt lat="50.06216" lon="-5.71085"></trkpt>
      <trkpt lat="50.06212" lon="-5.71059"></trkpt>
      <trkpt lat="50.06203" lon="-5.71025"></trkpt>
      <trkpt lat="50.06189" lon="-5.70997"></trkpt>
      <trkpt lat="50.06183" lon="-5.70966"></trkpt>
      <trkpt lat="50.06169" lon="-5.70945"></trkpt>
      <trkpt lat="50.06145" lon="-5.70899"></trkpt>
      <trkpt lat="50.06121" lon="-5.70869"></trkpt>
      <trkpt lat="50.06084" lon="-5.70859"></trkpt>
      <trkpt lat="50.06057" lon="-5.70844"></trkpt>
      <trkpt lat="50.06016" lon="-5.70843"></trkpt>
      <trkpt lat="50.06003" lon="-5.70833"></trkpt>
      <trkpt lat="50.05936" lon="-5.70805"></trkpt>
      <trkpt lat="50.05888" lon="-5.70772"></trkpt>
      <trkpt lat="50.05856" lon="-5.7076"></trkpt>
      <trkpt lat="50.05851" lon="-5.70753"></trkpt>
      <trkpt lat="50.05825" lon="-5.7072"></trkpt>
      <trkpt lat="50.05813" lon="-5.70693"></trkpt>
      <trkpt lat="50.05809" lon="-5.70653"></trkpt>
      <trkpt lat="50.05805" lon="-5.70631"></trkpt>
      <trkpt lat="50.05799" lon="-5.70617"></trkpt>
      <trkpt lat="50.05776" lon="-5.70583"></trkpt>
      <trkpt lat="50.05766" lon="-5.70542"></trkpt>
      <trkpt lat="50.05758" lon="-5.7053"></trkpt>
      <trkpt lat="50.05744" lon="-5.70495"></trkpt>
      <trkpt lat="50.05735" lon="-5.70487"></trkpt>
      <trkpt lat="50.05731" lon="-5.7047"></trkpt>
      <trkpt lat="50.05732" lon="-5.70454"></trkpt>
      <trkpt lat="50.05727" lon="-5.70447"></trkpt>
      <trkpt lat="50.05698" lon="-5.70427"></trkpt>
      <trkpt lat="50.0569" lon="-5.70428"></trkpt>
      <trkpt lat="50.05666" lon="-5.70451"></trkpt>
      <trkpt lat="50.05648" lon="-5.70462"></trkpt>
      <trkpt lat="50.05633" lon="-5.70466"></trkpt>
      <trkpt lat="50.0562" lon="-5.70461"></trkpt>
      <trkpt lat="50.05606" lon="-5.70444"></trkpt>
      <trkpt lat="50.056" lon="-5.70433"></trkpt>
      <trkpt lat="50.05596" lon="-5.70417"></trkpt>
      <trkpt lat="50.05589" lon="-5.70374"></trkpt>
      <trkpt lat="50.0558" lon="-5.70253"></trkpt>
      <trkpt lat="50.05586" lon="-5.70233"></trkpt>
      <trkpt lat="50.05621" lon="-5.70166"></trkpt>
      <trkpt lat="50.05627" lon="-5.7015"></trkpt>
      <trkpt lat="50.05626" lon="-5.70094"></trkpt>
      <trkpt lat="50.05623" lon="-5.70063"></trkpt>
      <trkpt lat="50.05636" lon="-5.70024"></trkpt>
      <trkpt lat="50.05637" lon="-5.70005"></trkpt>
      <trkpt lat="50.0563" lon="-5.69989"></trkpt>
      <trkpt lat="50.05615" lon="-5.69974"></trkpt>
      <trkpt lat="50.05611" lon="-5.69947"></trkpt>
      <trkpt lat="50.05615" lon="-5.69938"></trkpt>
      <trkpt lat="50.05614" lon="-5.69917"></trkpt>
      <trkpt lat="50.0561" lon="-5.69899"></trkpt>
      <trkpt lat="50.05602" lon="-5.6989"></trkpt>
      <trkpt lat="50.05594" lon="-5.6989"></trkpt>
      <trkpt lat="50.05587" lon="-5.699"></trkpt>
      <trkpt lat="50.05571" lon="-5.69896"></trkpt>
      <trkpt lat="50.05551" lon="-5.69871"></trkpt>
      <trkpt lat="50.05541" lon="-5.69843"></trkpt>
      <trkpt lat="50.05535" lon="-5.69817"></trkpt>
      <trkpt lat="50.05538" lon="-5.69791"></trkpt>
      <trkpt lat="50.05537" lon="-5.69764"></trkpt>
      <trkpt lat="50.0554" lon="-5.69749"></trkpt>
      <trkpt lat="50.05539" lon="-5.69702"></trkpt>
      <trkpt lat="50.05528" lon="-5.69674"></trkpt>
      <trkpt lat="50.05517" lon="-5.6965"></trkpt>
      <trkpt lat="50.05517" lon="-5.69638"></trkpt>
      <trkpt lat="50.05515" lon="-5.6963"></trkpt>
      <trkpt lat="50.05511" lon="-5.69624"></trkpt>
      <trkpt lat="50.05508" lon="-5.69605"></trkpt>
      <trkpt lat="50.0551" lon="-5.69598"></trkpt>
      <trkpt lat="50.05511" lon="-5.69572"></trkpt>
      <trkpt lat="50.05509" lon="-5.6956"></trkpt>
      <trkpt lat="50.0551" lon="-5.6952"></trkpt>
      <trkpt lat="50.05508" lon="-5.69505"></trkpt>
      <trkpt lat="50.05492" lon="-5.69467"></trkpt>
      <trkpt lat="50.05486" lon="-5.69444"></trkpt>
      <trkpt lat="50.05482" lon="-5.69438"></trkpt>
      <trkpt lat="50.05475" lon="-5.6941"></trkpt>
      <trkpt lat="50.0547" lon="-5.69398"></trkpt>
      <trkpt lat="50.05469" lon="-5.69389"></trkpt>
      <trkpt lat="50.05464" lon="-5.69376"></trkpt>
      <trkpt lat="50.05464" lon="-5.69365"></trkpt>
      <trkpt lat="50.05454" lon="-5.69326"></trkpt>
      <trkpt lat="50.05446" lon="-5.69313"></trkpt>
      <trkpt lat="50.05429" lon="-5.69275"></trkpt>
      <trkpt lat="50.05419" lon="-5.69244"></trkpt>
      <trkpt lat="50.05412" lon="-5.69229"></trkpt>
      <trkpt lat="50.05411" lon="-5.6922"></trkpt>
      <trkpt lat="50.05397" lon="-5.69209"></trkpt>
      <trkpt lat="50.05392" lon="-5.69213"></trkpt>
      <trkpt lat="50.05388" lon="-5.69226"></trkpt>
      <trkpt lat="50.05387" lon="-5.69226"></trkpt>
      <trkpt lat="50.05383" lon="-5.69213"></trkpt>
      <trkpt lat="50.05381" lon="-5.69213"></trkpt>
      <trkpt lat="50.05379" lon="-5.6921"></trkpt>
      <trkpt lat="50.05377" lon="-5.69204"></trkpt>
      <trkpt lat="50.05365" lon="-5.69197"></trkpt>
      <trkpt lat="50.05345" lon="-5.69163"></trkpt>
      <trkpt lat="50.05305" lon="-5.6917"></trkpt>
      <trkpt lat="50.05292" lon="-5.69173"></trkpt>
      <trkpt lat="50.05279" lon="-5.69192"></trkpt>
      <trkpt lat="50.05269" lon="-5.6919"></trkpt>
      <trkpt lat="50.05255" lon="-5.69214"></trkpt>
      <trkpt lat="50.05233" lon="-5.69231"></trkpt>
      <trkpt lat="50.05211" lon="-5.69244"></trkpt>
      <trkpt lat="50.0518" lon="-5.69276"></trkpt>
      <trkpt lat="50.05169" lon="-5.69286"></trkpt>
      <trkpt lat="50.05148" lon="-5.69299"></trkpt>
      <trkpt lat="50.05098" lon="-5.69293"></trkpt>
      <trkpt lat="50.05077" lon="-5.69286"></trkpt>
      <trkpt lat="50.05067" lon="-5.69271"></trkpt>
      <trkpt lat="50.05055" lon="-5.69242"></trkpt>
      <trkpt lat="50.05047" lon="-5.69204"></trkpt>
      <trkpt lat="50.05046" lon="-5.69173"></trkpt>
      <trkpt lat="50.05041" lon="-5.69147"></trkpt>
      <trkpt lat="50.0503" lon="-5.69122"></trkpt>
      <trkpt lat="50.05004" lon="-5.69051"></trkpt>
      <trkpt lat="50.04978" lon="-5.69002"></trkpt>
      <trkpt lat="50.04936" lon="-5.68891"></trkpt>
      <trkpt lat="50.04909" lon="-5.68827"></trkpt>
      <trkpt lat="50.04892" lon="-5.68795"></trkpt>
      <trkpt lat="50.04879" lon="-5.68782"></trkpt>
      <trkpt lat="50.0487" lon="-5.68766"></trkpt>
      <trkpt lat="50.04849" lon="-5.68743"></trkpt>
      <trkpt lat="50.04807" lon="-5.68711"></trkpt>
      <trkpt lat="50.04772" lon="-5.68705"></trkpt>
      <trkpt lat="50.04765" lon="-5.68706"></trkpt>
      <trkpt lat="50.04759" lon="-5.68713"></trkpt>
      <trkpt lat="50.04746" lon="-5.68723"></trkpt>
      <trkpt lat="50.04741" lon="-5.68731"></trkpt>
      <trkpt lat="50.04734" lon="-5.68734"></trkpt>
      <trkpt lat="50.04727" lon="-5.68729"></trkpt>
      <trkpt lat="50.04711" lon="-5.68736"></trkpt>
      <trkpt lat="50.04699" lon="-5.68736"></trkpt>
      <trkpt lat="50.04665" lon="-5.68725"></trkpt>
      <trkpt lat="50.04656" lon="-5.68732"></trkpt>
      <trkpt lat="50.04645" lon="-5.68752"></trkpt>
      <trkpt lat="50.04618" lon="-5.68773"></trkpt>
      <trkpt lat="50.04582" lon="-5.68777"></trkpt>
      <trkpt lat="50.04565" lon="-5.68771"></trkpt>
      <trkpt lat="50.04531" lon="-5.68774"></trkpt>
      <trkpt lat="50.04497" lon="-5.68772"></trkpt>
      <trkpt lat="50.04465" lon="-5.68757"></trkpt>
      <trkpt lat="50.04454" lon="-5.68747"></trkpt>
      <trkpt lat="50.04438" lon="-5.68733"></trkpt>
      <trkpt lat="50.04405" lon="-5.68717"></trkpt>
      <trkpt lat="50.04394" lon="-5.68707"></trkpt>
      <trkpt lat="50.04339" lon="-5.6864"></trkpt>
      <trkpt lat="50.04326" lon="-5.68629"></trkpt>
      <trkpt lat="50.04316" lon="-5.68584"></trkpt>
      <trkpt lat="50.04304" lon="-5.68586"></trkpt>
      <trkpt lat="50.04298" lon="-5.68583"></trkpt>
      <trkpt lat="50.04282" lon="-5.68565"></trkpt>
      <trkpt lat="50.04252" lon="-5.6856"></trkpt>
      <trkpt lat="50.04237" lon="-5.68555"></trkpt>
      <trkpt lat="50.04209" lon="-5.68557"></trkpt>
      <trkpt lat="50.04205" lon="-5.68562"></trkpt>
      <trkpt lat="50.04156" lon="-5.68509"></trkpt>
      <trkpt lat="50.04139" lon="-5.685"></trkpt>
      <trkpt lat="50.04096" lon="-5.68459"></trkpt>
      <trkpt lat="50.04084" lon="-5.6844"></trkpt>
      <trkpt lat="50.04079" lon="-5.68418"></trkpt>
      <trkpt lat="50.04076" lon="-5.68393"></trkpt>
      <trkpt lat="50.04074" lon="-5.68321"></trkpt>
      <trkpt lat="50.04071" lon="-5.68295"></trkpt>
      <trkpt lat="50.04035" lon="-5.68284"></trkpt>
      <trkpt lat="50.04019" lon="-5.68268"></trkpt>
      <trkpt lat="50.03993" lon="-5.68173"></trkpt>
      <trkpt lat="50.03986" lon="-5.68161"></trkpt>
      <trkpt lat="50.03959" lon="-5.68139"></trkpt>
      <trkpt lat="50.03945" lon="-5.68133"></trkpt>
      <trkpt lat="50.03935" lon="-5.6814"></trkpt>
      <trkpt lat="50.0391" lon="-5.68151"></trkpt>
      <trkpt lat="50.03889" lon="-5.68144"></trkpt>
      <trkpt lat="50.03826" lon="-5.68183"></trkpt>
      <trkpt lat="50.03783" lon="-5.68126"></trkpt>
      <trkpt lat="50.03765" lon="-5.6811"></trkpt>
      <trkpt lat="50.0375" lon="-5.68107"></trkpt>
      <trkpt lat="50.03728" lon="-5.68109"></trkpt>
      <trkpt lat="50.03709" lon="-5.68086"></trkpt>
      <trkpt lat="50.03693" lon="-5.68076"></trkpt>
      <trkpt lat="50.03659" lon="-5.67996"></trkpt>
      <trkpt lat="50.03651" lon="-5.67959"></trkpt>
      <trkpt lat="50.03645" lon="-5.67918"></trkpt>
      <trkpt lat="50.03646" lon="-5.67883"></trkpt>
      <trkpt lat="50.03646" lon="-5.6786"></trkpt>
      <trkpt lat="50.03659" lon="-5.67764"></trkpt>
      <trkpt lat="50.03659" lon="-5.6772"></trkpt>
      <trkpt lat="50.03646" lon="-5.67671"></trkpt>
      <trkpt lat="50.03634" lon="-5.67619"></trkpt>
      <trkpt lat="50.0362" lon="-5.67583"></trkpt>
      <trkpt lat="50.03611" lon="-5.67543"></trkpt>
      <trkpt lat="50.03588" lon="-5.6746"></trkpt>
      <trkpt lat="50.03578" lon="-5.67377"></trkpt>
      <trkpt lat="50.03563" lon="-5.67351"></trkpt>
      <trkpt lat="50.03547" lon="-5.67312"></trkpt>
      <trkpt lat="50.03558" lon="-5.67295"></trkpt>
      <trkpt lat="50.03617" lon="-5.67292"></trkpt>
      <trkpt lat="50.03649" lon="-5.6729"></trkpt>
      <trkpt lat="50.03665" lon="-5.6728"></trkpt>
      <trkpt lat="50.03684" lon="-5.67271"></trkpt>
      <trkpt lat="50.0371" lon="-5.67265"></trkpt>
      <trkpt lat="50.03739" lon="-5.67271"></trkpt>
      <trkpt lat="50.03742" lon="-5.67269"></trkpt>
      <trkpt lat="50.03747" lon="-5.6727"></trkpt>
      <trkpt lat="50.03749" lon="-5.67273"></trkpt>
      <trkpt lat="50.03764" lon="-5.6726"></trkpt>
      <trkpt lat="50.03766" lon="-5.67256"></trkpt>
      <trkpt lat="50.03765" lon="-5.67246"></trkpt>
      <trkpt lat="50.03775" lon="-5.67233"></trkpt>
      <trkpt lat="50.03781" lon="-5.67229"></trkpt>
      <trkpt lat="50.03786" lon="-5.6723"></trkpt>
      <trkpt lat="50.03786" lon="-5.67221"></trkpt>
      <trkpt lat="50.03784" lon="-5.67215"></trkpt>
      <trkpt lat="50.03762" lon="-5.67193"></trkpt>
      <trkpt lat="50.03761" lon="-5.67174"></trkpt>
      <trkpt lat="50.03763" lon="-5.67166"></trkpt>
      <trkpt lat="50.03778" lon="-5.67147"></trkpt>
      <trkpt lat="50.03798" lon="-5.6713"></trkpt>
      <trkpt lat="50.03795" lon="-5.67107"></trkpt>
      <trkpt lat="50.03781" lon="-5.67077"></trkpt>
      <trkpt lat="50.03782" lon="-5.67059"></trkpt>
      <trkpt lat="50.03786" lon="-5.67046"></trkpt>
      <trkpt lat="50.03793" lon="-5.67036"></trkpt>
      <trkpt lat="50.0379" lon="-5.67015"></trkpt>
      <trkpt lat="50.03792" lon="-5.67003"></trkpt>
      <trkpt lat="50.03792" lon="-5.6699"></trkpt>
      <trkpt lat="50.03798" lon="-5.66966"></trkpt>
      <trkpt lat="50.03806" lon="-5.66922"></trkpt>
      <trkpt lat="50.03808" lon="-5.66898"></trkpt>
      <trkpt lat="50.03811" lon="-5.66888"></trkpt>
      <trkpt lat="50.03818" lon="-5.66837"></trkpt>
      <trkpt lat="50.03836" lon="-5.66745"></trkpt>
      <trkpt lat="50.03854" lon="-5.66693"></trkpt>
      <trkpt lat="50.03866" lon="-5.6664"></trkpt>
      <trkpt lat="50.03881" lon="-5.66614"></trkpt>
      <trkpt lat="50.03884" lon="-5.66603"></trkpt>
      <trkpt lat="50.03884" lon="-5.66591"></trkpt>
      <trkpt lat="50.0388" lon="-5.66554"></trkpt>
      <trkpt lat="50.03881" lon="-5.66545"></trkpt>
      <trkpt lat="50.03886" lon="-5.66538"></trkpt>
      <trkpt lat="50.03911" lon="-5.66512"></trkpt>
      <trkpt lat="50.0391" lon="-5.66486"></trkpt>
      <trkpt lat="50.03906" lon="-5.66479"></trkpt>
      <trkpt lat="50.03879" lon="-5.66388"></trkpt>
      <trkpt lat="50.03876" lon="-5.66368"></trkpt>
      <trkpt lat="50.03877" lon="-5.66349"></trkpt>
      <trkpt lat="50.03865" lon="-5.66298"></trkpt>
      <trkpt lat="50.03863" lon="-5.66274"></trkpt>
      <trkpt lat="50.03859" lon="-5.6624"></trkpt>
      <trkpt lat="50.03862" lon="-5.66231"></trkpt>
      <trkpt lat="50.03881" lon="-5.66209"></trkpt>
      <trkpt lat="50.03896" lon="-5.66187"></trkpt>
      <trkpt lat="50.03922" lon="-5.66114"></trkpt>
      <trkpt lat="50.03947" lon="-5.66071"></trkpt>
      <trkpt lat="50.0395" lon="-5.66061"></trkpt>
      <trkpt lat="50.03952" lon="-5.66039"></trkpt>
      <trkpt lat="50.03956" lon="-5.6603"></trkpt>
      <trkpt lat="50.0396" lon="-5.6601"></trkpt>
      <trkpt lat="50.0396" lon="-5.65992"></trkpt>
      <trkpt lat="50.03966" lon="-5.65973"></trkpt>
      <trkpt lat="50.03965" lon="-5.65964"></trkpt>
      <trkpt lat="50.03967" lon="-5.65957"></trkpt>
      <trkpt lat="50.03972" lon="-5.65956"></trkpt>
      <trkpt lat="50.03976" lon="-5.65952"></trkpt>
      <trkpt lat="50.03987" lon="-5.65922"></trkpt>
      <trkpt lat="50.03989" lon="-5.65924"></trkpt>
      <trkpt lat="50.03991" lon="-5.65919"></trkpt>
      <trkpt lat="50.03989" lon="-5.65917"></trkpt>
      <trkpt lat="50.03989" lon="-5.65908"></trkpt>
      <trkpt lat="50.0398" lon="-5.65886"></trkpt>
      <trkpt lat="50.03979" lon="-5.65873"></trkpt>
      <trkpt lat="50.03967" lon="-5.65855"></trkpt>
      <trkpt lat="50.03971" lon="-5.65839"></trkpt>
      <trkpt lat="50.0397" lon="-5.65817"></trkpt>
      <trkpt lat="50.03973" lon="-5.65812"></trkpt>
      <trkpt lat="50.03973" lon="-5.65805"></trkpt>
      <trkpt lat="50.03975" lon="-5.65796"></trkpt>
      <trkpt lat="50.03975" lon="-5.65789"></trkpt>
      <trkpt lat="50.03973" lon="-5.65784"></trkpt>
      <trkpt lat="50.03975" lon="-5.65778"></trkpt>
      <trkpt lat="50.03974" lon="-5.65758"></trkpt>
      <trkpt lat="50.0397" lon="-5.65754"></trkpt>
      <trkpt lat="50.03967" lon="-5.65739"></trkpt>
      <trkpt lat="50.03965" lon="-5.65737"></trkpt>
      <trkpt lat="50.03966" lon="-5.65726"></trkpt>
      <trkpt lat="50.03961" lon="-5.6572"></trkpt>
      <trkpt lat="50.03952" lon="-5.65659"></trkpt>
      <trkpt lat="50.03949" lon="-5.65649"></trkpt>
      <trkpt lat="50.03948" lon="-5.65639"></trkpt>
      <trkpt lat="50.03952" lon="-5.65616"></trkpt>
      <trkpt lat="50.03947" lon="-5.65602"></trkpt>
      <trkpt lat="50.03939" lon="-5.65595"></trkpt>
      <trkpt lat="50.03916" lon="-5.65548"></trkpt>
      <trkpt lat="50.03919" lon="-5.6553"></trkpt>
      <trkpt lat="50.0393" lon="-5.65505"></trkpt>
      <trkpt lat="50.03929" lon="-5.65495"></trkpt>
      <trkpt lat="50.03924" lon="-5.65494"></trkpt>
      <trkpt lat="50.03917" lon="-5.65487"></trkpt>
      <trkpt lat="50.03924" lon="-5.65494"></trkpt>
      <trkpt lat="50.03929" lon="-5.65495"></trkpt>
      <trkpt lat="50.03934" lon="-5.65448"></trkpt>
      <trkpt lat="50.03953" lon="-5.65432"></trkpt>
      <trkpt lat="50.03971" lon="-5.65423"></trkpt>
      <trkpt lat="50.03999" lon="-5.6542"></trkpt>
      <trkpt lat="50.04012" lon="-5.65423"></trkpt>
      <trkpt lat="50.04025" lon="-5.65412"></trkpt>
      <trkpt lat="50.04031" lon="-5.6541"></trkpt>
      <trkpt lat="50.04036" lon="-5.65403"></trkpt>
      <trkpt lat="50.0404" lon="-5.65403"></trkpt>
      <trkpt lat="50.04046" lon="-5.65398"></trkpt>
      <trkpt lat="50.04064" lon="-5.65351"></trkpt>
      <trkpt lat="50.04066" lon="-5.65321"></trkpt>
      <trkpt lat="50.04073" lon="-5.65308"></trkpt>
      <trkpt lat="50.04074" lon="-5.65291"></trkpt>
      <trkpt lat="50.04079" lon="-5.65281"></trkpt>
      <trkpt lat="50.04097" lon="-5.65268"></trkpt>
      <trkpt lat="50.0412" lon="-5.65246"></trkpt>
      <trkpt lat="50.04116" lon="-5.65238"></trkpt>
      <trkpt lat="50.04125" lon="-5.65202"></trkpt>
      <trkpt lat="50.04127" lon="-5.65165"></trkpt>
      <trkpt lat="50.04123" lon="-5.65158"></trkpt>
      <trkpt lat="50.04123" lon="-5.65155"></trkpt>
      <trkpt lat="50.04127" lon="-5.65157"></trkpt>
      <trkpt lat="50.04128" lon="-5.65148"></trkpt>
      <trkpt lat="50.0412" lon="-5.65145"></trkpt>
      <trkpt lat="50.04116" lon="-5.65137"></trkpt>
      <trkpt lat="50.04114" lon="-5.65136"></trkpt>
      <trkpt lat="50.0411" lon="-5.6514"></trkpt>
      <trkpt lat="50.04106" lon="-5.65136"></trkpt>
      <trkpt lat="50.04112" lon="-5.65119"></trkpt>
      <trkpt lat="50.04109" lon="-5.65118"></trkpt>
      <trkpt lat="50.04108" lon="-5.65114"></trkpt>
      <trkpt lat="50.04111" lon="-5.65112"></trkpt>
      <trkpt lat="50.04115" lon="-5.65104"></trkpt>
      <trkpt lat="50.04113" lon="-5.65097"></trkpt>
      <trkpt lat="50.0412" lon="-5.6509"></trkpt>
      <trkpt lat="50.04118" lon="-5.65085"></trkpt>
      <trkpt lat="50.04119" lon="-5.6508"></trkpt>
      <trkpt lat="50.04118" lon="-5.65085"></trkpt>
      <trkpt lat="50.0412" lon="-5.6509"></trkpt>
      <trkpt lat="50.04113" lon="-5.65097"></trkpt>
      <trkpt lat="50.04115" lon="-5.65104"></trkpt>
      <trkpt lat="50.04111" lon="-5.65112"></trkpt>
      <trkpt lat="50.04108" lon="-5.65114"></trkpt>
      <trkpt lat="50.04109" lon="-5.65118"></trkpt>
      <trkpt lat="50.04112" lon="-5.65119"></trkpt>
      <trkpt lat="50.04106" lon="-5.65136"></trkpt>
      <trkpt lat="50.0411" lon="-5.6514"></trkpt>
      <trkpt lat="50.04114" lon="-5.65136"></trkpt>
      <trkpt lat="50.04116" lon="-5.65137"></trkpt>
      <trkpt lat="50.0412" lon="-5.65145"></trkpt>
      <trkpt lat="50.04128" lon="-5.65148"></trkpt>
      <trkpt lat="50.0413" lon="-5.65132"></trkpt>
      <trkpt lat="50.04132" lon="-5.65135"></trkpt>
      <trkpt lat="50.0413" lon="-5.65147"></trkpt>
      <trkpt lat="50.04132" lon="-5.65148"></trkpt>
      <trkpt lat="50.04136" lon="-5.65128"></trkpt>
      <trkpt lat="50.04141" lon="-5.6512"></trkpt>
      <trkpt lat="50.04139" lon="-5.65115"></trkpt>
      <trkpt lat="50.04144" lon="-5.65107"></trkpt>
      <trkpt lat="50.04148" lon="-5.6511"></trkpt>
      <trkpt lat="50.04156" lon="-5.65111"></trkpt>
      <trkpt lat="50.04157" lon="-5.65103"></trkpt>
      <trkpt lat="50.04171" lon="-5.65104"></trkpt>
      <trkpt lat="50.04175" lon="-5.65102"></trkpt>
      <trkpt lat="50.04184" lon="-5.65111"></trkpt>
      <trkpt lat="50.04211" lon="-5.65115"></trkpt>
      <trkpt lat="50.04216" lon="-5.65118"></trkpt>
      <trkpt lat="50.04223" lon="-5.65116"></trkpt>
      <trkpt lat="50.04249" lon="-5.65124"></trkpt>
      <trkpt lat="50.04281" lon="-5.65143"></trkpt>
      <trkpt lat="50.04296" lon="-5.65158"></trkpt>
      <trkpt lat="50.04307" lon="-5.65176"></trkpt>
      <trkpt lat="50.04324" lon="-5.65192"></trkpt>
      <trkpt lat="50.04329" lon="-5.652"></trkpt>
      <trkpt lat="50.04357" lon="-5.65217"></trkpt>
      <trkpt lat="50.04363" lon="-5.65218"></trkpt>
      <trkpt lat="50.04365" lon="-5.65213"></trkpt>
      <trkpt lat="50.04374" lon="-5.65204"></trkpt>
      <trkpt lat="50.04389" lon="-5.652"></trkpt>
      <trkpt lat="50.04393" lon="-5.65201"></trkpt>
      <trkpt lat="50.04396" lon="-5.65171"></trkpt>
      <trkpt lat="50.04404" lon="-5.65154"></trkpt>
      <trkpt lat="50.04405" lon="-5.65143"></trkpt>
      <trkpt lat="50.04403" lon="-5.6514"></trkpt>
      <trkpt lat="50.04404" lon="-5.65119"></trkpt>
      <trkpt lat="50.04402" lon="-5.65115"></trkpt>
      <trkpt lat="50.04403" lon="-5.65106"></trkpt>
      <trkpt lat="50.044" lon="-5.65104"></trkpt>
      <trkpt lat="50.04399" lon="-5.65099"></trkpt>
      <trkpt lat="50.04393" lon="-5.65089"></trkpt>
      <trkpt lat="50.0439" lon="-5.65088"></trkpt>
      <trkpt lat="50.04388" lon="-5.65082"></trkpt>
      <trkpt lat="50.0439" lon="-5.65069"></trkpt>
      <trkpt lat="50.04384" lon="-5.65048"></trkpt>
      <trkpt lat="50.04387" lon="-5.65041"></trkpt>
      <trkpt lat="50.04386" lon="-5.65032"></trkpt>
      <trkpt lat="50.04383" lon="-5.65026"></trkpt>
      <trkpt lat="50.04384" lon="-5.65022"></trkpt>
      <trkpt lat="50.0438" lon="-5.65006"></trkpt>
      <trkpt lat="50.04382" lon="-5.65001"></trkpt>
      <trkpt lat="50.0438" lon="-5.64995"></trkpt>
      <trkpt lat="50.0438" lon="-5.64988"></trkpt>
      <trkpt lat="50.04377" lon="-5.64975"></trkpt>
      <trkpt lat="50.04385" lon="-5.64968"></trkpt>
      <trkpt lat="50.04394" lon="-5.64966"></trkpt>
      <trkpt lat="50.04396" lon="-5.64958"></trkpt>
      <trkpt lat="50.04417" lon="-5.64962"></trkpt>
      <trkpt lat="50.04425" lon="-5.64966"></trkpt>
      <trkpt lat="50.04432" lon="-5.64964"></trkpt>
      <trkpt lat="50.04443" lon="-5.64968"></trkpt>
      <trkpt lat="50.0445" lon="-5.64988"></trkpt>
      <trkpt lat="50.04468" lon="-5.64936"></trkpt>
      <trkpt lat="50.04479" lon="-5.6489"></trkpt>
      <trkpt lat="50.04474" lon="-5.64789"></trkpt>
      <trkpt lat="50.04456" lon="-5.64757"></trkpt>
      <trkpt lat="50.04447" lon="-5.64745"></trkpt>
      <trkpt lat="50.04446" lon="-5.64735"></trkpt>
      <trkpt lat="50.0444" lon="-5.64723"></trkpt>
      <trkpt lat="50.04436" lon="-5.64719"></trkpt>
      <trkpt lat="50.04435" lon="-5.64713"></trkpt>
      <trkpt lat="50.04431" lon="-5.64706"></trkpt>
      <trkpt lat="50.04424" lon="-5.64685"></trkpt>
      <trkpt lat="50.04419" lon="-5.64681"></trkpt>
      <trkpt lat="50.04416" lon="-5.64667"></trkpt>
      <trkpt lat="50.04418" lon="-5.64663"></trkpt>
      <trkpt lat="50.04418" lon="-5.64634"></trkpt>
      <trkpt lat="50.04422" lon="-5.6463"></trkpt>
      <trkpt lat="50.04424" lon="-5.64605"></trkpt>
      <trkpt lat="50.04431" lon="-5.64597"></trkpt>
      <trkpt lat="50.04433" lon="-5.64579"></trkpt>
      <trkpt lat="50.04435" lon="-5.64576"></trkpt>
      <trkpt lat="50.04435" lon="-5.64572"></trkpt>
      <trkpt lat="50.0444" lon="-5.64566"></trkpt>
      <trkpt lat="50.04441" lon="-5.64549"></trkpt>
      <trkpt lat="50.04443" lon="-5.64543"></trkpt>
      <trkpt lat="50.04439" lon="-5.64532"></trkpt>
      <trkpt lat="50.04437" lon="-5.64513"></trkpt>
      <trkpt lat="50.0443" lon="-5.64503"></trkpt>
      <trkpt lat="50.04438" lon="-5.64492"></trkpt>
      <trkpt lat="50.04447" lon="-5.64487"></trkpt>
      <trkpt lat="50.04446" lon="-5.64485"></trkpt>
      <trkpt lat="50.04456" lon="-5.64458"></trkpt>
      <trkpt lat="50.0446" lon="-5.64461"></trkpt>
      <trkpt lat="50.04462" lon="-5.64449"></trkpt>
      <trkpt lat="50.04461" lon="-5.64438"></trkpt>
      <trkpt lat="50.04462" lon="-5.64432"></trkpt>
      <trkpt lat="50.04466" lon="-5.64422"></trkpt>
      <trkpt lat="50.04477" lon="-5.64405"></trkpt>
      <trkpt lat="50.04487" lon="-5.64396"></trkpt>
      <trkpt lat="50.04512" lon="-5.64367"></trkpt>
      <trkpt lat="50.04529" lon="-5.64341"></trkpt>
      <trkpt lat="50.04529" lon="-5.64319"></trkpt>
      <trkpt lat="50.04539" lon="-5.64298"></trkpt>
      <trkpt lat="50.04548" lon="-5.64289"></trkpt>
      <trkpt lat="50.04553" lon="-5.64274"></trkpt>
      <trkpt lat="50.04542" lon="-5.64238"></trkpt>
      <trkpt lat="50.04538" lon="-5.64185"></trkpt>
      <trkpt lat="50.04522" lon="-5.64145"></trkpt>
      <trkpt lat="50.04496" lon="-5.64042"></trkpt>
      <trkpt lat="50.04478" lon="-5.63996"></trkpt>
      <trkpt lat="50.04468" lon="-5.63964"></trkpt>
      <trkpt lat="50.04448" lon="-5.63861"></trkpt>
      <trkpt lat="50.04445" lon="-5.63814"></trkpt>
      <trkpt lat="50.04439" lon="-5.63767"></trkpt>
      <trkpt lat="50.04437" lon="-5.63722"></trkpt>
      <trkpt lat="50.04423" lon="-5.63643"></trkpt>
      <trkpt lat="50.04433" lon="-5.63622"></trkpt>
      <trkpt lat="50.04439" lon="-5.63606"></trkpt>
      <trkpt lat="50.04441" lon="-5.63594"></trkpt>
      <trkpt lat="50.04445" lon="-5.63588"></trkpt>
      <trkpt lat="50.04446" lon="-5.63584"></trkpt>
      <trkpt lat="50.0445" lon="-5.6358"></trkpt>
      <trkpt lat="50.04454" lon="-5.63567"></trkpt>
      <trkpt lat="50.04458" lon="-5.63549"></trkpt>
      <trkpt lat="50.04457" lon="-5.63539"></trkpt>
      <trkpt lat="50.04459" lon="-5.63529"></trkpt>
      <trkpt lat="50.04458" lon="-5.63522"></trkpt>
      <trkpt lat="50.04462" lon="-5.63511"></trkpt>
      <trkpt lat="50.04462" lon="-5.63505"></trkpt>
      <trkpt lat="50.04469" lon="-5.63493"></trkpt>
      <trkpt lat="50.04473" lon="-5.63481"></trkpt>
      <trkpt lat="50.04478" lon="-5.63457"></trkpt>
      <trkpt lat="50.04473" lon="-5.6345"></trkpt>
      <trkpt lat="50.04475" lon="-5.63431"></trkpt>
      <trkpt lat="50.04471" lon="-5.63408"></trkpt>
      <trkpt lat="50.04467" lon="-5.63354"></trkpt>
      <trkpt lat="50.04476" lon="-5.63336"></trkpt>
      <trkpt lat="50.04478" lon="-5.63321"></trkpt>
      <trkpt lat="50.04478" lon="-5.63306"></trkpt>
      <trkpt lat="50.04484" lon="-5.63266"></trkpt>
      <trkpt lat="50.04483" lon="-5.63246"></trkpt>
      <trkpt lat="50.04486" lon="-5.63208"></trkpt>
      <trkpt lat="50.04515" lon="-5.63119"></trkpt>
      <trkpt lat="50.04552" lon="-5.63056"></trkpt>
      <trkpt lat="50.04582" lon="-5.63028"></trkpt>
      <trkpt lat="50.046" lon="-5.63018"></trkpt>
      <trkpt lat="50.04608" lon="-5.63006"></trkpt>
      <trkpt lat="50.04623" lon="-5.63001"></trkpt>
      <trkpt lat="50.04622" lon="-5.63001"></trkpt>
      <trkpt lat="50.04634" lon="-5.63003"></trkpt>
      <trkpt lat="50.04638" lon="-5.62996"></trkpt>
      <trkpt lat="50.04662" lon="-5.62987"></trkpt>
      <trkpt lat="50.04666" lon="-5.62982"></trkpt>
      <trkpt lat="50.04676" lon="-5.62982"></trkpt>
      <trkpt lat="50.04677" lon="-5.62978"></trkpt>
      <trkpt lat="50.04683" lon="-5.62981"></trkpt>
      <trkpt lat="50.04686" lon="-5.62979"></trkpt>
      <trkpt lat="50.04691" lon="-5.62981"></trkpt>
      <trkpt lat="50.04692" lon="-5.62978"></trkpt>
      <trkpt lat="50.04711" lon="-5.62982"></trkpt>
      <trkpt lat="50.04724" lon="-5.62994"></trkpt>
      <trkpt lat="50.04725" lon="-5.6299"></trkpt>
      <trkpt lat="50.0473" lon="-5.62991"></trkpt>
      <trkpt lat="50.04731" lon="-5.62983"></trkpt>
      <trkpt lat="50.04744" lon="-5.6299"></trkpt>
      <trkpt lat="50.04746" lon="-5.62988"></trkpt>
      <trkpt lat="50.04759" lon="-5.62993"></trkpt>
      <trkpt lat="50.04766" lon="-5.62998"></trkpt>
      <trkpt lat="50.04785" lon="-5.62993"></trkpt>
      <trkpt lat="50.0479" lon="-5.62976"></trkpt>
      <trkpt lat="50.0479" lon="-5.62971"></trkpt>
      <trkpt lat="50.04793" lon="-5.62969"></trkpt>
      <trkpt lat="50.04778" lon="-5.62954"></trkpt>
      <trkpt lat="50.04776" lon="-5.62949"></trkpt>
      <trkpt lat="50.04776" lon="-5.62932"></trkpt>
      <trkpt lat="50.04773" lon="-5.62913"></trkpt>
      <trkpt lat="50.04773" lon="-5.62908"></trkpt>
      <trkpt lat="50.04778" lon="-5.62906"></trkpt>
      <trkpt lat="50.04783" lon="-5.62888"></trkpt>
      <trkpt lat="50.04782" lon="-5.62855"></trkpt>
      <trkpt lat="50.04779" lon="-5.62843"></trkpt>
      <trkpt lat="50.04781" lon="-5.62807"></trkpt>
      <trkpt lat="50.04779" lon="-5.6279"></trkpt>
      <trkpt lat="50.04784" lon="-5.62777"></trkpt>
      <trkpt lat="50.04785" lon="-5.62735"></trkpt>
      <trkpt lat="50.04782" lon="-5.62729"></trkpt>
      <trkpt lat="50.04784" lon="-5.62716"></trkpt>
      <trkpt lat="50.04781" lon="-5.62691"></trkpt>
      <trkpt lat="50.04784" lon="-5.62683"></trkpt>
      <trkpt lat="50.04788" lon="-5.62682"></trkpt>
      <trkpt lat="50.04794" lon="-5.62688"></trkpt>
      <trkpt lat="50.04797" lon="-5.62695"></trkpt>
      <trkpt lat="50.04807" lon="-5.62709"></trkpt>
      <trkpt lat="50.04823" lon="-5.62724"></trkpt>
      <trkpt lat="50.04825" lon="-5.62729"></trkpt>
      <trkpt lat="50.04836" lon="-5.62734"></trkpt>
      <trkpt lat="50.04845" lon="-5.62747"></trkpt>
      <trkpt lat="50.04867" lon="-5.62759"></trkpt>
      <trkpt lat="50.04878" lon="-5.6277"></trkpt>
      <trkpt lat="50.04886" lon="-5.62774"></trkpt>
      <trkpt lat="50.04888" lon="-5.62764"></trkpt>
      <trkpt lat="50.04894" lon="-5.62758"></trkpt>
      <trkpt lat="50.04914" lon="-5.62755"></trkpt>
      <trkpt lat="50.0492" lon="-5.62743"></trkpt>
      <trkpt lat="50.04927" lon="-5.62737"></trkpt>
      <trkpt lat="50.0494" lon="-5.62718"></trkpt>
      <trkpt lat="50.04947" lon="-5.62711"></trkpt>
      <trkpt lat="50.04978" lon="-5.62698"></trkpt>
      <trkpt lat="50.04989" lon="-5.62688"></trkpt>
      <trkpt lat="50.05" lon="-5.62672"></trkpt>
      <trkpt lat="50.05005" lon="-5.62651"></trkpt>
      <trkpt lat="50.05011" lon="-5.62644"></trkpt>
      <trkpt lat="50.05009" lon="-5.62629"></trkpt>
      <trkpt lat="50.05009" lon="-5.62599"></trkpt>
      <trkpt lat="50.05012" lon="-5.62591"></trkpt>
      <trkpt lat="50.05016" lon="-5.62585"></trkpt>
      <trkpt lat="50.05029" lon="-5.62579"></trkpt>
      <trkpt lat="50.0503" lon="-5.6257"></trkpt>
      <trkpt lat="50.05043" lon="-5.62527"></trkpt>
      <trkpt lat="50.05046" lon="-5.62504"></trkpt>
      <trkpt lat="50.05042" lon="-5.62493"></trkpt>
      <trkpt lat="50.05044" lon="-5.6248"></trkpt>
      <trkpt lat="50.05055" lon="-5.62443"></trkpt>
      <trkpt lat="50.05058" lon="-5.62415"></trkpt>
      <trkpt lat="50.0506" lon="-5.62409"></trkpt>
      <trkpt lat="50.05062" lon="-5.62392"></trkpt>
      <trkpt lat="50.05071" lon="-5.62372"></trkpt>
      <trkpt lat="50.05072" lon="-5.62363"></trkpt>
      <trkpt lat="50.05065" lon="-5.62324"></trkpt>
      <trkpt lat="50.05057" lon="-5.62295"></trkpt>
      <trkpt lat="50.05054" lon="-5.6227"></trkpt>
      <trkpt lat="50.05049" lon="-5.6226"></trkpt>
      <trkpt lat="50.05042" lon="-5.6223"></trkpt>
      <trkpt lat="50.05037" lon="-5.62222"></trkpt>
      <trkpt lat="50.05037" lon="-5.62215"></trkpt>
      <trkpt lat="50.05031" lon="-5.62207"></trkpt>
      <trkpt lat="50.05028" lon="-5.62197"></trkpt>
      <trkpt lat="50.05028" lon="-5.62189"></trkpt>
      <trkpt lat="50.05033" lon="-5.62187"></trkpt>
      <trkpt lat="50.05034" lon="-5.62163"></trkpt>
      <trkpt lat="50.05033" lon="-5.62158"></trkpt>
      <trkpt lat="50.05029" lon="-5.62155"></trkpt>
      <trkpt lat="50.05027" lon="-5.62149"></trkpt>
      <trkpt lat="50.05032" lon="-5.62134"></trkpt>
      <trkpt lat="50.05047" lon="-5.62124"></trkpt>
      <trkpt lat="50.05049" lon="-5.62118"></trkpt>
      <trkpt lat="50.05059" lon="-5.62106"></trkpt>
      <trkpt lat="50.05064" lon="-5.62105"></trkpt>
      <trkpt lat="50.05069" lon="-5.62107"></trkpt>
      <trkpt lat="50.05075" lon="-5.62103"></trkpt>
      <trkpt lat="50.05082" lon="-5.62106"></trkpt>
      <trkpt lat="50.05085" lon="-5.62105"></trkpt>
      <trkpt lat="50.05088" lon="-5.62099"></trkpt>
      <trkpt lat="50.05112" lon="-5.62091"></trkpt>
      <trkpt lat="50.05114" lon="-5.62087"></trkpt>
      <trkpt lat="50.0512" lon="-5.62087"></trkpt>
      <trkpt lat="50.0513" lon="-5.62082"></trkpt>
      <trkpt lat="50.05131" lon="-5.62079"></trkpt>
      <trkpt lat="50.05109" lon="-5.62057"></trkpt>
      <trkpt lat="50.05124" lon="-5.62041"></trkpt>
      <trkpt lat="50.05123" lon="-5.62035"></trkpt>
      <trkpt lat="50.05118" lon="-5.6203"></trkpt>
      <trkpt lat="50.05116" lon="-5.62023"></trkpt>
      <trkpt lat="50.05108" lon="-5.62011"></trkpt>
      <trkpt lat="50.05103" lon="-5.61992"></trkpt>
      <trkpt lat="50.05105" lon="-5.61986"></trkpt>
      <trkpt lat="50.05114" lon="-5.61977"></trkpt>
      <trkpt lat="50.05136" lon="-5.61969"></trkpt>
      <trkpt lat="50.0514" lon="-5.61946"></trkpt>
      <trkpt lat="50.05142" lon="-5.61944"></trkpt>
      <trkpt lat="50.05141" lon="-5.61933"></trkpt>
      <trkpt lat="50.05135" lon="-5.61929"></trkpt>
      <trkpt lat="50.05135" lon="-5.61921"></trkpt>
      <trkpt lat="50.05129" lon="-5.61901"></trkpt>
      <trkpt lat="50.05122" lon="-5.61885"></trkpt>
      <trkpt lat="50.05111" lon="-5.61867"></trkpt>
      <trkpt lat="50.05109" lon="-5.61851"></trkpt>
      <trkpt lat="50.05106" lon="-5.61841"></trkpt>
      <trkpt lat="50.05107" lon="-5.61837"></trkpt>
      <trkpt lat="50.05118" lon="-5.61836"></trkpt>
      <trkpt lat="50.0512" lon="-5.61838"></trkpt>
      <trkpt lat="50.0512" lon="-5.61835"></trkpt>
      <trkpt lat="50.0513" lon="-5.61819"></trkpt>
      <trkpt lat="50.05129" lon="-5.61807"></trkpt>
      <trkpt lat="50.05133" lon="-5.61797"></trkpt>
      <trkpt lat="50.05134" lon="-5.61787"></trkpt>
      <trkpt lat="50.05125" lon="-5.61763"></trkpt>
      <trkpt lat="50.05129" lon="-5.61747"></trkpt>
      <trkpt lat="50.05127" lon="-5.61733"></trkpt>
      <trkpt lat="50.05118" lon="-5.6173"></trkpt>
      <trkpt lat="50.05111" lon="-5.6171"></trkpt>
      <trkpt lat="50.05106" lon="-5.61707"></trkpt>
      <trkpt lat="50.05103" lon="-5.61702"></trkpt>
      <trkpt lat="50.05099" lon="-5.61686"></trkpt>
      <trkpt lat="50.05097" lon="-5.61684"></trkpt>
      <trkpt lat="50.05088" lon="-5.61676"></trkpt>
      <trkpt lat="50.05076" lon="-5.61681"></trkpt>
      <trkpt lat="50.05054" lon="-5.61694"></trkpt>
      <trkpt lat="50.0505" lon="-5.61693"></trkpt>
      <trkpt lat="50.05036" lon="-5.61677"></trkpt>
      <trkpt lat="50.05014" lon="-5.61628"></trkpt>
      <trkpt lat="50.0501" lon="-5.61614"></trkpt>
      <trkpt lat="50.05011" lon="-5.61605"></trkpt>
      <trkpt lat="50.05034" lon="-5.61567"></trkpt>
      <trkpt lat="50.05038" lon="-5.61556"></trkpt>
      <trkpt lat="50.05039" lon="-5.61544"></trkpt>
      <trkpt lat="50.05045" lon="-5.61516"></trkpt>
      <trkpt lat="50.05045" lon="-5.61499"></trkpt>
      <trkpt lat="50.05051" lon="-5.61489"></trkpt>
      <trkpt lat="50.05055" lon="-5.61483"></trkpt>
      <trkpt lat="50.05061" lon="-5.61459"></trkpt>
      <trkpt lat="50.05066" lon="-5.61448"></trkpt>
      <trkpt lat="50.05071" lon="-5.6143"></trkpt>
      <trkpt lat="50.05071" lon="-5.61409"></trkpt>
      <trkpt lat="50.05067" lon="-5.61399"></trkpt>
      <trkpt lat="50.05055" lon="-5.6139"></trkpt>
      <trkpt lat="50.05046" lon="-5.61374"></trkpt>
      <trkpt lat="50.05045" lon="-5.61369"></trkpt>
      <trkpt lat="50.0504" lon="-5.61363"></trkpt>
      <trkpt lat="50.05038" lon="-5.61354"></trkpt>
      <trkpt lat="50.0504" lon="-5.61342"></trkpt>
      <trkpt lat="50.05038" lon="-5.61338"></trkpt>
      <trkpt lat="50.05038" lon="-5.6132"></trkpt>
      <trkpt lat="50.05033" lon="-5.61263"></trkpt>
      <trkpt lat="50.05039" lon="-5.61253"></trkpt>
      <trkpt lat="50.05038" lon="-5.61208"></trkpt>
      <trkpt lat="50.0504" lon="-5.61193"></trkpt>
      <trkpt lat="50.05039" lon="-5.61182"></trkpt>
      <trkpt lat="50.05041" lon="-5.6116"></trkpt>
      <trkpt lat="50.05038" lon="-5.61136"></trkpt>
      <trkpt lat="50.05032" lon="-5.61122"></trkpt>
      <trkpt lat="50.05028" lon="-5.611"></trkpt>
      <trkpt lat="50.05027" lon="-5.61065"></trkpt>
      <trkpt lat="50.05024" lon="-5.6103"></trkpt>
      <trkpt lat="50.05038" lon="-5.6098"></trkpt>
      <trkpt lat="50.05063" lon="-5.60909"></trkpt>
      <trkpt lat="50.05076" lon="-5.60877"></trkpt>
      <trkpt lat="50.05076" lon="-5.60863"></trkpt>
      <trkpt lat="50.05072" lon="-5.60837"></trkpt>
      <trkpt lat="50.05071" lon="-5.60819"></trkpt>
      <trkpt lat="50.05073" lon="-5.6079"></trkpt>
      <trkpt lat="50.05076" lon="-5.60776"></trkpt>
      <trkpt lat="50.05084" lon="-5.60766"></trkpt>
      <trkpt lat="50.05094" lon="-5.60759"></trkpt>
      <trkpt lat="50.05096" lon="-5.60756"></trkpt>
      <trkpt lat="50.05096" lon="-5.6074"></trkpt>
      <trkpt lat="50.051" lon="-5.60732"></trkpt>
      <trkpt lat="50.051" lon="-5.60716"></trkpt>
      <trkpt lat="50.05096" lon="-5.60712"></trkpt>
      <trkpt lat="50.05089" lon="-5.60715"></trkpt>
      <trkpt lat="50.05076" lon="-5.60716"></trkpt>
      <trkpt lat="50.05065" lon="-5.6071"></trkpt>
      <trkpt lat="50.05054" lon="-5.60696"></trkpt>
      <trkpt lat="50.05043" lon="-5.60676"></trkpt>
      <trkpt lat="50.05043" lon="-5.6067"></trkpt>
      <trkpt lat="50.05048" lon="-5.60652"></trkpt>
      <trkpt lat="50.05051" lon="-5.60629"></trkpt>
      <trkpt lat="50.05067" lon="-5.60578"></trkpt>
      <trkpt lat="50.05067" lon="-5.60566"></trkpt>
      <trkpt lat="50.05071" lon="-5.60555"></trkpt>
      <trkpt lat="50.05073" lon="-5.60526"></trkpt>
      <trkpt lat="50.05082" lon="-5.60492"></trkpt>
      <trkpt lat="50.0509" lon="-5.60474"></trkpt>
      <trkpt lat="50.05109" lon="-5.60416"></trkpt>
      <trkpt lat="50.05119" lon="-5.60399"></trkpt>
      <trkpt lat="50.05125" lon="-5.60401"></trkpt>
      <trkpt lat="50.05136" lon="-5.60395"></trkpt>
      <trkpt lat="50.05197" lon="-5.60358"></trkpt>
      <trkpt lat="50.05239" lon="-5.60345"></trkpt>
      <trkpt lat="50.05236" lon="-5.60324"></trkpt>
      <trkpt lat="50.0524" lon="-5.60313"></trkpt>
      <trkpt lat="50.05244" lon="-5.60292"></trkpt>
      <trkpt lat="50.05233" lon="-5.60279"></trkpt>
      <trkpt lat="50.05226" lon="-5.60258"></trkpt>
      <trkpt lat="50.05193" lon="-5.60213"></trkpt>
      <trkpt lat="50.05192" lon="-5.60163"></trkpt>
      <trkpt lat="50.0521" lon="-5.60126"></trkpt>
      <trkpt lat="50.05207" lon="-5.60111"></trkpt>
      <trkpt lat="50.0523" lon="-5.60034"></trkpt>
      <trkpt lat="50.05243" lon="-5.60012"></trkpt>
      <trkpt lat="50.05245" lon="-5.60002"></trkpt>
      <trkpt lat="50.05244" lon="-5.59977"></trkpt>
      <trkpt lat="50.05247" lon="-5.5996"></trkpt>
      <trkpt lat="50.05247" lon="-5.59931"></trkpt>
      <trkpt lat="50.05251" lon="-5.59884"></trkpt>
      <trkpt lat="50.05258" lon="-5.59838"></trkpt>
      <trkpt lat="50.05255" lon="-5.59805"></trkpt>
      <trkpt lat="50.05259" lon="-5.5979"></trkpt>
      <trkpt lat="50.05258" lon="-5.5978"></trkpt>
      <trkpt lat="50.05267" lon="-5.5976"></trkpt>
      <trkpt lat="50.05268" lon="-5.59748"></trkpt>
      <trkpt lat="50.05272" lon="-5.59742"></trkpt>
      <trkpt lat="50.05274" lon="-5.59734"></trkpt>
      <trkpt lat="50.05272" lon="-5.59721"></trkpt>
      <trkpt lat="50.05273" lon="-5.59714"></trkpt>
      <trkpt lat="50.05276" lon="-5.59709"></trkpt>
      <trkpt lat="50.05277" lon="-5.59702"></trkpt>
      <trkpt lat="50.05279" lon="-5.59681"></trkpt>
      <trkpt lat="50.05277" lon="-5.59673"></trkpt>
      <trkpt lat="50.05281" lon="-5.59656"></trkpt>
      <trkpt lat="50.05278" lon="-5.59646"></trkpt>
      <trkpt lat="50.05282" lon="-5.59636"></trkpt>
      <trkpt lat="50.05279" lon="-5.59628"></trkpt>
      <trkpt lat="50.05286" lon="-5.59603"></trkpt>
      <trkpt lat="50.05289" lon="-5.59596"></trkpt>
      <trkpt lat="50.05289" lon="-5.59583"></trkpt>
      <trkpt lat="50.05292" lon="-5.59574"></trkpt>
      <trkpt lat="50.05297" lon="-5.59542"></trkpt>
      <trkpt lat="50.05294" lon="-5.59525"></trkpt>
      <trkpt lat="50.05297" lon="-5.59518"></trkpt>
      <trkpt lat="50.05293" lon="-5.59508"></trkpt>
      <trkpt lat="50.05299" lon="-5.59491"></trkpt>
      <trkpt lat="50.05297" lon="-5.59482"></trkpt>
      <trkpt lat="50.05309" lon="-5.59465"></trkpt>
      <trkpt lat="50.05314" lon="-5.59478"></trkpt>
      <trkpt lat="50.05315" lon="-5.59475"></trkpt>
      <trkpt lat="50.05316" lon="-5.5946"></trkpt>
      <trkpt lat="50.0531" lon="-5.59435"></trkpt>
      <trkpt lat="50.05312" lon="-5.59423"></trkpt>
      <trkpt lat="50.05308" lon="-5.59412"></trkpt>
      <trkpt lat="50.05306" lon="-5.59399"></trkpt>
      <trkpt lat="50.05309" lon="-5.59376"></trkpt>
      <trkpt lat="50.05306" lon="-5.59356"></trkpt>
      <trkpt lat="50.05306" lon="-5.5934"></trkpt>
      <trkpt lat="50.05303" lon="-5.5931"></trkpt>
      <trkpt lat="50.053" lon="-5.59304"></trkpt>
      <trkpt lat="50.05302" lon="-5.59277"></trkpt>
      <trkpt lat="50.05299" lon="-5.59265"></trkpt>
      <trkpt lat="50.05306" lon="-5.59255"></trkpt>
      <trkpt lat="50.05307" lon="-5.59237"></trkpt>
      <trkpt lat="50.05311" lon="-5.59227"></trkpt>
      <trkpt lat="50.05297" lon="-5.59182"></trkpt>
      <trkpt lat="50.05288" lon="-5.59165"></trkpt>
      <trkpt lat="50.05273" lon="-5.59117"></trkpt>
      <trkpt lat="50.05263" lon="-5.59117"></trkpt>
      <trkpt lat="50.05257" lon="-5.59113"></trkpt>
      <trkpt lat="50.05241" lon="-5.59087"></trkpt>
      <trkpt lat="50.05233" lon="-5.59078"></trkpt>
      <trkpt lat="50.05225" lon="-5.59066"></trkpt>
      <trkpt lat="50.05207" lon="-5.59047"></trkpt>
      <trkpt lat="50.05193" lon="-5.59039"></trkpt>
      <trkpt lat="50.05186" lon="-5.59036"></trkpt>
      <trkpt lat="50.05185" lon="-5.5903"></trkpt>
      <trkpt lat="50.05176" lon="-5.59022"></trkpt>
      <trkpt lat="50.05168" lon="-5.59007"></trkpt>
      <trkpt lat="50.05176" lon="-5.58995"></trkpt>
      <trkpt lat="50.0518" lon="-5.58992"></trkpt>
      <trkpt lat="50.05183" lon="-5.58981"></trkpt>
      <trkpt lat="50.05187" lon="-5.58974"></trkpt>
      <trkpt lat="50.05191" lon="-5.58973"></trkpt>
      <trkpt lat="50.05195" lon="-5.58965"></trkpt>
      <trkpt lat="50.05194" lon="-5.58958"></trkpt>
      <trkpt lat="50.05199" lon="-5.5895"></trkpt>
      <trkpt lat="50.05199" lon="-5.58937"></trkpt>
      <trkpt lat="50.05204" lon="-5.58921"></trkpt>
      <trkpt lat="50.05218" lon="-5.58894"></trkpt>
      <trkpt lat="50.05238" lon="-5.58849"></trkpt>
      <trkpt lat="50.05246" lon="-5.58837"></trkpt>
      <trkpt lat="50.05258" lon="-5.58824"></trkpt>
      <trkpt lat="50.05267" lon="-5.58807"></trkpt>
      <trkpt lat="50.05275" lon="-5.58801"></trkpt>
      <trkpt lat="50.0529" lon="-5.58797"></trkpt>
      <trkpt lat="50.05291" lon="-5.58779"></trkpt>
      <trkpt lat="50.05289" lon="-5.5875"></trkpt>
      <trkpt lat="50.0529" lon="-5.58741"></trkpt>
      <trkpt lat="50.05282" lon="-5.58731"></trkpt>
      <trkpt lat="50.05278" lon="-5.58721"></trkpt>
      <trkpt lat="50.0528" lon="-5.58709"></trkpt>
      <trkpt lat="50.05288" lon="-5.58702"></trkpt>
      <trkpt lat="50.05294" lon="-5.58693"></trkpt>
      <trkpt lat="50.05297" lon="-5.58686"></trkpt>
      <trkpt lat="50.05297" lon="-5.58675"></trkpt>
      <trkpt lat="50.05315" lon="-5.58676"></trkpt>
      <trkpt lat="50.05323" lon="-5.58663"></trkpt>
      <trkpt lat="50.05326" lon="-5.58664"></trkpt>
      <trkpt lat="50.05333" lon="-5.58656"></trkpt>
      <trkpt lat="50.05338" lon="-5.58635"></trkpt>
      <trkpt lat="50.05338" lon="-5.58628"></trkpt>
      <trkpt lat="50.05345" lon="-5.58624"></trkpt>
      <trkpt lat="50.05348" lon="-5.58619"></trkpt>
      <trkpt lat="50.05348" lon="-5.58609"></trkpt>
      <trkpt lat="50.05354" lon="-5.58608"></trkpt>
      <trkpt lat="50.05358" lon="-5.58598"></trkpt>
      <trkpt lat="50.05364" lon="-5.58591"></trkpt>
      <trkpt lat="50.05372" lon="-5.58575"></trkpt>
      <trkpt lat="50.05371" lon="-5.58566"></trkpt>
      <trkpt lat="50.05374" lon="-5.5855"></trkpt>
      <trkpt lat="50.05373" lon="-5.58542"></trkpt>
      <trkpt lat="50.05375" lon="-5.58528"></trkpt>
      <trkpt lat="50.0538" lon="-5.58523"></trkpt>
      <trkpt lat="50.05385" lon="-5.58506"></trkpt>
      <trkpt lat="50.0539" lon="-5.5848"></trkpt>
      <trkpt lat="50.05393" lon="-5.58479"></trkpt>
      <trkpt lat="50.05394" lon="-5.58476"></trkpt>
      <trkpt lat="50.05391" lon="-5.5847"></trkpt>
      <trkpt lat="50.05391" lon="-5.58465"></trkpt>
      <trkpt lat="50.05398" lon="-5.58451"></trkpt>
      <trkpt lat="50.05394" lon="-5.58441"></trkpt>
      <trkpt lat="50.05392" lon="-5.58426"></trkpt>
      <trkpt lat="50.05393" lon="-5.58398"></trkpt>
      <trkpt lat="50.05396" lon="-5.58391"></trkpt>
      <trkpt lat="50.05398" lon="-5.58332"></trkpt>
      <trkpt lat="50.05391" lon="-5.58277"></trkpt>
      <trkpt lat="50.05386" lon="-5.58231"></trkpt>
      <trkpt lat="50.05387" lon="-5.58191"></trkpt>
      <trkpt lat="50.05385" lon="-5.58128"></trkpt>
      <trkpt lat="50.05371" lon="-5.58024"></trkpt>
      <trkpt lat="50.05365" lon="-5.58003"></trkpt>
      <trkpt lat="50.05357" lon="-5.57995"></trkpt>
      <trkpt lat="50.05352" lon="-5.57986"></trkpt>
      <trkpt lat="50.05337" lon="-5.57981"></trkpt>
      <trkpt lat="50.05332" lon="-5.57972"></trkpt>
      <trkpt lat="50.05323" lon="-5.57943"></trkpt>
      <trkpt lat="50.05318" lon="-5.57908"></trkpt>
      <trkpt lat="50.05315" lon="-5.57874"></trkpt>
      <trkpt lat="50.05316" lon="-5.57845"></trkpt>
      <trkpt lat="50.05323" lon="-5.57801"></trkpt>
      <trkpt lat="50.05347" lon="-5.57708"></trkpt>
      <trkpt lat="50.05354" lon="-5.57662"></trkpt>
      <trkpt lat="50.05362" lon="-5.57651"></trkpt>
      <trkpt lat="50.05371" lon="-5.57632"></trkpt>
      <trkpt lat="50.05374" lon="-5.57619"></trkpt>
      <trkpt lat="50.05393" lon="-5.57593"></trkpt>
      <trkpt lat="50.05398" lon="-5.57594"></trkpt>
      <trkpt lat="50.05403" lon="-5.57587"></trkpt>
      <trkpt lat="50.05405" lon="-5.57581"></trkpt>
      <trkpt lat="50.05423" lon="-5.57546"></trkpt>
      <trkpt lat="50.05428" lon="-5.57542"></trkpt>
      <trkpt lat="50.05433" lon="-5.57544"></trkpt>
      <trkpt lat="50.05455" lon="-5.57524"></trkpt>
      <trkpt lat="50.05471" lon="-5.57523"></trkpt>
      <trkpt lat="50.05507" lon="-5.57494"></trkpt>
      <trkpt lat="50.05527" lon="-5.57489"></trkpt>
      <trkpt lat="50.05551" lon="-5.57471"></trkpt>
      <trkpt lat="50.05552" lon="-5.57461"></trkpt>
      <trkpt lat="50.05544" lon="-5.57441"></trkpt>
      <trkpt lat="50.05548" lon="-5.57419"></trkpt>
      <trkpt lat="50.05547" lon="-5.574"></trkpt>
      <trkpt lat="50.0555" lon="-5.57385"></trkpt>
      <trkpt lat="50.0555" lon="-5.57349"></trkpt>
      <trkpt lat="50.05561" lon="-5.57315"></trkpt>
      <trkpt lat="50.05566" lon="-5.57311"></trkpt>
      <trkpt lat="50.05567" lon="-5.57299"></trkpt>
      <trkpt lat="50.05565" lon="-5.57278"></trkpt>
      <trkpt lat="50.05569" lon="-5.57256"></trkpt>
      <trkpt lat="50.05565" lon="-5.57241"></trkpt>
      <trkpt lat="50.05564" lon="-5.5723"></trkpt>
      <trkpt lat="50.05576" lon="-5.57212"></trkpt>
      <trkpt lat="50.05582" lon="-5.57172"></trkpt>
      <trkpt lat="50.05587" lon="-5.57161"></trkpt>
      <trkpt lat="50.05587" lon="-5.57141"></trkpt>
      <trkpt lat="50.0559" lon="-5.5713"></trkpt>
      <trkpt lat="50.05594" lon="-5.57126"></trkpt>
      <trkpt lat="50.05596" lon="-5.57106"></trkpt>
      <trkpt lat="50.05599" lon="-5.57095"></trkpt>
      <trkpt lat="50.05594" lon="-5.57072"></trkpt>
      <trkpt lat="50.05597" lon="-5.57057"></trkpt>
      <trkpt lat="50.05592" lon="-5.57009"></trkpt>
      <trkpt lat="50.05597" lon="-5.56988"></trkpt>
      <trkpt lat="50.05594" lon="-5.56953"></trkpt>
      <trkpt lat="50.05595" lon="-5.56941"></trkpt>
      <trkpt lat="50.05594" lon="-5.56934"></trkpt>
      <trkpt lat="50.056" lon="-5.56924"></trkpt>
      <trkpt lat="50.05603" lon="-5.56913"></trkpt>
      <trkpt lat="50.05607" lon="-5.56916"></trkpt>
      <trkpt lat="50.05612" lon="-5.56908"></trkpt>
      <trkpt lat="50.05607" lon="-5.56878"></trkpt>
      <trkpt lat="50.05604" lon="-5.56875"></trkpt>
      <trkpt lat="50.05604" lon="-5.56857"></trkpt>
      <trkpt lat="50.0561" lon="-5.56849"></trkpt>
      <trkpt lat="50.05613" lon="-5.56842"></trkpt>
      <trkpt lat="50.05622" lon="-5.56834"></trkpt>
      <trkpt lat="50.05626" lon="-5.56828"></trkpt>
      <trkpt lat="50.05635" lon="-5.56824"></trkpt>
      <trkpt lat="50.05652" lon="-5.56792"></trkpt>
      <trkpt lat="50.05663" lon="-5.56783"></trkpt>
      <trkpt lat="50.05675" lon="-5.56764"></trkpt>
      <trkpt lat="50.05682" lon="-5.56747"></trkpt>
      <trkpt lat="50.05694" lon="-5.56742"></trkpt>
      <trkpt lat="50.05696" lon="-5.56736"></trkpt>
      <trkpt lat="50.05715" lon="-5.56708"></trkpt>
      <trkpt lat="50.05715" lon="-5.56703"></trkpt>
      <trkpt lat="50.05721" lon="-5.56694"></trkpt>
      <trkpt lat="50.05721" lon="-5.56688"></trkpt>
      <trkpt lat="50.05731" lon="-5.56683"></trkpt>
      <trkpt lat="50.05739" lon="-5.56661"></trkpt>
      <trkpt lat="50.05744" lon="-5.5666"></trkpt>
      <trkpt lat="50.05747" lon="-5.56662"></trkpt>
      <trkpt lat="50.05751" lon="-5.56659"></trkpt>
      <trkpt lat="50.05757" lon="-5.56664"></trkpt>
      <trkpt lat="50.05764" lon="-5.56656"></trkpt>
      <trkpt lat="50.05771" lon="-5.56632"></trkpt>
      <trkpt lat="50.05776" lon="-5.56629"></trkpt>
      <trkpt lat="50.05769" lon="-5.56625"></trkpt>
      <trkpt lat="50.0577" lon="-5.56608"></trkpt>
      <trkpt lat="50.05769" lon="-5.56597"></trkpt>
      <trkpt lat="50.05774" lon="-5.56587"></trkpt>
      <trkpt lat="50.05775" lon="-5.56573"></trkpt>
      <trkpt lat="50.05783" lon="-5.56545"></trkpt>
      <trkpt lat="50.05798" lon="-5.56526"></trkpt>
      <trkpt lat="50.05825" lon="-5.56471"></trkpt>
      <trkpt lat="50.05834" lon="-5.56467"></trkpt>
      <trkpt lat="50.05842" lon="-5.56467"></trkpt>
      <trkpt lat="50.05854" lon="-5.56449"></trkpt>
      <trkpt lat="50.05868" lon="-5.56445"></trkpt>
      <trkpt lat="50.05891" lon="-5.56429"></trkpt>
      <trkpt lat="50.05908" lon="-5.56427"></trkpt>
      <trkpt lat="50.05915" lon="-5.56422"></trkpt>
      <trkpt lat="50.05925" lon="-5.56414"></trkpt>
      <trkpt lat="50.05932" lon="-5.564"></trkpt>
      <trkpt lat="50.05941" lon="-5.56396"></trkpt>
      <trkpt lat="50.05952" lon="-5.56401"></trkpt>
      <trkpt lat="50.05972" lon="-5.56402"></trkpt>
      <trkpt lat="50.06018" lon="-5.56416"></trkpt>
      <trkpt lat="50.06032" lon="-5.56418"></trkpt>
      <trkpt lat="50.06037" lon="-5.5641"></trkpt>
      <trkpt lat="50.06046" lon="-5.56411"></trkpt>
      <trkpt lat="50.06053" lon="-5.56424"></trkpt>
      <trkpt lat="50.06066" lon="-5.56431"></trkpt>
      <trkpt lat="50.06081" lon="-5.56424"></trkpt>
      <trkpt lat="50.06095" lon="-5.56429"></trkpt>
      <trkpt lat="50.06112" lon="-5.56432"></trkpt>
      <trkpt lat="50.06127" lon="-5.56427"></trkpt>
      <trkpt lat="50.06139" lon="-5.56416"></trkpt>
      <trkpt lat="50.06144" lon="-5.56416"></trkpt>
      <trkpt lat="50.06149" lon="-5.56424"></trkpt>
      <trkpt lat="50.06187" lon="-5.56462"></trkpt>
      <trkpt lat="50.06206" lon="-5.56471"></trkpt>
      <trkpt lat="50.06219" lon="-5.56473"></trkpt>
      <trkpt lat="50.06224" lon="-5.56467"></trkpt>
      <trkpt lat="50.06256" lon="-5.56453"></trkpt>
      <trkpt lat="50.06266" lon="-5.56441"></trkpt>
      <trkpt lat="50.06269" lon="-5.56431"></trkpt>
      <trkpt lat="50.06262" lon="-5.56414"></trkpt>
      <trkpt lat="50.06263" lon="-5.5641"></trkpt>
      <trkpt lat="50.0627" lon="-5.56403"></trkpt>
      <trkpt lat="50.06274" lon="-5.56386"></trkpt>
      <trkpt lat="50.06283" lon="-5.56368"></trkpt>
      <trkpt lat="50.06285" lon="-5.56334"></trkpt>
    </trkseg>
  </trk>
</gpx>
