<?xml version="1.0" encoding="UTF-8"?>
<gpx version="1.1" creator="swcp-walk (imported from OS Maps route 33841703)"
     xmlns="http://www.topografix.com/GPX/1/1">
  <metadata>
    <name>SWCP24-Lamorna-Marazion</name>
  </metadata>
  <trk>
    <name>SWCP24-Lamorna-Marazion</name>
    <trkseg>
      <trkpt lat="50.06263496065276" lon="-5.563732785141411"></trkpt>
      <trkpt lat="50.06274" lon="-5.56386"></trkpt>
      <trkpt lat="50.06283" lon="-5.56368"></trkpt>
      <trkpt lat="50.06284" lon="-5.56335"></trkpt>
      <trkpt lat="50.06287" lon="-5.56325"></trkpt>
      <trkpt lat="50.06285" lon="-5.56269"></trkpt>
      <trkpt lat="50.06277" lon="-5.5624"></trkpt>
      <trkpt lat="50.06277" lon="-5.5623"></trkpt>
      <trkpt lat="50.0628" lon="-5.56216"></trkpt>
      <trkpt lat="50.06284" lon="-5.56215"></trkpt>
      <trkpt lat="50.06287" lon="-5.5621"></trkpt>
      <trkpt lat="50.06281" lon="-5.56186"></trkpt>
      <trkpt lat="50.06275" lon="-5.5617"></trkpt>
      <trkpt lat="50.06267" lon="-5.56164"></trkpt>
      <trkpt lat="50.0626" lon="-5.5615"></trkpt>
      <trkpt lat="50.06249" lon="-5.56109"></trkpt>
      <trkpt lat="50.06244" lon="-5.56078"></trkpt>
      <trkpt lat="50.06239" lon="-5.56067"></trkpt>
      <trkpt lat="50.06238" lon="-5.56052"></trkpt>
      <trkpt lat="50.06211" lon="-5.5599"></trkpt>
      <trkpt lat="50.0621" lon="-5.55962"></trkpt>
      <trkpt lat="50.06201" lon="-5.5595"></trkpt>
      <trkpt lat="50.06177" lon="-5.55867"></trkpt>
      <trkpt lat="50.06159" lon="-5.55834"></trkpt>
      <trkpt lat="50.06153" lon="-5.55808"></trkpt>
      <trkpt lat="50.06148" lon="-5.55759"></trkpt>
      <trkpt lat="50.06152" lon="-5.55738"></trkpt>
      <trkpt lat="50.06159" lon="-5.55659"></trkpt>
      <trkpt lat="50.06151" lon="-5.55591"></trkpt>
      <trkpt lat="50.06119" lon="-5.55519"></trkpt>
      <trkpt lat="50.06111" lon="-5.55486"></trkpt>
      <trkpt lat="50.06111" lon="-5.55453"></trkpt>
      <trkpt lat="50.06093" lon="-5.5544"></trkpt>
      <trkpt lat="50.06099" lon="-5.55412"></trkpt>
      <trkpt lat="50.06108" lon="-5.55364"></trkpt>
      <trkpt lat="50.06118" lon="-5.55342"></trkpt>
      <trkpt lat="50.06143" lon="-5.55308"></trkpt>
      <trkpt lat="50.062" lon="-5.55243"></trkpt>
      <trkpt lat="50.06218" lon="-5.55211"></trkpt>
      <trkpt lat="50.06233" lon="-5.55169"></trkpt>
      <trkpt lat="50.0625" lon="-5.55135"></trkpt>
      <trkpt lat="50.06289" lon="-5.551"></trkpt>
      <trkpt lat="50.06358" lon="-5.55099"></trkpt>
      <trkpt lat="50.06389" lon="-5.55099"></trkpt>
      <trkpt lat="50.064" lon="-5.55088"></trkpt>
      <trkpt lat="50.06405" lon="-5.55048"></trkpt>
      <trkpt lat="50.06418" lon="-5.55029"></trkpt>
      <trkpt lat="50.06452" lon="-5.55021"></trkpt>
      <trkpt lat="50.06464" lon="-5.55025"></trkpt>
      <trkpt lat="50.06527" lon="-5.54998"></trkpt>
      <trkpt lat="50.06599" lon="-5.54999"></trkpt>
      <trkpt lat="50.06628" lon="-5.55"></trkpt>
      <trkpt lat="50.06649" lon="-5.5498"></trkpt>
      <trkpt lat="50.06646" lon="-5.5497"></trkpt>
      <trkpt lat="50.06682" lon="-5.54929"></trkpt>
      <trkpt lat="50.06702" lon="-5.549"></trkpt>
      <trkpt lat="50.06727" lon="-5.5487"></trkpt>
      <trkpt lat="50.06734" lon="-5.54852"></trkpt>
      <trkpt lat="50.06742" lon="-5.5485"></trkpt>
      <trkpt lat="50.06744" lon="-5.54849"></trkpt>
      <trkpt lat="50.06762" lon="-5.54815"></trkpt>
      <trkpt lat="50.06792" lon="-5.5479"></trkpt>
      <trkpt lat="50.06815" lon="-5.54726"></trkpt>
      <trkpt lat="50.06815" lon="-5.54709"></trkpt>
      <trkpt lat="50.06824" lon="-5.5471"></trkpt>
      <trkpt lat="50.06843" lon="-5.54679"></trkpt>
      <trkpt lat="50.06843" lon="-5.5467"></trkpt>
      <trkpt lat="50.06848" lon="-5.54662"></trkpt>
      <trkpt lat="50.06858" lon="-5.54629"></trkpt>
      <trkpt lat="50.06866" lon="-5.54619"></trkpt>
      <trkpt lat="50.06874" lon="-5.5462"></trkpt>
      <trkpt lat="50.06882" lon="-5.54612"></trkpt>
      <trkpt lat="50.06887" lon="-5.546"></trkpt>
      <trkpt lat="50.06895" lon="-5.54589"></trkpt>
      <trkpt lat="50.06893" lon="-5.54587"></trkpt>
      <trkpt lat="50.06899" lon="-5.54574"></trkpt>
      <trkpt lat="50.06906" lon="-5.54563"></trkpt>
      <trkpt lat="50.06914" lon="-5.54558"></trkpt>
      <trkpt lat="50.06935" lon="-5.54551"></trkpt>
      <trkpt lat="50.06949" lon="-5.54564"></trkpt>
      <trkpt lat="50.06953" lon="-5.54558"></trkpt>
      <trkpt lat="50.0696" lon="-5.54556"></trkpt>
      <trkpt lat="50.06967" lon="-5.54563"></trkpt>
      <trkpt lat="50.06997" lon="-5.54527"></trkpt>
      <trkpt lat="50.0701" lon="-5.54508"></trkpt>
      <trkpt lat="50.07047" lon="-5.54474"></trkpt>
      <trkpt lat="50.0706" lon="-5.5446"></trkpt>
      <trkpt lat="50.07064" lon="-5.54452"></trkpt>
      <trkpt lat="50.07084" lon="-5.54434"></trkpt>
      <trkpt lat="50.07089" lon="-5.54426"></trkpt>
      <trkpt lat="50.07095" lon="-5.54423"></trkpt>
      <trkpt lat="50.07104" lon="-5.54424"></trkpt>
      <trkpt lat="50.07127" lon="-5.54432"></trkpt>
      <trkpt lat="50.07134" lon="-5.54438"></trkpt>
      <trkpt lat="50.07158" lon="-5.5444"></trkpt>
      <trkpt lat="50.0723" lon="-5.54453"></trkpt>
      <trkpt lat="50.07313" lon="-5.54426"></trkpt>
      <trkpt lat="50.07337" lon="-5.54429"></trkpt>
      <trkpt lat="50.07352" lon="-5.54425"></trkpt>
      <trkpt lat="50.07379" lon="-5.54414"></trkpt>
      <trkpt lat="50.07391" lon="-5.54401"></trkpt>
      <trkpt lat="50.074" lon="-5.54386"></trkpt>
      <trkpt lat="50.07411" lon="-5.54374"></trkpt>
      <trkpt lat="50.0743" lon="-5.54363"></trkpt>
      <trkpt lat="50.07438" lon="-5.54355"></trkpt>
      <trkpt lat="50.07484" lon="-5.54277"></trkpt>
      <trkpt lat="50.07504" lon="-5.54252"></trkpt>
      <trkpt lat="50.07526" lon="-5.54242"></trkpt>
      <trkpt lat="50.07582" lon="-5.54225"></trkpt>
      <trkpt lat="50.07632" lon="-5.54192"></trkpt>
      <trkpt lat="50.07656" lon="-5.54186"></trkpt>
      <trkpt lat="50.07712" lon="-5.54192"></trkpt>
      <trkpt lat="50.07747" lon="-5.5413"></trkpt>
      <trkpt lat="50.07781" lon="-5.54093"></trkpt>
      <trkpt lat="50.07815" lon="-5.54067"></trkpt>
      <trkpt lat="50.07885" lon="-5.54034"></trkpt>
      <trkpt lat="50.07927" lon="-5.54011"></trkpt>
      <trkpt lat="50.07954" lon="-5.54005"></trkpt>
      <trkpt lat="50.08005" lon="-5.54008"></trkpt>
      <trkpt lat="50.08063" lon="-5.54003"></trkpt>
      <trkpt lat="50.08088" lon="-5.53993"></trkpt>
      <trkpt lat="50.08125" lon="-5.53982"></trkpt>
      <trkpt lat="50.08107" lon="-5.53988"></trkpt>
      <trkpt lat="50.08107" lon="-5.53979"></trkpt>
      <trkpt lat="50.08079" lon="-5.53925"></trkpt>
      <trkpt lat="50.08078" lon="-5.5391"></trkpt>
      <trkpt lat="50.08079" lon="-5.53925"></trkpt>
      <trkpt lat="50.08157" lon="-5.53964"></trkpt>
      <trkpt lat="50.0816" lon="-5.53961"></trkpt>
      <trkpt lat="50.08197" lon="-5.53959"></trkpt>
      <trkpt lat="50.08243" lon="-5.53981"></trkpt>
      <trkpt lat="50.08249" lon="-5.53963"></trkpt>
      <trkpt lat="50.08255" lon="-5.53955"></trkpt>
      <trkpt lat="50.08258" lon="-5.53943"></trkpt>
      <trkpt lat="50.08277" lon="-5.53952"></trkpt>
      <trkpt lat="50.08299" lon="-5.5394"></trkpt>
      <trkpt lat="50.08308" lon="-5.53929"></trkpt>
      <trkpt lat="50.08313" lon="-5.53918"></trkpt>
      <trkpt lat="50.0832" lon="-5.53913"></trkpt>
      <trkpt lat="50.08336" lon="-5.53909"></trkpt>
      <trkpt lat="50.08341" lon="-5.5391"></trkpt>
      <trkpt lat="50.08343" lon="-5.53913"></trkpt>
      <trkpt lat="50.08347" lon="-5.53911"></trkpt>
      <trkpt lat="50.08361" lon="-5.53893"></trkpt>
      <trkpt lat="50.08373" lon="-5.5386"></trkpt>
      <trkpt lat="50.08379" lon="-5.53826"></trkpt>
      <trkpt lat="50.08376" lon="-5.5383"></trkpt>
      <trkpt lat="50.08381" lon="-5.53818"></trkpt>
      <trkpt lat="50.08372" lon="-5.53786"></trkpt>
      <trkpt lat="50.08378" lon="-5.53768"></trkpt>
      <trkpt lat="50.08382" lon="-5.53739"></trkpt>
      <trkpt lat="50.08388" lon="-5.53719"></trkpt>
      <trkpt lat="50.08399" lon="-5.5371"></trkpt>
      <trkpt lat="50.08401" lon="-5.53713"></trkpt>
      <trkpt lat="50.0842" lon="-5.53674"></trkpt>
      <trkpt lat="50.08432" lon="-5.5364"></trkpt>
      <trkpt lat="50.08434" lon="-5.53618"></trkpt>
      <trkpt lat="50.08443" lon="-5.53608"></trkpt>
      <trkpt lat="50.08451" lon="-5.5359"></trkpt>
      <trkpt lat="50.08458" lon="-5.53588"></trkpt>
      <trkpt lat="50.0848" lon="-5.53593"></trkpt>
      <trkpt lat="50.08496" lon="-5.53591"></trkpt>
      <trkpt lat="50.08504" lon="-5.53599"></trkpt>
      <trkpt lat="50.08523" lon="-5.53603"></trkpt>
      <trkpt lat="50.08528" lon="-5.53599"></trkpt>
      <trkpt lat="50.08535" lon="-5.53586"></trkpt>
      <trkpt lat="50.08552" lon="-5.53567"></trkpt>
      <trkpt lat="50.08573" lon="-5.53547"></trkpt>
      <trkpt lat="50.08552" lon="-5.53567"></trkpt>
      <trkpt lat="50.08535" lon="-5.53586"></trkpt>
      <trkpt lat="50.08528" lon="-5.53599"></trkpt>
      <trkpt lat="50.08523" lon="-5.53603"></trkpt>
      <trkpt lat="50.08533" lon="-5.53609"></trkpt>
      <trkpt lat="50.08535" lon="-5.53605"></trkpt>
      <trkpt lat="50.08538" lon="-5.53611"></trkpt>
      <trkpt lat="50.08542" lon="-5.53606"></trkpt>
      <trkpt lat="50.08546" lon="-5.53606"></trkpt>
      <trkpt lat="50.08552" lon="-5.53593"></trkpt>
      <trkpt lat="50.08584" lon="-5.53561"></trkpt>
      <trkpt lat="50.08626" lon="-5.53528"></trkpt>
      <trkpt lat="50.08677" lon="-5.53493"></trkpt>
      <trkpt lat="50.08715" lon="-5.53475"></trkpt>
      <trkpt lat="50.08728" lon="-5.53473"></trkpt>
      <trkpt lat="50.08768" lon="-5.53441"></trkpt>
      <trkpt lat="50.08804" lon="-5.53407"></trkpt>
      <trkpt lat="50.0882" lon="-5.53395"></trkpt>
      <trkpt lat="50.08834" lon="-5.53387"></trkpt>
      <trkpt lat="50.08852" lon="-5.53384"></trkpt>
      <trkpt lat="50.08866" lon="-5.53385"></trkpt>
      <trkpt lat="50.08878" lon="-5.53389"></trkpt>
      <trkpt lat="50.08905" lon="-5.5341"></trkpt>
      <trkpt lat="50.08922" lon="-5.53433"></trkpt>
      <trkpt lat="50.08948" lon="-5.53485"></trkpt>
      <trkpt lat="50.0904" lon="-5.5357"></trkpt>
      <trkpt lat="50.09093" lon="-5.53622"></trkpt>
      <trkpt lat="50.09126" lon="-5.5366"></trkpt>
      <trkpt lat="50.09148" lon="-5.53688"></trkpt>
      <trkpt lat="50.09173" lon="-5.5373"></trkpt>
      <trkpt lat="50.09202" lon="-5.53772"></trkpt>
      <trkpt lat="50.09227" lon="-5.53794"></trkpt>
      <trkpt lat="50.09272" lon="-5.53829"></trkpt>
      <trkpt lat="50.09371" lon="-5.53895"></trkpt>
      <trkpt lat="50.094" lon="-5.53902"></trkpt>
      <trkpt lat="50.09501" lon="-5.53897"></trkpt>
      <trkpt lat="50.09521" lon="-5.53895"></trkpt>
      <trkpt lat="50.09561" lon="-5.53897"></trkpt>
      <trkpt lat="50.09593" lon="-5.53905"></trkpt>
      <trkpt lat="50.09627" lon="-5.53919"></trkpt>
      <trkpt lat="50.09669" lon="-5.53926"></trkpt>
      <trkpt lat="50.09687" lon="-5.53938"></trkpt>
      <trkpt lat="50.0971" lon="-5.53953"></trkpt>
      <trkpt lat="50.09751" lon="-5.54"></trkpt>
      <trkpt lat="50.09777" lon="-5.54046"></trkpt>
      <trkpt lat="50.09818" lon="-5.5413"></trkpt>
      <trkpt lat="50.09815" lon="-5.54133"></trkpt>
      <trkpt lat="50.09819" lon="-5.54144"></trkpt>
      <trkpt lat="50.09806" lon="-5.54161"></trkpt>
      <trkpt lat="50.09797" lon="-5.5414"></trkpt>
      <trkpt lat="50.09806" lon="-5.54161"></trkpt>
      <trkpt lat="50.09846" lon="-5.54238"></trkpt>
      <trkpt lat="50.09889" lon="-5.54336"></trkpt>
      <trkpt lat="50.09903" lon="-5.54361"></trkpt>
      <trkpt lat="50.09919" lon="-5.54378"></trkpt>
      <trkpt lat="50.09936" lon="-5.54391"></trkpt>
      <trkpt lat="50.09972" lon="-5.54413"></trkpt>
      <trkpt lat="50.09999" lon="-5.54429"></trkpt>
      <trkpt lat="50.10065" lon="-5.54484"></trkpt>
      <trkpt lat="50.10083" lon="-5.54514"></trkpt>
      <trkpt lat="50.10129" lon="-5.5457"></trkpt>
      <trkpt lat="50.10137" lon="-5.54593"></trkpt>
      <trkpt lat="50.10174" lon="-5.54661"></trkpt>
      <trkpt lat="50.10194" lon="-5.54704"></trkpt>
      <trkpt lat="50.102" lon="-5.5474"></trkpt>
      <trkpt lat="50.1021" lon="-5.54762"></trkpt>
      <trkpt lat="50.10225" lon="-5.54785"></trkpt>
      <trkpt lat="50.10237" lon="-5.54795"></trkpt>
      <trkpt lat="50.10247" lon="-5.54809"></trkpt>
      <trkpt lat="50.10306" lon="-5.5493"></trkpt>
      <trkpt lat="50.1032" lon="-5.54953"></trkpt>
      <trkpt lat="50.1033" lon="-5.54961"></trkpt>
      <trkpt lat="50.10337" lon="-5.54962"></trkpt>
      <trkpt lat="50.1039" lon="-5.54952"></trkpt>
      <trkpt lat="50.10517" lon="-5.54917"></trkpt>
      <trkpt lat="50.10579" lon="-5.5493"></trkpt>
      <trkpt lat="50.106" lon="-5.54938"></trkpt>
      <trkpt lat="50.1062" lon="-5.54952"></trkpt>
      <trkpt lat="50.10638" lon="-5.54977"></trkpt>
      <trkpt lat="50.10654" lon="-5.54955"></trkpt>
      <trkpt lat="50.10674" lon="-5.54939"></trkpt>
      <trkpt lat="50.10672" lon="-5.54904"></trkpt>
      <trkpt lat="50.10678" lon="-5.54883"></trkpt>
      <trkpt lat="50.10698" lon="-5.54856"></trkpt>
      <trkpt lat="50.10711" lon="-5.54832"></trkpt>
      <trkpt lat="50.10733" lon="-5.5481"></trkpt>
      <trkpt lat="50.10742" lon="-5.54827"></trkpt>
      <trkpt lat="50.10796" lon="-5.54796"></trkpt>
      <trkpt lat="50.10819" lon="-5.5478"></trkpt>
      <trkpt lat="50.10833" lon="-5.5477"></trkpt>
      <trkpt lat="50.10865" lon="-5.54736"></trkpt>
      <trkpt lat="50.10899" lon="-5.54693"></trkpt>
      <trkpt lat="50.10911" lon="-5.54715"></trkpt>
      <trkpt lat="50.10921" lon="-5.54703"></trkpt>
      <trkpt lat="50.10924" lon="-5.54706"></trkpt>
      <trkpt lat="50.10927" lon="-5.54703"></trkpt>
      <trkpt lat="50.10927" lon="-5.54697"></trkpt>
      <trkpt lat="50.10936" lon="-5.54685"></trkpt>
      <trkpt lat="50.10948" lon="-5.54685"></trkpt>
      <trkpt lat="50.10949" lon="-5.54679"></trkpt>
      <trkpt lat="50.10957" lon="-5.54679"></trkpt>
      <trkpt lat="50.10962" lon="-5.54672"></trkpt>
      <trkpt lat="50.10964" lon="-5.54661"></trkpt>
      <trkpt lat="50.10985" lon="-5.54653"></trkpt>
      <trkpt lat="50.10989" lon="-5.54638"></trkpt>
      <trkpt lat="50.10996" lon="-5.54631"></trkpt>
      <trkpt lat="50.11008" lon="-5.54626"></trkpt>
      <trkpt lat="50.1103" lon="-5.546"></trkpt>
      <trkpt lat="50.11057" lon="-5.54563"></trkpt>
      <trkpt lat="50.11091" lon="-5.54503"></trkpt>
      <trkpt lat="50.11105" lon="-5.54455"></trkpt>
      <trkpt lat="50.11106" lon="-5.5441"></trkpt>
      <trkpt lat="50.11114" lon="-5.54386"></trkpt>
      <trkpt lat="50.1112" lon="-5.54374"></trkpt>
      <trkpt lat="50.11123" lon="-5.54376"></trkpt>
      <trkpt lat="50.1114" lon="-5.54336"></trkpt>
      <trkpt lat="50.11195" lon="-5.54217"></trkpt>
      <trkpt lat="50.11255" lon="-5.54082"></trkpt>
      <trkpt lat="50.11261" lon="-5.54074"></trkpt>
      <trkpt lat="50.11263" lon="-5.54066"></trkpt>
      <trkpt lat="50.11268" lon="-5.54064"></trkpt>
      <trkpt lat="50.1128" lon="-5.54035"></trkpt>
      <trkpt lat="50.11347" lon="-5.53904"></trkpt>
      <trkpt lat="50.11372" lon="-5.5384"></trkpt>
      <trkpt lat="50.11362" lon="-5.53829"></trkpt>
      <trkpt lat="50.1142" lon="-5.53676"></trkpt>
      <trkpt lat="50.1142" lon="-5.53677"></trkpt>
      <trkpt lat="50.1146" lon="-5.53558"></trkpt>
      <trkpt lat="50.11488" lon="-5.53431"></trkpt>
      <trkpt lat="50.11519" lon="-5.533"></trkpt>
      <trkpt lat="50.11525" lon="-5.53269"></trkpt>
      <trkpt lat="50.11522" lon="-5.5324"></trkpt>
      <trkpt lat="50.11523" lon="-5.53198"></trkpt>
      <trkpt lat="50.11525" lon="-5.53174"></trkpt>
      <trkpt lat="50.11529" lon="-5.53149"></trkpt>
      <trkpt lat="50.11538" lon="-5.53121"></trkpt>
      <trkpt lat="50.11551" lon="-5.53098"></trkpt>
      <trkpt lat="50.11559" lon="-5.53098"></trkpt>
      <trkpt lat="50.11562" lon="-5.53105"></trkpt>
      <trkpt lat="50.11579" lon="-5.53087"></trkpt>
      <trkpt lat="50.11596" lon="-5.5308"></trkpt>
      <trkpt lat="50.11595" lon="-5.5308"></trkpt>
      <trkpt lat="50.11601" lon="-5.5308"></trkpt>
      <trkpt lat="50.11607" lon="-5.53084"></trkpt>
      <trkpt lat="50.11652" lon="-5.53138"></trkpt>
      <trkpt lat="50.11707" lon="-5.53181"></trkpt>
      <trkpt lat="50.11797" lon="-5.53287"></trkpt>
      <trkpt lat="50.11815" lon="-5.53304"></trkpt>
      <trkpt lat="50.11839" lon="-5.53322"></trkpt>
      <trkpt lat="50.11858" lon="-5.53332"></trkpt>
      <trkpt lat="50.11885" lon="-5.53338"></trkpt>
      <trkpt lat="50.11904" lon="-5.5334"></trkpt>
      <trkpt lat="50.11927" lon="-5.53337"></trkpt>
      <trkpt lat="50.11945" lon="-5.5333"></trkpt>
      <trkpt lat="50.11942" lon="-5.5331"></trkpt>
      <trkpt lat="50.11943" lon="-5.533"></trkpt>
      <trkpt lat="50.11946" lon="-5.53292"></trkpt>
      <trkpt lat="50.11957" lon="-5.53276"></trkpt>
      <trkpt lat="50.1206" lon="-5.53158"></trkpt>
      <trkpt lat="50.12083" lon="-5.53124"></trkpt>
      <trkpt lat="50.1208" lon="-5.53119"></trkpt>
      <trkpt lat="50.1209" lon="-5.53103"></trkpt>
      <trkpt lat="50.12096" lon="-5.53093"></trkpt>
      <trkpt lat="50.12106" lon="-5.53092"></trkpt>
      <trkpt lat="50.12128" lon="-5.53112"></trkpt>
      <trkpt lat="50.12173" lon="-5.53139"></trkpt>
      <trkpt lat="50.12184" lon="-5.53141"></trkpt>
      <trkpt lat="50.12197" lon="-5.53133"></trkpt>
      <trkpt lat="50.12204" lon="-5.53123"></trkpt>
      <trkpt lat="50.12218" lon="-5.53093"></trkpt>
      <trkpt lat="50.12227" lon="-5.53081"></trkpt>
      <trkpt lat="50.12235" lon="-5.53073"></trkpt>
      <trkpt lat="50.12249" lon="-5.53064"></trkpt>
      <trkpt lat="50.12258" lon="-5.53061"></trkpt>
      <trkpt lat="50.12269" lon="-5.53062"></trkpt>
      <trkpt lat="50.12281" lon="-5.53072"></trkpt>
      <trkpt lat="50.12299" lon="-5.53079"></trkpt>
      <trkpt lat="50.12298" lon="-5.53091"></trkpt>
      <trkpt lat="50.123" lon="-5.53099"></trkpt>
      <trkpt lat="50.12297" lon="-5.53102"></trkpt>
      <trkpt lat="50.12299" lon="-5.53105"></trkpt>
      <trkpt lat="50.12318" lon="-5.53088"></trkpt>
      <trkpt lat="50.12377" lon="-5.53024"></trkpt>
      <trkpt lat="50.1243" lon="-5.52949"></trkpt>
      <trkpt lat="50.1245" lon="-5.52913"></trkpt>
      <trkpt lat="50.12476" lon="-5.52872"></trkpt>
      <trkpt lat="50.12513" lon="-5.52788"></trkpt>
      <trkpt lat="50.12535" lon="-5.52732"></trkpt>
      <trkpt lat="50.12551" lon="-5.52685"></trkpt>
      <trkpt lat="50.12564" lon="-5.52642"></trkpt>
      <trkpt lat="50.12605" lon="-5.52498"></trkpt>
      <trkpt lat="50.12617" lon="-5.52446"></trkpt>
      <trkpt lat="50.12616" lon="-5.52446"></trkpt>
      <trkpt lat="50.1263" lon="-5.52381"></trkpt>
      <trkpt lat="50.12644" lon="-5.52242"></trkpt>
      <trkpt lat="50.12658" lon="-5.52043"></trkpt>
      <trkpt lat="50.12661" lon="-5.51978"></trkpt>
      <trkpt lat="50.12669" lon="-5.51956"></trkpt>
      <trkpt lat="50.12674" lon="-5.51892"></trkpt>
      <trkpt lat="50.12689" lon="-5.51776"></trkpt>
      <trkpt lat="50.12722" lon="-5.51468"></trkpt>
      <trkpt lat="50.1275" lon="-5.51258"></trkpt>
      <trkpt lat="50.12761" lon="-5.51159"></trkpt>
      <trkpt lat="50.1278" lon="-5.50879"></trkpt>
      <trkpt lat="50.12801" lon="-5.50525"></trkpt>
      <trkpt lat="50.12793" lon="-5.50502"></trkpt>
      <trkpt lat="50.12807" lon="-5.50272"></trkpt>
      <trkpt lat="50.12806" lon="-5.5025"></trkpt>
      <trkpt lat="50.1281" lon="-5.50227"></trkpt>
      <trkpt lat="50.12814" lon="-5.50218"></trkpt>
      <trkpt lat="50.12819" lon="-5.50215"></trkpt>
      <trkpt lat="50.12826" lon="-5.502"></trkpt>
      <trkpt lat="50.12833" lon="-5.50123"></trkpt>
      <trkpt lat="50.12847" lon="-5.50033"></trkpt>
      <trkpt lat="50.12857" lon="-5.4997"></trkpt>
      <trkpt lat="50.12865" lon="-5.4995"></trkpt>
      <trkpt lat="50.1286" lon="-5.49946"></trkpt>
      <trkpt lat="50.12884" lon="-5.49773"></trkpt>
      <trkpt lat="50.12895" lon="-5.49645"></trkpt>
      <trkpt lat="50.12899" lon="-5.49453"></trkpt>
      <trkpt lat="50.12873" lon="-5.49147"></trkpt>
      <trkpt lat="50.12864" lon="-5.49064"></trkpt>
      <trkpt lat="50.12867" lon="-5.49052"></trkpt>
      <trkpt lat="50.12872" lon="-5.49046"></trkpt>
      <trkpt lat="50.12859" lon="-5.48936"></trkpt>
      <trkpt lat="50.12844" lon="-5.48846"></trkpt>
      <trkpt lat="50.12846" lon="-5.48841"></trkpt>
      <trkpt lat="50.12839" lon="-5.48804"></trkpt>
      <trkpt lat="50.12813" lon="-5.48486"></trkpt>
      <trkpt lat="50.12811" lon="-5.48482"></trkpt>
      <trkpt lat="50.12797" lon="-5.48388"></trkpt>
      <trkpt lat="50.1279" lon="-5.48341"></trkpt>
      <trkpt lat="50.12757" lon="-5.48196"></trkpt>
      <trkpt lat="50.12751" lon="-5.48132"></trkpt>
      <trkpt lat="50.12728" lon="-5.48026"></trkpt>
      <trkpt lat="50.12729" lon="-5.48009"></trkpt>
      <trkpt lat="50.12724" lon="-5.47992"></trkpt>
      <trkpt lat="50.12702" lon="-5.4799"></trkpt>
      <trkpt lat="50.12665" lon="-5.47954"></trkpt>
      <trkpt lat="50.12578" lon="-5.47881"></trkpt>
      <trkpt lat="50.12574" lon="-5.4788"></trkpt>
      <trkpt lat="50.12563" lon="-5.47892"></trkpt>
      <trkpt lat="50.12527" lon="-5.4783"></trkpt>
      <trkpt lat="50.12504" lon="-5.47798"></trkpt>
      <trkpt lat="50.12468" lon="-5.47739"></trkpt>
      <trkpt lat="50.12444" lon="-5.47692"></trkpt>
      <trkpt lat="50.12396" lon="-5.47607"></trkpt>
      <trkpt lat="50.12396" lon="-5.476"></trkpt>
      <trkpt lat="50.12405" lon="-5.47591"></trkpt>
      <trkpt lat="50.12383" lon="-5.47522"></trkpt>
      <trkpt lat="50.12365" lon="-5.47476"></trkpt>
      <trkpt lat="50.12367" lon="-5.47466"></trkpt>
      <trkpt lat="50.12357" lon="-5.47451"></trkpt>
      <trkpt lat="50.12346" lon="-5.47427"></trkpt>
      <trkpt lat="50.12343" lon="-5.47416"></trkpt>
      <trkpt lat="50.12343" lon="-5.47401"></trkpt>
      <trkpt lat="50.1235" lon="-5.47339"></trkpt>
      <trkpt lat="50.1235" lon="-5.47302"></trkpt>
      <trkpt lat="50.12346" lon="-5.47281"></trkpt>
      <trkpt lat="50.12338" lon="-5.47285"></trkpt>
      <trkpt lat="50.12328" lon="-5.473"></trkpt>
    </trkseg>
  </trk>
</gpx>
