<?xml version="1.0" encoding="UTF-8"?>
<gpx version="1.1" creator="swcp-walk (imported from OS Maps route 33843959)"
     xmlns="http://www.topografix.com/GPX/1/1">
  <metadata>
    <name>SWCP25-Marazion-Porthlevan</name>
  </metadata>
  <trk>
    <name>SWCP25-Marazion-Porthlevan</name>
    <trkseg>
      <trkpt lat="50.12380802368878" lon="-5.459213239373241"></trkpt>
      <trkpt lat="50.1238" lon="-5.45917"></trkpt>
      <trkpt lat="50.12364" lon="-5.45917"></trkpt>
      <trkpt lat="50.12315" lon="-5.45923"></trkpt>
      <trkpt lat="50.12301" lon="-5.45932"></trkpt>
      <trkpt lat="50.123" lon="-5.45932"></trkpt>
      <trkpt lat="50.12289" lon="-5.45942"></trkpt>
      <trkpt lat="50.12279" lon="-5.45957"></trkpt>
      <trkpt lat="50.1228" lon="-5.45978"></trkpt>
      <trkpt lat="50.122432995598984" lon="-5.4594119129468766"></trkpt>
      <trkpt lat="50.12252" lon="-5.45935"></trkpt>
      <trkpt lat="50.12228" lon="-5.45855"></trkpt>
      <trkpt lat="50.12229" lon="-5.45843"></trkpt>
      <trkpt lat="50.1227" lon="-5.45826"></trkpt>
      <trkpt lat="50.12249" lon="-5.45749"></trkpt>
      <trkpt lat="50.12233" lon="-5.45742"></trkpt>
      <trkpt lat="50.12227" lon="-5.45732"></trkpt>
      <trkpt lat="50.12262" lon="-5.45691"></trkpt>
      <trkpt lat="50.12268" lon="-5.45679"></trkpt>
      <trkpt lat="50.12275" lon="-5.45667"></trkpt>
      <trkpt lat="50.12254" lon="-5.45631"></trkpt>
      <trkpt lat="50.12221" lon="-5.45589"></trkpt>
      <trkpt lat="50.12181" lon="-5.45565"></trkpt>
      <trkpt lat="50.12175" lon="-5.45568"></trkpt>
      <trkpt lat="50.12163" lon="-5.45588"></trkpt>
      <trkpt lat="50.12147" lon="-5.45626"></trkpt>
      <trkpt lat="50.12139" lon="-5.45636"></trkpt>
      <trkpt lat="50.12121" lon="-5.45676"></trkpt>
      <trkpt lat="50.12106" lon="-5.45717"></trkpt>
      <trkpt lat="50.12089" lon="-5.45742"></trkpt>
      <trkpt lat="50.1208" lon="-5.45751"></trkpt>
      <trkpt lat="50.12071" lon="-5.45754"></trkpt>
      <trkpt lat="50.12066" lon="-5.45752"></trkpt>
      <trkpt lat="50.12054" lon="-5.45743"></trkpt>
      <trkpt lat="50.12051" lon="-5.45735"></trkpt>
      <trkpt lat="50.12046" lon="-5.45706"></trkpt>
      <trkpt lat="50.1204" lon="-5.45698"></trkpt>
      <trkpt lat="50.12034" lon="-5.45693"></trkpt>
      <trkpt lat="50.12029" lon="-5.45692"></trkpt>
      <trkpt lat="50.12022" lon="-5.45693"></trkpt>
      <trkpt lat="50.12014" lon="-5.457"></trkpt>
      <trkpt lat="50.11995" lon="-5.45727"></trkpt>
      <trkpt lat="50.11971" lon="-5.4575"></trkpt>
      <trkpt lat="50.11952" lon="-5.4576"></trkpt>
      <trkpt lat="50.11939" lon="-5.45762"></trkpt>
      <trkpt lat="50.11934" lon="-5.45749"></trkpt>
      <trkpt lat="50.11931" lon="-5.45734"></trkpt>
      <trkpt lat="50.11934" lon="-5.45681"></trkpt>
      <trkpt lat="50.11917" lon="-5.45608"></trkpt>
      <trkpt lat="50.11908" lon="-5.45586"></trkpt>
      <trkpt lat="50.11904" lon="-5.45553"></trkpt>
      <trkpt lat="50.11856" lon="-5.45399"></trkpt>
      <trkpt lat="50.11844" lon="-5.45389"></trkpt>
      <trkpt lat="50.1183" lon="-5.45372"></trkpt>
      <trkpt lat="50.1181" lon="-5.45355"></trkpt>
      <trkpt lat="50.11802" lon="-5.45344"></trkpt>
      <trkpt lat="50.11799" lon="-5.4534"></trkpt>
      <trkpt lat="50.11788" lon="-5.4534"></trkpt>
      <trkpt lat="50.11739" lon="-5.45329"></trkpt>
      <trkpt lat="50.11736" lon="-5.4533"></trkpt>
      <trkpt lat="50.1173" lon="-5.45341"></trkpt>
      <trkpt lat="50.11725" lon="-5.45344"></trkpt>
      <trkpt lat="50.11691" lon="-5.45326"></trkpt>
      <trkpt lat="50.11683" lon="-5.45319"></trkpt>
      <trkpt lat="50.11678" lon="-5.45283"></trkpt>
      <trkpt lat="50.11675" lon="-5.45213"></trkpt>
      <trkpt lat="50.11669" lon="-5.452"></trkpt>
      <trkpt lat="50.11642" lon="-5.45156"></trkpt>
      <trkpt lat="50.11635" lon="-5.45141"></trkpt>
      <trkpt lat="50.11629" lon="-5.4516"></trkpt>
      <trkpt lat="50.11621" lon="-5.45173"></trkpt>
      <trkpt lat="50.11603" lon="-5.45191"></trkpt>
      <trkpt lat="50.11583" lon="-5.45219"></trkpt>
      <trkpt lat="50.11577" lon="-5.45224"></trkpt>
      <trkpt lat="50.11551" lon="-5.45233"></trkpt>
      <trkpt lat="50.11532" lon="-5.45232"></trkpt>
      <trkpt lat="50.11526" lon="-5.45263"></trkpt>
      <trkpt lat="50.11521" lon="-5.45275"></trkpt>
      <trkpt lat="50.11507" lon="-5.45288"></trkpt>
      <trkpt lat="50.11473" lon="-5.45302"></trkpt>
      <trkpt lat="50.11456" lon="-5.45313"></trkpt>
      <trkpt lat="50.11423" lon="-5.45328"></trkpt>
      <trkpt lat="50.11417" lon="-5.45324"></trkpt>
      <trkpt lat="50.11413" lon="-5.45308"></trkpt>
      <trkpt lat="50.11415" lon="-5.45296"></trkpt>
      <trkpt lat="50.11414" lon="-5.45285"></trkpt>
      <trkpt lat="50.11408" lon="-5.4527"></trkpt>
      <trkpt lat="50.11409" lon="-5.45209"></trkpt>
      <trkpt lat="50.11407" lon="-5.45162"></trkpt>
      <trkpt lat="50.11407" lon="-5.45145"></trkpt>
      <trkpt lat="50.11405" lon="-5.45134"></trkpt>
      <trkpt lat="50.11386" lon="-5.45083"></trkpt>
      <trkpt lat="50.11377" lon="-5.45068"></trkpt>
      <trkpt lat="50.11367" lon="-5.45058"></trkpt>
      <trkpt lat="50.11352" lon="-5.45035"></trkpt>
      <trkpt lat="50.11334" lon="-5.45015"></trkpt>
      <trkpt lat="50.11324" lon="-5.45006"></trkpt>
      <trkpt lat="50.11314" lon="-5.45004"></trkpt>
      <trkpt lat="50.11275" lon="-5.45013"></trkpt>
      <trkpt lat="50.11264" lon="-5.45012"></trkpt>
      <trkpt lat="50.11267" lon="-5.44994"></trkpt>
      <trkpt lat="50.11274" lon="-5.44976"></trkpt>
      <trkpt lat="50.11282" lon="-5.44939"></trkpt>
      <trkpt lat="50.11282" lon="-5.44927"></trkpt>
      <trkpt lat="50.11274" lon="-5.44893"></trkpt>
      <trkpt lat="50.11264" lon="-5.44882"></trkpt>
      <trkpt lat="50.11215" lon="-5.44841"></trkpt>
      <trkpt lat="50.11206" lon="-5.44839"></trkpt>
      <trkpt lat="50.11193" lon="-5.44821"></trkpt>
      <trkpt lat="50.11183" lon="-5.44804"></trkpt>
      <trkpt lat="50.11163" lon="-5.44788"></trkpt>
      <trkpt lat="50.11159" lon="-5.44785"></trkpt>
      <trkpt lat="50.11154" lon="-5.44773"></trkpt>
      <trkpt lat="50.11154" lon="-5.44766"></trkpt>
      <trkpt lat="50.11174" lon="-5.44709"></trkpt>
      <trkpt lat="50.11217" lon="-5.446"></trkpt>
      <trkpt lat="50.11235" lon="-5.44578"></trkpt>
      <trkpt lat="50.11251" lon="-5.4453"></trkpt>
      <trkpt lat="50.11278" lon="-5.44489"></trkpt>
      <trkpt lat="50.1129" lon="-5.44461"></trkpt>
      <trkpt lat="50.11295" lon="-5.44438"></trkpt>
      <trkpt lat="50.11293" lon="-5.44364"></trkpt>
      <trkpt lat="50.11297" lon="-5.44347"></trkpt>
      <trkpt lat="50.11314" lon="-5.44335"></trkpt>
      <trkpt lat="50.11317" lon="-5.44328"></trkpt>
      <trkpt lat="50.11323" lon="-5.44291"></trkpt>
      <trkpt lat="50.1132" lon="-5.44277"></trkpt>
      <trkpt lat="50.11321" lon="-5.4427"></trkpt>
      <trkpt lat="50.11315" lon="-5.44267"></trkpt>
      <trkpt lat="50.11316" lon="-5.44187"></trkpt>
      <trkpt lat="50.1131" lon="-5.44169"></trkpt>
      <trkpt lat="50.1129" lon="-5.4413"></trkpt>
      <trkpt lat="50.11287" lon="-5.44124"></trkpt>
      <trkpt lat="50.11284" lon="-5.44102"></trkpt>
      <trkpt lat="50.11282" lon="-5.44026"></trkpt>
      <trkpt lat="50.1128" lon="-5.44012"></trkpt>
      <trkpt lat="50.11272" lon="-5.44001"></trkpt>
      <trkpt lat="50.11266" lon="-5.43986"></trkpt>
      <trkpt lat="50.11262" lon="-5.43964"></trkpt>
      <trkpt lat="50.1125" lon="-5.43963"></trkpt>
      <trkpt lat="50.11166" lon="-5.43984"></trkpt>
      <trkpt lat="50.11163" lon="-5.43983"></trkpt>
      <trkpt lat="50.11129" lon="-5.43948"></trkpt>
      <trkpt lat="50.11112" lon="-5.43972"></trkpt>
      <trkpt lat="50.1111" lon="-5.43972"></trkpt>
      <trkpt lat="50.11106" lon="-5.43968"></trkpt>
      <trkpt lat="50.11106" lon="-5.43961"></trkpt>
      <trkpt lat="50.11097" lon="-5.43934"></trkpt>
      <trkpt lat="50.11082" lon="-5.4388"></trkpt>
      <trkpt lat="50.11058" lon="-5.43803"></trkpt>
      <trkpt lat="50.11034" lon="-5.43686"></trkpt>
      <trkpt lat="50.11036" lon="-5.4367"></trkpt>
      <trkpt lat="50.11026" lon="-5.43652"></trkpt>
      <trkpt lat="50.1102" lon="-5.43634"></trkpt>
      <trkpt lat="50.11001" lon="-5.43606"></trkpt>
      <trkpt lat="50.10996" lon="-5.43578"></trkpt>
      <trkpt lat="50.10981" lon="-5.43557"></trkpt>
      <trkpt lat="50.10979" lon="-5.43551"></trkpt>
      <trkpt lat="50.1098" lon="-5.43545"></trkpt>
      <trkpt lat="50.10978" lon="-5.43538"></trkpt>
      <trkpt lat="50.10922" lon="-5.43449"></trkpt>
      <trkpt lat="50.10904" lon="-5.43423"></trkpt>
      <trkpt lat="50.10902" lon="-5.43418"></trkpt>
      <trkpt lat="50.10902" lon="-5.43402"></trkpt>
      <trkpt lat="50.109" lon="-5.43394"></trkpt>
      <trkpt lat="50.10882" lon="-5.43366"></trkpt>
      <trkpt lat="50.10866" lon="-5.43349"></trkpt>
      <trkpt lat="50.1086" lon="-5.43338"></trkpt>
      <trkpt lat="50.1085" lon="-5.43331"></trkpt>
      <trkpt lat="50.10839" lon="-5.43329"></trkpt>
      <trkpt lat="50.10833" lon="-5.43326"></trkpt>
      <trkpt lat="50.10784" lon="-5.43339"></trkpt>
      <trkpt lat="50.10767" lon="-5.4335"></trkpt>
      <trkpt lat="50.1073" lon="-5.4338"></trkpt>
      <trkpt lat="50.10706" lon="-5.43395"></trkpt>
      <trkpt lat="50.10678" lon="-5.43389"></trkpt>
      <trkpt lat="50.10657" lon="-5.43365"></trkpt>
      <trkpt lat="50.10648" lon="-5.43345"></trkpt>
      <trkpt lat="50.10645" lon="-5.43318"></trkpt>
      <trkpt lat="50.1064" lon="-5.4331"></trkpt>
      <trkpt lat="50.10631" lon="-5.43264"></trkpt>
      <trkpt lat="50.10631" lon="-5.43245"></trkpt>
      <trkpt lat="50.1064" lon="-5.43217"></trkpt>
      <trkpt lat="50.10645" lon="-5.43179"></trkpt>
      <trkpt lat="50.10642" lon="-5.43174"></trkpt>
      <trkpt lat="50.10633" lon="-5.43178"></trkpt>
      <trkpt lat="50.10615" lon="-5.43176"></trkpt>
      <trkpt lat="50.10603" lon="-5.43164"></trkpt>
      <trkpt lat="50.1059" lon="-5.43139"></trkpt>
      <trkpt lat="50.10578" lon="-5.43102"></trkpt>
      <trkpt lat="50.10572" lon="-5.43089"></trkpt>
      <trkpt lat="50.10563" lon="-5.43079"></trkpt>
      <trkpt lat="50.1056" lon="-5.43066"></trkpt>
      <trkpt lat="50.1056" lon="-5.43057"></trkpt>
      <trkpt lat="50.10571" lon="-5.43012"></trkpt>
      <trkpt lat="50.1057" lon="-5.42971"></trkpt>
      <trkpt lat="50.10573" lon="-5.42954"></trkpt>
      <trkpt lat="50.10573" lon="-5.42934"></trkpt>
      <trkpt lat="50.10569" lon="-5.42912"></trkpt>
      <trkpt lat="50.10543" lon="-5.42861"></trkpt>
      <trkpt lat="50.10516" lon="-5.42819"></trkpt>
      <trkpt lat="50.10501" lon="-5.42802"></trkpt>
      <trkpt lat="50.10467" lon="-5.4278"></trkpt>
      <trkpt lat="50.10456" lon="-5.42777"></trkpt>
      <trkpt lat="50.10444" lon="-5.42768"></trkpt>
      <trkpt lat="50.1043" lon="-5.42761"></trkpt>
      <trkpt lat="50.10392" lon="-5.42763"></trkpt>
      <trkpt lat="50.10381" lon="-5.42759"></trkpt>
      <trkpt lat="50.10369" lon="-5.42764"></trkpt>
      <trkpt lat="50.10366" lon="-5.42763"></trkpt>
      <trkpt lat="50.10353" lon="-5.42731"></trkpt>
      <trkpt lat="50.1035" lon="-5.42727"></trkpt>
      <trkpt lat="50.10339" lon="-5.42711"></trkpt>
      <trkpt lat="50.10332" lon="-5.42706"></trkpt>
      <trkpt lat="50.10325" lon="-5.42705"></trkpt>
      <trkpt lat="50.10321" lon="-5.42707"></trkpt>
      <trkpt lat="50.10317" lon="-5.42705"></trkpt>
      <trkpt lat="50.10304" lon="-5.42688"></trkpt>
      <trkpt lat="50.10281" lon="-5.42692"></trkpt>
      <trkpt lat="50.10267" lon="-5.4271"></trkpt>
      <trkpt lat="50.10262" lon="-5.42722"></trkpt>
      <trkpt lat="50.10249" lon="-5.42742"></trkpt>
      <trkpt lat="50.10241" lon="-5.42736"></trkpt>
      <trkpt lat="50.10232" lon="-5.42722"></trkpt>
      <trkpt lat="50.10215" lon="-5.42703"></trkpt>
      <trkpt lat="50.1019" lon="-5.42688"></trkpt>
      <trkpt lat="50.10184" lon="-5.42689"></trkpt>
      <trkpt lat="50.10171" lon="-5.42661"></trkpt>
      <trkpt lat="50.10154" lon="-5.42639"></trkpt>
      <trkpt lat="50.10137" lon="-5.42625"></trkpt>
      <trkpt lat="50.10128" lon="-5.42621"></trkpt>
      <trkpt lat="50.1012" lon="-5.42607"></trkpt>
      <trkpt lat="50.10108" lon="-5.42599"></trkpt>
      <trkpt lat="50.1009" lon="-5.42603"></trkpt>
      <trkpt lat="50.1008" lon="-5.42609"></trkpt>
      <trkpt lat="50.10071" lon="-5.42617"></trkpt>
      <trkpt lat="50.10036" lon="-5.42632"></trkpt>
      <trkpt lat="50.10018" lon="-5.42647"></trkpt>
      <trkpt lat="50.09988" lon="-5.42653"></trkpt>
      <trkpt lat="50.09984" lon="-5.42652"></trkpt>
      <trkpt lat="50.09978" lon="-5.42646"></trkpt>
      <trkpt lat="50.09971" lon="-5.42634"></trkpt>
      <trkpt lat="50.09955" lon="-5.42559"></trkpt>
      <trkpt lat="50.09951" lon="-5.42521"></trkpt>
      <trkpt lat="50.09949" lon="-5.42427"></trkpt>
      <trkpt lat="50.09943" lon="-5.42371"></trkpt>
      <trkpt lat="50.0994" lon="-5.42358"></trkpt>
      <trkpt lat="50.09941" lon="-5.4235"></trkpt>
      <trkpt lat="50.09943" lon="-5.42346"></trkpt>
      <trkpt lat="50.0995" lon="-5.42335"></trkpt>
      <trkpt lat="50.09954" lon="-5.42325"></trkpt>
      <trkpt lat="50.09959" lon="-5.42319"></trkpt>
      <trkpt lat="50.09984" lon="-5.42265"></trkpt>
      <trkpt lat="50.09989" lon="-5.42232"></trkpt>
      <trkpt lat="50.09998" lon="-5.42201"></trkpt>
      <trkpt lat="50.10003" lon="-5.42192"></trkpt>
      <trkpt lat="50.1" lon="-5.42182"></trkpt>
      <trkpt lat="50.10005" lon="-5.42176"></trkpt>
      <trkpt lat="50.10013" lon="-5.42155"></trkpt>
      <trkpt lat="50.10015" lon="-5.42146"></trkpt>
      <trkpt lat="50.10015" lon="-5.42128"></trkpt>
      <trkpt lat="50.10012" lon="-5.42109"></trkpt>
      <trkpt lat="50.10003" lon="-5.42084"></trkpt>
      <trkpt lat="50.10004" lon="-5.42073"></trkpt>
      <trkpt lat="50.1" lon="-5.42047"></trkpt>
      <trkpt lat="50.09986" lon="-5.42007"></trkpt>
      <trkpt lat="50.09982" lon="-5.41984"></trkpt>
      <trkpt lat="50.09983" lon="-5.41979"></trkpt>
      <trkpt lat="50.10002" lon="-5.41941"></trkpt>
      <trkpt lat="50.10015" lon="-5.41903"></trkpt>
      <trkpt lat="50.10031" lon="-5.41874"></trkpt>
      <trkpt lat="50.10037" lon="-5.41869"></trkpt>
      <trkpt lat="50.10045" lon="-5.41866"></trkpt>
      <trkpt lat="50.10052" lon="-5.41867"></trkpt>
      <trkpt lat="50.10061" lon="-5.41874"></trkpt>
      <trkpt lat="50.10078" lon="-5.4188"></trkpt>
      <trkpt lat="50.10109" lon="-5.41898"></trkpt>
      <trkpt lat="50.10133" lon="-5.41882"></trkpt>
      <trkpt lat="50.10137" lon="-5.41875"></trkpt>
      <trkpt lat="50.10144" lon="-5.41877"></trkpt>
      <trkpt lat="50.10148" lon="-5.41869"></trkpt>
      <trkpt lat="50.10153" lon="-5.41864"></trkpt>
      <trkpt lat="50.10172" lon="-5.41824"></trkpt>
      <trkpt lat="50.10188" lon="-5.41815"></trkpt>
      <trkpt lat="50.10193" lon="-5.41806"></trkpt>
      <trkpt lat="50.10185" lon="-5.41775"></trkpt>
      <trkpt lat="50.10173" lon="-5.41743"></trkpt>
      <trkpt lat="50.10164" lon="-5.41727"></trkpt>
      <trkpt lat="50.10106" lon="-5.4165"></trkpt>
      <trkpt lat="50.1009" lon="-5.41633"></trkpt>
      <trkpt lat="50.10074" lon="-5.41621"></trkpt>
      <trkpt lat="50.10067" lon="-5.41607"></trkpt>
      <trkpt lat="50.10066" lon="-5.41602"></trkpt>
      <trkpt lat="50.10068" lon="-5.41597"></trkpt>
      <trkpt lat="50.10073" lon="-5.41593"></trkpt>
      <trkpt lat="50.10156" lon="-5.4158"></trkpt>
      <trkpt lat="50.10164" lon="-5.4158"></trkpt>
      <trkpt lat="50.10194" lon="-5.41594"></trkpt>
      <trkpt lat="50.10218" lon="-5.41612"></trkpt>
      <trkpt lat="50.10226" lon="-5.41611"></trkpt>
      <trkpt lat="50.10233" lon="-5.41606"></trkpt>
      <trkpt lat="50.10248" lon="-5.41588"></trkpt>
      <trkpt lat="50.10264" lon="-5.41539"></trkpt>
      <trkpt lat="50.10275" lon="-5.4151"></trkpt>
      <trkpt lat="50.10319" lon="-5.41418"></trkpt>
      <trkpt lat="50.10326" lon="-5.4141"></trkpt>
      <trkpt lat="50.10348" lon="-5.41396"></trkpt>
      <trkpt lat="50.10359" lon="-5.41381"></trkpt>
      <trkpt lat="50.10391" lon="-5.41349"></trkpt>
      <trkpt lat="50.10398" lon="-5.41346"></trkpt>
      <trkpt lat="50.104" lon="-5.4134"></trkpt>
      <trkpt lat="50.10399" lon="-5.41335"></trkpt>
      <trkpt lat="50.104" lon="-5.41331"></trkpt>
      <trkpt lat="50.10432" lon="-5.41283"></trkpt>
      <trkpt lat="50.10432" lon="-5.41284"></trkpt>
      <trkpt lat="50.1044" lon="-5.41268"></trkpt>
      <trkpt lat="50.10442" lon="-5.41257"></trkpt>
      <trkpt lat="50.10443" lon="-5.41219"></trkpt>
      <trkpt lat="50.10448" lon="-5.41188"></trkpt>
      <trkpt lat="50.10454" lon="-5.41131"></trkpt>
      <trkpt lat="50.10459" lon="-5.4112"></trkpt>
      <trkpt lat="50.10467" lon="-5.4109"></trkpt>
      <trkpt lat="50.10475" lon="-5.41075"></trkpt>
      <trkpt lat="50.10472" lon="-5.41062"></trkpt>
      <trkpt lat="50.10471" lon="-5.41046"></trkpt>
      <trkpt lat="50.10469" lon="-5.41037"></trkpt>
      <trkpt lat="50.1046" lon="-5.41035"></trkpt>
      <trkpt lat="50.10456" lon="-5.41029"></trkpt>
      <trkpt lat="50.10443" lon="-5.40979"></trkpt>
      <trkpt lat="50.10444" lon="-5.40968"></trkpt>
      <trkpt lat="50.1044" lon="-5.40963"></trkpt>
      <trkpt lat="50.10439" lon="-5.40957"></trkpt>
      <trkpt lat="50.1044" lon="-5.40952"></trkpt>
      <trkpt lat="50.10449" lon="-5.40938"></trkpt>
      <trkpt lat="50.1045" lon="-5.40925"></trkpt>
      <trkpt lat="50.10465" lon="-5.40921"></trkpt>
      <trkpt lat="50.10472" lon="-5.40912"></trkpt>
      <trkpt lat="50.10471" lon="-5.40885"></trkpt>
      <trkpt lat="50.10463" lon="-5.40869"></trkpt>
      <trkpt lat="50.10461" lon="-5.40859"></trkpt>
      <trkpt lat="50.10449" lon="-5.4085"></trkpt>
      <trkpt lat="50.1044" lon="-5.40833"></trkpt>
      <trkpt lat="50.10432" lon="-5.40805"></trkpt>
      <trkpt lat="50.10427" lon="-5.40764"></trkpt>
      <trkpt lat="50.10424" lon="-5.40756"></trkpt>
      <trkpt lat="50.10424" lon="-5.40747"></trkpt>
      <trkpt lat="50.10435" lon="-5.40641"></trkpt>
      <trkpt lat="50.10432" lon="-5.40595"></trkpt>
      <trkpt lat="50.10428" lon="-5.40581"></trkpt>
      <trkpt lat="50.10422" lon="-5.4057"></trkpt>
      <trkpt lat="50.1042" lon="-5.40559"></trkpt>
      <trkpt lat="50.10417" lon="-5.40556"></trkpt>
      <trkpt lat="50.10413" lon="-5.40555"></trkpt>
      <trkpt lat="50.10406" lon="-5.40531"></trkpt>
      <trkpt lat="50.10398" lon="-5.40517"></trkpt>
      <trkpt lat="50.10385" lon="-5.40502"></trkpt>
      <trkpt lat="50.10383" lon="-5.40493"></trkpt>
      <trkpt lat="50.1038" lon="-5.40454"></trkpt>
      <trkpt lat="50.10384" lon="-5.40431"></trkpt>
      <trkpt lat="50.10389" lon="-5.4042"></trkpt>
      <trkpt lat="50.10388" lon="-5.40412"></trkpt>
      <trkpt lat="50.10386" lon="-5.40408"></trkpt>
      <trkpt lat="50.10373" lon="-5.40403"></trkpt>
      <trkpt lat="50.10372" lon="-5.40399"></trkpt>
      <trkpt lat="50.10364" lon="-5.40394"></trkpt>
      <trkpt lat="50.1035" lon="-5.40385"></trkpt>
      <trkpt lat="50.10333" lon="-5.40382"></trkpt>
      <trkpt lat="50.10326" lon="-5.40375"></trkpt>
      <trkpt lat="50.10321" lon="-5.40366"></trkpt>
      <trkpt lat="50.10312" lon="-5.40334"></trkpt>
      <trkpt lat="50.1031" lon="-5.40319"></trkpt>
      <trkpt lat="50.1031" lon="-5.40264"></trkpt>
      <trkpt lat="50.10312" lon="-5.40242"></trkpt>
      <trkpt lat="50.10305" lon="-5.40214"></trkpt>
      <trkpt lat="50.103" lon="-5.40208"></trkpt>
      <trkpt lat="50.10295" lon="-5.40193"></trkpt>
      <trkpt lat="50.10284" lon="-5.40178"></trkpt>
      <trkpt lat="50.10281" lon="-5.40174"></trkpt>
      <trkpt lat="50.1028" lon="-5.40163"></trkpt>
      <trkpt lat="50.10273" lon="-5.4015"></trkpt>
      <trkpt lat="50.10266" lon="-5.40141"></trkpt>
      <trkpt lat="50.10265" lon="-5.40135"></trkpt>
      <trkpt lat="50.10253" lon="-5.40118"></trkpt>
      <trkpt lat="50.10245" lon="-5.40099"></trkpt>
      <trkpt lat="50.10239" lon="-5.4008"></trkpt>
      <trkpt lat="50.10225" lon="-5.40061"></trkpt>
      <trkpt lat="50.1022" lon="-5.40051"></trkpt>
      <trkpt lat="50.10219" lon="-5.40039"></trkpt>
      <trkpt lat="50.10222" lon="-5.40022"></trkpt>
      <trkpt lat="50.10229" lon="-5.40006"></trkpt>
      <trkpt lat="50.10232" lon="-5.39984"></trkpt>
      <trkpt lat="50.10229" lon="-5.39971"></trkpt>
      <trkpt lat="50.10224" lon="-5.39959"></trkpt>
      <trkpt lat="50.10208" lon="-5.39939"></trkpt>
      <trkpt lat="50.102" lon="-5.39913"></trkpt>
      <trkpt lat="50.102" lon="-5.39901"></trkpt>
      <trkpt lat="50.10176" lon="-5.39859"></trkpt>
      <trkpt lat="50.10168" lon="-5.39835"></trkpt>
      <trkpt lat="50.10171" lon="-5.39816"></trkpt>
      <trkpt lat="50.10178" lon="-5.3981"></trkpt>
      <trkpt lat="50.10204" lon="-5.39751"></trkpt>
      <trkpt lat="50.10204" lon="-5.39746"></trkpt>
      <trkpt lat="50.10191" lon="-5.39703"></trkpt>
      <trkpt lat="50.10198" lon="-5.39644"></trkpt>
      <trkpt lat="50.10203" lon="-5.39632"></trkpt>
      <trkpt lat="50.10212" lon="-5.39619"></trkpt>
      <trkpt lat="50.10218" lon="-5.39614"></trkpt>
      <trkpt lat="50.10226" lon="-5.39614"></trkpt>
      <trkpt lat="50.10267" lon="-5.39624"></trkpt>
      <trkpt lat="50.10286" lon="-5.39623"></trkpt>
      <trkpt lat="50.10306" lon="-5.39605"></trkpt>
      <trkpt lat="50.10337" lon="-5.39581"></trkpt>
      <trkpt lat="50.10348" lon="-5.3957"></trkpt>
      <trkpt lat="50.10361" lon="-5.39551"></trkpt>
      <trkpt lat="50.10406" lon="-5.39453"></trkpt>
      <trkpt lat="50.1041" lon="-5.39442"></trkpt>
      <trkpt lat="50.10411" lon="-5.3943"></trkpt>
      <trkpt lat="50.10399" lon="-5.39325"></trkpt>
      <trkpt lat="50.10393" lon="-5.39302"></trkpt>
      <trkpt lat="50.10391" lon="-5.3926"></trkpt>
      <trkpt lat="50.10394" lon="-5.39253"></trkpt>
      <trkpt lat="50.1041" lon="-5.3924"></trkpt>
      <trkpt lat="50.10401" lon="-5.39202"></trkpt>
      <trkpt lat="50.10382" lon="-5.39209"></trkpt>
      <trkpt lat="50.10377" lon="-5.39175"></trkpt>
      <trkpt lat="50.10377" lon="-5.39144"></trkpt>
      <trkpt lat="50.10379" lon="-5.39128"></trkpt>
      <trkpt lat="50.10374" lon="-5.39122"></trkpt>
      <trkpt lat="50.10368" lon="-5.39078"></trkpt>
      <trkpt lat="50.10352" lon="-5.38999"></trkpt>
      <trkpt lat="50.10344" lon="-5.38977"></trkpt>
      <trkpt lat="50.10355" lon="-5.38963"></trkpt>
      <trkpt lat="50.10356" lon="-5.38975"></trkpt>
      <trkpt lat="50.10364" lon="-5.38975"></trkpt>
      <trkpt lat="50.10374" lon="-5.38962"></trkpt>
      <trkpt lat="50.10364" lon="-5.38918"></trkpt>
      <trkpt lat="50.10318" lon="-5.38691"></trkpt>
      <trkpt lat="50.10332" lon="-5.38658"></trkpt>
      <trkpt lat="50.10352" lon="-5.38624"></trkpt>
      <trkpt lat="50.10324" lon="-5.38584"></trkpt>
      <trkpt lat="50.10304" lon="-5.38561"></trkpt>
      <trkpt lat="50.10295" lon="-5.38543"></trkpt>
      <trkpt lat="50.10291" lon="-5.3853"></trkpt>
      <trkpt lat="50.10268" lon="-5.38504"></trkpt>
      <trkpt lat="50.10252" lon="-5.38481"></trkpt>
      <trkpt lat="50.10247" lon="-5.3846"></trkpt>
      <trkpt lat="50.10212" lon="-5.38432"></trkpt>
      <trkpt lat="50.10209" lon="-5.38403"></trkpt>
      <trkpt lat="50.10201" lon="-5.38385"></trkpt>
      <trkpt lat="50.10191" lon="-5.38373"></trkpt>
      <trkpt lat="50.10189" lon="-5.38362"></trkpt>
      <trkpt lat="50.10191" lon="-5.38346"></trkpt>
      <trkpt lat="50.10189" lon="-5.38328"></trkpt>
      <trkpt lat="50.10187" lon="-5.38322"></trkpt>
      <trkpt lat="50.1017" lon="-5.38265"></trkpt>
      <trkpt lat="50.10171" lon="-5.38256"></trkpt>
      <trkpt lat="50.10175" lon="-5.3825"></trkpt>
      <trkpt lat="50.10188" lon="-5.38244"></trkpt>
      <trkpt lat="50.10198" lon="-5.38226"></trkpt>
      <trkpt lat="50.10126" lon="-5.38113"></trkpt>
      <trkpt lat="50.10102" lon="-5.3808"></trkpt>
      <trkpt lat="50.10093" lon="-5.3806"></trkpt>
      <trkpt lat="50.10083" lon="-5.3803"></trkpt>
      <trkpt lat="50.10077" lon="-5.38006"></trkpt>
      <trkpt lat="50.10061" lon="-5.37968"></trkpt>
      <trkpt lat="50.10048" lon="-5.37931"></trkpt>
      <trkpt lat="50.10044" lon="-5.37924"></trkpt>
      <trkpt lat="50.10039" lon="-5.37876"></trkpt>
      <trkpt lat="50.10033" lon="-5.37842"></trkpt>
      <trkpt lat="50.10018" lon="-5.37841"></trkpt>
      <trkpt lat="50.10013" lon="-5.3783"></trkpt>
      <trkpt lat="50.10007" lon="-5.37822"></trkpt>
      <trkpt lat="50.09998" lon="-5.37805"></trkpt>
      <trkpt lat="50.09986" lon="-5.37796"></trkpt>
      <trkpt lat="50.09964" lon="-5.37791"></trkpt>
      <trkpt lat="50.09945" lon="-5.3775"></trkpt>
      <trkpt lat="50.09931" lon="-5.37738"></trkpt>
      <trkpt lat="50.09928" lon="-5.37732"></trkpt>
      <trkpt lat="50.09922" lon="-5.37709"></trkpt>
      <trkpt lat="50.09915" lon="-5.37692"></trkpt>
      <trkpt lat="50.09895" lon="-5.37668"></trkpt>
      <trkpt lat="50.09874" lon="-5.37662"></trkpt>
      <trkpt lat="50.0987" lon="-5.37658"></trkpt>
      <trkpt lat="50.09867" lon="-5.37651"></trkpt>
      <trkpt lat="50.09863" lon="-5.37646"></trkpt>
      <trkpt lat="50.09854" lon="-5.37615"></trkpt>
      <trkpt lat="50.09849" lon="-5.37608"></trkpt>
      <trkpt lat="50.09843" lon="-5.3759"></trkpt>
      <trkpt lat="50.09842" lon="-5.37571"></trkpt>
      <trkpt lat="50.09836" lon="-5.37517"></trkpt>
      <trkpt lat="50.09822" lon="-5.37458"></trkpt>
      <trkpt lat="50.09818" lon="-5.3745"></trkpt>
      <trkpt lat="50.09819" lon="-5.37444"></trkpt>
      <trkpt lat="50.09809" lon="-5.37427"></trkpt>
      <trkpt lat="50.09798" lon="-5.37416"></trkpt>
      <trkpt lat="50.09771" lon="-5.37405"></trkpt>
      <trkpt lat="50.09756" lon="-5.37393"></trkpt>
      <trkpt lat="50.09702" lon="-5.37337"></trkpt>
      <trkpt lat="50.097" lon="-5.3733"></trkpt>
      <trkpt lat="50.09678" lon="-5.37306"></trkpt>
      <trkpt lat="50.09676" lon="-5.37295"></trkpt>
      <trkpt lat="50.09667" lon="-5.37283"></trkpt>
      <trkpt lat="50.09653" lon="-5.37237"></trkpt>
      <trkpt lat="50.09644" lon="-5.37194"></trkpt>
      <trkpt lat="50.09636" lon="-5.37197"></trkpt>
      <trkpt lat="50.09617" lon="-5.37186"></trkpt>
      <trkpt lat="50.09607" lon="-5.37164"></trkpt>
      <trkpt lat="50.0952" lon="-5.3702"></trkpt>
      <trkpt lat="50.09467" lon="-5.36906"></trkpt>
      <trkpt lat="50.09455" lon="-5.36881"></trkpt>
      <trkpt lat="50.09451" lon="-5.36866"></trkpt>
      <trkpt lat="50.09454" lon="-5.36846"></trkpt>
      <trkpt lat="50.09455" lon="-5.36802"></trkpt>
      <trkpt lat="50.09451" lon="-5.36779"></trkpt>
      <trkpt lat="50.09444" lon="-5.36749"></trkpt>
      <trkpt lat="50.09434" lon="-5.36717"></trkpt>
      <trkpt lat="50.09418" lon="-5.36684"></trkpt>
      <trkpt lat="50.09415" lon="-5.36671"></trkpt>
      <trkpt lat="50.0942" lon="-5.36664"></trkpt>
      <trkpt lat="50.09426" lon="-5.36649"></trkpt>
      <trkpt lat="50.09437" lon="-5.36637"></trkpt>
      <trkpt lat="50.09447" lon="-5.36615"></trkpt>
      <trkpt lat="50.09447" lon="-5.36608"></trkpt>
      <trkpt lat="50.09441" lon="-5.3659"></trkpt>
      <trkpt lat="50.09443" lon="-5.36564"></trkpt>
      <trkpt lat="50.09425" lon="-5.36565"></trkpt>
      <trkpt lat="50.09396" lon="-5.36561"></trkpt>
      <trkpt lat="50.09333" lon="-5.3651"></trkpt>
      <trkpt lat="50.09309" lon="-5.36497"></trkpt>
      <trkpt lat="50.09292" lon="-5.36491"></trkpt>
      <trkpt lat="50.09268" lon="-5.36482"></trkpt>
      <trkpt lat="50.09239" lon="-5.36462"></trkpt>
      <trkpt lat="50.09209" lon="-5.36445"></trkpt>
      <trkpt lat="50.09198" lon="-5.36437"></trkpt>
      <trkpt lat="50.09167" lon="-5.364"></trkpt>
      <trkpt lat="50.09147" lon="-5.36387"></trkpt>
      <trkpt lat="50.09127" lon="-5.36362"></trkpt>
      <trkpt lat="50.09102" lon="-5.3635"></trkpt>
      <trkpt lat="50.09061" lon="-5.36303"></trkpt>
      <trkpt lat="50.09005" lon="-5.36255"></trkpt>
      <trkpt lat="50.08979" lon="-5.36177"></trkpt>
      <trkpt lat="50.08986" lon="-5.36148"></trkpt>
      <trkpt lat="50.08997" lon="-5.36112"></trkpt>
      <trkpt lat="50.09004" lon="-5.36104"></trkpt>
      <trkpt lat="50.09006" lon="-5.36078"></trkpt>
      <trkpt lat="50.09003" lon="-5.36046"></trkpt>
      <trkpt lat="50.09009" lon="-5.36014"></trkpt>
      <trkpt lat="50.09023" lon="-5.35979"></trkpt>
      <trkpt lat="50.09023" lon="-5.35963"></trkpt>
      <trkpt lat="50.09015" lon="-5.35906"></trkpt>
      <trkpt lat="50.09005" lon="-5.35873"></trkpt>
      <trkpt lat="50.09004" lon="-5.35869"></trkpt>
      <trkpt lat="50.08995" lon="-5.35858"></trkpt>
      <trkpt lat="50.08987" lon="-5.35852"></trkpt>
      <trkpt lat="50.08986" lon="-5.35848"></trkpt>
      <trkpt lat="50.08988" lon="-5.35834"></trkpt>
      <trkpt lat="50.08992" lon="-5.35825"></trkpt>
      <trkpt lat="50.08998" lon="-5.35817"></trkpt>
      <trkpt lat="50.09006" lon="-5.35817"></trkpt>
      <trkpt lat="50.09013" lon="-5.35824"></trkpt>
      <trkpt lat="50.09023" lon="-5.35822"></trkpt>
      <trkpt lat="50.09032" lon="-5.35812"></trkpt>
      <trkpt lat="50.09038" lon="-5.35814"></trkpt>
      <trkpt lat="50.09045" lon="-5.35812"></trkpt>
      <trkpt lat="50.09048" lon="-5.35807"></trkpt>
      <trkpt lat="50.09058" lon="-5.35803"></trkpt>
      <trkpt lat="50.09073" lon="-5.35812"></trkpt>
      <trkpt lat="50.09102" lon="-5.35807"></trkpt>
      <trkpt lat="50.09108" lon="-5.35775"></trkpt>
      <trkpt lat="50.09103" lon="-5.3574"></trkpt>
      <trkpt lat="50.09102" lon="-5.35698"></trkpt>
      <trkpt lat="50.09098" lon="-5.35686"></trkpt>
      <trkpt lat="50.09098" lon="-5.35665"></trkpt>
      <trkpt lat="50.09093" lon="-5.35632"></trkpt>
      <trkpt lat="50.09085" lon="-5.35602"></trkpt>
      <trkpt lat="50.09086" lon="-5.35553"></trkpt>
      <trkpt lat="50.0909" lon="-5.35534"></trkpt>
      <trkpt lat="50.09105" lon="-5.35487"></trkpt>
      <trkpt lat="50.09106" lon="-5.35473"></trkpt>
      <trkpt lat="50.09108" lon="-5.35465"></trkpt>
      <trkpt lat="50.09112" lon="-5.35456"></trkpt>
      <trkpt lat="50.0912" lon="-5.35444"></trkpt>
      <trkpt lat="50.09127" lon="-5.35406"></trkpt>
      <trkpt lat="50.09136" lon="-5.35374"></trkpt>
      <trkpt lat="50.09139" lon="-5.35353"></trkpt>
      <trkpt lat="50.09142" lon="-5.35344"></trkpt>
      <trkpt lat="50.09162" lon="-5.3532"></trkpt>
      <trkpt lat="50.09172" lon="-5.35316"></trkpt>
      <trkpt lat="50.09175" lon="-5.35313"></trkpt>
      <trkpt lat="50.09177" lon="-5.35302"></trkpt>
      <trkpt lat="50.09182" lon="-5.35295"></trkpt>
      <trkpt lat="50.09184" lon="-5.35283"></trkpt>
      <trkpt lat="50.09185" lon="-5.35262"></trkpt>
      <trkpt lat="50.09184" lon="-5.35207"></trkpt>
      <trkpt lat="50.09192" lon="-5.3515"></trkpt>
      <trkpt lat="50.09199" lon="-5.35137"></trkpt>
      <trkpt lat="50.09206" lon="-5.35117"></trkpt>
      <trkpt lat="50.09219" lon="-5.35094"></trkpt>
      <trkpt lat="50.09224" lon="-5.35088"></trkpt>
      <trkpt lat="50.09239" lon="-5.35082"></trkpt>
      <trkpt lat="50.09239" lon="-5.3508"></trkpt>
      <trkpt lat="50.09221" lon="-5.35067"></trkpt>
      <trkpt lat="50.09215" lon="-5.35057"></trkpt>
      <trkpt lat="50.09215" lon="-5.35054"></trkpt>
      <trkpt lat="50.09238" lon="-5.35042"></trkpt>
      <trkpt lat="50.09231" lon="-5.35033"></trkpt>
      <trkpt lat="50.09234" lon="-5.35015"></trkpt>
      <trkpt lat="50.09233" lon="-5.35007"></trkpt>
      <trkpt lat="50.09215" lon="-5.34973"></trkpt>
      <trkpt lat="50.09217" lon="-5.34954"></trkpt>
      <trkpt lat="50.09215" lon="-5.34945"></trkpt>
      <trkpt lat="50.09215" lon="-5.34924"></trkpt>
      <trkpt lat="50.09218" lon="-5.34916"></trkpt>
      <trkpt lat="50.09223" lon="-5.34914"></trkpt>
      <trkpt lat="50.09231" lon="-5.34904"></trkpt>
      <trkpt lat="50.09237" lon="-5.34895"></trkpt>
      <trkpt lat="50.09237" lon="-5.34879"></trkpt>
      <trkpt lat="50.0924" lon="-5.34867"></trkpt>
      <trkpt lat="50.09243" lon="-5.34837"></trkpt>
      <trkpt lat="50.09252" lon="-5.34832"></trkpt>
      <trkpt lat="50.09256" lon="-5.34826"></trkpt>
      <trkpt lat="50.09259" lon="-5.34805"></trkpt>
      <trkpt lat="50.09263" lon="-5.34795"></trkpt>
      <trkpt lat="50.09257" lon="-5.34778"></trkpt>
      <trkpt lat="50.09263" lon="-5.34758"></trkpt>
      <trkpt lat="50.09271" lon="-5.34764"></trkpt>
      <trkpt lat="50.09277" lon="-5.34757"></trkpt>
      <trkpt lat="50.0928" lon="-5.34747"></trkpt>
      <trkpt lat="50.09282" lon="-5.34727"></trkpt>
      <trkpt lat="50.09292" lon="-5.34702"></trkpt>
      <trkpt lat="50.09298" lon="-5.34693"></trkpt>
      <trkpt lat="50.093" lon="-5.34681"></trkpt>
      <trkpt lat="50.09299" lon="-5.3467"></trkpt>
      <trkpt lat="50.09303" lon="-5.34656"></trkpt>
      <trkpt lat="50.09298" lon="-5.34634"></trkpt>
      <trkpt lat="50.09297" lon="-5.34616"></trkpt>
      <trkpt lat="50.093" lon="-5.34599"></trkpt>
      <trkpt lat="50.093" lon="-5.34576"></trkpt>
      <trkpt lat="50.09295" lon="-5.34559"></trkpt>
      <trkpt lat="50.09294" lon="-5.34546"></trkpt>
      <trkpt lat="50.09285" lon="-5.34532"></trkpt>
      <trkpt lat="50.09289" lon="-5.34514"></trkpt>
      <trkpt lat="50.09284" lon="-5.34479"></trkpt>
      <trkpt lat="50.0928" lon="-5.34466"></trkpt>
      <trkpt lat="50.09277" lon="-5.34435"></trkpt>
      <trkpt lat="50.09262" lon="-5.34376"></trkpt>
      <trkpt lat="50.09249" lon="-5.34316"></trkpt>
      <trkpt lat="50.09237" lon="-5.34236"></trkpt>
      <trkpt lat="50.09238" lon="-5.34227"></trkpt>
      <trkpt lat="50.09236" lon="-5.34223"></trkpt>
      <trkpt lat="50.09238" lon="-5.34209"></trkpt>
      <trkpt lat="50.09241" lon="-5.34206"></trkpt>
      <trkpt lat="50.09242" lon="-5.34201"></trkpt>
      <trkpt lat="50.09236" lon="-5.34166"></trkpt>
      <trkpt lat="50.09229" lon="-5.34122"></trkpt>
      <trkpt lat="50.09223" lon="-5.34116"></trkpt>
      <trkpt lat="50.09214" lon="-5.34066"></trkpt>
      <trkpt lat="50.09213" lon="-5.34037"></trkpt>
      <trkpt lat="50.09215" lon="-5.33988"></trkpt>
      <trkpt lat="50.0922" lon="-5.33952"></trkpt>
      <trkpt lat="50.09217" lon="-5.3394"></trkpt>
      <trkpt lat="50.09216" lon="-5.33918"></trkpt>
      <trkpt lat="50.09221" lon="-5.33893"></trkpt>
      <trkpt lat="50.0922" lon="-5.33876"></trkpt>
      <trkpt lat="50.09213" lon="-5.33865"></trkpt>
      <trkpt lat="50.09204" lon="-5.33857"></trkpt>
      <trkpt lat="50.09201" lon="-5.33843"></trkpt>
      <trkpt lat="50.09196" lon="-5.33828"></trkpt>
      <trkpt lat="50.09188" lon="-5.33813"></trkpt>
      <trkpt lat="50.09186" lon="-5.33805"></trkpt>
      <trkpt lat="50.09186" lon="-5.33789"></trkpt>
      <trkpt lat="50.0916" lon="-5.33729"></trkpt>
      <trkpt lat="50.09152" lon="-5.33699"></trkpt>
      <trkpt lat="50.09148" lon="-5.33676"></trkpt>
      <trkpt lat="50.09149" lon="-5.33626"></trkpt>
      <trkpt lat="50.09152" lon="-5.33622"></trkpt>
      <trkpt lat="50.09151" lon="-5.33622"></trkpt>
      <trkpt lat="50.09155" lon="-5.33616"></trkpt>
      <trkpt lat="50.09185" lon="-5.33586"></trkpt>
      <trkpt lat="50.09204" lon="-5.33561"></trkpt>
      <trkpt lat="50.09226" lon="-5.33521"></trkpt>
      <trkpt lat="50.09204" lon="-5.33465"></trkpt>
      <trkpt lat="50.09202" lon="-5.33463"></trkpt>
      <trkpt lat="50.09186" lon="-5.33459"></trkpt>
      <trkpt lat="50.0916" lon="-5.3343"></trkpt>
      <trkpt lat="50.0914" lon="-5.33386"></trkpt>
      <trkpt lat="50.09121" lon="-5.33396"></trkpt>
      <trkpt lat="50.09103" lon="-5.33348"></trkpt>
      <trkpt lat="50.09104" lon="-5.33312"></trkpt>
      <trkpt lat="50.09095" lon="-5.33263"></trkpt>
      <trkpt lat="50.09086" lon="-5.33231"></trkpt>
      <trkpt lat="50.09081" lon="-5.33226"></trkpt>
      <trkpt lat="50.09075" lon="-5.33211"></trkpt>
      <trkpt lat="50.0907" lon="-5.33207"></trkpt>
      <trkpt lat="50.09048" lon="-5.33145"></trkpt>
      <trkpt lat="50.09045" lon="-5.33145"></trkpt>
      <trkpt lat="50.09031" lon="-5.33162"></trkpt>
      <trkpt lat="50.08999" lon="-5.33198"></trkpt>
      <trkpt lat="50.08957" lon="-5.33185"></trkpt>
      <trkpt lat="50.08944" lon="-5.33171"></trkpt>
      <trkpt lat="50.08938" lon="-5.33161"></trkpt>
      <trkpt lat="50.08903" lon="-5.33058"></trkpt>
      <trkpt lat="50.08902" lon="-5.33047"></trkpt>
      <trkpt lat="50.08886" lon="-5.33006"></trkpt>
      <trkpt lat="50.08891" lon="-5.33003"></trkpt>
      <trkpt lat="50.08949" lon="-5.3291"></trkpt>
      <trkpt lat="50.08947" lon="-5.32899"></trkpt>
      <trkpt lat="50.08944" lon="-5.32894"></trkpt>
      <trkpt lat="50.0894" lon="-5.32887"></trkpt>
      <trkpt lat="50.08935" lon="-5.32873"></trkpt>
      <trkpt lat="50.08885" lon="-5.32811"></trkpt>
      <trkpt lat="50.08848" lon="-5.32825"></trkpt>
      <trkpt lat="50.08844" lon="-5.32818"></trkpt>
      <trkpt lat="50.08815" lon="-5.32795"></trkpt>
      <trkpt lat="50.08789" lon="-5.32792"></trkpt>
      <trkpt lat="50.08766" lon="-5.32764"></trkpt>
      <trkpt lat="50.08766" lon="-5.32749"></trkpt>
      <trkpt lat="50.08758" lon="-5.32735"></trkpt>
      <trkpt lat="50.0875" lon="-5.32728"></trkpt>
      <trkpt lat="50.08741" lon="-5.32728"></trkpt>
      <trkpt lat="50.08731" lon="-5.32733"></trkpt>
      <trkpt lat="50.08716" lon="-5.32727"></trkpt>
      <trkpt lat="50.08691" lon="-5.32725"></trkpt>
      <trkpt lat="50.08679" lon="-5.32715"></trkpt>
      <trkpt lat="50.08661" lon="-5.32712"></trkpt>
      <trkpt lat="50.08654" lon="-5.32708"></trkpt>
      <trkpt lat="50.08647" lon="-5.32701"></trkpt>
      <trkpt lat="50.08611" lon="-5.32683"></trkpt>
      <trkpt lat="50.08609" lon="-5.32685"></trkpt>
      <trkpt lat="50.08598" lon="-5.32684"></trkpt>
      <trkpt lat="50.08573" lon="-5.32666"></trkpt>
      <trkpt lat="50.0856" lon="-5.32659"></trkpt>
      <trkpt lat="50.08555" lon="-5.32654"></trkpt>
      <trkpt lat="50.08535" lon="-5.32608"></trkpt>
      <trkpt lat="50.08531" lon="-5.32593"></trkpt>
      <trkpt lat="50.08528" lon="-5.32587"></trkpt>
      <trkpt lat="50.08512" lon="-5.32579"></trkpt>
      <trkpt lat="50.0851" lon="-5.32576"></trkpt>
      <trkpt lat="50.08496" lon="-5.32538"></trkpt>
      <trkpt lat="50.08495" lon="-5.32528"></trkpt>
      <trkpt lat="50.08492" lon="-5.32525"></trkpt>
      <trkpt lat="50.08491" lon="-5.3246"></trkpt>
      <trkpt lat="50.08491" lon="-5.3243"></trkpt>
      <trkpt lat="50.08486" lon="-5.32409"></trkpt>
      <trkpt lat="50.08478" lon="-5.32391"></trkpt>
      <trkpt lat="50.08475" lon="-5.32349"></trkpt>
      <trkpt lat="50.08458" lon="-5.32325"></trkpt>
      <trkpt lat="50.08421" lon="-5.32283"></trkpt>
      <trkpt lat="50.08399" lon="-5.3225"></trkpt>
      <trkpt lat="50.08385" lon="-5.32238"></trkpt>
      <trkpt lat="50.08361" lon="-5.32223"></trkpt>
      <trkpt lat="50.08337" lon="-5.32201"></trkpt>
      <trkpt lat="50.08323" lon="-5.32181"></trkpt>
      <trkpt lat="50.08318" lon="-5.32166"></trkpt>
      <trkpt lat="50.08318" lon="-5.32144"></trkpt>
      <trkpt lat="50.08307" lon="-5.32003"></trkpt>
      <trkpt lat="50.08309" lon="-5.3196"></trkpt>
      <trkpt lat="50.08312" lon="-5.31949"></trkpt>
      <trkpt lat="50.08308" lon="-5.31946"></trkpt>
      <trkpt lat="50.08289" lon="-5.31878"></trkpt>
      <trkpt lat="50.08287" lon="-5.31851"></trkpt>
      <trkpt lat="50.08289" lon="-5.31827"></trkpt>
      <trkpt lat="50.08303" lon="-5.31761"></trkpt>
      <trkpt lat="50.08322" lon="-5.3172"></trkpt>
      <trkpt lat="50.08321" lon="-5.3172"></trkpt>
      <trkpt lat="50.08329" lon="-5.31708"></trkpt>
      <trkpt lat="50.08336" lon="-5.31703"></trkpt>
      <trkpt lat="50.08351" lon="-5.31699"></trkpt>
      <trkpt lat="50.08369" lon="-5.31703"></trkpt>
      <trkpt lat="50.0838" lon="-5.3171"></trkpt>
      <trkpt lat="50.08394" lon="-5.31725"></trkpt>
      <trkpt lat="50.08421" lon="-5.31749"></trkpt>
      <trkpt lat="50.08451" lon="-5.31769"></trkpt>
      <trkpt lat="50.0847" lon="-5.31775"></trkpt>
      <trkpt lat="50.0848" lon="-5.31776"></trkpt>
      <trkpt lat="50.08516" lon="-5.31775"></trkpt>
      <trkpt lat="50.08515" lon="-5.31771"></trkpt>
      <trkpt lat="50.08533" lon="-5.31771"></trkpt>
      <trkpt lat="50.08535" lon="-5.31671"></trkpt>
    </trkseg>
  </trk>
</gpx>
