<?xml version="1.0" encoding="UTF-8"?>
<gpx version="1.1" creator="swcp-walk (imported from OS Maps route 33844375)"
     xmlns="http://www.topografix.com/GPX/1/1">
  <metadata>
    <name>SWCP26-Porthleven-TheLizard</name>
  </metadata>
  <trk>
    <name>SWCP26-Porthleven-TheLizard</name>
    <trkseg>
      <trkpt lat="50.08523297146826" lon="-5.316742709730818"></trkpt>
      <trkpt lat="50.0852" lon="-5.31668"></trkpt>
      <trkpt lat="50.08528" lon="-5.31659"></trkpt>
      <trkpt lat="50.08528" lon="-5.31647"></trkpt>
      <trkpt lat="50.08537" lon="-5.31645"></trkpt>
      <trkpt lat="50.08537" lon="-5.31636"></trkpt>
      <trkpt lat="50.08525" lon="-5.31608"></trkpt>
      <trkpt lat="50.0848" lon="-5.31609"></trkpt>
      <trkpt lat="50.08441" lon="-5.31604"></trkpt>
      <trkpt lat="50.08343" lon="-5.31568"></trkpt>
      <trkpt lat="50.08325" lon="-5.31564"></trkpt>
      <trkpt lat="50.08313" lon="-5.31564"></trkpt>
      <trkpt lat="50.08297" lon="-5.31571"></trkpt>
      <trkpt lat="50.08282" lon="-5.31585"></trkpt>
      <trkpt lat="50.08258" lon="-5.31616"></trkpt>
      <trkpt lat="50.08228" lon="-5.31663"></trkpt>
      <trkpt lat="50.08221" lon="-5.31669"></trkpt>
      <trkpt lat="50.08224" lon="-5.31656"></trkpt>
      <trkpt lat="50.08233" lon="-5.31622"></trkpt>
      <trkpt lat="50.08215" lon="-5.3161"></trkpt>
      <trkpt lat="50.08208" lon="-5.31608"></trkpt>
      <trkpt lat="50.08188" lon="-5.31548"></trkpt>
      <trkpt lat="50.08177" lon="-5.31509"></trkpt>
      <trkpt lat="50.08173" lon="-5.31482"></trkpt>
      <trkpt lat="50.08169" lon="-5.31481"></trkpt>
      <trkpt lat="50.08145" lon="-5.31409"></trkpt>
      <trkpt lat="50.08136" lon="-5.314"></trkpt>
      <trkpt lat="50.08131" lon="-5.31389"></trkpt>
      <trkpt lat="50.08126" lon="-5.31372"></trkpt>
      <trkpt lat="50.08116" lon="-5.31364"></trkpt>
      <trkpt lat="50.08108" lon="-5.31355"></trkpt>
      <trkpt lat="50.08098" lon="-5.31332"></trkpt>
      <trkpt lat="50.08077" lon="-5.3127"></trkpt>
      <trkpt lat="50.08057" lon="-5.3122"></trkpt>
      <trkpt lat="50.08054" lon="-5.31199"></trkpt>
      <trkpt lat="50.08005" lon="-5.31103"></trkpt>
      <trkpt lat="50.07992" lon="-5.31067"></trkpt>
      <trkpt lat="50.07974" lon="-5.31015"></trkpt>
      <trkpt lat="50.07961" lon="-5.30969"></trkpt>
      <trkpt lat="50.07954" lon="-5.30935"></trkpt>
      <trkpt lat="50.07945" lon="-5.30907"></trkpt>
      <trkpt lat="50.07925" lon="-5.30861"></trkpt>
      <trkpt lat="50.0791" lon="-5.30839"></trkpt>
      <trkpt lat="50.07856" lon="-5.30779"></trkpt>
      <trkpt lat="50.07836" lon="-5.30748"></trkpt>
      <trkpt lat="50.07823" lon="-5.30724"></trkpt>
      <trkpt lat="50.07771" lon="-5.30591"></trkpt>
      <trkpt lat="50.07763" lon="-5.30578"></trkpt>
      <trkpt lat="50.07753" lon="-5.30569"></trkpt>
      <trkpt lat="50.07711" lon="-5.30547"></trkpt>
      <trkpt lat="50.07713" lon="-5.30536"></trkpt>
      <trkpt lat="50.07726" lon="-5.30529"></trkpt>
      <trkpt lat="50.07725" lon="-5.30524"></trkpt>
      <trkpt lat="50.07709" lon="-5.30522"></trkpt>
      <trkpt lat="50.07698" lon="-5.30529"></trkpt>
      <trkpt lat="50.07699" lon="-5.3052"></trkpt>
      <trkpt lat="50.07693" lon="-5.30519"></trkpt>
      <trkpt lat="50.07695" lon="-5.30508"></trkpt>
      <trkpt lat="50.07673" lon="-5.30488"></trkpt>
      <trkpt lat="50.07655" lon="-5.30464"></trkpt>
      <trkpt lat="50.07642" lon="-5.30456"></trkpt>
      <trkpt lat="50.07632" lon="-5.30447"></trkpt>
      <trkpt lat="50.07616" lon="-5.3041"></trkpt>
      <trkpt lat="50.07609" lon="-5.30408"></trkpt>
      <trkpt lat="50.07605" lon="-5.30399"></trkpt>
      <trkpt lat="50.07598" lon="-5.304"></trkpt>
      <trkpt lat="50.07588" lon="-5.30382"></trkpt>
      <trkpt lat="50.07583" lon="-5.30357"></trkpt>
      <trkpt lat="50.07535" lon="-5.3028"></trkpt>
      <trkpt lat="50.07527" lon="-5.30253"></trkpt>
      <trkpt lat="50.07516" lon="-5.30247"></trkpt>
      <trkpt lat="50.07511" lon="-5.3024"></trkpt>
      <trkpt lat="50.07505" lon="-5.30242"></trkpt>
      <trkpt lat="50.07493" lon="-5.30227"></trkpt>
      <trkpt lat="50.07481" lon="-5.302"></trkpt>
      <trkpt lat="50.07473" lon="-5.30195"></trkpt>
      <trkpt lat="50.07468" lon="-5.30184"></trkpt>
      <trkpt lat="50.0747" lon="-5.30172"></trkpt>
      <trkpt lat="50.07478" lon="-5.30154"></trkpt>
      <trkpt lat="50.0744" lon="-5.30128"></trkpt>
      <trkpt lat="50.07446" lon="-5.3008"></trkpt>
      <trkpt lat="50.07437" lon="-5.30069"></trkpt>
      <trkpt lat="50.07437" lon="-5.3005"></trkpt>
      <trkpt lat="50.07433" lon="-5.30044"></trkpt>
      <trkpt lat="50.07405" lon="-5.30022"></trkpt>
      <trkpt lat="50.07367" lon="-5.29998"></trkpt>
      <trkpt lat="50.07351" lon="-5.29997"></trkpt>
      <trkpt lat="50.07346" lon="-5.29993"></trkpt>
      <trkpt lat="50.07338" lon="-5.29995"></trkpt>
      <trkpt lat="50.07331" lon="-5.29988"></trkpt>
      <trkpt lat="50.0732" lon="-5.29966"></trkpt>
      <trkpt lat="50.073" lon="-5.29951"></trkpt>
      <trkpt lat="50.07296" lon="-5.29937"></trkpt>
      <trkpt lat="50.07271" lon="-5.29907"></trkpt>
      <trkpt lat="50.0726" lon="-5.29888"></trkpt>
      <trkpt lat="50.0725" lon="-5.29857"></trkpt>
      <trkpt lat="50.07234" lon="-5.29796"></trkpt>
      <trkpt lat="50.07229" lon="-5.29782"></trkpt>
      <trkpt lat="50.07225" lon="-5.29763"></trkpt>
      <trkpt lat="50.07222" lon="-5.29743"></trkpt>
      <trkpt lat="50.07219" lon="-5.29747"></trkpt>
      <trkpt lat="50.07213" lon="-5.29762"></trkpt>
      <trkpt lat="50.07211" lon="-5.29763"></trkpt>
      <trkpt lat="50.07208" lon="-5.29756"></trkpt>
      <trkpt lat="50.07202" lon="-5.2975"></trkpt>
      <trkpt lat="50.07199" lon="-5.2975"></trkpt>
      <trkpt lat="50.07199" lon="-5.29754"></trkpt>
      <trkpt lat="50.07202" lon="-5.29766"></trkpt>
      <trkpt lat="50.07201" lon="-5.2977"></trkpt>
      <trkpt lat="50.07199" lon="-5.29771"></trkpt>
      <trkpt lat="50.07197" lon="-5.29769"></trkpt>
      <trkpt lat="50.07191" lon="-5.29752"></trkpt>
      <trkpt lat="50.0719" lon="-5.29767"></trkpt>
      <trkpt lat="50.07187" lon="-5.29772"></trkpt>
      <trkpt lat="50.072" lon="-5.29822"></trkpt>
      <trkpt lat="50.07208" lon="-5.29838"></trkpt>
      <trkpt lat="50.0721" lon="-5.29848"></trkpt>
      <trkpt lat="50.07206" lon="-5.2985"></trkpt>
      <trkpt lat="50.07182" lon="-5.29801"></trkpt>
      <trkpt lat="50.07151" lon="-5.29728"></trkpt>
      <trkpt lat="50.06979" lon="-5.29436"></trkpt>
      <trkpt lat="50.06884" lon="-5.29274"></trkpt>
      <trkpt lat="50.06884" lon="-5.29233"></trkpt>
      <trkpt lat="50.06874" lon="-5.29236"></trkpt>
      <trkpt lat="50.06867" lon="-5.29232"></trkpt>
      <trkpt lat="50.06854" lon="-5.29217"></trkpt>
      <trkpt lat="50.06826" lon="-5.29196"></trkpt>
      <trkpt lat="50.06816" lon="-5.29178"></trkpt>
      <trkpt lat="50.06811" lon="-5.29164"></trkpt>
      <trkpt lat="50.06797" lon="-5.29143"></trkpt>
      <trkpt lat="50.06771" lon="-5.29119"></trkpt>
      <trkpt lat="50.06722" lon="-5.29047"></trkpt>
      <trkpt lat="50.06696" lon="-5.29022"></trkpt>
      <trkpt lat="50.06672" lon="-5.2898"></trkpt>
      <trkpt lat="50.06667" lon="-5.28975"></trkpt>
      <trkpt lat="50.06654" lon="-5.28964"></trkpt>
      <trkpt lat="50.06627" lon="-5.28954"></trkpt>
      <trkpt lat="50.06599" lon="-5.28937"></trkpt>
      <trkpt lat="50.0656" lon="-5.28901"></trkpt>
      <trkpt lat="50.06551" lon="-5.28881"></trkpt>
      <trkpt lat="50.06512" lon="-5.28822"></trkpt>
      <trkpt lat="50.06452" lon="-5.28752"></trkpt>
      <trkpt lat="50.06416" lon="-5.28697"></trkpt>
      <trkpt lat="50.06403" lon="-5.28666"></trkpt>
      <trkpt lat="50.0639" lon="-5.28644"></trkpt>
      <trkpt lat="50.06369" lon="-5.2864"></trkpt>
      <trkpt lat="50.0629" lon="-5.28605"></trkpt>
      <trkpt lat="50.06282" lon="-5.28587"></trkpt>
      <trkpt lat="50.06277" lon="-5.28584"></trkpt>
      <trkpt lat="50.06269" lon="-5.28563"></trkpt>
      <trkpt lat="50.06238" lon="-5.28534"></trkpt>
      <trkpt lat="50.06223" lon="-5.28516"></trkpt>
      <trkpt lat="50.06209" lon="-5.28493"></trkpt>
      <trkpt lat="50.06172" lon="-5.2844"></trkpt>
      <trkpt lat="50.06164" lon="-5.28435"></trkpt>
      <trkpt lat="50.06148" lon="-5.28412"></trkpt>
      <trkpt lat="50.06112" lon="-5.28369"></trkpt>
      <trkpt lat="50.06058" lon="-5.28318"></trkpt>
      <trkpt lat="50.06053" lon="-5.28308"></trkpt>
      <trkpt lat="50.0605" lon="-5.28296"></trkpt>
      <trkpt lat="50.06052" lon="-5.28272"></trkpt>
      <trkpt lat="50.06046" lon="-5.2826"></trkpt>
      <trkpt lat="50.06053" lon="-5.28223"></trkpt>
      <trkpt lat="50.06025" lon="-5.2821"></trkpt>
      <trkpt lat="50.06018" lon="-5.28201"></trkpt>
      <trkpt lat="50.05961" lon="-5.28109"></trkpt>
      <trkpt lat="50.05894" lon="-5.27988"></trkpt>
      <trkpt lat="50.05877" lon="-5.27946"></trkpt>
      <trkpt lat="50.0583" lon="-5.28038"></trkpt>
      <trkpt lat="50.05777" lon="-5.27999"></trkpt>
      <trkpt lat="50.05736" lon="-5.27958"></trkpt>
      <trkpt lat="50.05716" lon="-5.27931"></trkpt>
      <trkpt lat="50.05705" lon="-5.27894"></trkpt>
      <trkpt lat="50.05699" lon="-5.27884"></trkpt>
      <trkpt lat="50.05642" lon="-5.27848"></trkpt>
      <trkpt lat="50.05636" lon="-5.2785"></trkpt>
      <trkpt lat="50.05626" lon="-5.27859"></trkpt>
      <trkpt lat="50.05608" lon="-5.27853"></trkpt>
      <trkpt lat="50.05574" lon="-5.27835"></trkpt>
      <trkpt lat="50.05566" lon="-5.27839"></trkpt>
      <trkpt lat="50.05519" lon="-5.27799"></trkpt>
      <trkpt lat="50.05509" lon="-5.2778"></trkpt>
      <trkpt lat="50.05506" lon="-5.27771"></trkpt>
      <trkpt lat="50.05497" lon="-5.27786"></trkpt>
      <trkpt lat="50.05487" lon="-5.27797"></trkpt>
      <trkpt lat="50.05453" lon="-5.27805"></trkpt>
      <trkpt lat="50.05444" lon="-5.27804"></trkpt>
      <trkpt lat="50.05435" lon="-5.27791"></trkpt>
      <trkpt lat="50.05407" lon="-5.27783"></trkpt>
      <trkpt lat="50.05381" lon="-5.27761"></trkpt>
      <trkpt lat="50.05349" lon="-5.27754"></trkpt>
      <trkpt lat="50.05318" lon="-5.27742"></trkpt>
      <trkpt lat="50.05303" lon="-5.2773"></trkpt>
      <trkpt lat="50.05304" lon="-5.27707"></trkpt>
      <trkpt lat="50.05302" lon="-5.27697"></trkpt>
      <trkpt lat="50.05254" lon="-5.27627"></trkpt>
      <trkpt lat="50.05241" lon="-5.27624"></trkpt>
      <trkpt lat="50.05188" lon="-5.27645"></trkpt>
      <trkpt lat="50.05181" lon="-5.2766"></trkpt>
      <trkpt lat="50.05152" lon="-5.27654"></trkpt>
      <trkpt lat="50.05129" lon="-5.27644"></trkpt>
      <trkpt lat="50.05109" lon="-5.27623"></trkpt>
      <trkpt lat="50.051" lon="-5.27605"></trkpt>
      <trkpt lat="50.05086" lon="-5.27545"></trkpt>
      <trkpt lat="50.05083" lon="-5.27545"></trkpt>
      <trkpt lat="50.05082" lon="-5.27539"></trkpt>
      <trkpt lat="50.05072" lon="-5.27527"></trkpt>
      <trkpt lat="50.05073" lon="-5.27514"></trkpt>
      <trkpt lat="50.0507" lon="-5.27508"></trkpt>
      <trkpt lat="50.05063" lon="-5.27508"></trkpt>
      <trkpt lat="50.05035" lon="-5.27492"></trkpt>
      <trkpt lat="50.05028" lon="-5.27483"></trkpt>
      <trkpt lat="50.05001" lon="-5.27459"></trkpt>
      <trkpt lat="50.04988" lon="-5.27458"></trkpt>
      <trkpt lat="50.04966" lon="-5.27464"></trkpt>
      <trkpt lat="50.04959" lon="-5.27463"></trkpt>
      <trkpt lat="50.04949" lon="-5.27443"></trkpt>
      <trkpt lat="50.04915" lon="-5.27444"></trkpt>
      <trkpt lat="50.04898" lon="-5.27447"></trkpt>
      <trkpt lat="50.04873" lon="-5.27456"></trkpt>
      <trkpt lat="50.04802" lon="-5.27494"></trkpt>
      <trkpt lat="50.04757" lon="-5.27514"></trkpt>
      <trkpt lat="50.04753" lon="-5.27522"></trkpt>
      <trkpt lat="50.04753" lon="-5.2754"></trkpt>
      <trkpt lat="50.04747" lon="-5.27547"></trkpt>
      <trkpt lat="50.04744" lon="-5.2756"></trkpt>
      <trkpt lat="50.04721" lon="-5.27614"></trkpt>
      <trkpt lat="50.04679" lon="-5.27687"></trkpt>
      <trkpt lat="50.04671" lon="-5.27694"></trkpt>
      <trkpt lat="50.04661" lon="-5.27698"></trkpt>
      <trkpt lat="50.04658" lon="-5.27704"></trkpt>
      <trkpt lat="50.04664" lon="-5.27727"></trkpt>
      <trkpt lat="50.04637" lon="-5.27765"></trkpt>
      <trkpt lat="50.0458" lon="-5.27847"></trkpt>
      <trkpt lat="50.04518" lon="-5.27884"></trkpt>
      <trkpt lat="50.04463" lon="-5.27969"></trkpt>
      <trkpt lat="50.04458" lon="-5.27969"></trkpt>
      <trkpt lat="50.0443" lon="-5.27902"></trkpt>
      <trkpt lat="50.0442" lon="-5.27885"></trkpt>
      <trkpt lat="50.04413" lon="-5.2788"></trkpt>
      <trkpt lat="50.04373" lon="-5.27882"></trkpt>
      <trkpt lat="50.04344" lon="-5.27871"></trkpt>
      <trkpt lat="50.04316" lon="-5.27867"></trkpt>
      <trkpt lat="50.04291" lon="-5.27867"></trkpt>
      <trkpt lat="50.04274" lon="-5.27877"></trkpt>
      <trkpt lat="50.04264" lon="-5.27839"></trkpt>
      <trkpt lat="50.04255" lon="-5.27805"></trkpt>
      <trkpt lat="50.04255" lon="-5.27781"></trkpt>
      <trkpt lat="50.04286" lon="-5.277"></trkpt>
      <trkpt lat="50.04248" lon="-5.27625"></trkpt>
      <trkpt lat="50.04223" lon="-5.27609"></trkpt>
      <trkpt lat="50.04214" lon="-5.27583"></trkpt>
      <trkpt lat="50.04218" lon="-5.27543"></trkpt>
      <trkpt lat="50.04223" lon="-5.27514"></trkpt>
      <trkpt lat="50.04228" lon="-5.27494"></trkpt>
      <trkpt lat="50.04242" lon="-5.27458"></trkpt>
      <trkpt lat="50.04249" lon="-5.27445"></trkpt>
      <trkpt lat="50.0422" lon="-5.27374"></trkpt>
      <trkpt lat="50.04195" lon="-5.27336"></trkpt>
      <trkpt lat="50.04193" lon="-5.27326"></trkpt>
      <trkpt lat="50.04195" lon="-5.2732"></trkpt>
      <trkpt lat="50.04198" lon="-5.27317"></trkpt>
      <trkpt lat="50.04196" lon="-5.2731"></trkpt>
      <trkpt lat="50.04197" lon="-5.27302"></trkpt>
      <trkpt lat="50.0417" lon="-5.27224"></trkpt>
      <trkpt lat="50.04166" lon="-5.27223"></trkpt>
      <trkpt lat="50.04137" lon="-5.27204"></trkpt>
      <trkpt lat="50.04132" lon="-5.27193"></trkpt>
      <trkpt lat="50.04125" lon="-5.27159"></trkpt>
      <trkpt lat="50.04119" lon="-5.27144"></trkpt>
      <trkpt lat="50.04117" lon="-5.27133"></trkpt>
      <trkpt lat="50.04111" lon="-5.27122"></trkpt>
      <trkpt lat="50.04102" lon="-5.27017"></trkpt>
      <trkpt lat="50.04062" lon="-5.26975"></trkpt>
      <trkpt lat="50.04028" lon="-5.26907"></trkpt>
      <trkpt lat="50.04012" lon="-5.26884"></trkpt>
      <trkpt lat="50.03983" lon="-5.26858"></trkpt>
      <trkpt lat="50.03982" lon="-5.26839"></trkpt>
      <trkpt lat="50.03979" lon="-5.26833"></trkpt>
      <trkpt lat="50.03961" lon="-5.26816"></trkpt>
      <trkpt lat="50.03951" lon="-5.26788"></trkpt>
      <trkpt lat="50.03949" lon="-5.26766"></trkpt>
      <trkpt lat="50.03943" lon="-5.26748"></trkpt>
      <trkpt lat="50.03942" lon="-5.26719"></trkpt>
      <trkpt lat="50.03939" lon="-5.26711"></trkpt>
      <trkpt lat="50.03924" lon="-5.26707"></trkpt>
      <trkpt lat="50.03867" lon="-5.26641"></trkpt>
      <trkpt lat="50.03861" lon="-5.26634"></trkpt>
      <trkpt lat="50.03856" lon="-5.26632"></trkpt>
      <trkpt lat="50.0383" lon="-5.26647"></trkpt>
      <trkpt lat="50.03771" lon="-5.26613"></trkpt>
      <trkpt lat="50.03735" lon="-5.26596"></trkpt>
      <trkpt lat="50.03732" lon="-5.266"></trkpt>
      <trkpt lat="50.03726" lon="-5.266"></trkpt>
      <trkpt lat="50.03709" lon="-5.26593"></trkpt>
      <trkpt lat="50.0369" lon="-5.26576"></trkpt>
      <trkpt lat="50.03629" lon="-5.26564"></trkpt>
      <trkpt lat="50.03627" lon="-5.26559"></trkpt>
      <trkpt lat="50.036" lon="-5.26568"></trkpt>
      <trkpt lat="50.0359" lon="-5.26564"></trkpt>
      <trkpt lat="50.03585" lon="-5.26576"></trkpt>
      <trkpt lat="50.03574" lon="-5.26583"></trkpt>
      <trkpt lat="50.03546" lon="-5.26607"></trkpt>
      <trkpt lat="50.03526" lon="-5.26615"></trkpt>
      <trkpt lat="50.03511" lon="-5.26616"></trkpt>
      <trkpt lat="50.0351" lon="-5.26616"></trkpt>
      <trkpt lat="50.03503" lon="-5.26613"></trkpt>
      <trkpt lat="50.03478" lon="-5.26588"></trkpt>
      <trkpt lat="50.03461" lon="-5.26566"></trkpt>
      <trkpt lat="50.03455" lon="-5.26554"></trkpt>
      <trkpt lat="50.03452" lon="-5.26523"></trkpt>
      <trkpt lat="50.03453" lon="-5.26508"></trkpt>
      <trkpt lat="50.03458" lon="-5.26484"></trkpt>
      <trkpt lat="50.03457" lon="-5.26451"></trkpt>
      <trkpt lat="50.03439" lon="-5.26391"></trkpt>
      <trkpt lat="50.03433" lon="-5.26342"></trkpt>
      <trkpt lat="50.03433" lon="-5.26323"></trkpt>
      <trkpt lat="50.03436" lon="-5.26307"></trkpt>
      <trkpt lat="50.03444" lon="-5.263"></trkpt>
      <trkpt lat="50.03447" lon="-5.26286"></trkpt>
      <trkpt lat="50.03449" lon="-5.26283"></trkpt>
      <trkpt lat="50.03453" lon="-5.26224"></trkpt>
      <trkpt lat="50.03477" lon="-5.26116"></trkpt>
      <trkpt lat="50.03468" lon="-5.26042"></trkpt>
      <trkpt lat="50.03468" lon="-5.25992"></trkpt>
      <trkpt lat="50.03464" lon="-5.25977"></trkpt>
      <trkpt lat="50.03459" lon="-5.2597"></trkpt>
      <trkpt lat="50.03447" lon="-5.25968"></trkpt>
      <trkpt lat="50.03414" lon="-5.25949"></trkpt>
      <trkpt lat="50.03403" lon="-5.25939"></trkpt>
      <trkpt lat="50.03344" lon="-5.26052"></trkpt>
      <trkpt lat="50.03315" lon="-5.26095"></trkpt>
      <trkpt lat="50.03279" lon="-5.26141"></trkpt>
      <trkpt lat="50.03269" lon="-5.26157"></trkpt>
      <trkpt lat="50.03211" lon="-5.26259"></trkpt>
      <trkpt lat="50.03203" lon="-5.26278"></trkpt>
      <trkpt lat="50.03196" lon="-5.26319"></trkpt>
      <trkpt lat="50.03203" lon="-5.26336"></trkpt>
      <trkpt lat="50.032" lon="-5.26349"></trkpt>
      <trkpt lat="50.0319" lon="-5.26363"></trkpt>
      <trkpt lat="50.03185" lon="-5.26377"></trkpt>
      <trkpt lat="50.0318" lon="-5.26444"></trkpt>
      <trkpt lat="50.03176" lon="-5.26452"></trkpt>
      <trkpt lat="50.03176" lon="-5.26453"></trkpt>
      <trkpt lat="50.03157" lon="-5.26478"></trkpt>
      <trkpt lat="50.03136" lon="-5.26516"></trkpt>
      <trkpt lat="50.03129" lon="-5.26525"></trkpt>
      <trkpt lat="50.03124" lon="-5.26529"></trkpt>
      <trkpt lat="50.03114" lon="-5.26528"></trkpt>
      <trkpt lat="50.03091" lon="-5.26515"></trkpt>
      <trkpt lat="50.03063" lon="-5.26514"></trkpt>
      <trkpt lat="50.03036" lon="-5.26517"></trkpt>
      <trkpt lat="50.03036" lon="-5.26521"></trkpt>
      <trkpt lat="50.03015" lon="-5.26519"></trkpt>
      <trkpt lat="50.03002" lon="-5.26515"></trkpt>
      <trkpt lat="50.02984" lon="-5.26505"></trkpt>
      <trkpt lat="50.02965" lon="-5.26457"></trkpt>
      <trkpt lat="50.02952" lon="-5.26434"></trkpt>
      <trkpt lat="50.02936" lon="-5.26425"></trkpt>
      <trkpt lat="50.02914" lon="-5.26417"></trkpt>
      <trkpt lat="50.02895" lon="-5.26414"></trkpt>
      <trkpt lat="50.0289" lon="-5.26407"></trkpt>
      <trkpt lat="50.02858" lon="-5.26379"></trkpt>
      <trkpt lat="50.02836" lon="-5.26348"></trkpt>
      <trkpt lat="50.02816" lon="-5.26311"></trkpt>
      <trkpt lat="50.02803" lon="-5.26276"></trkpt>
      <trkpt lat="50.02751" lon="-5.2618"></trkpt>
      <trkpt lat="50.02742" lon="-5.26169"></trkpt>
      <trkpt lat="50.02708" lon="-5.26154"></trkpt>
      <trkpt lat="50.02696" lon="-5.26143"></trkpt>
      <trkpt lat="50.02686" lon="-5.26126"></trkpt>
      <trkpt lat="50.02677" lon="-5.26096"></trkpt>
      <trkpt lat="50.02675" lon="-5.26084"></trkpt>
      <trkpt lat="50.02675" lon="-5.26067"></trkpt>
      <trkpt lat="50.0267" lon="-5.26059"></trkpt>
      <trkpt lat="50.02609" lon="-5.26018"></trkpt>
      <trkpt lat="50.02562" lon="-5.25973"></trkpt>
      <trkpt lat="50.0253" lon="-5.25925"></trkpt>
      <trkpt lat="50.02504" lon="-5.25896"></trkpt>
      <trkpt lat="50.02489" lon="-5.25865"></trkpt>
      <trkpt lat="50.02478" lon="-5.25829"></trkpt>
      <trkpt lat="50.02472" lon="-5.25806"></trkpt>
      <trkpt lat="50.02469" lon="-5.25781"></trkpt>
      <trkpt lat="50.02455" lon="-5.2572"></trkpt>
      <trkpt lat="50.02429" lon="-5.25707"></trkpt>
      <trkpt lat="50.02426" lon="-5.25696"></trkpt>
      <trkpt lat="50.02438" lon="-5.25665"></trkpt>
      <trkpt lat="50.02439" lon="-5.25619"></trkpt>
      <trkpt lat="50.02438" lon="-5.25611"></trkpt>
      <trkpt lat="50.02441" lon="-5.25577"></trkpt>
      <trkpt lat="50.02438" lon="-5.2557"></trkpt>
      <trkpt lat="50.0243" lon="-5.25562"></trkpt>
      <trkpt lat="50.02416" lon="-5.25564"></trkpt>
      <trkpt lat="50.02409" lon="-5.25557"></trkpt>
      <trkpt lat="50.02393" lon="-5.25549"></trkpt>
      <trkpt lat="50.02355" lon="-5.25543"></trkpt>
      <trkpt lat="50.02349" lon="-5.25534"></trkpt>
      <trkpt lat="50.02325" lon="-5.2552"></trkpt>
      <trkpt lat="50.02321" lon="-5.25515"></trkpt>
      <trkpt lat="50.02281" lon="-5.25484"></trkpt>
      <trkpt lat="50.02257" lon="-5.25468"></trkpt>
      <trkpt lat="50.0222" lon="-5.25436"></trkpt>
      <trkpt lat="50.02196" lon="-5.25399"></trkpt>
      <trkpt lat="50.02185" lon="-5.25379"></trkpt>
      <trkpt lat="50.02168" lon="-5.25404"></trkpt>
      <trkpt lat="50.0216" lon="-5.2541"></trkpt>
      <trkpt lat="50.02153" lon="-5.25414"></trkpt>
      <trkpt lat="50.02123" lon="-5.25414"></trkpt>
      <trkpt lat="50.02109" lon="-5.25425"></trkpt>
      <trkpt lat="50.02083" lon="-5.25472"></trkpt>
      <trkpt lat="50.02081" lon="-5.25483"></trkpt>
      <trkpt lat="50.02083" lon="-5.25502"></trkpt>
      <trkpt lat="50.02082" lon="-5.25516"></trkpt>
      <trkpt lat="50.02079" lon="-5.2553"></trkpt>
      <trkpt lat="50.02067" lon="-5.25553"></trkpt>
      <trkpt lat="50.02051" lon="-5.25571"></trkpt>
      <trkpt lat="50.02043" lon="-5.25577"></trkpt>
      <trkpt lat="50.02025" lon="-5.25582"></trkpt>
      <trkpt lat="50.02024" lon="-5.25582"></trkpt>
      <trkpt lat="50.0201" lon="-5.2559"></trkpt>
      <trkpt lat="50.02002" lon="-5.25598"></trkpt>
      <trkpt lat="50.01985" lon="-5.25645"></trkpt>
      <trkpt lat="50.01961" lon="-5.25675"></trkpt>
      <trkpt lat="50.01958" lon="-5.25675"></trkpt>
      <trkpt lat="50.01916" lon="-5.25732"></trkpt>
      <trkpt lat="50.0191" lon="-5.25753"></trkpt>
      <trkpt lat="50.01905" lon="-5.25759"></trkpt>
      <trkpt lat="50.01855" lon="-5.25799"></trkpt>
      <trkpt lat="50.01855" lon="-5.258"></trkpt>
      <trkpt lat="50.01829" lon="-5.25816"></trkpt>
      <trkpt lat="50.0182" lon="-5.25817"></trkpt>
      <trkpt lat="50.01807" lon="-5.25811"></trkpt>
      <trkpt lat="50.01783" lon="-5.25807"></trkpt>
      <trkpt lat="50.01752" lon="-5.25793"></trkpt>
      <trkpt lat="50.01732" lon="-5.25808"></trkpt>
      <trkpt lat="50.01727" lon="-5.25807"></trkpt>
      <trkpt lat="50.01724" lon="-5.25804"></trkpt>
      <trkpt lat="50.01693" lon="-5.25819"></trkpt>
      <trkpt lat="50.01667" lon="-5.25818"></trkpt>
      <trkpt lat="50.01661" lon="-5.25839"></trkpt>
      <trkpt lat="50.01646" lon="-5.2584"></trkpt>
      <trkpt lat="50.01636" lon="-5.25838"></trkpt>
      <trkpt lat="50.01627" lon="-5.25832"></trkpt>
      <trkpt lat="50.01617" lon="-5.25849"></trkpt>
      <trkpt lat="50.01613" lon="-5.25851"></trkpt>
      <trkpt lat="50.01602" lon="-5.25847"></trkpt>
      <trkpt lat="50.01596" lon="-5.25854"></trkpt>
      <trkpt lat="50.01586" lon="-5.25874"></trkpt>
      <trkpt lat="50.01584" lon="-5.25873"></trkpt>
      <trkpt lat="50.0158" lon="-5.25862"></trkpt>
      <trkpt lat="50.01577" lon="-5.25822"></trkpt>
      <trkpt lat="50.01573" lon="-5.25793"></trkpt>
      <trkpt lat="50.01568" lon="-5.2577"></trkpt>
      <trkpt lat="50.01562" lon="-5.25759"></trkpt>
      <trkpt lat="50.01556" lon="-5.25755"></trkpt>
      <trkpt lat="50.01542" lon="-5.25758"></trkpt>
      <trkpt lat="50.01518" lon="-5.25756"></trkpt>
      <trkpt lat="50.01518" lon="-5.25726"></trkpt>
      <trkpt lat="50.0152" lon="-5.25702"></trkpt>
      <trkpt lat="50.01503" lon="-5.25755"></trkpt>
      <trkpt lat="50.0149" lon="-5.2578"></trkpt>
      <trkpt lat="50.01487" lon="-5.25783"></trkpt>
      <trkpt lat="50.01483" lon="-5.25779"></trkpt>
      <trkpt lat="50.0146" lon="-5.2572"></trkpt>
      <trkpt lat="50.01448" lon="-5.25714"></trkpt>
      <trkpt lat="50.01433" lon="-5.25703"></trkpt>
      <trkpt lat="50.01413" lon="-5.25701"></trkpt>
      <trkpt lat="50.01394" lon="-5.25692"></trkpt>
      <trkpt lat="50.01376" lon="-5.25696"></trkpt>
      <trkpt lat="50.01359" lon="-5.2571"></trkpt>
      <trkpt lat="50.01339" lon="-5.25717"></trkpt>
      <trkpt lat="50.01326" lon="-5.25729"></trkpt>
      <trkpt lat="50.01297" lon="-5.25747"></trkpt>
      <trkpt lat="50.01277" lon="-5.25765"></trkpt>
      <trkpt lat="50.01263" lon="-5.25775"></trkpt>
      <trkpt lat="50.01239" lon="-5.25842"></trkpt>
      <trkpt lat="50.01201" lon="-5.25893"></trkpt>
      <trkpt lat="50.01166" lon="-5.25923"></trkpt>
      <trkpt lat="50.01158" lon="-5.25936"></trkpt>
      <trkpt lat="50.01153" lon="-5.25953"></trkpt>
      <trkpt lat="50.01144" lon="-5.2597"></trkpt>
      <trkpt lat="50.01139" lon="-5.25977"></trkpt>
      <trkpt lat="50.01104" lon="-5.25986"></trkpt>
      <trkpt lat="50.01086" lon="-5.25993"></trkpt>
      <trkpt lat="50.01075" lon="-5.26001"></trkpt>
      <trkpt lat="50.01044" lon="-5.26052"></trkpt>
      <trkpt lat="50.01038" lon="-5.26058"></trkpt>
      <trkpt lat="50.0103" lon="-5.26061"></trkpt>
      <trkpt lat="50.01019" lon="-5.26062"></trkpt>
      <trkpt lat="50.01002" lon="-5.26057"></trkpt>
      <trkpt lat="50.00995" lon="-5.26058"></trkpt>
      <trkpt lat="50.00985" lon="-5.26068"></trkpt>
      <trkpt lat="50.0095" lon="-5.26085"></trkpt>
      <trkpt lat="50.00945" lon="-5.26086"></trkpt>
      <trkpt lat="50.00942" lon="-5.26079"></trkpt>
      <trkpt lat="50.00936" lon="-5.26075"></trkpt>
      <trkpt lat="50.00926" lon="-5.26076"></trkpt>
      <trkpt lat="50.00919" lon="-5.2608"></trkpt>
      <trkpt lat="50.00908" lon="-5.26108"></trkpt>
      <trkpt lat="50.00902" lon="-5.26135"></trkpt>
      <trkpt lat="50.009" lon="-5.26139"></trkpt>
      <trkpt lat="50.00898" lon="-5.26159"></trkpt>
      <trkpt lat="50.00894" lon="-5.26177"></trkpt>
      <trkpt lat="50.00879" lon="-5.26189"></trkpt>
      <trkpt lat="50.00859" lon="-5.26223"></trkpt>
      <trkpt lat="50.00845" lon="-5.26252"></trkpt>
      <trkpt lat="50.00808" lon="-5.26291"></trkpt>
      <trkpt lat="50.00786" lon="-5.26294"></trkpt>
      <trkpt lat="50.00726" lon="-5.26325"></trkpt>
      <trkpt lat="50.0071" lon="-5.26339"></trkpt>
      <trkpt lat="50.00677" lon="-5.26362"></trkpt>
      <trkpt lat="50.00663" lon="-5.2638"></trkpt>
      <trkpt lat="50.00655" lon="-5.26398"></trkpt>
      <trkpt lat="50.00644" lon="-5.26415"></trkpt>
      <trkpt lat="50.00637" lon="-5.26418"></trkpt>
      <trkpt lat="50.00627" lon="-5.26429"></trkpt>
      <trkpt lat="50.00605" lon="-5.26451"></trkpt>
      <trkpt lat="50.00597" lon="-5.26465"></trkpt>
      <trkpt lat="50.00571" lon="-5.26484"></trkpt>
      <trkpt lat="50.00545" lon="-5.266"></trkpt>
      <trkpt lat="50.00523" lon="-5.26632"></trkpt>
      <trkpt lat="50.00515" lon="-5.26641"></trkpt>
      <trkpt lat="50.0051" lon="-5.26642"></trkpt>
      <trkpt lat="50.00459" lon="-5.26609"></trkpt>
      <trkpt lat="50.00402" lon="-5.26576"></trkpt>
      <trkpt lat="50.00361" lon="-5.26563"></trkpt>
      <trkpt lat="50.00306" lon="-5.2654"></trkpt>
      <trkpt lat="50.00292" lon="-5.26522"></trkpt>
      <trkpt lat="50.00271" lon="-5.2651"></trkpt>
      <trkpt lat="50.00251" lon="-5.2651"></trkpt>
      <trkpt lat="50.00218" lon="-5.26505"></trkpt>
      <trkpt lat="50.00172" lon="-5.26483"></trkpt>
      <trkpt lat="50.00136" lon="-5.26471"></trkpt>
      <trkpt lat="50.00106" lon="-5.26457"></trkpt>
      <trkpt lat="50.00084" lon="-5.26436"></trkpt>
      <trkpt lat="50.00024" lon="-5.2642"></trkpt>
      <trkpt lat="49.99969" lon="-5.26397"></trkpt>
      <trkpt lat="49.99942" lon="-5.26377"></trkpt>
      <trkpt lat="49.99918" lon="-5.2637"></trkpt>
      <trkpt lat="49.99913" lon="-5.26366"></trkpt>
      <trkpt lat="49.999" lon="-5.26349"></trkpt>
      <trkpt lat="49.99857" lon="-5.26269"></trkpt>
      <trkpt lat="49.99809" lon="-5.26161"></trkpt>
      <trkpt lat="49.99788" lon="-5.26096"></trkpt>
      <trkpt lat="49.99782" lon="-5.26058"></trkpt>
      <trkpt lat="49.99762" lon="-5.26014"></trkpt>
      <trkpt lat="49.99745" lon="-5.25974"></trkpt>
      <trkpt lat="49.99739" lon="-5.25956"></trkpt>
      <trkpt lat="49.99736" lon="-5.25922"></trkpt>
      <trkpt lat="49.99736" lon="-5.25908"></trkpt>
      <trkpt lat="49.99758" lon="-5.2586"></trkpt>
      <trkpt lat="49.99763" lon="-5.25855"></trkpt>
      <trkpt lat="49.99773" lon="-5.2585"></trkpt>
      <trkpt lat="49.99776" lon="-5.25829"></trkpt>
      <trkpt lat="49.99773" lon="-5.2582"></trkpt>
      <trkpt lat="49.99775" lon="-5.25766"></trkpt>
      <trkpt lat="49.99774" lon="-5.25734"></trkpt>
      <trkpt lat="49.99779" lon="-5.25668"></trkpt>
      <trkpt lat="49.99778" lon="-5.25654"></trkpt>
      <trkpt lat="49.99779" lon="-5.25647"></trkpt>
      <trkpt lat="49.99818" lon="-5.2561"></trkpt>
      <trkpt lat="49.99824" lon="-5.256"></trkpt>
      <trkpt lat="49.99827" lon="-5.25589"></trkpt>
      <trkpt lat="49.99826" lon="-5.25581"></trkpt>
      <trkpt lat="49.9982" lon="-5.25567"></trkpt>
      <trkpt lat="49.99821" lon="-5.25559"></trkpt>
      <trkpt lat="49.99815" lon="-5.25546"></trkpt>
      <trkpt lat="49.99806" lon="-5.25538"></trkpt>
      <trkpt lat="49.99799" lon="-5.25523"></trkpt>
      <trkpt lat="49.99789" lon="-5.25473"></trkpt>
      <trkpt lat="49.99772" lon="-5.25426"></trkpt>
      <trkpt lat="49.99756" lon="-5.25401"></trkpt>
      <trkpt lat="49.9974" lon="-5.254"></trkpt>
      <trkpt lat="49.99735" lon="-5.25397"></trkpt>
      <trkpt lat="49.99713" lon="-5.25387"></trkpt>
      <trkpt lat="49.9969" lon="-5.25372"></trkpt>
      <trkpt lat="49.99668" lon="-5.25373"></trkpt>
      <trkpt lat="49.99648" lon="-5.25358"></trkpt>
      <trkpt lat="49.99627" lon="-5.25353"></trkpt>
      <trkpt lat="49.99614" lon="-5.25336"></trkpt>
      <trkpt lat="49.99607" lon="-5.25331"></trkpt>
      <trkpt lat="49.99601" lon="-5.25332"></trkpt>
      <trkpt lat="49.99573" lon="-5.25304"></trkpt>
      <trkpt lat="49.99566" lon="-5.25284"></trkpt>
      <trkpt lat="49.9955" lon="-5.25268"></trkpt>
      <trkpt lat="49.99545" lon="-5.2527"></trkpt>
      <trkpt lat="49.99464" lon="-5.25242"></trkpt>
      <trkpt lat="49.99453" lon="-5.25233"></trkpt>
      <trkpt lat="49.99427" lon="-5.25166"></trkpt>
      <trkpt lat="49.99418" lon="-5.25152"></trkpt>
      <trkpt lat="49.99402" lon="-5.25144"></trkpt>
      <trkpt lat="49.9938" lon="-5.25142"></trkpt>
      <trkpt lat="49.99357" lon="-5.25146"></trkpt>
      <trkpt lat="49.99327" lon="-5.25155"></trkpt>
      <trkpt lat="49.99276" lon="-5.2511"></trkpt>
      <trkpt lat="49.99229" lon="-5.25082"></trkpt>
      <trkpt lat="49.99195" lon="-5.25068"></trkpt>
      <trkpt lat="49.99085" lon="-5.25067"></trkpt>
      <trkpt lat="49.98983" lon="-5.25218"></trkpt>
      <trkpt lat="49.98939" lon="-5.25232"></trkpt>
      <trkpt lat="49.98915" lon="-5.25223"></trkpt>
      <trkpt lat="49.98898" lon="-5.25217"></trkpt>
      <trkpt lat="49.98846" lon="-5.25171"></trkpt>
      <trkpt lat="49.98828" lon="-5.25138"></trkpt>
      <trkpt lat="49.98792" lon="-5.25112"></trkpt>
      <trkpt lat="49.98748" lon="-5.25007"></trkpt>
      <trkpt lat="49.98686" lon="-5.24938"></trkpt>
      <trkpt lat="49.98673" lon="-5.24906"></trkpt>
      <trkpt lat="49.98677" lon="-5.24846"></trkpt>
      <trkpt lat="49.98677" lon="-5.24758"></trkpt>
      <trkpt lat="49.98645" lon="-5.24657"></trkpt>
      <trkpt lat="49.98634" lon="-5.24616"></trkpt>
      <trkpt lat="49.98611" lon="-5.24535"></trkpt>
      <trkpt lat="49.98604" lon="-5.24501"></trkpt>
      <trkpt lat="49.98601" lon="-5.24463"></trkpt>
      <trkpt lat="49.98588" lon="-5.24412"></trkpt>
      <trkpt lat="49.98571" lon="-5.24383"></trkpt>
      <trkpt lat="49.98557" lon="-5.24352"></trkpt>
      <trkpt lat="49.98542" lon="-5.24309"></trkpt>
      <trkpt lat="49.98531" lon="-5.24259"></trkpt>
      <trkpt lat="49.98525" lon="-5.24246"></trkpt>
      <trkpt lat="49.98506" lon="-5.24226"></trkpt>
      <trkpt lat="49.98496" lon="-5.24223"></trkpt>
      <trkpt lat="49.98488" lon="-5.24214"></trkpt>
      <trkpt lat="49.98481" lon="-5.24212"></trkpt>
      <trkpt lat="49.98472" lon="-5.24213"></trkpt>
      <trkpt lat="49.9846" lon="-5.24204"></trkpt>
      <trkpt lat="49.98453" lon="-5.24203"></trkpt>
      <trkpt lat="49.98448" lon="-5.24206"></trkpt>
      <trkpt lat="49.98443" lon="-5.24204"></trkpt>
      <trkpt lat="49.9844" lon="-5.24212"></trkpt>
      <trkpt lat="49.98435" lon="-5.24218"></trkpt>
      <trkpt lat="49.98426" lon="-5.24223"></trkpt>
      <trkpt lat="49.98416" lon="-5.24218"></trkpt>
      <trkpt lat="49.98405" lon="-5.24218"></trkpt>
      <trkpt lat="49.98387" lon="-5.24239"></trkpt>
      <trkpt lat="49.98367" lon="-5.24286"></trkpt>
      <trkpt lat="49.98359" lon="-5.24316"></trkpt>
      <trkpt lat="49.98353" lon="-5.24323"></trkpt>
      <trkpt lat="49.98344" lon="-5.24326"></trkpt>
      <trkpt lat="49.98337" lon="-5.24332"></trkpt>
      <trkpt lat="49.98332" lon="-5.24339"></trkpt>
      <trkpt lat="49.9833" lon="-5.2435"></trkpt>
      <trkpt lat="49.9833" lon="-5.24359"></trkpt>
      <trkpt lat="49.98339" lon="-5.24392"></trkpt>
      <trkpt lat="49.98338" lon="-5.24398"></trkpt>
      <trkpt lat="49.98326" lon="-5.2442"></trkpt>
      <trkpt lat="49.98306" lon="-5.24456"></trkpt>
      <trkpt lat="49.98296" lon="-5.24496"></trkpt>
      <trkpt lat="49.98292" lon="-5.24548"></trkpt>
      <trkpt lat="49.98289" lon="-5.24554"></trkpt>
      <trkpt lat="49.98283" lon="-5.24557"></trkpt>
      <trkpt lat="49.98276" lon="-5.24557"></trkpt>
      <trkpt lat="49.98196" lon="-5.24499"></trkpt>
      <trkpt lat="49.9816" lon="-5.24515"></trkpt>
      <trkpt lat="49.98122" lon="-5.24524"></trkpt>
      <trkpt lat="49.98092" lon="-5.24519"></trkpt>
      <trkpt lat="49.98077" lon="-5.24513"></trkpt>
      <trkpt lat="49.98048" lon="-5.245"></trkpt>
      <trkpt lat="49.98031" lon="-5.24498"></trkpt>
      <trkpt lat="49.97976" lon="-5.24511"></trkpt>
      <trkpt lat="49.97915" lon="-5.24499"></trkpt>
      <trkpt lat="49.97888" lon="-5.24488"></trkpt>
      <trkpt lat="49.97829" lon="-5.24447"></trkpt>
      <trkpt lat="49.97821" lon="-5.24431"></trkpt>
      <trkpt lat="49.97807" lon="-5.24414"></trkpt>
      <trkpt lat="49.97793" lon="-5.24409"></trkpt>
      <trkpt lat="49.97713" lon="-5.24423"></trkpt>
      <trkpt lat="49.97696" lon="-5.24428"></trkpt>
      <trkpt lat="49.9768" lon="-5.24425"></trkpt>
      <trkpt lat="49.97671" lon="-5.24418"></trkpt>
      <trkpt lat="49.9765" lon="-5.2439"></trkpt>
      <trkpt lat="49.97643" lon="-5.24367"></trkpt>
      <trkpt lat="49.97644" lon="-5.24341"></trkpt>
      <trkpt lat="49.9766" lon="-5.24278"></trkpt>
      <trkpt lat="49.97666" lon="-5.24234"></trkpt>
      <trkpt lat="49.97673" lon="-5.24115"></trkpt>
      <trkpt lat="49.9768" lon="-5.24067"></trkpt>
      <trkpt lat="49.97695" lon="-5.23888"></trkpt>
      <trkpt lat="49.97694" lon="-5.238"></trkpt>
      <trkpt lat="49.97698" lon="-5.23741"></trkpt>
      <trkpt lat="49.97705" lon="-5.23716"></trkpt>
      <trkpt lat="49.97717" lon="-5.23699"></trkpt>
      <trkpt lat="49.97719" lon="-5.2369"></trkpt>
      <trkpt lat="49.97721" lon="-5.23638"></trkpt>
      <trkpt lat="49.97716" lon="-5.23516"></trkpt>
      <trkpt lat="49.97716" lon="-5.23473"></trkpt>
      <trkpt lat="49.97713" lon="-5.23447"></trkpt>
      <trkpt lat="49.9769" lon="-5.23417"></trkpt>
      <trkpt lat="49.97663" lon="-5.23375"></trkpt>
      <trkpt lat="49.97652" lon="-5.23353"></trkpt>
      <trkpt lat="49.97623" lon="-5.23276"></trkpt>
      <trkpt lat="49.97602" lon="-5.23238"></trkpt>
      <trkpt lat="49.97581" lon="-5.23226"></trkpt>
      <trkpt lat="49.97531" lon="-5.23233"></trkpt>
      <trkpt lat="49.97525" lon="-5.23225"></trkpt>
      <trkpt lat="49.9751" lon="-5.23204"></trkpt>
      <trkpt lat="49.97507" lon="-5.23198"></trkpt>
      <trkpt lat="49.97506" lon="-5.23184"></trkpt>
      <trkpt lat="49.97511" lon="-5.2317"></trkpt>
      <trkpt lat="49.97511" lon="-5.23165"></trkpt>
      <trkpt lat="49.97517" lon="-5.23158"></trkpt>
      <trkpt lat="49.97519" lon="-5.23151"></trkpt>
      <trkpt lat="49.97517" lon="-5.23148"></trkpt>
      <trkpt lat="49.97518" lon="-5.23147"></trkpt>
      <trkpt lat="49.97517" lon="-5.23141"></trkpt>
      <trkpt lat="49.9752" lon="-5.23139"></trkpt>
      <trkpt lat="49.97522" lon="-5.23128"></trkpt>
      <trkpt lat="49.97528" lon="-5.23132"></trkpt>
      <trkpt lat="49.97524" lon="-5.23119"></trkpt>
      <trkpt lat="49.97526" lon="-5.23113"></trkpt>
      <trkpt lat="49.97538" lon="-5.23121"></trkpt>
      <trkpt lat="49.97541" lon="-5.23114"></trkpt>
      <trkpt lat="49.9754" lon="-5.23111"></trkpt>
      <trkpt lat="49.97529" lon="-5.23099"></trkpt>
      <trkpt lat="49.9753" lon="-5.23093"></trkpt>
      <trkpt lat="49.97527" lon="-5.23087"></trkpt>
      <trkpt lat="49.97533" lon="-5.2307"></trkpt>
      <trkpt lat="49.97537" lon="-5.23066"></trkpt>
      <trkpt lat="49.97535" lon="-5.23026"></trkpt>
      <trkpt lat="49.97528" lon="-5.22987"></trkpt>
      <trkpt lat="49.97523" lon="-5.2298"></trkpt>
      <trkpt lat="49.97514" lon="-5.22989"></trkpt>
      <trkpt lat="49.97512" lon="-5.22988"></trkpt>
      <trkpt lat="49.97514" lon="-5.22976"></trkpt>
      <trkpt lat="49.97525" lon="-5.22962"></trkpt>
      <trkpt lat="49.97529" lon="-5.22893"></trkpt>
      <trkpt lat="49.97524" lon="-5.22877"></trkpt>
      <trkpt lat="49.97514" lon="-5.22857"></trkpt>
      <trkpt lat="49.9751" lon="-5.22842"></trkpt>
      <trkpt lat="49.97506" lon="-5.22842"></trkpt>
      <trkpt lat="49.97503" lon="-5.22846"></trkpt>
      <trkpt lat="49.97489" lon="-5.22848"></trkpt>
      <trkpt lat="49.97478" lon="-5.22833"></trkpt>
      <trkpt lat="49.97469" lon="-5.22808"></trkpt>
      <trkpt lat="49.97463" lon="-5.22797"></trkpt>
      <trkpt lat="49.97456" lon="-5.22778"></trkpt>
      <trkpt lat="49.97457" lon="-5.22714"></trkpt>
      <trkpt lat="49.9745" lon="-5.22699"></trkpt>
      <trkpt lat="49.9745" lon="-5.22691"></trkpt>
      <trkpt lat="49.97431" lon="-5.22654"></trkpt>
      <trkpt lat="49.97427" lon="-5.22642"></trkpt>
      <trkpt lat="49.974" lon="-5.22628"></trkpt>
      <trkpt lat="49.97394" lon="-5.22602"></trkpt>
      <trkpt lat="49.97386" lon="-5.22585"></trkpt>
      <trkpt lat="49.97363" lon="-5.22575"></trkpt>
      <trkpt lat="49.9736" lon="-5.2257"></trkpt>
      <trkpt lat="49.97349" lon="-5.22547"></trkpt>
      <trkpt lat="49.97325" lon="-5.22478"></trkpt>
      <trkpt lat="49.97329" lon="-5.22414"></trkpt>
      <trkpt lat="49.97326" lon="-5.22393"></trkpt>
      <trkpt lat="49.97315" lon="-5.22362"></trkpt>
      <trkpt lat="49.97325" lon="-5.22258"></trkpt>
      <trkpt lat="49.97322" lon="-5.2223"></trkpt>
      <trkpt lat="49.97329" lon="-5.2215"></trkpt>
      <trkpt lat="49.97331" lon="-5.22104"></trkpt>
      <trkpt lat="49.97328" lon="-5.22075"></trkpt>
      <trkpt lat="49.97323" lon="-5.22052"></trkpt>
      <trkpt lat="49.97307" lon="-5.22011"></trkpt>
      <trkpt lat="49.97298" lon="-5.21994"></trkpt>
      <trkpt lat="49.97288" lon="-5.21969"></trkpt>
      <trkpt lat="49.97263" lon="-5.21954"></trkpt>
      <trkpt lat="49.97241" lon="-5.21912"></trkpt>
      <trkpt lat="49.97234" lon="-5.21909"></trkpt>
      <trkpt lat="49.97228" lon="-5.21901"></trkpt>
      <trkpt lat="49.97221" lon="-5.21881"></trkpt>
      <trkpt lat="49.972" lon="-5.21844"></trkpt>
      <trkpt lat="49.97191" lon="-5.21817"></trkpt>
      <trkpt lat="49.97161" lon="-5.21777"></trkpt>
      <trkpt lat="49.97145" lon="-5.21773"></trkpt>
      <trkpt lat="49.9713" lon="-5.21773"></trkpt>
      <trkpt lat="49.97097" lon="-5.21755"></trkpt>
      <trkpt lat="49.97069" lon="-5.21749"></trkpt>
      <trkpt lat="49.97066" lon="-5.21746"></trkpt>
      <trkpt lat="49.97059" lon="-5.21757"></trkpt>
      <trkpt lat="49.97041" lon="-5.2175"></trkpt>
      <trkpt lat="49.97038" lon="-5.21722"></trkpt>
      <trkpt lat="49.97035" lon="-5.21715"></trkpt>
      <trkpt lat="49.97024" lon="-5.21709"></trkpt>
      <trkpt lat="49.97017" lon="-5.217"></trkpt>
      <trkpt lat="49.97013" lon="-5.2168"></trkpt>
      <trkpt lat="49.97003" lon="-5.21652"></trkpt>
      <trkpt lat="49.96994" lon="-5.21644"></trkpt>
      <trkpt lat="49.96979" lon="-5.21648"></trkpt>
      <trkpt lat="49.96974" lon="-5.21657"></trkpt>
      <trkpt lat="49.96968" lon="-5.21657"></trkpt>
      <trkpt lat="49.96965" lon="-5.21653"></trkpt>
      <trkpt lat="49.9696" lon="-5.21652"></trkpt>
      <trkpt lat="49.96949" lon="-5.21656"></trkpt>
      <trkpt lat="49.96942" lon="-5.21666"></trkpt>
      <trkpt lat="49.96928" lon="-5.21672"></trkpt>
      <trkpt lat="49.9692" lon="-5.2166"></trkpt>
      <trkpt lat="49.96913" lon="-5.21672"></trkpt>
      <trkpt lat="49.96902" lon="-5.21676"></trkpt>
      <trkpt lat="49.96875" lon="-5.21678"></trkpt>
      <trkpt lat="49.96833" lon="-5.21669"></trkpt>
      <trkpt lat="49.9682" lon="-5.21656"></trkpt>
      <trkpt lat="49.96812" lon="-5.21654"></trkpt>
      <trkpt lat="49.9681" lon="-5.21651"></trkpt>
      <trkpt lat="49.96809" lon="-5.21642"></trkpt>
      <trkpt lat="49.96823" lon="-5.21596"></trkpt>
      <trkpt lat="49.96814" lon="-5.21569"></trkpt>
      <trkpt lat="49.96811" lon="-5.21566"></trkpt>
      <trkpt lat="49.96801" lon="-5.21569"></trkpt>
      <trkpt lat="49.96792" lon="-5.21562"></trkpt>
      <trkpt lat="49.96787" lon="-5.21561"></trkpt>
      <trkpt lat="49.96783" lon="-5.21553"></trkpt>
      <trkpt lat="49.9678" lon="-5.21551"></trkpt>
      <trkpt lat="49.96778" lon="-5.21554"></trkpt>
      <trkpt lat="49.96772" lon="-5.21575"></trkpt>
      <trkpt lat="49.96766" lon="-5.21584"></trkpt>
      <trkpt lat="49.96756" lon="-5.21591"></trkpt>
      <trkpt lat="49.96748" lon="-5.21593"></trkpt>
      <trkpt lat="49.96743" lon="-5.21592"></trkpt>
      <trkpt lat="49.96731" lon="-5.21579"></trkpt>
      <trkpt lat="49.96719" lon="-5.21557"></trkpt>
      <trkpt lat="49.96712" lon="-5.21551"></trkpt>
      <trkpt lat="49.96691" lon="-5.21546"></trkpt>
      <trkpt lat="49.96683" lon="-5.21549"></trkpt>
      <trkpt lat="49.96676" lon="-5.21558"></trkpt>
      <trkpt lat="49.96674" lon="-5.21564"></trkpt>
      <trkpt lat="49.96656" lon="-5.21576"></trkpt>
      <trkpt lat="49.96644" lon="-5.21572"></trkpt>
      <trkpt lat="49.96607" lon="-5.21577"></trkpt>
      <trkpt lat="49.96587" lon="-5.21571"></trkpt>
      <trkpt lat="49.96575" lon="-5.21556"></trkpt>
      <trkpt lat="49.96548" lon="-5.21492"></trkpt>
      <trkpt lat="49.96523" lon="-5.21457"></trkpt>
      <trkpt lat="49.96502" lon="-5.21447"></trkpt>
      <trkpt lat="49.96492" lon="-5.21449"></trkpt>
      <trkpt lat="49.96491" lon="-5.21449"></trkpt>
      <trkpt lat="49.96502" lon="-5.21447"></trkpt>
      <trkpt lat="49.96484" lon="-5.21444"></trkpt>
      <trkpt lat="49.96413" lon="-5.21473"></trkpt>
      <trkpt lat="49.96357" lon="-5.21456"></trkpt>
      <trkpt lat="49.96322" lon="-5.2145"></trkpt>
      <trkpt lat="49.96209" lon="-5.21465"></trkpt>
      <trkpt lat="49.96188" lon="-5.21458"></trkpt>
      <trkpt lat="49.96156" lon="-5.21516"></trkpt>
      <trkpt lat="49.96152" lon="-5.21519"></trkpt>
      <trkpt lat="49.96123" lon="-5.21492"></trkpt>
      <trkpt lat="49.96117" lon="-5.21489"></trkpt>
      <trkpt lat="49.96094" lon="-5.21488"></trkpt>
      <trkpt lat="49.96078" lon="-5.21488"></trkpt>
      <trkpt lat="49.96064" lon="-5.21482"></trkpt>
      <trkpt lat="49.96054" lon="-5.21474"></trkpt>
      <trkpt lat="49.96037" lon="-5.21451"></trkpt>
      <trkpt lat="49.96021" lon="-5.21434"></trkpt>
      <trkpt lat="49.96028" lon="-5.21453"></trkpt>
      <trkpt lat="49.96021" lon="-5.21434"></trkpt>
      <trkpt lat="49.96008" lon="-5.21421"></trkpt>
      <trkpt lat="49.95999" lon="-5.21409"></trkpt>
      <trkpt lat="49.95991" lon="-5.21392"></trkpt>
      <trkpt lat="49.95978" lon="-5.21349"></trkpt>
      <trkpt lat="49.95962" lon="-5.21313"></trkpt>
      <trkpt lat="49.95958" lon="-5.21293"></trkpt>
      <trkpt lat="49.95959" lon="-5.21278"></trkpt>
      <trkpt lat="49.95968" lon="-5.21235"></trkpt>
      <trkpt lat="49.95987" lon="-5.21171"></trkpt>
      <trkpt lat="49.96006" lon="-5.21085"></trkpt>
      <trkpt lat="49.96012" lon="-5.21072"></trkpt>
      <trkpt lat="49.96013" lon="-5.21063"></trkpt>
      <trkpt lat="49.96006" lon="-5.21043"></trkpt>
      <trkpt lat="49.96008" lon="-5.21032"></trkpt>
      <trkpt lat="49.96011" lon="-5.21024"></trkpt>
      <trkpt lat="49.96022" lon="-5.21013"></trkpt>
      <trkpt lat="49.96026" lon="-5.21012"></trkpt>
      <trkpt lat="49.96027" lon="-5.21009"></trkpt>
      <trkpt lat="49.96019" lon="-5.20985"></trkpt>
      <trkpt lat="49.96011" lon="-5.2098"></trkpt>
      <trkpt lat="49.96004" lon="-5.20971"></trkpt>
      <trkpt lat="49.96001" lon="-5.20955"></trkpt>
      <trkpt lat="49.96" lon="-5.20904"></trkpt>
      <trkpt lat="49.96006" lon="-5.20784"></trkpt>
      <trkpt lat="49.96003" lon="-5.20765"></trkpt>
      <trkpt lat="49.95997" lon="-5.20759"></trkpt>
      <trkpt lat="49.95986" lon="-5.20714"></trkpt>
      <trkpt lat="49.95977" lon="-5.20691"></trkpt>
      <trkpt lat="49.95965" lon="-5.2067"></trkpt>
      <trkpt lat="49.95958" lon="-5.20667"></trkpt>
      <trkpt lat="49.95953" lon="-5.2063"></trkpt>
      <trkpt lat="49.95955" lon="-5.20613"></trkpt>
      <trkpt lat="49.95962" lon="-5.20603"></trkpt>
      <trkpt lat="49.9597" lon="-5.20579"></trkpt>
      <trkpt lat="49.95981" lon="-5.20528"></trkpt>
      <trkpt lat="49.95983" lon="-5.20503"></trkpt>
      <trkpt lat="49.95978" lon="-5.20467"></trkpt>
      <trkpt lat="49.9597" lon="-5.20455"></trkpt>
      <trkpt lat="49.95966" lon="-5.20446"></trkpt>
      <trkpt lat="49.95963" lon="-5.20424"></trkpt>
      <trkpt lat="49.95966" lon="-5.20402"></trkpt>
      <trkpt lat="49.95968" lon="-5.20358"></trkpt>
      <trkpt lat="49.95966" lon="-5.20274"></trkpt>
      <trkpt lat="49.95968" lon="-5.20247"></trkpt>
      <trkpt lat="49.95976" lon="-5.202"></trkpt>
    </trkseg>
  </trk>
</gpx>
