<?xml version="1.0" encoding="UTF-8"?>
<gpx version="1.1" creator="swcp-walk (imported from OS Maps route 33844497)"
     xmlns="http://www.topografix.com/GPX/1/1">
  <metadata>
    <name>SWCP27-TheLizard-Coverack</name>
  </metadata>
  <trk>
    <name>SWCP27-TheLizard-Coverack</name>
    <trkseg>
      <trkpt lat="49.959755226920834" lon="-5.202259585250772"></trkpt>
      <trkpt lat="49.95971" lon="-5.20225"></trkpt>
      <trkpt lat="49.95979" lon="-5.20185"></trkpt>
      <trkpt lat="49.95982" lon="-5.20125"></trkpt>
      <trkpt lat="49.95986" lon="-5.20113"></trkpt>
      <trkpt lat="49.96006" lon="-5.2007"></trkpt>
      <trkpt lat="49.96027" lon="-5.20034"></trkpt>
      <trkpt lat="49.96038" lon="-5.20024"></trkpt>
      <trkpt lat="49.96046" lon="-5.20026"></trkpt>
      <trkpt lat="49.96064" lon="-5.20044"></trkpt>
      <trkpt lat="49.96076" lon="-5.20052"></trkpt>
      <trkpt lat="49.96086" lon="-5.20056"></trkpt>
      <trkpt lat="49.96096" lon="-5.20056"></trkpt>
      <trkpt lat="49.96118" lon="-5.20043"></trkpt>
      <trkpt lat="49.96162" lon="-5.20029"></trkpt>
      <trkpt lat="49.96222" lon="-5.1999"></trkpt>
      <trkpt lat="49.9624" lon="-5.19972"></trkpt>
      <trkpt lat="49.96262" lon="-5.19927"></trkpt>
      <trkpt lat="49.96272" lon="-5.19911"></trkpt>
      <trkpt lat="49.96286" lon="-5.19895"></trkpt>
      <trkpt lat="49.96315" lon="-5.19832"></trkpt>
      <trkpt lat="49.96314" lon="-5.19832"></trkpt>
      <trkpt lat="49.96318" lon="-5.19826"></trkpt>
      <trkpt lat="49.96336" lon="-5.19817"></trkpt>
      <trkpt lat="49.96348" lon="-5.1982"></trkpt>
      <trkpt lat="49.9636" lon="-5.19818"></trkpt>
      <trkpt lat="49.96375" lon="-5.19792"></trkpt>
      <trkpt lat="49.96375" lon="-5.19777"></trkpt>
      <trkpt lat="49.96378" lon="-5.19772"></trkpt>
      <trkpt lat="49.96377" lon="-5.19767"></trkpt>
      <trkpt lat="49.96378" lon="-5.19762"></trkpt>
      <trkpt lat="49.96382" lon="-5.19764"></trkpt>
      <trkpt lat="49.96384" lon="-5.1977"></trkpt>
      <trkpt lat="49.9639" lon="-5.19776"></trkpt>
      <trkpt lat="49.96398" lon="-5.19767"></trkpt>
      <trkpt lat="49.96412" lon="-5.19791"></trkpt>
      <trkpt lat="49.96423" lon="-5.19802"></trkpt>
      <trkpt lat="49.96433" lon="-5.19774"></trkpt>
      <trkpt lat="49.96427" lon="-5.19751"></trkpt>
      <trkpt lat="49.96432" lon="-5.19728"></trkpt>
      <trkpt lat="49.96431" lon="-5.19719"></trkpt>
      <trkpt lat="49.96443" lon="-5.19663"></trkpt>
      <trkpt lat="49.96443" lon="-5.19651"></trkpt>
      <trkpt lat="49.9643" lon="-5.19619"></trkpt>
      <trkpt lat="49.96412" lon="-5.1958"></trkpt>
      <trkpt lat="49.96411" lon="-5.19573"></trkpt>
      <trkpt lat="49.96416" lon="-5.19546"></trkpt>
      <trkpt lat="49.96418" lon="-5.19505"></trkpt>
      <trkpt lat="49.96415" lon="-5.19492"></trkpt>
      <trkpt lat="49.96403" lon="-5.19467"></trkpt>
      <trkpt lat="49.96402" lon="-5.19462"></trkpt>
      <trkpt lat="49.964" lon="-5.19454"></trkpt>
      <trkpt lat="49.96402" lon="-5.19407"></trkpt>
      <trkpt lat="49.96396" lon="-5.19375"></trkpt>
      <trkpt lat="49.96363" lon="-5.1933"></trkpt>
      <trkpt lat="49.96353" lon="-5.19312"></trkpt>
      <trkpt lat="49.96345" lon="-5.1927"></trkpt>
      <trkpt lat="49.96339" lon="-5.19194"></trkpt>
      <trkpt lat="49.96344" lon="-5.19164"></trkpt>
      <trkpt lat="49.96354" lon="-5.19138"></trkpt>
      <trkpt lat="49.96393" lon="-5.19068"></trkpt>
      <trkpt lat="49.96404" lon="-5.19045"></trkpt>
      <trkpt lat="49.96412" lon="-5.19013"></trkpt>
      <trkpt lat="49.96417" lon="-5.18979"></trkpt>
      <trkpt lat="49.96416" lon="-5.18966"></trkpt>
      <trkpt lat="49.96412" lon="-5.18947"></trkpt>
      <trkpt lat="49.96404" lon="-5.18933"></trkpt>
      <trkpt lat="49.96393" lon="-5.18919"></trkpt>
      <trkpt lat="49.96384" lon="-5.18903"></trkpt>
      <trkpt lat="49.96376" lon="-5.189"></trkpt>
      <trkpt lat="49.9636" lon="-5.1888"></trkpt>
      <trkpt lat="49.96352" lon="-5.18864"></trkpt>
      <trkpt lat="49.96343" lon="-5.18838"></trkpt>
      <trkpt lat="49.96342" lon="-5.18825"></trkpt>
      <trkpt lat="49.96335" lon="-5.18807"></trkpt>
      <trkpt lat="49.96333" lon="-5.18796"></trkpt>
      <trkpt lat="49.96336" lon="-5.18785"></trkpt>
      <trkpt lat="49.96336" lon="-5.18772"></trkpt>
      <trkpt lat="49.96339" lon="-5.18748"></trkpt>
      <trkpt lat="49.96335" lon="-5.18707"></trkpt>
      <trkpt lat="49.96329" lon="-5.18692"></trkpt>
      <trkpt lat="49.96329" lon="-5.18687"></trkpt>
      <trkpt lat="49.96336" lon="-5.1867"></trkpt>
      <trkpt lat="49.96342" lon="-5.18659"></trkpt>
      <trkpt lat="49.96347" lon="-5.18655"></trkpt>
      <trkpt lat="49.96364" lon="-5.18656"></trkpt>
      <trkpt lat="49.96371" lon="-5.18663"></trkpt>
      <trkpt lat="49.96398" lon="-5.18656"></trkpt>
      <trkpt lat="49.96404" lon="-5.18654"></trkpt>
      <trkpt lat="49.96417" lon="-5.18657"></trkpt>
      <trkpt lat="49.96428" lon="-5.18665"></trkpt>
      <trkpt lat="49.96468" lon="-5.18723"></trkpt>
      <trkpt lat="49.96475" lon="-5.18728"></trkpt>
      <trkpt lat="49.96498" lon="-5.18715"></trkpt>
      <trkpt lat="49.96523" lon="-5.18725"></trkpt>
      <trkpt lat="49.96532" lon="-5.1872"></trkpt>
      <trkpt lat="49.96551" lon="-5.18691"></trkpt>
      <trkpt lat="49.96553" lon="-5.18683"></trkpt>
      <trkpt lat="49.96565" lon="-5.18681"></trkpt>
      <trkpt lat="49.96575" lon="-5.18692"></trkpt>
      <trkpt lat="49.96586" lon="-5.18675"></trkpt>
      <trkpt lat="49.96589" lon="-5.18661"></trkpt>
      <trkpt lat="49.96595" lon="-5.18648"></trkpt>
      <trkpt lat="49.96634" lon="-5.18586"></trkpt>
      <trkpt lat="49.96641" lon="-5.18564"></trkpt>
      <trkpt lat="49.96646" lon="-5.18555"></trkpt>
      <trkpt lat="49.96654" lon="-5.18548"></trkpt>
      <trkpt lat="49.96653" lon="-5.18548"></trkpt>
      <trkpt lat="49.96674" lon="-5.18546"></trkpt>
      <trkpt lat="49.96693" lon="-5.18538"></trkpt>
      <trkpt lat="49.96711" lon="-5.18518"></trkpt>
      <trkpt lat="49.96718" lon="-5.18499"></trkpt>
      <trkpt lat="49.96727" lon="-5.18493"></trkpt>
      <trkpt lat="49.96729" lon="-5.18495"></trkpt>
      <trkpt lat="49.96764" lon="-5.18567"></trkpt>
      <trkpt lat="49.96779" lon="-5.18584"></trkpt>
      <trkpt lat="49.96793" lon="-5.1859"></trkpt>
      <trkpt lat="49.96833" lon="-5.18591"></trkpt>
      <trkpt lat="49.96852" lon="-5.18597"></trkpt>
      <trkpt lat="49.96862" lon="-5.18604"></trkpt>
      <trkpt lat="49.96868" lon="-5.18613"></trkpt>
      <trkpt lat="49.96876" lon="-5.18626"></trkpt>
      <trkpt lat="49.96911" lon="-5.1872"></trkpt>
      <trkpt lat="49.96917" lon="-5.18748"></trkpt>
      <trkpt lat="49.96916" lon="-5.18772"></trkpt>
      <trkpt lat="49.96915" lon="-5.18775"></trkpt>
      <trkpt lat="49.96921" lon="-5.18781"></trkpt>
      <trkpt lat="49.96922" lon="-5.18778"></trkpt>
      <trkpt lat="49.96948" lon="-5.1876"></trkpt>
      <trkpt lat="49.96972" lon="-5.18761"></trkpt>
      <trkpt lat="49.96985" lon="-5.18768"></trkpt>
      <trkpt lat="49.97004" lon="-5.18785"></trkpt>
      <trkpt lat="49.97012" lon="-5.18788"></trkpt>
      <trkpt lat="49.97021" lon="-5.18795"></trkpt>
      <trkpt lat="49.97057" lon="-5.1879"></trkpt>
      <trkpt lat="49.97069" lon="-5.18792"></trkpt>
      <trkpt lat="49.97081" lon="-5.18802"></trkpt>
      <trkpt lat="49.97086" lon="-5.1881"></trkpt>
      <trkpt lat="49.97089" lon="-5.18844"></trkpt>
      <trkpt lat="49.97096" lon="-5.18865"></trkpt>
      <trkpt lat="49.97096" lon="-5.18874"></trkpt>
      <trkpt lat="49.97098" lon="-5.18883"></trkpt>
      <trkpt lat="49.97102" lon="-5.18888"></trkpt>
      <trkpt lat="49.97104" lon="-5.18906"></trkpt>
      <trkpt lat="49.97103" lon="-5.18911"></trkpt>
      <trkpt lat="49.97121" lon="-5.18916"></trkpt>
      <trkpt lat="49.97135" lon="-5.18927"></trkpt>
      <trkpt lat="49.97158" lon="-5.18927"></trkpt>
      <trkpt lat="49.97165" lon="-5.18946"></trkpt>
      <trkpt lat="49.97169" lon="-5.18953"></trkpt>
      <trkpt lat="49.97198" lon="-5.18976"></trkpt>
      <trkpt lat="49.97215" lon="-5.18993"></trkpt>
      <trkpt lat="49.97222" lon="-5.18995"></trkpt>
      <trkpt lat="49.9727" lon="-5.1899"></trkpt>
      <trkpt lat="49.97274" lon="-5.18986"></trkpt>
      <trkpt lat="49.97273" lon="-5.18986"></trkpt>
      <trkpt lat="49.97277" lon="-5.18973"></trkpt>
      <trkpt lat="49.97285" lon="-5.18959"></trkpt>
      <trkpt lat="49.97318" lon="-5.18996"></trkpt>
      <trkpt lat="49.9733" lon="-5.18995"></trkpt>
      <trkpt lat="49.97345" lon="-5.18988"></trkpt>
      <trkpt lat="49.97387" lon="-5.18953"></trkpt>
      <trkpt lat="49.97411" lon="-5.18938"></trkpt>
      <trkpt lat="49.97421" lon="-5.18928"></trkpt>
      <trkpt lat="49.97425" lon="-5.18917"></trkpt>
      <trkpt lat="49.97434" lon="-5.18875"></trkpt>
      <trkpt lat="49.9744" lon="-5.18864"></trkpt>
      <trkpt lat="49.97451" lon="-5.18861"></trkpt>
      <trkpt lat="49.97454" lon="-5.18856"></trkpt>
      <trkpt lat="49.97455" lon="-5.18849"></trkpt>
      <trkpt lat="49.97477" lon="-5.18819"></trkpt>
      <trkpt lat="49.97482" lon="-5.18814"></trkpt>
      <trkpt lat="49.97493" lon="-5.18819"></trkpt>
      <trkpt lat="49.97504" lon="-5.18815"></trkpt>
      <trkpt lat="49.97511" lon="-5.18818"></trkpt>
      <trkpt lat="49.97514" lon="-5.18816"></trkpt>
      <trkpt lat="49.97516" lon="-5.18811"></trkpt>
      <trkpt lat="49.97515" lon="-5.188"></trkpt>
      <trkpt lat="49.97519" lon="-5.1878"></trkpt>
      <trkpt lat="49.97519" lon="-5.18759"></trkpt>
      <trkpt lat="49.9753" lon="-5.18743"></trkpt>
      <trkpt lat="49.97543" lon="-5.18746"></trkpt>
      <trkpt lat="49.97555" lon="-5.18738"></trkpt>
      <trkpt lat="49.97578" lon="-5.18728"></trkpt>
      <trkpt lat="49.97593" lon="-5.18726"></trkpt>
      <trkpt lat="49.97602" lon="-5.18711"></trkpt>
      <trkpt lat="49.97618" lon="-5.18701"></trkpt>
      <trkpt lat="49.97629" lon="-5.18691"></trkpt>
      <trkpt lat="49.97646" lon="-5.18677"></trkpt>
      <trkpt lat="49.97653" lon="-5.18674"></trkpt>
      <trkpt lat="49.97695" lon="-5.18688"></trkpt>
      <trkpt lat="49.97722" lon="-5.18682"></trkpt>
      <trkpt lat="49.97734" lon="-5.18685"></trkpt>
      <trkpt lat="49.97742" lon="-5.1868"></trkpt>
      <trkpt lat="49.97762" lon="-5.18676"></trkpt>
      <trkpt lat="49.97772" lon="-5.1867"></trkpt>
      <trkpt lat="49.97789" lon="-5.18653"></trkpt>
      <trkpt lat="49.97803" lon="-5.18647"></trkpt>
      <trkpt lat="49.97814" lon="-5.18646"></trkpt>
      <trkpt lat="49.9782" lon="-5.18648"></trkpt>
      <trkpt lat="49.97825" lon="-5.18655"></trkpt>
      <trkpt lat="49.9785" lon="-5.18708"></trkpt>
      <trkpt lat="49.97857" lon="-5.18719"></trkpt>
      <trkpt lat="49.97861" lon="-5.18718"></trkpt>
      <trkpt lat="49.97871" lon="-5.18708"></trkpt>
      <trkpt lat="49.97882" lon="-5.18701"></trkpt>
      <trkpt lat="49.97891" lon="-5.18709"></trkpt>
      <trkpt lat="49.97915" lon="-5.18713"></trkpt>
      <trkpt lat="49.97934" lon="-5.18725"></trkpt>
      <trkpt lat="49.9794" lon="-5.18723"></trkpt>
      <trkpt lat="49.97949" lon="-5.18715"></trkpt>
      <trkpt lat="49.97961" lon="-5.18712"></trkpt>
      <trkpt lat="49.97973" lon="-5.18695"></trkpt>
      <trkpt lat="49.97989" lon="-5.18684"></trkpt>
      <trkpt lat="49.97994" lon="-5.18678"></trkpt>
      <trkpt lat="49.97995" lon="-5.18672"></trkpt>
      <trkpt lat="49.97994" lon="-5.18658"></trkpt>
      <trkpt lat="49.97999" lon="-5.18649"></trkpt>
      <trkpt lat="49.97996" lon="-5.18639"></trkpt>
      <trkpt lat="49.97998" lon="-5.18633"></trkpt>
      <trkpt lat="49.98004" lon="-5.1863"></trkpt>
      <trkpt lat="49.98022" lon="-5.18642"></trkpt>
      <trkpt lat="49.98034" lon="-5.18646"></trkpt>
      <trkpt lat="49.9806" lon="-5.18647"></trkpt>
      <trkpt lat="49.98071" lon="-5.18641"></trkpt>
      <trkpt lat="49.98076" lon="-5.18635"></trkpt>
      <trkpt lat="49.9808" lon="-5.18616"></trkpt>
      <trkpt lat="49.98074" lon="-5.18579"></trkpt>
      <trkpt lat="49.98087" lon="-5.18508"></trkpt>
      <trkpt lat="49.98091" lon="-5.185"></trkpt>
      <trkpt lat="49.98097" lon="-5.18493"></trkpt>
      <trkpt lat="49.98114" lon="-5.18492"></trkpt>
      <trkpt lat="49.98131" lon="-5.18494"></trkpt>
      <trkpt lat="49.98134" lon="-5.18492"></trkpt>
      <trkpt lat="49.98126" lon="-5.1844"></trkpt>
      <trkpt lat="49.98125" lon="-5.18429"></trkpt>
      <trkpt lat="49.98127" lon="-5.18418"></trkpt>
      <trkpt lat="49.98123" lon="-5.18382"></trkpt>
      <trkpt lat="49.98111" lon="-5.1834"></trkpt>
      <trkpt lat="49.98108" lon="-5.18334"></trkpt>
      <trkpt lat="49.98104" lon="-5.18311"></trkpt>
      <trkpt lat="49.98105" lon="-5.18294"></trkpt>
      <trkpt lat="49.98112" lon="-5.18266"></trkpt>
      <trkpt lat="49.98115" lon="-5.18262"></trkpt>
      <trkpt lat="49.98114" lon="-5.18262"></trkpt>
      <trkpt lat="49.98117" lon="-5.18258"></trkpt>
      <trkpt lat="49.98137" lon="-5.18247"></trkpt>
      <trkpt lat="49.98156" lon="-5.18226"></trkpt>
      <trkpt lat="49.98172" lon="-5.18193"></trkpt>
      <trkpt lat="49.98188" lon="-5.18165"></trkpt>
      <trkpt lat="49.98195" lon="-5.18157"></trkpt>
      <trkpt lat="49.98224" lon="-5.18145"></trkpt>
      <trkpt lat="49.98237" lon="-5.1813"></trkpt>
      <trkpt lat="49.98298" lon="-5.18092"></trkpt>
      <trkpt lat="49.98315" lon="-5.18073"></trkpt>
      <trkpt lat="49.98325" lon="-5.18057"></trkpt>
      <trkpt lat="49.98331" lon="-5.18053"></trkpt>
      <trkpt lat="49.98344" lon="-5.18051"></trkpt>
      <trkpt lat="49.98343" lon="-5.18051"></trkpt>
      <trkpt lat="49.98368" lon="-5.18061"></trkpt>
      <trkpt lat="49.98383" lon="-5.18059"></trkpt>
      <trkpt lat="49.984" lon="-5.18049"></trkpt>
      <trkpt lat="49.98413" lon="-5.18051"></trkpt>
      <trkpt lat="49.98416" lon="-5.18055"></trkpt>
      <trkpt lat="49.98463" lon="-5.18171"></trkpt>
      <trkpt lat="49.9847" lon="-5.18182"></trkpt>
      <trkpt lat="49.98493" lon="-5.18191"></trkpt>
      <trkpt lat="49.98502" lon="-5.18189"></trkpt>
      <trkpt lat="49.98526" lon="-5.18158"></trkpt>
      <trkpt lat="49.98526" lon="-5.18143"></trkpt>
      <trkpt lat="49.9854" lon="-5.18129"></trkpt>
      <trkpt lat="49.98544" lon="-5.18129"></trkpt>
      <trkpt lat="49.98584" lon="-5.18188"></trkpt>
      <trkpt lat="49.98616" lon="-5.18082"></trkpt>
      <trkpt lat="49.9862" lon="-5.18077"></trkpt>
      <trkpt lat="49.98629" lon="-5.18081"></trkpt>
      <trkpt lat="49.98632" lon="-5.1808"></trkpt>
      <trkpt lat="49.98633" lon="-5.18075"></trkpt>
      <trkpt lat="49.98631" lon="-5.18071"></trkpt>
      <trkpt lat="49.98631" lon="-5.18066"></trkpt>
      <trkpt lat="49.98634" lon="-5.18065"></trkpt>
      <trkpt lat="49.98655" lon="-5.18075"></trkpt>
      <trkpt lat="49.98659" lon="-5.18074"></trkpt>
      <trkpt lat="49.98664" lon="-5.18062"></trkpt>
      <trkpt lat="49.98669" lon="-5.1806"></trkpt>
      <trkpt lat="49.98683" lon="-5.1806"></trkpt>
      <trkpt lat="49.98687" lon="-5.18055"></trkpt>
      <trkpt lat="49.98688" lon="-5.18048"></trkpt>
      <trkpt lat="49.98692" lon="-5.18043"></trkpt>
      <trkpt lat="49.98694" lon="-5.18032"></trkpt>
      <trkpt lat="49.98698" lon="-5.18028"></trkpt>
      <trkpt lat="49.98701" lon="-5.18021"></trkpt>
      <trkpt lat="49.98714" lon="-5.18008"></trkpt>
      <trkpt lat="49.98726" lon="-5.18006"></trkpt>
      <trkpt lat="49.98732" lon="-5.18001"></trkpt>
      <trkpt lat="49.98748" lon="-5.17973"></trkpt>
      <trkpt lat="49.98769" lon="-5.17946"></trkpt>
      <trkpt lat="49.98775" lon="-5.17946"></trkpt>
      <trkpt lat="49.98791" lon="-5.17965"></trkpt>
      <trkpt lat="49.98795" lon="-5.17957"></trkpt>
      <trkpt lat="49.98794" lon="-5.17947"></trkpt>
      <trkpt lat="49.98757" lon="-5.17853"></trkpt>
      <trkpt lat="49.98752" lon="-5.17842"></trkpt>
      <trkpt lat="49.98739" lon="-5.17829"></trkpt>
      <trkpt lat="49.98713" lon="-5.17796"></trkpt>
      <trkpt lat="49.9871" lon="-5.17784"></trkpt>
      <trkpt lat="49.98709" lon="-5.1777"></trkpt>
      <trkpt lat="49.98712" lon="-5.1776"></trkpt>
      <trkpt lat="49.9873" lon="-5.17735"></trkpt>
      <trkpt lat="49.98732" lon="-5.17718"></trkpt>
      <trkpt lat="49.98737" lon="-5.17703"></trkpt>
      <trkpt lat="49.98762" lon="-5.17673"></trkpt>
      <trkpt lat="49.98782" lon="-5.17648"></trkpt>
      <trkpt lat="49.98799" lon="-5.17632"></trkpt>
      <trkpt lat="49.98813" lon="-5.1763"></trkpt>
      <trkpt lat="49.98835" lon="-5.1762"></trkpt>
      <trkpt lat="49.98856" lon="-5.17629"></trkpt>
      <trkpt lat="49.98882" lon="-5.1761"></trkpt>
      <trkpt lat="49.98888" lon="-5.176"></trkpt>
      <trkpt lat="49.98945" lon="-5.17561"></trkpt>
      <trkpt lat="49.9895" lon="-5.17555"></trkpt>
      <trkpt lat="49.98959" lon="-5.17552"></trkpt>
      <trkpt lat="49.98967" lon="-5.17539"></trkpt>
      <trkpt lat="49.98966" lon="-5.17522"></trkpt>
      <trkpt lat="49.98967" lon="-5.17516"></trkpt>
      <trkpt lat="49.98976" lon="-5.17513"></trkpt>
      <trkpt lat="49.99003" lon="-5.17487"></trkpt>
      <trkpt lat="49.99022" lon="-5.17487"></trkpt>
      <trkpt lat="49.99025" lon="-5.17484"></trkpt>
      <trkpt lat="49.99033" lon="-5.17483"></trkpt>
      <trkpt lat="49.99054" lon="-5.17466"></trkpt>
      <trkpt lat="49.99065" lon="-5.1745"></trkpt>
      <trkpt lat="49.99089" lon="-5.17435"></trkpt>
      <trkpt lat="49.99128" lon="-5.17406"></trkpt>
      <trkpt lat="49.99131" lon="-5.17393"></trkpt>
      <trkpt lat="49.9915" lon="-5.17376"></trkpt>
      <trkpt lat="49.99182" lon="-5.1725"></trkpt>
      <trkpt lat="49.99195" lon="-5.17218"></trkpt>
      <trkpt lat="49.99208" lon="-5.17211"></trkpt>
      <trkpt lat="49.99215" lon="-5.17207"></trkpt>
      <trkpt lat="49.99245" lon="-5.17208"></trkpt>
      <trkpt lat="49.99329" lon="-5.17262"></trkpt>
      <trkpt lat="49.99357" lon="-5.17262"></trkpt>
      <trkpt lat="49.99418" lon="-5.1729"></trkpt>
      <trkpt lat="49.99461" lon="-5.17332"></trkpt>
      <trkpt lat="49.99474" lon="-5.17318"></trkpt>
      <trkpt lat="49.9954" lon="-5.17282"></trkpt>
      <trkpt lat="49.99587" lon="-5.17266"></trkpt>
      <trkpt lat="49.99609" lon="-5.1727"></trkpt>
      <trkpt lat="49.99643" lon="-5.17292"></trkpt>
      <trkpt lat="49.9967" lon="-5.1731"></trkpt>
      <trkpt lat="49.99758" lon="-5.17345"></trkpt>
      <trkpt lat="49.99778" lon="-5.17357"></trkpt>
      <trkpt lat="49.9978" lon="-5.17347"></trkpt>
      <trkpt lat="49.99779" lon="-5.17342"></trkpt>
      <trkpt lat="49.99775" lon="-5.1734"></trkpt>
      <trkpt lat="49.99774" lon="-5.17335"></trkpt>
      <trkpt lat="49.99776" lon="-5.17326"></trkpt>
      <trkpt lat="49.99786" lon="-5.17315"></trkpt>
      <trkpt lat="49.99804" lon="-5.17205"></trkpt>
      <trkpt lat="49.99807" lon="-5.17194"></trkpt>
      <trkpt lat="49.99815" lon="-5.1719"></trkpt>
      <trkpt lat="49.99818" lon="-5.17192"></trkpt>
      <trkpt lat="49.9982" lon="-5.1721"></trkpt>
      <trkpt lat="49.99827" lon="-5.17221"></trkpt>
      <trkpt lat="49.99831" lon="-5.17223"></trkpt>
      <trkpt lat="49.99837" lon="-5.1722"></trkpt>
      <trkpt lat="49.99837" lon="-5.17216"></trkpt>
      <trkpt lat="49.99841" lon="-5.17213"></trkpt>
      <trkpt lat="49.99865" lon="-5.17208"></trkpt>
      <trkpt lat="49.99877" lon="-5.172"></trkpt>
      <trkpt lat="49.99898" lon="-5.17181"></trkpt>
      <trkpt lat="49.99899" lon="-5.17175"></trkpt>
      <trkpt lat="49.99903" lon="-5.1717"></trkpt>
      <trkpt lat="49.99925" lon="-5.17115"></trkpt>
      <trkpt lat="49.99921" lon="-5.17082"></trkpt>
      <trkpt lat="49.99921" lon="-5.17068"></trkpt>
      <trkpt lat="49.99923" lon="-5.17064"></trkpt>
      <trkpt lat="49.99923" lon="-5.17054"></trkpt>
      <trkpt lat="49.99925" lon="-5.17048"></trkpt>
      <trkpt lat="49.99978" lon="-5.17017"></trkpt>
      <trkpt lat="49.99986" lon="-5.17019"></trkpt>
      <trkpt lat="49.99992" lon="-5.17025"></trkpt>
      <trkpt lat="50.00008" lon="-5.17032"></trkpt>
      <trkpt lat="50.0002" lon="-5.17018"></trkpt>
      <trkpt lat="50.00033" lon="-5.17008"></trkpt>
      <trkpt lat="50.00049" lon="-5.17006"></trkpt>
      <trkpt lat="50.00054" lon="-5.17"></trkpt>
      <trkpt lat="50.0006" lon="-5.17"></trkpt>
      <trkpt lat="50.00068" lon="-5.16993"></trkpt>
      <trkpt lat="50.00078" lon="-5.16962"></trkpt>
      <trkpt lat="50.00084" lon="-5.1696"></trkpt>
      <trkpt lat="50.00094" lon="-5.16961"></trkpt>
      <trkpt lat="50.00107" lon="-5.16949"></trkpt>
      <trkpt lat="50.00132" lon="-5.16942"></trkpt>
      <trkpt lat="50.00145" lon="-5.16913"></trkpt>
      <trkpt lat="50.00148" lon="-5.16911"></trkpt>
      <trkpt lat="50.00154" lon="-5.16916"></trkpt>
      <trkpt lat="50.00162" lon="-5.16911"></trkpt>
      <trkpt lat="50.00173" lon="-5.16895"></trkpt>
      <trkpt lat="50.00193" lon="-5.16887"></trkpt>
      <trkpt lat="50.00215" lon="-5.16883"></trkpt>
      <trkpt lat="50.00253" lon="-5.16891"></trkpt>
      <trkpt lat="50.00274" lon="-5.16888"></trkpt>
      <trkpt lat="50.00289" lon="-5.16886"></trkpt>
      <trkpt lat="50.00293" lon="-5.16882"></trkpt>
      <trkpt lat="50.00293" lon="-5.16868"></trkpt>
      <trkpt lat="50.00297" lon="-5.1686"></trkpt>
      <trkpt lat="50.00304" lon="-5.16857"></trkpt>
      <trkpt lat="50.00314" lon="-5.16844"></trkpt>
      <trkpt lat="50.00327" lon="-5.16834"></trkpt>
      <trkpt lat="50.00339" lon="-5.1682"></trkpt>
      <trkpt lat="50.00362" lon="-5.16807"></trkpt>
      <trkpt lat="50.00379" lon="-5.16803"></trkpt>
      <trkpt lat="50.00411" lon="-5.16811"></trkpt>
      <trkpt lat="50.00426" lon="-5.16723"></trkpt>
      <trkpt lat="50.00434" lon="-5.16724"></trkpt>
      <trkpt lat="50.00441" lon="-5.16691"></trkpt>
      <trkpt lat="50.00446" lon="-5.16676"></trkpt>
      <trkpt lat="50.00451" lon="-5.16614"></trkpt>
      <trkpt lat="50.00455" lon="-5.16598"></trkpt>
      <trkpt lat="50.00491" lon="-5.16528"></trkpt>
      <trkpt lat="50.00518" lon="-5.1646"></trkpt>
      <trkpt lat="50.00517" lon="-5.16452"></trkpt>
      <trkpt lat="50.00521" lon="-5.16406"></trkpt>
      <trkpt lat="50.00522" lon="-5.16398"></trkpt>
      <trkpt lat="50.00528" lon="-5.1638"></trkpt>
      <trkpt lat="50.00553" lon="-5.16362"></trkpt>
      <trkpt lat="50.00562" lon="-5.16376"></trkpt>
      <trkpt lat="50.00571" lon="-5.16381"></trkpt>
      <trkpt lat="50.00575" lon="-5.1638"></trkpt>
      <trkpt lat="50.0058" lon="-5.16371"></trkpt>
      <trkpt lat="50.00581" lon="-5.16361"></trkpt>
      <trkpt lat="50.0059" lon="-5.16353"></trkpt>
      <trkpt lat="50.00591" lon="-5.16339"></trkpt>
      <trkpt lat="50.00615" lon="-5.16289"></trkpt>
      <trkpt lat="50.00625" lon="-5.16279"></trkpt>
      <trkpt lat="50.00644" lon="-5.1627"></trkpt>
      <trkpt lat="50.00655" lon="-5.16268"></trkpt>
      <trkpt lat="50.00661" lon="-5.16261"></trkpt>
      <trkpt lat="50.00694" lon="-5.16203"></trkpt>
      <trkpt lat="50.00697" lon="-5.16181"></trkpt>
      <trkpt lat="50.0069" lon="-5.16163"></trkpt>
      <trkpt lat="50.00688" lon="-5.16153"></trkpt>
      <trkpt lat="50.0069" lon="-5.16142"></trkpt>
      <trkpt lat="50.00695" lon="-5.16128"></trkpt>
      <trkpt lat="50.00695" lon="-5.16115"></trkpt>
      <trkpt lat="50.00706" lon="-5.16108"></trkpt>
      <trkpt lat="50.00716" lon="-5.16094"></trkpt>
      <trkpt lat="50.00727" lon="-5.16038"></trkpt>
      <trkpt lat="50.0073" lon="-5.15995"></trkpt>
      <trkpt lat="50.00738" lon="-5.1595"></trkpt>
      <trkpt lat="50.00749" lon="-5.15927"></trkpt>
      <trkpt lat="50.00765" lon="-5.15877"></trkpt>
      <trkpt lat="50.00765" lon="-5.15878"></trkpt>
      <trkpt lat="50.0077" lon="-5.15824"></trkpt>
      <trkpt lat="50.0078" lon="-5.15775"></trkpt>
      <trkpt lat="50.00788" lon="-5.15751"></trkpt>
      <trkpt lat="50.00777" lon="-5.1572"></trkpt>
      <trkpt lat="50.00777" lon="-5.15703"></trkpt>
      <trkpt lat="50.00786" lon="-5.15678"></trkpt>
      <trkpt lat="50.00784" lon="-5.15671"></trkpt>
      <trkpt lat="50.00787" lon="-5.15645"></trkpt>
      <trkpt lat="50.00795" lon="-5.15635"></trkpt>
      <trkpt lat="50.00799" lon="-5.15624"></trkpt>
      <trkpt lat="50.00792" lon="-5.15617"></trkpt>
      <trkpt lat="50.00792" lon="-5.15614"></trkpt>
      <trkpt lat="50.00795" lon="-5.15603"></trkpt>
      <trkpt lat="50.00796" lon="-5.15585"></trkpt>
      <trkpt lat="50.00801" lon="-5.15572"></trkpt>
      <trkpt lat="50.00802" lon="-5.1555"></trkpt>
      <trkpt lat="50.00804" lon="-5.15544"></trkpt>
      <trkpt lat="50.00804" lon="-5.15536"></trkpt>
      <trkpt lat="50.00797" lon="-5.15508"></trkpt>
      <trkpt lat="50.008" lon="-5.15502"></trkpt>
      <trkpt lat="50.008" lon="-5.15481"></trkpt>
      <trkpt lat="50.00802" lon="-5.15471"></trkpt>
      <trkpt lat="50.00803" lon="-5.15428"></trkpt>
      <trkpt lat="50.00801" lon="-5.15425"></trkpt>
      <trkpt lat="50.008" lon="-5.15413"></trkpt>
      <trkpt lat="50.00792" lon="-5.15377"></trkpt>
      <trkpt lat="50.00792" lon="-5.15367"></trkpt>
      <trkpt lat="50.00788" lon="-5.15345"></trkpt>
      <trkpt lat="50.00788" lon="-5.15337"></trkpt>
      <trkpt lat="50.00786" lon="-5.15328"></trkpt>
      <trkpt lat="50.00782" lon="-5.15322"></trkpt>
      <trkpt lat="50.00779" lon="-5.15312"></trkpt>
      <trkpt lat="50.00775" lon="-5.15225"></trkpt>
      <trkpt lat="50.0078" lon="-5.15149"></trkpt>
      <trkpt lat="50.00795" lon="-5.15073"></trkpt>
      <trkpt lat="50.00794" lon="-5.15047"></trkpt>
      <trkpt lat="50.00801" lon="-5.14976"></trkpt>
      <trkpt lat="50.00811" lon="-5.14904"></trkpt>
      <trkpt lat="50.00823" lon="-5.14853"></trkpt>
      <trkpt lat="50.00837" lon="-5.14813"></trkpt>
      <trkpt lat="50.00876" lon="-5.14731"></trkpt>
      <trkpt lat="50.00877" lon="-5.14713"></trkpt>
      <trkpt lat="50.00875" lon="-5.14668"></trkpt>
      <trkpt lat="50.00871" lon="-5.14642"></trkpt>
      <trkpt lat="50.0087" lon="-5.14597"></trkpt>
      <trkpt lat="50.00865" lon="-5.14552"></trkpt>
      <trkpt lat="50.00862" lon="-5.14537"></trkpt>
      <trkpt lat="50.00865" lon="-5.14512"></trkpt>
      <trkpt lat="50.0087" lon="-5.14507"></trkpt>
      <trkpt lat="50.00877" lon="-5.1447"></trkpt>
      <trkpt lat="50.00879" lon="-5.14462"></trkpt>
      <trkpt lat="50.00878" lon="-5.14441"></trkpt>
      <trkpt lat="50.00871" lon="-5.14422"></trkpt>
      <trkpt lat="50.00866" lon="-5.14368"></trkpt>
      <trkpt lat="50.00867" lon="-5.14351"></trkpt>
      <trkpt lat="50.00862" lon="-5.14326"></trkpt>
      <trkpt lat="50.00869" lon="-5.14299"></trkpt>
      <trkpt lat="50.00869" lon="-5.14293"></trkpt>
      <trkpt lat="50.00861" lon="-5.14268"></trkpt>
      <trkpt lat="50.00849" lon="-5.14254"></trkpt>
      <trkpt lat="50.00835" lon="-5.14227"></trkpt>
      <trkpt lat="50.00835" lon="-5.14213"></trkpt>
      <trkpt lat="50.00838" lon="-5.14199"></trkpt>
      <trkpt lat="50.00833" lon="-5.14161"></trkpt>
      <trkpt lat="50.00832" lon="-5.14148"></trkpt>
      <trkpt lat="50.00849" lon="-5.14079"></trkpt>
      <trkpt lat="50.00849" lon="-5.14066"></trkpt>
      <trkpt lat="50.00861" lon="-5.14041"></trkpt>
      <trkpt lat="50.00861" lon="-5.14016"></trkpt>
      <trkpt lat="50.00865" lon="-5.14"></trkpt>
      <trkpt lat="50.00861" lon="-5.13979"></trkpt>
      <trkpt lat="50.00861" lon="-5.13932"></trkpt>
      <trkpt lat="50.00864" lon="-5.13911"></trkpt>
      <trkpt lat="50.00864" lon="-5.13887"></trkpt>
      <trkpt lat="50.00867" lon="-5.13877"></trkpt>
      <trkpt lat="50.00868" lon="-5.13866"></trkpt>
      <trkpt lat="50.00866" lon="-5.13844"></trkpt>
      <trkpt lat="50.0088" lon="-5.13832"></trkpt>
      <trkpt lat="50.00878" lon="-5.13801"></trkpt>
      <trkpt lat="50.00889" lon="-5.13793"></trkpt>
      <trkpt lat="50.0088" lon="-5.13775"></trkpt>
      <trkpt lat="50.00872" lon="-5.13753"></trkpt>
      <trkpt lat="50.00865" lon="-5.13727"></trkpt>
      <trkpt lat="50.00848" lon="-5.13697"></trkpt>
      <trkpt lat="50.00838" lon="-5.1369"></trkpt>
      <trkpt lat="50.00831" lon="-5.13661"></trkpt>
      <trkpt lat="50.00843" lon="-5.13547"></trkpt>
      <trkpt lat="50.00869" lon="-5.13429"></trkpt>
      <trkpt lat="50.00864" lon="-5.13407"></trkpt>
      <trkpt lat="50.00866" lon="-5.134"></trkpt>
      <trkpt lat="50.00871" lon="-5.13397"></trkpt>
      <trkpt lat="50.00872" lon="-5.13383"></trkpt>
      <trkpt lat="50.00879" lon="-5.13357"></trkpt>
      <trkpt lat="50.00891" lon="-5.13343"></trkpt>
      <trkpt lat="50.00893" lon="-5.13327"></trkpt>
      <trkpt lat="50.00896" lon="-5.13317"></trkpt>
      <trkpt lat="50.009" lon="-5.13314"></trkpt>
      <trkpt lat="50.00907" lon="-5.13287"></trkpt>
      <trkpt lat="50.00904" lon="-5.13278"></trkpt>
      <trkpt lat="50.00898" lon="-5.13263"></trkpt>
      <trkpt lat="50.00897" lon="-5.13251"></trkpt>
      <trkpt lat="50.00901" lon="-5.13232"></trkpt>
      <trkpt lat="50.00904" lon="-5.13187"></trkpt>
      <trkpt lat="50.00911" lon="-5.13144"></trkpt>
      <trkpt lat="50.00902" lon="-5.13116"></trkpt>
      <trkpt lat="50.00904" lon="-5.13092"></trkpt>
      <trkpt lat="50.00908" lon="-5.13068"></trkpt>
      <trkpt lat="50.00919" lon="-5.13037"></trkpt>
      <trkpt lat="50.00918" lon="-5.13024"></trkpt>
      <trkpt lat="50.00921" lon="-5.13019"></trkpt>
      <trkpt lat="50.0093" lon="-5.13015"></trkpt>
      <trkpt lat="50.00937" lon="-5.12995"></trkpt>
      <trkpt lat="50.0094" lon="-5.12964"></trkpt>
      <trkpt lat="50.00938" lon="-5.12934"></trkpt>
      <trkpt lat="50.00943" lon="-5.12873"></trkpt>
      <trkpt lat="50.00941" lon="-5.12858"></trkpt>
      <trkpt lat="50.00942" lon="-5.12847"></trkpt>
      <trkpt lat="50.00947" lon="-5.12834"></trkpt>
      <trkpt lat="50.00946" lon="-5.12784"></trkpt>
      <trkpt lat="50.00941" lon="-5.12778"></trkpt>
      <trkpt lat="50.0093" lon="-5.12744"></trkpt>
      <trkpt lat="50.00906" lon="-5.12688"></trkpt>
      <trkpt lat="50.00888" lon="-5.12664"></trkpt>
      <trkpt lat="50.0088" lon="-5.12659"></trkpt>
      <trkpt lat="50.00859" lon="-5.12632"></trkpt>
      <trkpt lat="50.00856" lon="-5.12624"></trkpt>
      <trkpt lat="50.00881" lon="-5.12546"></trkpt>
      <trkpt lat="50.0088" lon="-5.12516"></trkpt>
      <trkpt lat="50.00896" lon="-5.12452"></trkpt>
      <trkpt lat="50.00897" lon="-5.12422"></trkpt>
      <trkpt lat="50.00908" lon="-5.12405"></trkpt>
      <trkpt lat="50.0092" lon="-5.12348"></trkpt>
      <trkpt lat="50.00936" lon="-5.12291"></trkpt>
      <trkpt lat="50.00935" lon="-5.12259"></trkpt>
      <trkpt lat="50.00966" lon="-5.12242"></trkpt>
      <trkpt lat="50.00966" lon="-5.12233"></trkpt>
      <trkpt lat="50.00981" lon="-5.12231"></trkpt>
      <trkpt lat="50.00988" lon="-5.12216"></trkpt>
      <trkpt lat="50.00982" lon="-5.12175"></trkpt>
      <trkpt lat="50.00963" lon="-5.12159"></trkpt>
      <trkpt lat="50.00955" lon="-5.12139"></trkpt>
      <trkpt lat="50.00944" lon="-5.12091"></trkpt>
      <trkpt lat="50.00945" lon="-5.12068"></trkpt>
      <trkpt lat="50.00933" lon="-5.1204"></trkpt>
      <trkpt lat="50.00914" lon="-5.12017"></trkpt>
      <trkpt lat="50.00896" lon="-5.11976"></trkpt>
      <trkpt lat="50.00878" lon="-5.1197"></trkpt>
      <trkpt lat="50.00842" lon="-5.11913"></trkpt>
      <trkpt lat="50.00748" lon="-5.11859"></trkpt>
      <trkpt lat="50.00731" lon="-5.1183"></trkpt>
      <trkpt lat="50.00726" lon="-5.11799"></trkpt>
      <trkpt lat="50.00735" lon="-5.11751"></trkpt>
      <trkpt lat="50.00732" lon="-5.11729"></trkpt>
      <trkpt lat="50.00736" lon="-5.11672"></trkpt>
      <trkpt lat="50.00729" lon="-5.11659"></trkpt>
      <trkpt lat="50.00726" lon="-5.1163"></trkpt>
      <trkpt lat="50.00718" lon="-5.11611"></trkpt>
      <trkpt lat="50.00726" lon="-5.11588"></trkpt>
      <trkpt lat="50.00724" lon="-5.11577"></trkpt>
      <trkpt lat="50.00727" lon="-5.11562"></trkpt>
      <trkpt lat="50.00744" lon="-5.11501"></trkpt>
      <trkpt lat="50.00731" lon="-5.11498"></trkpt>
      <trkpt lat="50.00722" lon="-5.1149"></trkpt>
      <trkpt lat="50.00708" lon="-5.11494"></trkpt>
      <trkpt lat="50.00698" lon="-5.11489"></trkpt>
      <trkpt lat="50.00692" lon="-5.11491"></trkpt>
      <trkpt lat="50.00688" lon="-5.11485"></trkpt>
      <trkpt lat="50.00676" lon="-5.1148"></trkpt>
      <trkpt lat="50.00662" lon="-5.11453"></trkpt>
      <trkpt lat="50.00639" lon="-5.11428"></trkpt>
      <trkpt lat="50.00625" lon="-5.11422"></trkpt>
      <trkpt lat="50.00603" lon="-5.11418"></trkpt>
      <trkpt lat="50.0059" lon="-5.11406"></trkpt>
      <trkpt lat="50.00576" lon="-5.11411"></trkpt>
      <trkpt lat="50.00566" lon="-5.11408"></trkpt>
      <trkpt lat="50.00555" lon="-5.114"></trkpt>
      <trkpt lat="50.00542" lon="-5.11385"></trkpt>
      <trkpt lat="50.00505" lon="-5.11363"></trkpt>
      <trkpt lat="50.00458" lon="-5.11308"></trkpt>
      <trkpt lat="50.00424" lon="-5.11282"></trkpt>
      <trkpt lat="50.00415" lon="-5.11272"></trkpt>
      <trkpt lat="50.00408" lon="-5.11234"></trkpt>
      <trkpt lat="50.00401" lon="-5.1122"></trkpt>
      <trkpt lat="50.00397" lon="-5.11189"></trkpt>
      <trkpt lat="50.00399" lon="-5.11162"></trkpt>
      <trkpt lat="50.00398" lon="-5.11149"></trkpt>
      <trkpt lat="50.00401" lon="-5.11133"></trkpt>
      <trkpt lat="50.0041" lon="-5.11108"></trkpt>
      <trkpt lat="50.00421" lon="-5.11078"></trkpt>
      <trkpt lat="50.00431" lon="-5.11058"></trkpt>
      <trkpt lat="50.00436" lon="-5.11039"></trkpt>
      <trkpt lat="50.00438" lon="-5.11008"></trkpt>
      <trkpt lat="50.00446" lon="-5.10991"></trkpt>
      <trkpt lat="50.00454" lon="-5.10983"></trkpt>
      <trkpt lat="50.00462" lon="-5.1097"></trkpt>
      <trkpt lat="50.00483" lon="-5.10914"></trkpt>
      <trkpt lat="50.00493" lon="-5.10903"></trkpt>
      <trkpt lat="50.00496" lon="-5.10896"></trkpt>
      <trkpt lat="50.00512" lon="-5.10881"></trkpt>
      <trkpt lat="50.00528" lon="-5.10856"></trkpt>
      <trkpt lat="50.00548" lon="-5.10843"></trkpt>
      <trkpt lat="50.00557" lon="-5.10824"></trkpt>
      <trkpt lat="50.00573" lon="-5.10809"></trkpt>
      <trkpt lat="50.00579" lon="-5.10808"></trkpt>
      <trkpt lat="50.00584" lon="-5.10796"></trkpt>
      <trkpt lat="50.00579" lon="-5.10739"></trkpt>
      <trkpt lat="50.00587" lon="-5.10717"></trkpt>
      <trkpt lat="50.00594" lon="-5.10676"></trkpt>
      <trkpt lat="50.00589" lon="-5.10629"></trkpt>
      <trkpt lat="50.00598" lon="-5.10566"></trkpt>
      <trkpt lat="50.00586" lon="-5.10481"></trkpt>
      <trkpt lat="50.00589" lon="-5.10354"></trkpt>
      <trkpt lat="50.00589" lon="-5.10281"></trkpt>
      <trkpt lat="50.00594" lon="-5.10253"></trkpt>
      <trkpt lat="50.00622" lon="-5.10239"></trkpt>
      <trkpt lat="50.00628" lon="-5.10225"></trkpt>
      <trkpt lat="50.00655" lon="-5.10197"></trkpt>
      <trkpt lat="50.00678" lon="-5.10188"></trkpt>
      <trkpt lat="50.007" lon="-5.10184"></trkpt>
      <trkpt lat="50.00708" lon="-5.10189"></trkpt>
      <trkpt lat="50.00719" lon="-5.10186"></trkpt>
      <trkpt lat="50.00725" lon="-5.10176"></trkpt>
      <trkpt lat="50.00727" lon="-5.10163"></trkpt>
      <trkpt lat="50.00746" lon="-5.1015"></trkpt>
      <trkpt lat="50.00752" lon="-5.10154"></trkpt>
      <trkpt lat="50.00763" lon="-5.10136"></trkpt>
      <trkpt lat="50.00776" lon="-5.10138"></trkpt>
      <trkpt lat="50.00784" lon="-5.10126"></trkpt>
      <trkpt lat="50.00798" lon="-5.10141"></trkpt>
      <trkpt lat="50.008" lon="-5.10126"></trkpt>
      <trkpt lat="50.00814" lon="-5.10108"></trkpt>
      <trkpt lat="50.00819" lon="-5.10095"></trkpt>
      <trkpt lat="50.00826" lon="-5.10089"></trkpt>
      <trkpt lat="50.00836" lon="-5.10088"></trkpt>
      <trkpt lat="50.00849" lon="-5.10078"></trkpt>
      <trkpt lat="50.0086" lon="-5.1009"></trkpt>
      <trkpt lat="50.00869" lon="-5.10093"></trkpt>
      <trkpt lat="50.0088" lon="-5.10085"></trkpt>
      <trkpt lat="50.00908" lon="-5.10087"></trkpt>
      <trkpt lat="50.00921" lon="-5.10092"></trkpt>
      <trkpt lat="50.00931" lon="-5.10085"></trkpt>
      <trkpt lat="50.0094" lon="-5.10071"></trkpt>
      <trkpt lat="50.00939" lon="-5.10059"></trkpt>
      <trkpt lat="50.00931" lon="-5.10038"></trkpt>
      <trkpt lat="50.00928" lon="-5.10024"></trkpt>
      <trkpt lat="50.0093" lon="-5.10015"></trkpt>
      <trkpt lat="50.0094" lon="-5.10012"></trkpt>
      <trkpt lat="50.00948" lon="-5.09999"></trkpt>
      <trkpt lat="50.00961" lon="-5.09989"></trkpt>
      <trkpt lat="50.00965" lon="-5.09984"></trkpt>
      <trkpt lat="50.00973" lon="-5.09989"></trkpt>
      <trkpt lat="50.00979" lon="-5.09983"></trkpt>
      <trkpt lat="50.00989" lon="-5.09965"></trkpt>
      <trkpt lat="50.01044" lon="-5.0991"></trkpt>
      <trkpt lat="50.01056" lon="-5.0991"></trkpt>
      <trkpt lat="50.01074" lon="-5.09923"></trkpt>
      <trkpt lat="50.01107" lon="-5.09951"></trkpt>
      <trkpt lat="50.01128" lon="-5.09963"></trkpt>
      <trkpt lat="50.01135" lon="-5.09964"></trkpt>
      <trkpt lat="50.01163" lon="-5.09967"></trkpt>
      <trkpt lat="50.01176" lon="-5.09962"></trkpt>
      <trkpt lat="50.01218" lon="-5.09987"></trkpt>
      <trkpt lat="50.01255" lon="-5.09981"></trkpt>
      <trkpt lat="50.01264" lon="-5.09992"></trkpt>
      <trkpt lat="50.01278" lon="-5.10002"></trkpt>
      <trkpt lat="50.01304" lon="-5.1001"></trkpt>
      <trkpt lat="50.01313" lon="-5.09991"></trkpt>
      <trkpt lat="50.01318" lon="-5.09967"></trkpt>
      <trkpt lat="50.01315" lon="-5.0996"></trkpt>
      <trkpt lat="50.01306" lon="-5.09954"></trkpt>
      <trkpt lat="50.01305" lon="-5.0994"></trkpt>
      <trkpt lat="50.01326" lon="-5.09906"></trkpt>
      <trkpt lat="50.01343" lon="-5.09861"></trkpt>
      <trkpt lat="50.01365" lon="-5.09833"></trkpt>
      <trkpt lat="50.01371" lon="-5.09819"></trkpt>
      <trkpt lat="50.01376" lon="-5.09781"></trkpt>
      <trkpt lat="50.01397" lon="-5.09773"></trkpt>
      <trkpt lat="50.01402" lon="-5.09769"></trkpt>
      <trkpt lat="50.01421" lon="-5.09745"></trkpt>
      <trkpt lat="50.01433" lon="-5.09751"></trkpt>
      <trkpt lat="50.01444" lon="-5.09739"></trkpt>
      <trkpt lat="50.01448" lon="-5.09732"></trkpt>
      <trkpt lat="50.01448" lon="-5.09725"></trkpt>
      <trkpt lat="50.01451" lon="-5.0972"></trkpt>
      <trkpt lat="50.01459" lon="-5.09719"></trkpt>
      <trkpt lat="50.01463" lon="-5.09714"></trkpt>
      <trkpt lat="50.01464" lon="-5.09699"></trkpt>
      <trkpt lat="50.01476" lon="-5.09699"></trkpt>
      <trkpt lat="50.01487" lon="-5.09672"></trkpt>
      <trkpt lat="50.01488" lon="-5.09666"></trkpt>
      <trkpt lat="50.01505" lon="-5.09654"></trkpt>
      <trkpt lat="50.01509" lon="-5.09653"></trkpt>
      <trkpt lat="50.01515" lon="-5.09658"></trkpt>
      <trkpt lat="50.01527" lon="-5.09648"></trkpt>
      <trkpt lat="50.01551" lon="-5.09642"></trkpt>
      <trkpt lat="50.01556" lon="-5.09638"></trkpt>
      <trkpt lat="50.01563" lon="-5.09636"></trkpt>
      <trkpt lat="50.01573" lon="-5.09627"></trkpt>
      <trkpt lat="50.01596" lon="-5.09591"></trkpt>
      <trkpt lat="50.01599" lon="-5.0959"></trkpt>
      <trkpt lat="50.01602" lon="-5.09601"></trkpt>
      <trkpt lat="50.01602" lon="-5.09618"></trkpt>
      <trkpt lat="50.01612" lon="-5.09623"></trkpt>
      <trkpt lat="50.01616" lon="-5.09628"></trkpt>
      <trkpt lat="50.01623" lon="-5.09617"></trkpt>
      <trkpt lat="50.01617" lon="-5.09602"></trkpt>
      <trkpt lat="50.0161" lon="-5.09576"></trkpt>
      <trkpt lat="50.01613" lon="-5.09564"></trkpt>
      <trkpt lat="50.01618" lon="-5.09554"></trkpt>
      <trkpt lat="50.01626" lon="-5.0955"></trkpt>
      <trkpt lat="50.01629" lon="-5.09539"></trkpt>
      <trkpt lat="50.01634" lon="-5.09532"></trkpt>
      <trkpt lat="50.01636" lon="-5.0952"></trkpt>
      <trkpt lat="50.01637" lon="-5.09495"></trkpt>
      <trkpt lat="50.01635" lon="-5.09484"></trkpt>
      <trkpt lat="50.01636" lon="-5.09475"></trkpt>
      <trkpt lat="50.01649" lon="-5.09443"></trkpt>
      <trkpt lat="50.0165" lon="-5.0944"></trkpt>
      <trkpt lat="50.01657" lon="-5.09439"></trkpt>
      <trkpt lat="50.01664" lon="-5.09447"></trkpt>
      <trkpt lat="50.01666" lon="-5.09447"></trkpt>
      <trkpt lat="50.01671" lon="-5.09457"></trkpt>
      <trkpt lat="50.01675" lon="-5.09481"></trkpt>
      <trkpt lat="50.01675" lon="-5.09503"></trkpt>
      <trkpt lat="50.01678" lon="-5.09509"></trkpt>
      <trkpt lat="50.01692" lon="-5.09521"></trkpt>
      <trkpt lat="50.0171" lon="-5.09562"></trkpt>
      <trkpt lat="50.01731" lon="-5.09587"></trkpt>
      <trkpt lat="50.01739" lon="-5.09592"></trkpt>
      <trkpt lat="50.01753" lon="-5.09594"></trkpt>
      <trkpt lat="50.01759" lon="-5.096"></trkpt>
      <trkpt lat="50.01762" lon="-5.09609"></trkpt>
      <trkpt lat="50.0178" lon="-5.09616"></trkpt>
      <trkpt lat="50.01836" lon="-5.09607"></trkpt>
      <trkpt lat="50.01869" lon="-5.0961"></trkpt>
      <trkpt lat="50.01924" lon="-5.0961"></trkpt>
      <trkpt lat="50.02012" lon="-5.09629"></trkpt>
      <trkpt lat="50.02073" lon="-5.09675"></trkpt>
      <trkpt lat="50.02086" lon="-5.09674"></trkpt>
      <trkpt lat="50.02105" lon="-5.09684"></trkpt>
      <trkpt lat="50.02128" lon="-5.09662"></trkpt>
      <trkpt lat="50.02174" lon="-5.09579"></trkpt>
      <trkpt lat="50.02195" lon="-5.09536"></trkpt>
      <trkpt lat="50.02202" lon="-5.09526"></trkpt>
      <trkpt lat="50.02204" lon="-5.09517"></trkpt>
      <trkpt lat="50.02221" lon="-5.09491"></trkpt>
      <trkpt lat="50.02236" lon="-5.09439"></trkpt>
      <trkpt lat="50.02241" lon="-5.09431"></trkpt>
      <trkpt lat="50.02243" lon="-5.09382"></trkpt>
      <trkpt lat="50.02236" lon="-5.09379"></trkpt>
      <trkpt lat="50.02218" lon="-5.09365"></trkpt>
      <trkpt lat="50.02231" lon="-5.09336"></trkpt>
      <trkpt lat="50.02218" lon="-5.09365"></trkpt>
      <trkpt lat="50.02236" lon="-5.09379"></trkpt>
      <trkpt lat="50.02243" lon="-5.09382"></trkpt>
      <trkpt lat="50.02241" lon="-5.09431"></trkpt>
      <trkpt lat="50.02248" lon="-5.09475"></trkpt>
      <trkpt lat="50.02255" lon="-5.09474"></trkpt>
      <trkpt lat="50.02261" lon="-5.09482"></trkpt>
      <trkpt lat="50.02272" lon="-5.09541"></trkpt>
      <trkpt lat="50.02291" lon="-5.09579"></trkpt>
      <trkpt lat="50.02299" lon="-5.09602"></trkpt>
      <trkpt lat="50.02302" lon="-5.09627"></trkpt>
      <trkpt lat="50.02303" lon="-5.09674"></trkpt>
      <trkpt lat="50.02305" lon="-5.09694"></trkpt>
      <trkpt lat="50.02307" lon="-5.09702"></trkpt>
      <trkpt lat="50.02313" lon="-5.09712"></trkpt>
      <trkpt lat="50.02344" lon="-5.09735"></trkpt>
      <trkpt lat="50.02376" lon="-5.09749"></trkpt>
      <trkpt lat="50.02428" lon="-5.09757"></trkpt>
      <trkpt lat="50.02429" lon="-5.09751"></trkpt>
    </trkseg>
  </trk>
</gpx>
