<?xml version="1.0" encoding="UTF-8"?>
<gpx version="1.1" creator="swcp-walk (imported from OS Maps route 33844840)"
     xmlns="http://www.topografix.com/GPX/1/1">
  <metadata>
    <name>SWCP28-Coverack-Helford</name>
  </metadata>
  <trk>
    <name>SWCP28-Coverack-Helford</name>
    <trkseg>
      <trkpt lat="50.02430171929274" lon="-5.097687007655253"></trkpt>
      <trkpt lat="50.02431" lon="-5.09757"></trkpt>
      <trkpt lat="50.0254" lon="-5.0975"></trkpt>
      <trkpt lat="50.0256" lon="-5.09759"></trkpt>
      <trkpt lat="50.02596" lon="-5.09752"></trkpt>
      <trkpt lat="50.02603" lon="-5.09756"></trkpt>
      <trkpt lat="50.02611" lon="-5.0975"></trkpt>
      <trkpt lat="50.02622" lon="-5.09747"></trkpt>
      <trkpt lat="50.02659" lon="-5.09747"></trkpt>
      <trkpt lat="50.02691" lon="-5.09733"></trkpt>
      <trkpt lat="50.02712" lon="-5.09718"></trkpt>
      <trkpt lat="50.02729" lon="-5.09701"></trkpt>
      <trkpt lat="50.02733" lon="-5.09659"></trkpt>
      <trkpt lat="50.02737" lon="-5.09648"></trkpt>
      <trkpt lat="50.02743" lon="-5.0964"></trkpt>
      <trkpt lat="50.02766" lon="-5.09627"></trkpt>
      <trkpt lat="50.02783" lon="-5.0961"></trkpt>
      <trkpt lat="50.02799" lon="-5.09586"></trkpt>
      <trkpt lat="50.02829" lon="-5.09549"></trkpt>
      <trkpt lat="50.02844" lon="-5.09546"></trkpt>
      <trkpt lat="50.02855" lon="-5.09539"></trkpt>
      <trkpt lat="50.02907" lon="-5.0949"></trkpt>
      <trkpt lat="50.02925" lon="-5.09462"></trkpt>
      <trkpt lat="50.02938" lon="-5.09438"></trkpt>
      <trkpt lat="50.0296" lon="-5.09419"></trkpt>
      <trkpt lat="50.02971" lon="-5.09408"></trkpt>
      <trkpt lat="50.03005" lon="-5.09313"></trkpt>
      <trkpt lat="50.03028" lon="-5.09259"></trkpt>
      <trkpt lat="50.03031" lon="-5.09231"></trkpt>
      <trkpt lat="50.0303" lon="-5.09199"></trkpt>
      <trkpt lat="50.03039" lon="-5.09175"></trkpt>
      <trkpt lat="50.03061" lon="-5.09174"></trkpt>
      <trkpt lat="50.03067" lon="-5.0916"></trkpt>
      <trkpt lat="50.03058" lon="-5.09137"></trkpt>
      <trkpt lat="50.03059" lon="-5.09119"></trkpt>
      <trkpt lat="50.03063" lon="-5.09109"></trkpt>
      <trkpt lat="50.03063" lon="-5.091"></trkpt>
      <trkpt lat="50.03079" lon="-5.09068"></trkpt>
      <trkpt lat="50.03084" lon="-5.09064"></trkpt>
      <trkpt lat="50.0309" lon="-5.09064"></trkpt>
      <trkpt lat="50.03094" lon="-5.09057"></trkpt>
      <trkpt lat="50.03096" lon="-5.0905"></trkpt>
      <trkpt lat="50.03111" lon="-5.0903"></trkpt>
      <trkpt lat="50.03141" lon="-5.08971"></trkpt>
      <trkpt lat="50.03144" lon="-5.08959"></trkpt>
      <trkpt lat="50.03177" lon="-5.08884"></trkpt>
      <trkpt lat="50.03187" lon="-5.08835"></trkpt>
      <trkpt lat="50.03196" lon="-5.08821"></trkpt>
      <trkpt lat="50.03209" lon="-5.08761"></trkpt>
      <trkpt lat="50.03208" lon="-5.08746"></trkpt>
      <trkpt lat="50.03207" lon="-5.0872"></trkpt>
      <trkpt lat="50.03214" lon="-5.08692"></trkpt>
      <trkpt lat="50.03214" lon="-5.08667"></trkpt>
      <trkpt lat="50.03218" lon="-5.08654"></trkpt>
      <trkpt lat="50.03228" lon="-5.08643"></trkpt>
      <trkpt lat="50.03229" lon="-5.0863"></trkpt>
      <trkpt lat="50.03239" lon="-5.08616"></trkpt>
      <trkpt lat="50.0324" lon="-5.08611"></trkpt>
      <trkpt lat="50.0324" lon="-5.08606"></trkpt>
      <trkpt lat="50.0323" lon="-5.0857"></trkpt>
      <trkpt lat="50.03236" lon="-5.08557"></trkpt>
      <trkpt lat="50.03233" lon="-5.08545"></trkpt>
      <trkpt lat="50.03236" lon="-5.08513"></trkpt>
      <trkpt lat="50.03232" lon="-5.0849"></trkpt>
      <trkpt lat="50.03233" lon="-5.08483"></trkpt>
      <trkpt lat="50.0323" lon="-5.0846"></trkpt>
      <trkpt lat="50.03232" lon="-5.08427"></trkpt>
      <trkpt lat="50.0323" lon="-5.08384"></trkpt>
      <trkpt lat="50.03231" lon="-5.08363"></trkpt>
      <trkpt lat="50.03228" lon="-5.08354"></trkpt>
      <trkpt lat="50.03228" lon="-5.08318"></trkpt>
      <trkpt lat="50.0323" lon="-5.0831"></trkpt>
      <trkpt lat="50.0324" lon="-5.083"></trkpt>
      <trkpt lat="50.03249" lon="-5.08269"></trkpt>
      <trkpt lat="50.03258" lon="-5.08249"></trkpt>
      <trkpt lat="50.0326" lon="-5.08234"></trkpt>
      <trkpt lat="50.03257" lon="-5.08222"></trkpt>
      <trkpt lat="50.0326" lon="-5.08211"></trkpt>
      <trkpt lat="50.03265" lon="-5.08204"></trkpt>
      <trkpt lat="50.03272" lon="-5.0815"></trkpt>
      <trkpt lat="50.03265" lon="-5.08137"></trkpt>
      <trkpt lat="50.03265" lon="-5.08125"></trkpt>
      <trkpt lat="50.03268" lon="-5.08114"></trkpt>
      <trkpt lat="50.03275" lon="-5.08099"></trkpt>
      <trkpt lat="50.03285" lon="-5.08051"></trkpt>
      <trkpt lat="50.0329" lon="-5.08042"></trkpt>
      <trkpt lat="50.03295" lon="-5.08028"></trkpt>
      <trkpt lat="50.03295" lon="-5.08015"></trkpt>
      <trkpt lat="50.03299" lon="-5.08002"></trkpt>
      <trkpt lat="50.03299" lon="-5.08003"></trkpt>
      <trkpt lat="50.03303" lon="-5.07983"></trkpt>
      <trkpt lat="50.0331" lon="-5.07976"></trkpt>
      <trkpt lat="50.03339" lon="-5.07924"></trkpt>
      <trkpt lat="50.03342" lon="-5.07906"></trkpt>
      <trkpt lat="50.03361" lon="-5.0789"></trkpt>
      <trkpt lat="50.03371" lon="-5.07868"></trkpt>
      <trkpt lat="50.03378" lon="-5.07857"></trkpt>
      <trkpt lat="50.03393" lon="-5.07845"></trkpt>
      <trkpt lat="50.03409" lon="-5.07818"></trkpt>
      <trkpt lat="50.03428" lon="-5.07736"></trkpt>
      <trkpt lat="50.03422" lon="-5.07713"></trkpt>
      <trkpt lat="50.03418" lon="-5.07668"></trkpt>
      <trkpt lat="50.03418" lon="-5.07652"></trkpt>
      <trkpt lat="50.03422" lon="-5.07633"></trkpt>
      <trkpt lat="50.03422" lon="-5.07606"></trkpt>
      <trkpt lat="50.03433" lon="-5.07538"></trkpt>
      <trkpt lat="50.03436" lon="-5.07457"></trkpt>
      <trkpt lat="50.03439" lon="-5.0743"></trkpt>
      <trkpt lat="50.03445" lon="-5.07423"></trkpt>
      <trkpt lat="50.03455" lon="-5.07397"></trkpt>
      <trkpt lat="50.03462" lon="-5.0739"></trkpt>
      <trkpt lat="50.03459" lon="-5.07372"></trkpt>
      <trkpt lat="50.03457" lon="-5.07271"></trkpt>
      <trkpt lat="50.03463" lon="-5.07241"></trkpt>
      <trkpt lat="50.03461" lon="-5.07209"></trkpt>
      <trkpt lat="50.03469" lon="-5.07151"></trkpt>
      <trkpt lat="50.03473" lon="-5.07082"></trkpt>
      <trkpt lat="50.03491" lon="-5.06998"></trkpt>
      <trkpt lat="50.03516" lon="-5.06936"></trkpt>
      <trkpt lat="50.03544" lon="-5.069"></trkpt>
      <trkpt lat="50.03563" lon="-5.06894"></trkpt>
      <trkpt lat="50.03594" lon="-5.06883"></trkpt>
      <trkpt lat="50.03725" lon="-5.06965"></trkpt>
      <trkpt lat="50.03741" lon="-5.06976"></trkpt>
      <trkpt lat="50.03756" lon="-5.0699"></trkpt>
      <trkpt lat="50.03764" lon="-5.06993"></trkpt>
      <trkpt lat="50.03825" lon="-5.06988"></trkpt>
      <trkpt lat="50.03859" lon="-5.06994"></trkpt>
      <trkpt lat="50.03862" lon="-5.06989"></trkpt>
      <trkpt lat="50.03865" lon="-5.06995"></trkpt>
      <trkpt lat="50.03878" lon="-5.07001"></trkpt>
      <trkpt lat="50.03882" lon="-5.07007"></trkpt>
      <trkpt lat="50.03888" lon="-5.07011"></trkpt>
      <trkpt lat="50.03897" lon="-5.07012"></trkpt>
      <trkpt lat="50.03907" lon="-5.07009"></trkpt>
      <trkpt lat="50.03928" lon="-5.07012"></trkpt>
      <trkpt lat="50.03939" lon="-5.07007"></trkpt>
      <trkpt lat="50.03964" lon="-5.07005"></trkpt>
      <trkpt lat="50.03972" lon="-5.07007"></trkpt>
      <trkpt lat="50.04017" lon="-5.06999"></trkpt>
      <trkpt lat="50.04029" lon="-5.06991"></trkpt>
      <trkpt lat="50.04051" lon="-5.06985"></trkpt>
      <trkpt lat="50.04059" lon="-5.06979"></trkpt>
      <trkpt lat="50.04077" lon="-5.06959"></trkpt>
      <trkpt lat="50.04087" lon="-5.0695"></trkpt>
      <trkpt lat="50.04095" lon="-5.0695"></trkpt>
      <trkpt lat="50.04103" lon="-5.06953"></trkpt>
      <trkpt lat="50.0412" lon="-5.0695"></trkpt>
      <trkpt lat="50.04129" lon="-5.06945"></trkpt>
      <trkpt lat="50.04137" lon="-5.06945"></trkpt>
      <trkpt lat="50.0415" lon="-5.06922"></trkpt>
      <trkpt lat="50.04162" lon="-5.06892"></trkpt>
      <trkpt lat="50.04164" lon="-5.06874"></trkpt>
      <trkpt lat="50.04162" lon="-5.06892"></trkpt>
      <trkpt lat="50.0415" lon="-5.06922"></trkpt>
      <trkpt lat="50.04157" lon="-5.06918"></trkpt>
      <trkpt lat="50.04176" lon="-5.06889"></trkpt>
      <trkpt lat="50.04176" lon="-5.0688"></trkpt>
      <trkpt lat="50.0418" lon="-5.06864"></trkpt>
      <trkpt lat="50.04188" lon="-5.06843"></trkpt>
      <trkpt lat="50.04189" lon="-5.06818"></trkpt>
      <trkpt lat="50.04193" lon="-5.06799"></trkpt>
      <trkpt lat="50.04194" lon="-5.06785"></trkpt>
      <trkpt lat="50.0419" lon="-5.06765"></trkpt>
      <trkpt lat="50.04194" lon="-5.06756"></trkpt>
      <trkpt lat="50.04201" lon="-5.06754"></trkpt>
      <trkpt lat="50.04233" lon="-5.06755"></trkpt>
      <trkpt lat="50.0426" lon="-5.06763"></trkpt>
      <trkpt lat="50.04263" lon="-5.06761"></trkpt>
      <trkpt lat="50.04267" lon="-5.06746"></trkpt>
      <trkpt lat="50.0428" lon="-5.0672"></trkpt>
      <trkpt lat="50.04286" lon="-5.067"></trkpt>
      <trkpt lat="50.04298" lon="-5.06685"></trkpt>
      <trkpt lat="50.04311" lon="-5.0666"></trkpt>
      <trkpt lat="50.04328" lon="-5.06652"></trkpt>
      <trkpt lat="50.0434" lon="-5.06638"></trkpt>
      <trkpt lat="50.04359" lon="-5.06621"></trkpt>
      <trkpt lat="50.04374" lon="-5.06619"></trkpt>
      <trkpt lat="50.04383" lon="-5.0662"></trkpt>
      <trkpt lat="50.04395" lon="-5.06603"></trkpt>
      <trkpt lat="50.04399" lon="-5.06602"></trkpt>
      <trkpt lat="50.04408" lon="-5.06606"></trkpt>
      <trkpt lat="50.04434" lon="-5.06634"></trkpt>
      <trkpt lat="50.04455" lon="-5.06666"></trkpt>
      <trkpt lat="50.0447" lon="-5.06678"></trkpt>
      <trkpt lat="50.04484" lon="-5.06684"></trkpt>
      <trkpt lat="50.04501" lon="-5.06677"></trkpt>
      <trkpt lat="50.04512" lon="-5.06678"></trkpt>
      <trkpt lat="50.04549" lon="-5.06693"></trkpt>
      <trkpt lat="50.04594" lon="-5.06718"></trkpt>
      <trkpt lat="50.0461" lon="-5.06723"></trkpt>
      <trkpt lat="50.04631" lon="-5.06723"></trkpt>
      <trkpt lat="50.04644" lon="-5.06727"></trkpt>
      <trkpt lat="50.04654" lon="-5.06736"></trkpt>
      <trkpt lat="50.04697" lon="-5.06744"></trkpt>
      <trkpt lat="50.04734" lon="-5.06738"></trkpt>
      <trkpt lat="50.0475" lon="-5.06725"></trkpt>
      <trkpt lat="50.04774" lon="-5.06725"></trkpt>
      <trkpt lat="50.04789" lon="-5.06731"></trkpt>
      <trkpt lat="50.04794" lon="-5.06735"></trkpt>
      <trkpt lat="50.04795" lon="-5.06738"></trkpt>
      <trkpt lat="50.04794" lon="-5.06754"></trkpt>
      <trkpt lat="50.04797" lon="-5.06778"></trkpt>
      <trkpt lat="50.04796" lon="-5.06784"></trkpt>
      <trkpt lat="50.048" lon="-5.06794"></trkpt>
      <trkpt lat="50.04802" lon="-5.0681"></trkpt>
      <trkpt lat="50.04808" lon="-5.06816"></trkpt>
      <trkpt lat="50.04808" lon="-5.06822"></trkpt>
      <trkpt lat="50.0484" lon="-5.06862"></trkpt>
      <trkpt lat="50.04846" lon="-5.06876"></trkpt>
      <trkpt lat="50.0486" lon="-5.0693"></trkpt>
      <trkpt lat="50.04875" lon="-5.06956"></trkpt>
      <trkpt lat="50.04883" lon="-5.06988"></trkpt>
      <trkpt lat="50.04895" lon="-5.07049"></trkpt>
      <trkpt lat="50.04901" lon="-5.0707"></trkpt>
      <trkpt lat="50.04936" lon="-5.07104"></trkpt>
      <trkpt lat="50.04942" lon="-5.07122"></trkpt>
      <trkpt lat="50.04957" lon="-5.07152"></trkpt>
      <trkpt lat="50.04962" lon="-5.07156"></trkpt>
      <trkpt lat="50.04975" lon="-5.07176"></trkpt>
      <trkpt lat="50.04986" lon="-5.07209"></trkpt>
      <trkpt lat="50.0499" lon="-5.07221"></trkpt>
      <trkpt lat="50.05013" lon="-5.07209"></trkpt>
      <trkpt lat="50.05023" lon="-5.07195"></trkpt>
      <trkpt lat="50.05037" lon="-5.07184"></trkpt>
      <trkpt lat="50.05047" lon="-5.07184"></trkpt>
      <trkpt lat="50.05059" lon="-5.07193"></trkpt>
      <trkpt lat="50.05076" lon="-5.07194"></trkpt>
      <trkpt lat="50.05077" lon="-5.07166"></trkpt>
      <trkpt lat="50.05084" lon="-5.0712"></trkpt>
      <trkpt lat="50.05098" lon="-5.07082"></trkpt>
      <trkpt lat="50.05109" lon="-5.07043"></trkpt>
      <trkpt lat="50.05123" lon="-5.07014"></trkpt>
      <trkpt lat="50.05135" lon="-5.06998"></trkpt>
      <trkpt lat="50.05163" lon="-5.06971"></trkpt>
      <trkpt lat="50.05182" lon="-5.0696"></trkpt>
      <trkpt lat="50.05206" lon="-5.0695"></trkpt>
      <trkpt lat="50.05216" lon="-5.06935"></trkpt>
      <trkpt lat="50.05218" lon="-5.06928"></trkpt>
      <trkpt lat="50.05222" lon="-5.06931"></trkpt>
      <trkpt lat="50.05349" lon="-5.06847"></trkpt>
      <trkpt lat="50.05416" lon="-5.06797"></trkpt>
      <trkpt lat="50.0542" lon="-5.0679"></trkpt>
      <trkpt lat="50.05453" lon="-5.06788"></trkpt>
      <trkpt lat="50.05464" lon="-5.06793"></trkpt>
      <trkpt lat="50.05477" lon="-5.06806"></trkpt>
      <trkpt lat="50.0548" lon="-5.06819"></trkpt>
      <trkpt lat="50.05508" lon="-5.06778"></trkpt>
      <trkpt lat="50.0552" lon="-5.06754"></trkpt>
      <trkpt lat="50.05528" lon="-5.06719"></trkpt>
      <trkpt lat="50.05535" lon="-5.06706"></trkpt>
      <trkpt lat="50.05543" lon="-5.06698"></trkpt>
      <trkpt lat="50.05555" lon="-5.06679"></trkpt>
      <trkpt lat="50.0557" lon="-5.06646"></trkpt>
      <trkpt lat="50.05586" lon="-5.06674"></trkpt>
      <trkpt lat="50.05597" lon="-5.06672"></trkpt>
      <trkpt lat="50.05614" lon="-5.06653"></trkpt>
      <trkpt lat="50.05612" lon="-5.06644"></trkpt>
      <trkpt lat="50.05614" lon="-5.06634"></trkpt>
      <trkpt lat="50.05624" lon="-5.06623"></trkpt>
      <trkpt lat="50.05627" lon="-5.06616"></trkpt>
      <trkpt lat="50.0563" lon="-5.06589"></trkpt>
      <trkpt lat="50.05636" lon="-5.06569"></trkpt>
      <trkpt lat="50.05641" lon="-5.0653"></trkpt>
      <trkpt lat="50.0571" lon="-5.0642"></trkpt>
      <trkpt lat="50.05733" lon="-5.06349"></trkpt>
      <trkpt lat="50.05752" lon="-5.0631"></trkpt>
      <trkpt lat="50.05782" lon="-5.06262"></trkpt>
      <trkpt lat="50.05814" lon="-5.06233"></trkpt>
      <trkpt lat="50.05827" lon="-5.06225"></trkpt>
      <trkpt lat="50.05862" lon="-5.06218"></trkpt>
      <trkpt lat="50.05907" lon="-5.06221"></trkpt>
      <trkpt lat="50.05913" lon="-5.06226"></trkpt>
      <trkpt lat="50.05934" lon="-5.06227"></trkpt>
      <trkpt lat="50.06011" lon="-5.06252"></trkpt>
      <trkpt lat="50.06066" lon="-5.0625"></trkpt>
      <trkpt lat="50.06079" lon="-5.06254"></trkpt>
      <trkpt lat="50.06114" lon="-5.06274"></trkpt>
      <trkpt lat="50.06114" lon="-5.06273"></trkpt>
      <trkpt lat="50.06165" lon="-5.06306"></trkpt>
      <trkpt lat="50.06171" lon="-5.06306"></trkpt>
      <trkpt lat="50.06173" lon="-5.0631"></trkpt>
      <trkpt lat="50.06172" lon="-5.06317"></trkpt>
      <trkpt lat="50.06176" lon="-5.06323"></trkpt>
      <trkpt lat="50.06178" lon="-5.06331"></trkpt>
      <trkpt lat="50.06176" lon="-5.06343"></trkpt>
      <trkpt lat="50.06179" lon="-5.06359"></trkpt>
      <trkpt lat="50.06177" lon="-5.0638"></trkpt>
      <trkpt lat="50.06178" lon="-5.06386"></trkpt>
      <trkpt lat="50.06177" lon="-5.06388"></trkpt>
      <trkpt lat="50.06176" lon="-5.0638"></trkpt>
      <trkpt lat="50.06174" lon="-5.06381"></trkpt>
      <trkpt lat="50.06173" lon="-5.06394"></trkpt>
      <trkpt lat="50.06175" lon="-5.06398"></trkpt>
      <trkpt lat="50.06169" lon="-5.06416"></trkpt>
      <trkpt lat="50.06175" lon="-5.0644"></trkpt>
      <trkpt lat="50.06191" lon="-5.06453"></trkpt>
      <trkpt lat="50.06194" lon="-5.06486"></trkpt>
      <trkpt lat="50.06212" lon="-5.06498"></trkpt>
      <trkpt lat="50.06231" lon="-5.06525"></trkpt>
      <trkpt lat="50.06258" lon="-5.06552"></trkpt>
      <trkpt lat="50.06282" lon="-5.06573"></trkpt>
      <trkpt lat="50.06308" lon="-5.06593"></trkpt>
      <trkpt lat="50.06331" lon="-5.06623"></trkpt>
      <trkpt lat="50.06349" lon="-5.0667"></trkpt>
      <trkpt lat="50.06366" lon="-5.06684"></trkpt>
      <trkpt lat="50.06407" lon="-5.06704"></trkpt>
      <trkpt lat="50.06453" lon="-5.06715"></trkpt>
      <trkpt lat="50.06459" lon="-5.06722"></trkpt>
      <trkpt lat="50.06463" lon="-5.06714"></trkpt>
      <trkpt lat="50.06491" lon="-5.06699"></trkpt>
      <trkpt lat="50.06524" lon="-5.06688"></trkpt>
      <trkpt lat="50.06548" lon="-5.06687"></trkpt>
      <trkpt lat="50.06581" lon="-5.06696"></trkpt>
      <trkpt lat="50.06594" lon="-5.06704"></trkpt>
      <trkpt lat="50.06613" lon="-5.06714"></trkpt>
      <trkpt lat="50.06623" lon="-5.06727"></trkpt>
      <trkpt lat="50.06654" lon="-5.0676"></trkpt>
      <trkpt lat="50.06658" lon="-5.06769"></trkpt>
      <trkpt lat="50.06659" lon="-5.06797"></trkpt>
      <trkpt lat="50.06669" lon="-5.06829"></trkpt>
      <trkpt lat="50.06685" lon="-5.06896"></trkpt>
      <trkpt lat="50.06694" lon="-5.06923"></trkpt>
      <trkpt lat="50.06702" lon="-5.0694"></trkpt>
      <trkpt lat="50.06718" lon="-5.06963"></trkpt>
      <trkpt lat="50.06728" lon="-5.06979"></trkpt>
      <trkpt lat="50.06743" lon="-5.07044"></trkpt>
      <trkpt lat="50.06752" lon="-5.07108"></trkpt>
      <trkpt lat="50.06758" lon="-5.07139"></trkpt>
      <trkpt lat="50.06769" lon="-5.07156"></trkpt>
      <trkpt lat="50.06763" lon="-5.07163"></trkpt>
      <trkpt lat="50.06766" lon="-5.07206"></trkpt>
      <trkpt lat="50.0676" lon="-5.07214"></trkpt>
      <trkpt lat="50.0676" lon="-5.07232"></trkpt>
      <trkpt lat="50.06766" lon="-5.07267"></trkpt>
      <trkpt lat="50.06765" lon="-5.07275"></trkpt>
      <trkpt lat="50.06767" lon="-5.07283"></trkpt>
      <trkpt lat="50.06767" lon="-5.0729"></trkpt>
      <trkpt lat="50.06759" lon="-5.07297"></trkpt>
      <trkpt lat="50.06756" lon="-5.07297"></trkpt>
      <trkpt lat="50.0675" lon="-5.07301"></trkpt>
      <trkpt lat="50.06746" lon="-5.07311"></trkpt>
      <trkpt lat="50.06739" lon="-5.07319"></trkpt>
      <trkpt lat="50.06731" lon="-5.07318"></trkpt>
      <trkpt lat="50.06724" lon="-5.07325"></trkpt>
      <trkpt lat="50.06723" lon="-5.07339"></trkpt>
      <trkpt lat="50.06726" lon="-5.07349"></trkpt>
      <trkpt lat="50.06722" lon="-5.07409"></trkpt>
      <trkpt lat="50.06732" lon="-5.07421"></trkpt>
      <trkpt lat="50.06734" lon="-5.07428"></trkpt>
      <trkpt lat="50.06734" lon="-5.07434"></trkpt>
      <trkpt lat="50.0674" lon="-5.07445"></trkpt>
      <trkpt lat="50.06729" lon="-5.07467"></trkpt>
      <trkpt lat="50.06728" lon="-5.07481"></trkpt>
      <trkpt lat="50.06725" lon="-5.07485"></trkpt>
      <trkpt lat="50.06725" lon="-5.07498"></trkpt>
      <trkpt lat="50.06719" lon="-5.07517"></trkpt>
      <trkpt lat="50.06722" lon="-5.07524"></trkpt>
      <trkpt lat="50.06714" lon="-5.0753"></trkpt>
      <trkpt lat="50.06704" lon="-5.07559"></trkpt>
      <trkpt lat="50.06697" lon="-5.07567"></trkpt>
      <trkpt lat="50.06692" lon="-5.07587"></trkpt>
      <trkpt lat="50.06677" lon="-5.07601"></trkpt>
      <trkpt lat="50.06674" lon="-5.07602"></trkpt>
      <trkpt lat="50.0667" lon="-5.07613"></trkpt>
      <trkpt lat="50.06659" lon="-5.07625"></trkpt>
      <trkpt lat="50.06662" lon="-5.07664"></trkpt>
      <trkpt lat="50.06654" lon="-5.07692"></trkpt>
      <trkpt lat="50.06667" lon="-5.07723"></trkpt>
      <trkpt lat="50.06684" lon="-5.07745"></trkpt>
      <trkpt lat="50.06694" lon="-5.07762"></trkpt>
      <trkpt lat="50.06727" lon="-5.07778"></trkpt>
      <trkpt lat="50.06741" lon="-5.07791"></trkpt>
      <trkpt lat="50.0678" lon="-5.07832"></trkpt>
      <trkpt lat="50.06807" lon="-5.07872"></trkpt>
      <trkpt lat="50.06799" lon="-5.07885"></trkpt>
      <trkpt lat="50.06789" lon="-5.07894"></trkpt>
      <trkpt lat="50.0678" lon="-5.07906"></trkpt>
      <trkpt lat="50.06779" lon="-5.0792"></trkpt>
      <trkpt lat="50.06782" lon="-5.07937"></trkpt>
      <trkpt lat="50.068" lon="-5.07963"></trkpt>
      <trkpt lat="50.06797" lon="-5.07975"></trkpt>
      <trkpt lat="50.068" lon="-5.07976"></trkpt>
      <trkpt lat="50.06808" lon="-5.07989"></trkpt>
      <trkpt lat="50.06822" lon="-5.08003"></trkpt>
      <trkpt lat="50.06846" lon="-5.08018"></trkpt>
      <trkpt lat="50.06852" lon="-5.08033"></trkpt>
      <trkpt lat="50.06861" lon="-5.08034"></trkpt>
      <trkpt lat="50.06869" lon="-5.08047"></trkpt>
      <trkpt lat="50.06874" lon="-5.0805"></trkpt>
      <trkpt lat="50.06881" lon="-5.08048"></trkpt>
      <trkpt lat="50.06885" lon="-5.08051"></trkpt>
      <trkpt lat="50.06891" lon="-5.0806"></trkpt>
      <trkpt lat="50.06902" lon="-5.08068"></trkpt>
      <trkpt lat="50.06909" lon="-5.0808"></trkpt>
      <trkpt lat="50.06919" lon="-5.08078"></trkpt>
      <trkpt lat="50.0693" lon="-5.08064"></trkpt>
      <trkpt lat="50.06943" lon="-5.08052"></trkpt>
      <trkpt lat="50.06966" lon="-5.08018"></trkpt>
      <trkpt lat="50.06978" lon="-5.08005"></trkpt>
      <trkpt lat="50.07002" lon="-5.08004"></trkpt>
      <trkpt lat="50.07012" lon="-5.07999"></trkpt>
      <trkpt lat="50.07027" lon="-5.08"></trkpt>
      <trkpt lat="50.07038" lon="-5.0801"></trkpt>
      <trkpt lat="50.07054" lon="-5.08044"></trkpt>
      <trkpt lat="50.07066" lon="-5.08051"></trkpt>
      <trkpt lat="50.07074" lon="-5.08048"></trkpt>
      <trkpt lat="50.0708" lon="-5.08036"></trkpt>
      <trkpt lat="50.07093" lon="-5.08021"></trkpt>
      <trkpt lat="50.07114" lon="-5.08016"></trkpt>
      <trkpt lat="50.07154" lon="-5.08024"></trkpt>
      <trkpt lat="50.07186" lon="-5.08013"></trkpt>
      <trkpt lat="50.07228" lon="-5.08015"></trkpt>
      <trkpt lat="50.07238" lon="-5.0803"></trkpt>
      <trkpt lat="50.07247" lon="-5.08037"></trkpt>
      <trkpt lat="50.07267" lon="-5.08041"></trkpt>
      <trkpt lat="50.07308" lon="-5.08031"></trkpt>
      <trkpt lat="50.07327" lon="-5.08034"></trkpt>
      <trkpt lat="50.07337" lon="-5.08032"></trkpt>
      <trkpt lat="50.07354" lon="-5.08022"></trkpt>
      <trkpt lat="50.07381" lon="-5.08028"></trkpt>
      <trkpt lat="50.07406" lon="-5.08026"></trkpt>
      <trkpt lat="50.07466" lon="-5.08045"></trkpt>
      <trkpt lat="50.07498" lon="-5.0805"></trkpt>
      <trkpt lat="50.07534" lon="-5.08043"></trkpt>
      <trkpt lat="50.07555" lon="-5.08048"></trkpt>
      <trkpt lat="50.07583" lon="-5.08047"></trkpt>
      <trkpt lat="50.07599" lon="-5.08056"></trkpt>
      <trkpt lat="50.07619" lon="-5.08053"></trkpt>
      <trkpt lat="50.07638" lon="-5.08053"></trkpt>
      <trkpt lat="50.07675" lon="-5.08035"></trkpt>
      <trkpt lat="50.07702" lon="-5.08001"></trkpt>
      <trkpt lat="50.0782" lon="-5.07865"></trkpt>
      <trkpt lat="50.07819" lon="-5.07865"></trkpt>
      <trkpt lat="50.07879" lon="-5.0782"></trkpt>
      <trkpt lat="50.07939" lon="-5.078"></trkpt>
      <trkpt lat="50.07957" lon="-5.07797"></trkpt>
      <trkpt lat="50.07969" lon="-5.07781"></trkpt>
      <trkpt lat="50.0798" lon="-5.07755"></trkpt>
      <trkpt lat="50.07994" lon="-5.07731"></trkpt>
      <trkpt lat="50.08027" lon="-5.07707"></trkpt>
      <trkpt lat="50.08059" lon="-5.07705"></trkpt>
      <trkpt lat="50.08123" lon="-5.07656"></trkpt>
      <trkpt lat="50.0813" lon="-5.07634"></trkpt>
      <trkpt lat="50.08138" lon="-5.07577"></trkpt>
      <trkpt lat="50.0815" lon="-5.07546"></trkpt>
      <trkpt lat="50.08162" lon="-5.07531"></trkpt>
      <trkpt lat="50.08169" lon="-5.07529"></trkpt>
      <trkpt lat="50.08168" lon="-5.07529"></trkpt>
      <trkpt lat="50.08173" lon="-5.07528"></trkpt>
      <trkpt lat="50.08182" lon="-5.07537"></trkpt>
      <trkpt lat="50.08194" lon="-5.07542"></trkpt>
      <trkpt lat="50.08201" lon="-5.0755"></trkpt>
      <trkpt lat="50.0826" lon="-5.07645"></trkpt>
      <trkpt lat="50.08278" lon="-5.07662"></trkpt>
      <trkpt lat="50.08302" lon="-5.07677"></trkpt>
      <trkpt lat="50.08313" lon="-5.07692"></trkpt>
      <trkpt lat="50.08336" lon="-5.07735"></trkpt>
      <trkpt lat="50.08393" lon="-5.07756"></trkpt>
      <trkpt lat="50.0841" lon="-5.07757"></trkpt>
      <trkpt lat="50.08427" lon="-5.07743"></trkpt>
      <trkpt lat="50.08443" lon="-5.07725"></trkpt>
      <trkpt lat="50.08489" lon="-5.07709"></trkpt>
      <trkpt lat="50.08498" lon="-5.07689"></trkpt>
      <trkpt lat="50.08502" lon="-5.07686"></trkpt>
      <trkpt lat="50.08519" lon="-5.07687"></trkpt>
      <trkpt lat="50.08535" lon="-5.07692"></trkpt>
      <trkpt lat="50.08542" lon="-5.07709"></trkpt>
      <trkpt lat="50.08544" lon="-5.0772"></trkpt>
      <trkpt lat="50.08546" lon="-5.07731"></trkpt>
      <trkpt lat="50.08544" lon="-5.0775"></trkpt>
      <trkpt lat="50.08505" lon="-5.07817"></trkpt>
      <trkpt lat="50.08495" lon="-5.07825"></trkpt>
      <trkpt lat="50.08468" lon="-5.07836"></trkpt>
      <trkpt lat="50.08448" lon="-5.0786"></trkpt>
      <trkpt lat="50.0843" lon="-5.07878"></trkpt>
      <trkpt lat="50.08416" lon="-5.07887"></trkpt>
      <trkpt lat="50.08403" lon="-5.07889"></trkpt>
      <trkpt lat="50.08368" lon="-5.07882"></trkpt>
      <trkpt lat="50.08359" lon="-5.07885"></trkpt>
      <trkpt lat="50.08349" lon="-5.07899"></trkpt>
      <trkpt lat="50.0832" lon="-5.07973"></trkpt>
      <trkpt lat="50.08293" lon="-5.08049"></trkpt>
      <trkpt lat="50.08286" lon="-5.08075"></trkpt>
      <trkpt lat="50.08287" lon="-5.08105"></trkpt>
      <trkpt lat="50.08296" lon="-5.08171"></trkpt>
      <trkpt lat="50.08308" lon="-5.0823"></trkpt>
      <trkpt lat="50.08313" lon="-5.08283"></trkpt>
      <trkpt lat="50.08322" lon="-5.08304"></trkpt>
      <trkpt lat="50.08335" lon="-5.08319"></trkpt>
      <trkpt lat="50.08357" lon="-5.08352"></trkpt>
      <trkpt lat="50.08364" lon="-5.0842"></trkpt>
      <trkpt lat="50.0837" lon="-5.08464"></trkpt>
      <trkpt lat="50.08369" lon="-5.08481"></trkpt>
      <trkpt lat="50.0837" lon="-5.08511"></trkpt>
      <trkpt lat="50.08378" lon="-5.08555"></trkpt>
      <trkpt lat="50.08402" lon="-5.08598"></trkpt>
      <trkpt lat="50.08442" lon="-5.08648"></trkpt>
      <trkpt lat="50.08499" lon="-5.08708"></trkpt>
      <trkpt lat="50.08521" lon="-5.08731"></trkpt>
      <trkpt lat="50.08554" lon="-5.08775"></trkpt>
      <trkpt lat="50.08556" lon="-5.08826"></trkpt>
      <trkpt lat="50.08532" lon="-5.08938"></trkpt>
      <trkpt lat="50.08537" lon="-5.08985"></trkpt>
      <trkpt lat="50.08549" lon="-5.09003"></trkpt>
      <trkpt lat="50.08559" lon="-5.09055"></trkpt>
      <trkpt lat="50.08559" lon="-5.09107"></trkpt>
      <trkpt lat="50.08563" lon="-5.09147"></trkpt>
      <trkpt lat="50.08559" lon="-5.09203"></trkpt>
      <trkpt lat="50.08551" lon="-5.09242"></trkpt>
      <trkpt lat="50.08545" lon="-5.09289"></trkpt>
      <trkpt lat="50.08549" lon="-5.09309"></trkpt>
      <trkpt lat="50.08548" lon="-5.09326"></trkpt>
      <trkpt lat="50.08551" lon="-5.09347"></trkpt>
      <trkpt lat="50.08562" lon="-5.09352"></trkpt>
      <trkpt lat="50.08577" lon="-5.0939"></trkpt>
      <trkpt lat="50.08579" lon="-5.09405"></trkpt>
      <trkpt lat="50.08576" lon="-5.09441"></trkpt>
      <trkpt lat="50.0857" lon="-5.0946"></trkpt>
      <trkpt lat="50.08555" lon="-5.09453"></trkpt>
      <trkpt lat="50.08537" lon="-5.0945"></trkpt>
      <trkpt lat="50.08535" lon="-5.09457"></trkpt>
      <trkpt lat="50.08529" lon="-5.09462"></trkpt>
      <trkpt lat="50.08512" lon="-5.09517"></trkpt>
      <trkpt lat="50.08508" lon="-5.09577"></trkpt>
      <trkpt lat="50.08511" lon="-5.09595"></trkpt>
      <trkpt lat="50.08531" lon="-5.09631"></trkpt>
      <trkpt lat="50.08535" lon="-5.09655"></trkpt>
      <trkpt lat="50.0853" lon="-5.0965"></trkpt>
      <trkpt lat="50.08531" lon="-5.09678"></trkpt>
      <trkpt lat="50.08531" lon="-5.09679"></trkpt>
      <trkpt lat="50.0853" lon="-5.0969"></trkpt>
      <trkpt lat="50.08534" lon="-5.09695"></trkpt>
      <trkpt lat="50.08529" lon="-5.09728"></trkpt>
      <trkpt lat="50.08524" lon="-5.09799"></trkpt>
      <trkpt lat="50.08538" lon="-5.09835"></trkpt>
      <trkpt lat="50.08533" lon="-5.09864"></trkpt>
      <trkpt lat="50.08523" lon="-5.09909"></trkpt>
      <trkpt lat="50.08536" lon="-5.09928"></trkpt>
      <trkpt lat="50.08555" lon="-5.09949"></trkpt>
      <trkpt lat="50.08577" lon="-5.09964"></trkpt>
      <trkpt lat="50.08588" lon="-5.09966"></trkpt>
      <trkpt lat="50.08618" lon="-5.09964"></trkpt>
      <trkpt lat="50.08629" lon="-5.09966"></trkpt>
      <trkpt lat="50.08641" lon="-5.09979"></trkpt>
      <trkpt lat="50.08656" lon="-5.09984"></trkpt>
      <trkpt lat="50.08673" lon="-5.09999"></trkpt>
      <trkpt lat="50.08678" lon="-5.10003"></trkpt>
      <trkpt lat="50.08685" lon="-5.10022"></trkpt>
      <trkpt lat="50.08686" lon="-5.10037"></trkpt>
      <trkpt lat="50.08692" lon="-5.10049"></trkpt>
      <trkpt lat="50.08699" lon="-5.1009"></trkpt>
      <trkpt lat="50.08706" lon="-5.10114"></trkpt>
      <trkpt lat="50.08701" lon="-5.10135"></trkpt>
      <trkpt lat="50.08688" lon="-5.10163"></trkpt>
      <trkpt lat="50.08666" lon="-5.10221"></trkpt>
      <trkpt lat="50.08645" lon="-5.10283"></trkpt>
      <trkpt lat="50.08654" lon="-5.10324"></trkpt>
      <trkpt lat="50.08655" lon="-5.10351"></trkpt>
      <trkpt lat="50.08652" lon="-5.10413"></trkpt>
      <trkpt lat="50.08664" lon="-5.10443"></trkpt>
      <trkpt lat="50.08682" lon="-5.1044"></trkpt>
      <trkpt lat="50.08706" lon="-5.10454"></trkpt>
      <trkpt lat="50.08724" lon="-5.10405"></trkpt>
      <trkpt lat="50.08731" lon="-5.10399"></trkpt>
      <trkpt lat="50.08735" lon="-5.10391"></trkpt>
      <trkpt lat="50.08737" lon="-5.10353"></trkpt>
      <trkpt lat="50.08754" lon="-5.10323"></trkpt>
      <trkpt lat="50.08761" lon="-5.10315"></trkpt>
      <trkpt lat="50.08791" lon="-5.10309"></trkpt>
      <trkpt lat="50.08819" lon="-5.10315"></trkpt>
      <trkpt lat="50.08875" lon="-5.10255"></trkpt>
      <trkpt lat="50.08898" lon="-5.10221"></trkpt>
      <trkpt lat="50.08912" lon="-5.10188"></trkpt>
      <trkpt lat="50.08925" lon="-5.10168"></trkpt>
      <trkpt lat="50.08941" lon="-5.10152"></trkpt>
      <trkpt lat="50.08945" lon="-5.10144"></trkpt>
      <trkpt lat="50.08946" lon="-5.10135"></trkpt>
      <trkpt lat="50.08936" lon="-5.10096"></trkpt>
      <trkpt lat="50.08914" lon="-5.10105"></trkpt>
      <trkpt lat="50.08894" lon="-5.10121"></trkpt>
      <trkpt lat="50.08914" lon="-5.10105"></trkpt>
      <trkpt lat="50.08936" lon="-5.10096"></trkpt>
      <trkpt lat="50.08933" lon="-5.10083"></trkpt>
      <trkpt lat="50.08933" lon="-5.10075"></trkpt>
      <trkpt lat="50.08936" lon="-5.10068"></trkpt>
      <trkpt lat="50.08951" lon="-5.10051"></trkpt>
      <trkpt lat="50.08958" lon="-5.10047"></trkpt>
      <trkpt lat="50.08972" lon="-5.10044"></trkpt>
      <trkpt lat="50.08981" lon="-5.1003"></trkpt>
      <trkpt lat="50.08976" lon="-5.10012"></trkpt>
      <trkpt lat="50.08958" lon="-5.09973"></trkpt>
      <trkpt lat="50.0895" lon="-5.09944"></trkpt>
      <trkpt lat="50.08942" lon="-5.0995"></trkpt>
      <trkpt lat="50.08934" lon="-5.09938"></trkpt>
      <trkpt lat="50.08913" lon="-5.09873"></trkpt>
      <trkpt lat="50.08897" lon="-5.09774"></trkpt>
      <trkpt lat="50.08895" lon="-5.09772"></trkpt>
      <trkpt lat="50.08868" lon="-5.09782"></trkpt>
      <trkpt lat="50.08856" lon="-5.0974"></trkpt>
      <trkpt lat="50.08845" lon="-5.09718"></trkpt>
      <trkpt lat="50.08842" lon="-5.09666"></trkpt>
      <trkpt lat="50.08837" lon="-5.09652"></trkpt>
      <trkpt lat="50.08839" lon="-5.09618"></trkpt>
      <trkpt lat="50.08832" lon="-5.096"></trkpt>
      <trkpt lat="50.08837" lon="-5.09588"></trkpt>
      <trkpt lat="50.08835" lon="-5.09556"></trkpt>
      <trkpt lat="50.08826" lon="-5.09542"></trkpt>
      <trkpt lat="50.08829" lon="-5.09525"></trkpt>
      <trkpt lat="50.08824" lon="-5.09506"></trkpt>
      <trkpt lat="50.08825" lon="-5.09452"></trkpt>
      <trkpt lat="50.08849" lon="-5.09376"></trkpt>
      <trkpt lat="50.08875" lon="-5.09341"></trkpt>
      <trkpt lat="50.08906" lon="-5.09343"></trkpt>
      <trkpt lat="50.08935" lon="-5.09364"></trkpt>
      <trkpt lat="50.08942" lon="-5.0936"></trkpt>
      <trkpt lat="50.0895" lon="-5.09361"></trkpt>
      <trkpt lat="50.0896" lon="-5.09356"></trkpt>
      <trkpt lat="50.08959" lon="-5.09356"></trkpt>
      <trkpt lat="50.08966" lon="-5.09358"></trkpt>
      <trkpt lat="50.08974" lon="-5.09372"></trkpt>
      <trkpt lat="50.08978" lon="-5.09388"></trkpt>
      <trkpt lat="50.08978" lon="-5.09426"></trkpt>
      <trkpt lat="50.08978" lon="-5.09427"></trkpt>
      <trkpt lat="50.08972" lon="-5.0945"></trkpt>
      <trkpt lat="50.08971" lon="-5.09507"></trkpt>
      <trkpt lat="50.08966" lon="-5.0953"></trkpt>
      <trkpt lat="50.08969" lon="-5.09547"></trkpt>
      <trkpt lat="50.08979" lon="-5.09607"></trkpt>
      <trkpt lat="50.08989" lon="-5.09607"></trkpt>
      <trkpt lat="50.08991" lon="-5.09621"></trkpt>
      <trkpt lat="50.08985" lon="-5.09644"></trkpt>
      <trkpt lat="50.08996" lon="-5.0968"></trkpt>
      <trkpt lat="50.08985" lon="-5.09698"></trkpt>
      <trkpt lat="50.0899" lon="-5.09718"></trkpt>
      <trkpt lat="50.09001" lon="-5.09816"></trkpt>
      <trkpt lat="50.09013" lon="-5.09867"></trkpt>
      <trkpt lat="50.09017" lon="-5.09884"></trkpt>
      <trkpt lat="50.09027" lon="-5.09893"></trkpt>
      <trkpt lat="50.09039" lon="-5.09919"></trkpt>
      <trkpt lat="50.0906" lon="-5.09943"></trkpt>
      <trkpt lat="50.09085" lon="-5.0998"></trkpt>
      <trkpt lat="50.09098" lon="-5.10012"></trkpt>
      <trkpt lat="50.09105" lon="-5.10044"></trkpt>
      <trkpt lat="50.09135" lon="-5.10085"></trkpt>
      <trkpt lat="50.09152" lon="-5.10088"></trkpt>
      <trkpt lat="50.09167" lon="-5.10105"></trkpt>
      <trkpt lat="50.09194" lon="-5.10119"></trkpt>
      <trkpt lat="50.09202" lon="-5.10112"></trkpt>
      <trkpt lat="50.0921" lon="-5.10121"></trkpt>
      <trkpt lat="50.09215" lon="-5.10153"></trkpt>
      <trkpt lat="50.09231" lon="-5.10184"></trkpt>
      <trkpt lat="50.09244" lon="-5.10199"></trkpt>
      <trkpt lat="50.09249" lon="-5.10216"></trkpt>
      <trkpt lat="50.09251" lon="-5.10239"></trkpt>
      <trkpt lat="50.09249" lon="-5.10247"></trkpt>
      <trkpt lat="50.09249" lon="-5.10254"></trkpt>
      <trkpt lat="50.09272" lon="-5.10292"></trkpt>
      <trkpt lat="50.09287" lon="-5.10313"></trkpt>
      <trkpt lat="50.09309" lon="-5.10373"></trkpt>
      <trkpt lat="50.09323" lon="-5.10459"></trkpt>
      <trkpt lat="50.0934" lon="-5.10487"></trkpt>
      <trkpt lat="50.09379" lon="-5.10525"></trkpt>
      <trkpt lat="50.09407" lon="-5.10552"></trkpt>
      <trkpt lat="50.09419" lon="-5.10613"></trkpt>
      <trkpt lat="50.09411" lon="-5.10675"></trkpt>
      <trkpt lat="50.09374" lon="-5.10748"></trkpt>
      <trkpt lat="50.09375" lon="-5.10802"></trkpt>
      <trkpt lat="50.09353" lon="-5.10844"></trkpt>
      <trkpt lat="50.09319" lon="-5.10886"></trkpt>
      <trkpt lat="50.0932" lon="-5.10921"></trkpt>
      <trkpt lat="50.09314" lon="-5.10936"></trkpt>
      <trkpt lat="50.09361" lon="-5.10984"></trkpt>
      <trkpt lat="50.09372" lon="-5.11042"></trkpt>
      <trkpt lat="50.09414" lon="-5.11104"></trkpt>
      <trkpt lat="50.09431" lon="-5.11165"></trkpt>
      <trkpt lat="50.09443" lon="-5.11225"></trkpt>
      <trkpt lat="50.09461" lon="-5.11295"></trkpt>
      <trkpt lat="50.09454" lon="-5.11438"></trkpt>
      <trkpt lat="50.09461" lon="-5.11473"></trkpt>
      <trkpt lat="50.09489" lon="-5.11496"></trkpt>
      <trkpt lat="50.09492" lon="-5.11536"></trkpt>
      <trkpt lat="50.09485" lon="-5.11609"></trkpt>
      <trkpt lat="50.09488" lon="-5.11622"></trkpt>
      <trkpt lat="50.09492" lon="-5.11642"></trkpt>
      <trkpt lat="50.09515" lon="-5.11682"></trkpt>
      <trkpt lat="50.09542" lon="-5.11705"></trkpt>
      <trkpt lat="50.09575" lon="-5.11762"></trkpt>
      <trkpt lat="50.09588" lon="-5.11817"></trkpt>
      <trkpt lat="50.096" lon="-5.11884"></trkpt>
      <trkpt lat="50.09601" lon="-5.11982"></trkpt>
      <trkpt lat="50.0961" lon="-5.12048"></trkpt>
      <trkpt lat="50.09608" lon="-5.12107"></trkpt>
      <trkpt lat="50.09604" lon="-5.12224"></trkpt>
      <trkpt lat="50.09602" lon="-5.12255"></trkpt>
      <trkpt lat="50.09599" lon="-5.12399"></trkpt>
      <trkpt lat="50.09594" lon="-5.12427"></trkpt>
      <trkpt lat="50.09609" lon="-5.12494"></trkpt>
      <trkpt lat="50.09612" lon="-5.12501"></trkpt>
      <trkpt lat="50.09615" lon="-5.12523"></trkpt>
      <trkpt lat="50.09607" lon="-5.12542"></trkpt>
      <trkpt lat="50.09596" lon="-5.12562"></trkpt>
      <trkpt lat="50.09585" lon="-5.12588"></trkpt>
      <trkpt lat="50.09551" lon="-5.12622"></trkpt>
      <trkpt lat="50.09538" lon="-5.12643"></trkpt>
      <trkpt lat="50.09534" lon="-5.12667"></trkpt>
      <trkpt lat="50.09536" lon="-5.1269"></trkpt>
      <trkpt lat="50.09529" lon="-5.12705"></trkpt>
      <trkpt lat="50.09519" lon="-5.1272"></trkpt>
      <trkpt lat="50.09454" lon="-5.12804"></trkpt>
      <trkpt lat="50.09411" lon="-5.12854"></trkpt>
      <trkpt lat="50.09369" lon="-5.12881"></trkpt>
      <trkpt lat="50.09365" lon="-5.12892"></trkpt>
      <trkpt lat="50.09344" lon="-5.12931"></trkpt>
      <trkpt lat="50.09313" lon="-5.1298"></trkpt>
      <trkpt lat="50.09314" lon="-5.13011"></trkpt>
      <trkpt lat="50.09318" lon="-5.13031"></trkpt>
      <trkpt lat="50.09313" lon="-5.13038"></trkpt>
      <trkpt lat="50.09295" lon="-5.13041"></trkpt>
      <trkpt lat="50.09262" lon="-5.131"></trkpt>
      <trkpt lat="50.09256" lon="-5.13131"></trkpt>
      <trkpt lat="50.09238" lon="-5.13226"></trkpt>
      <trkpt lat="50.09243" lon="-5.13354"></trkpt>
      <trkpt lat="50.09248" lon="-5.13354"></trkpt>
      <trkpt lat="50.09248" lon="-5.13389"></trkpt>
      <trkpt lat="50.09244" lon="-5.13413"></trkpt>
      <trkpt lat="50.09238" lon="-5.13437"></trkpt>
      <trkpt lat="50.09234" lon="-5.13439"></trkpt>
      <trkpt lat="50.09232" lon="-5.13446"></trkpt>
      <trkpt lat="50.09221" lon="-5.13462"></trkpt>
      <trkpt lat="50.09215" lon="-5.13463"></trkpt>
      <trkpt lat="50.09166" lon="-5.1354"></trkpt>
      <trkpt lat="50.09155" lon="-5.13547"></trkpt>
      <trkpt lat="50.09138" lon="-5.13549"></trkpt>
      <trkpt lat="50.09136" lon="-5.13584"></trkpt>
      <trkpt lat="50.09115" lon="-5.13584"></trkpt>
      <trkpt lat="50.09144" lon="-5.13584"></trkpt>
      <trkpt lat="50.09178" lon="-5.13591"></trkpt>
      <trkpt lat="50.09201" lon="-5.13588"></trkpt>
      <trkpt lat="50.09241" lon="-5.1359"></trkpt>
      <trkpt lat="50.09271" lon="-5.13588"></trkpt>
      <trkpt lat="50.093" lon="-5.13579"></trkpt>
      <trkpt lat="50.09325" lon="-5.1358"></trkpt>
      <trkpt lat="50.09359" lon="-5.1357"></trkpt>
      <trkpt lat="50.0937" lon="-5.13553"></trkpt>
      <trkpt lat="50.09374" lon="-5.1355"></trkpt>
      <trkpt lat="50.09381" lon="-5.13554"></trkpt>
      <trkpt lat="50.09387" lon="-5.13537"></trkpt>
      <trkpt lat="50.09422" lon="-5.13482"></trkpt>
      <trkpt lat="50.09428" lon="-5.13483"></trkpt>
      <trkpt lat="50.09445" lon="-5.13464"></trkpt>
      <trkpt lat="50.09482" lon="-5.13405"></trkpt>
      <trkpt lat="50.09522" lon="-5.13391"></trkpt>
    </trkseg>
  </trk>
</gpx>
