<?xml version="1.0" encoding="UTF-8"?>
<gpx version="1.1" creator="swcp-walk (imported from OS Maps route 33844973)"
     xmlns="http://www.topografix.com/GPX/1/1">
  <metadata>
    <name>SWCP29-Helford-Falmouth</name>
  </metadata>
  <trk>
    <name>SWCP29-Helford-Falmouth</name>
    <trkseg>
      <trkpt lat="50.10018775106275" lon="-5.128386144053621"></trkpt>
      <trkpt lat="50.10033" lon="-5.12841"></trkpt>
      <trkpt lat="50.10033" lon="-5.12835"></trkpt>
      <trkpt lat="50.10016" lon="-5.12743"></trkpt>
      <trkpt lat="50.09984" lon="-5.12641"></trkpt>
      <trkpt lat="50.09964" lon="-5.12549"></trkpt>
      <trkpt lat="50.09956" lon="-5.125"></trkpt>
      <trkpt lat="50.09951" lon="-5.12455"></trkpt>
      <trkpt lat="50.09952" lon="-5.1241"></trkpt>
      <trkpt lat="50.09957" lon="-5.12376"></trkpt>
      <trkpt lat="50.09963" lon="-5.12348"></trkpt>
      <trkpt lat="50.09986" lon="-5.12264"></trkpt>
      <trkpt lat="50.10014" lon="-5.12221"></trkpt>
      <trkpt lat="50.10029" lon="-5.12207"></trkpt>
      <trkpt lat="50.10047" lon="-5.12208"></trkpt>
      <trkpt lat="50.10083" lon="-5.12217"></trkpt>
      <trkpt lat="50.10122" lon="-5.12182"></trkpt>
      <trkpt lat="50.10125" lon="-5.12175"></trkpt>
      <trkpt lat="50.10123" lon="-5.12164"></trkpt>
      <trkpt lat="50.10125" lon="-5.1215"></trkpt>
      <trkpt lat="50.10129" lon="-5.12142"></trkpt>
      <trkpt lat="50.10152" lon="-5.12121"></trkpt>
      <trkpt lat="50.10182" lon="-5.12109"></trkpt>
      <trkpt lat="50.10211" lon="-5.12088"></trkpt>
      <trkpt lat="50.10218" lon="-5.12081"></trkpt>
      <trkpt lat="50.1024" lon="-5.1205"></trkpt>
      <trkpt lat="50.10256" lon="-5.12015"></trkpt>
      <trkpt lat="50.10322" lon="-5.11819"></trkpt>
      <trkpt lat="50.10332" lon="-5.11795"></trkpt>
      <trkpt lat="50.10355" lon="-5.11738"></trkpt>
      <trkpt lat="50.10373" lon="-5.11762"></trkpt>
      <trkpt lat="50.10386" lon="-5.11769"></trkpt>
      <trkpt lat="50.10396" lon="-5.11756"></trkpt>
      <trkpt lat="50.10411" lon="-5.11746"></trkpt>
      <trkpt lat="50.10424" lon="-5.11747"></trkpt>
      <trkpt lat="50.1044" lon="-5.11751"></trkpt>
      <trkpt lat="50.10464" lon="-5.11775"></trkpt>
      <trkpt lat="50.10493" lon="-5.1179"></trkpt>
      <trkpt lat="50.10514" lon="-5.11794"></trkpt>
      <trkpt lat="50.10539" lon="-5.1181"></trkpt>
      <trkpt lat="50.10529" lon="-5.11787"></trkpt>
      <trkpt lat="50.10497" lon="-5.11753"></trkpt>
      <trkpt lat="50.10474" lon="-5.11737"></trkpt>
      <trkpt lat="50.10447" lon="-5.11703"></trkpt>
      <trkpt lat="50.10441" lon="-5.1169"></trkpt>
      <trkpt lat="50.10425" lon="-5.11669"></trkpt>
      <trkpt lat="50.10413" lon="-5.11648"></trkpt>
      <trkpt lat="50.10407" lon="-5.11633"></trkpt>
      <trkpt lat="50.10402" lon="-5.11605"></trkpt>
      <trkpt lat="50.10392" lon="-5.11594"></trkpt>
      <trkpt lat="50.1039" lon="-5.11587"></trkpt>
      <trkpt lat="50.10396" lon="-5.11551"></trkpt>
      <trkpt lat="50.1039" lon="-5.11519"></trkpt>
      <trkpt lat="50.10383" lon="-5.11503"></trkpt>
      <trkpt lat="50.10349" lon="-5.11472"></trkpt>
      <trkpt lat="50.10344" lon="-5.11464"></trkpt>
      <trkpt lat="50.10339" lon="-5.11451"></trkpt>
      <trkpt lat="50.10331" lon="-5.11407"></trkpt>
      <trkpt lat="50.10331" lon="-5.11385"></trkpt>
      <trkpt lat="50.10337" lon="-5.11366"></trkpt>
      <trkpt lat="50.10348" lon="-5.11347"></trkpt>
      <trkpt lat="50.10386" lon="-5.113"></trkpt>
      <trkpt lat="50.10403" lon="-5.11273"></trkpt>
      <trkpt lat="50.10422" lon="-5.11248"></trkpt>
      <trkpt lat="50.10437" lon="-5.11168"></trkpt>
      <trkpt lat="50.10436" lon="-5.11134"></trkpt>
      <trkpt lat="50.1043" lon="-5.11106"></trkpt>
      <trkpt lat="50.10432" lon="-5.11111"></trkpt>
      <trkpt lat="50.10413" lon="-5.10981"></trkpt>
      <trkpt lat="50.1041" lon="-5.10952"></trkpt>
      <trkpt lat="50.10414" lon="-5.10944"></trkpt>
      <trkpt lat="50.10398" lon="-5.10895"></trkpt>
      <trkpt lat="50.1036" lon="-5.10826"></trkpt>
      <trkpt lat="50.10337" lon="-5.1077"></trkpt>
      <trkpt lat="50.10325" lon="-5.10747"></trkpt>
      <trkpt lat="50.10313" lon="-5.10729"></trkpt>
      <trkpt lat="50.10299" lon="-5.10715"></trkpt>
      <trkpt lat="50.10294" lon="-5.10705"></trkpt>
      <trkpt lat="50.1027" lon="-5.10672"></trkpt>
      <trkpt lat="50.1026" lon="-5.10653"></trkpt>
      <trkpt lat="50.10255" lon="-5.10637"></trkpt>
      <trkpt lat="50.1026" lon="-5.10612"></trkpt>
      <trkpt lat="50.10266" lon="-5.10598"></trkpt>
      <trkpt lat="50.10264" lon="-5.10591"></trkpt>
      <trkpt lat="50.10261" lon="-5.10592"></trkpt>
      <trkpt lat="50.10259" lon="-5.10581"></trkpt>
      <trkpt lat="50.10264" lon="-5.10576"></trkpt>
      <trkpt lat="50.10265" lon="-5.10573"></trkpt>
      <trkpt lat="50.10261" lon="-5.10524"></trkpt>
      <trkpt lat="50.10255" lon="-5.10477"></trkpt>
      <trkpt lat="50.10251" lon="-5.10456"></trkpt>
      <trkpt lat="50.10245" lon="-5.10446"></trkpt>
      <trkpt lat="50.1022" lon="-5.10438"></trkpt>
      <trkpt lat="50.10201" lon="-5.10438"></trkpt>
      <trkpt lat="50.10183" lon="-5.10425"></trkpt>
      <trkpt lat="50.10166" lon="-5.10408"></trkpt>
      <trkpt lat="50.10158" lon="-5.10397"></trkpt>
      <trkpt lat="50.10151" lon="-5.10381"></trkpt>
      <trkpt lat="50.10147" lon="-5.10363"></trkpt>
      <trkpt lat="50.10146" lon="-5.10314"></trkpt>
      <trkpt lat="50.10143" lon="-5.10308"></trkpt>
      <trkpt lat="50.10139" lon="-5.10308"></trkpt>
      <trkpt lat="50.10131" lon="-5.1032"></trkpt>
      <trkpt lat="50.10128" lon="-5.10319"></trkpt>
      <trkpt lat="50.10121" lon="-5.1031"></trkpt>
      <trkpt lat="50.10115" lon="-5.10307"></trkpt>
      <trkpt lat="50.1011" lon="-5.10296"></trkpt>
      <trkpt lat="50.10103" lon="-5.10292"></trkpt>
      <trkpt lat="50.1009" lon="-5.10295"></trkpt>
      <trkpt lat="50.10081" lon="-5.1029"></trkpt>
      <trkpt lat="50.1007" lon="-5.10273"></trkpt>
      <trkpt lat="50.10054" lon="-5.10236"></trkpt>
      <trkpt lat="50.10046" lon="-5.10225"></trkpt>
      <trkpt lat="50.10026" lon="-5.10213"></trkpt>
      <trkpt lat="50.10016" lon="-5.10204"></trkpt>
      <trkpt lat="50.10003" lon="-5.10186"></trkpt>
      <trkpt lat="50.09995" lon="-5.1017"></trkpt>
      <trkpt lat="50.09992" lon="-5.10148"></trkpt>
      <trkpt lat="50.10004" lon="-5.10106"></trkpt>
      <trkpt lat="50.10004" lon="-5.10091"></trkpt>
      <trkpt lat="50.10006" lon="-5.10072"></trkpt>
      <trkpt lat="50.10011" lon="-5.10063"></trkpt>
      <trkpt lat="50.10019" lon="-5.1003"></trkpt>
      <trkpt lat="50.10019" lon="-5.10019"></trkpt>
      <trkpt lat="50.10052" lon="-5.09982"></trkpt>
      <trkpt lat="50.10055" lon="-5.09974"></trkpt>
      <trkpt lat="50.10056" lon="-5.09947"></trkpt>
      <trkpt lat="50.10052" lon="-5.09924"></trkpt>
      <trkpt lat="50.10062" lon="-5.0991"></trkpt>
      <trkpt lat="50.1008" lon="-5.0989"></trkpt>
      <trkpt lat="50.10086" lon="-5.09876"></trkpt>
      <trkpt lat="50.10098" lon="-5.09864"></trkpt>
      <trkpt lat="50.10113" lon="-5.09838"></trkpt>
      <trkpt lat="50.1013" lon="-5.09836"></trkpt>
      <trkpt lat="50.10135" lon="-5.09834"></trkpt>
      <trkpt lat="50.10143" lon="-5.09825"></trkpt>
      <trkpt lat="50.10151" lon="-5.09825"></trkpt>
      <trkpt lat="50.10179" lon="-5.09795"></trkpt>
      <trkpt lat="50.10202" lon="-5.09752"></trkpt>
      <trkpt lat="50.10248" lon="-5.09685"></trkpt>
      <trkpt lat="50.10262" lon="-5.09643"></trkpt>
      <trkpt lat="50.10265" lon="-5.0964"></trkpt>
      <trkpt lat="50.10293" lon="-5.09581"></trkpt>
      <trkpt lat="50.10312" lon="-5.09552"></trkpt>
      <trkpt lat="50.10312" lon="-5.0953"></trkpt>
      <trkpt lat="50.10318" lon="-5.09505"></trkpt>
      <trkpt lat="50.10309" lon="-5.09508"></trkpt>
      <trkpt lat="50.10314" lon="-5.09477"></trkpt>
      <trkpt lat="50.10324" lon="-5.09453"></trkpt>
      <trkpt lat="50.10345" lon="-5.09417"></trkpt>
      <trkpt lat="50.10346" lon="-5.09376"></trkpt>
      <trkpt lat="50.10354" lon="-5.09351"></trkpt>
      <trkpt lat="50.10357" lon="-5.0933"></trkpt>
      <trkpt lat="50.10358" lon="-5.09282"></trkpt>
      <trkpt lat="50.10352" lon="-5.09256"></trkpt>
      <trkpt lat="50.10357" lon="-5.09254"></trkpt>
      <trkpt lat="50.10358" lon="-5.09239"></trkpt>
      <trkpt lat="50.10363" lon="-5.09229"></trkpt>
      <trkpt lat="50.1037" lon="-5.09222"></trkpt>
      <trkpt lat="50.10377" lon="-5.09197"></trkpt>
      <trkpt lat="50.10379" lon="-5.09194"></trkpt>
      <trkpt lat="50.10385" lon="-5.09185"></trkpt>
      <trkpt lat="50.10399" lon="-5.09134"></trkpt>
      <trkpt lat="50.10412" lon="-5.09106"></trkpt>
      <trkpt lat="50.10445" lon="-5.09067"></trkpt>
      <trkpt lat="50.1047" lon="-5.09048"></trkpt>
      <trkpt lat="50.10478" lon="-5.09031"></trkpt>
      <trkpt lat="50.10501" lon="-5.08994"></trkpt>
      <trkpt lat="50.10529" lon="-5.08983"></trkpt>
      <trkpt lat="50.10546" lon="-5.08981"></trkpt>
      <trkpt lat="50.10558" lon="-5.08971"></trkpt>
      <trkpt lat="50.10566" lon="-5.08971"></trkpt>
      <trkpt lat="50.10574" lon="-5.08967"></trkpt>
      <trkpt lat="50.10621" lon="-5.08919"></trkpt>
      <trkpt lat="50.10686" lon="-5.08843"></trkpt>
      <trkpt lat="50.10742" lon="-5.08801"></trkpt>
      <trkpt lat="50.10774" lon="-5.08782"></trkpt>
      <trkpt lat="50.10839" lon="-5.08726"></trkpt>
      <trkpt lat="50.10859" lon="-5.08697"></trkpt>
      <trkpt lat="50.10877" lon="-5.08679"></trkpt>
      <trkpt lat="50.10928" lon="-5.08628"></trkpt>
      <trkpt lat="50.10956" lon="-5.08595"></trkpt>
      <trkpt lat="50.10961" lon="-5.08584"></trkpt>
      <trkpt lat="50.10974" lon="-5.08545"></trkpt>
      <trkpt lat="50.10978" lon="-5.08537"></trkpt>
      <trkpt lat="50.10982" lon="-5.08521"></trkpt>
      <trkpt lat="50.10983" lon="-5.08507"></trkpt>
      <trkpt lat="50.1098" lon="-5.08465"></trkpt>
      <trkpt lat="50.10967" lon="-5.08415"></trkpt>
      <trkpt lat="50.10951" lon="-5.08366"></trkpt>
      <trkpt lat="50.10945" lon="-5.08333"></trkpt>
      <trkpt lat="50.10943" lon="-5.08305"></trkpt>
      <trkpt lat="50.10956" lon="-5.08231"></trkpt>
      <trkpt lat="50.10963" lon="-5.08212"></trkpt>
      <trkpt lat="50.10975" lon="-5.08195"></trkpt>
      <trkpt lat="50.10982" lon="-5.08189"></trkpt>
      <trkpt lat="50.10991" lon="-5.08187"></trkpt>
      <trkpt lat="50.1099" lon="-5.08187"></trkpt>
      <trkpt lat="50.11016" lon="-5.0819"></trkpt>
      <trkpt lat="50.11024" lon="-5.08195"></trkpt>
      <trkpt lat="50.11027" lon="-5.08201"></trkpt>
      <trkpt lat="50.1104" lon="-5.08244"></trkpt>
      <trkpt lat="50.11048" lon="-5.08261"></trkpt>
      <trkpt lat="50.11055" lon="-5.08282"></trkpt>
      <trkpt lat="50.11087" lon="-5.08347"></trkpt>
      <trkpt lat="50.11102" lon="-5.08386"></trkpt>
      <trkpt lat="50.11128" lon="-5.08439"></trkpt>
      <trkpt lat="50.11129" lon="-5.08449"></trkpt>
      <trkpt lat="50.11129" lon="-5.08482"></trkpt>
      <trkpt lat="50.11123" lon="-5.08516"></trkpt>
      <trkpt lat="50.1112" lon="-5.08526"></trkpt>
      <trkpt lat="50.1111" lon="-5.08536"></trkpt>
      <trkpt lat="50.11097" lon="-5.08557"></trkpt>
      <trkpt lat="50.1109" lon="-5.08577"></trkpt>
      <trkpt lat="50.1109" lon="-5.08599"></trkpt>
      <trkpt lat="50.11095" lon="-5.08648"></trkpt>
      <trkpt lat="50.11093" lon="-5.08682"></trkpt>
      <trkpt lat="50.11096" lon="-5.08693"></trkpt>
      <trkpt lat="50.11141" lon="-5.08793"></trkpt>
      <trkpt lat="50.11151" lon="-5.08823"></trkpt>
      <trkpt lat="50.11155" lon="-5.08857"></trkpt>
      <trkpt lat="50.1117" lon="-5.08857"></trkpt>
      <trkpt lat="50.11196" lon="-5.08872"></trkpt>
      <trkpt lat="50.11204" lon="-5.0888"></trkpt>
      <trkpt lat="50.11224" lon="-5.08882"></trkpt>
      <trkpt lat="50.11255" lon="-5.08933"></trkpt>
      <trkpt lat="50.11272" lon="-5.08947"></trkpt>
      <trkpt lat="50.11289" lon="-5.08958"></trkpt>
      <trkpt lat="50.11311" lon="-5.08979"></trkpt>
      <trkpt lat="50.11329" lon="-5.09004"></trkpt>
      <trkpt lat="50.11349" lon="-5.0904"></trkpt>
      <trkpt lat="50.11361" lon="-5.0907"></trkpt>
      <trkpt lat="50.11372" lon="-5.09089"></trkpt>
      <trkpt lat="50.11387" lon="-5.09104"></trkpt>
      <trkpt lat="50.11429" lon="-5.09148"></trkpt>
      <trkpt lat="50.1145" lon="-5.09167"></trkpt>
      <trkpt lat="50.11454" lon="-5.09167"></trkpt>
      <trkpt lat="50.11463" lon="-5.09158"></trkpt>
      <trkpt lat="50.11497" lon="-5.09166"></trkpt>
      <trkpt lat="50.11506" lon="-5.09174"></trkpt>
      <trkpt lat="50.11521" lon="-5.0918"></trkpt>
      <trkpt lat="50.1153" lon="-5.09192"></trkpt>
      <trkpt lat="50.11534" lon="-5.09191"></trkpt>
      <trkpt lat="50.1154" lon="-5.09185"></trkpt>
      <trkpt lat="50.11549" lon="-5.09183"></trkpt>
      <trkpt lat="50.11555" lon="-5.09197"></trkpt>
      <trkpt lat="50.11564" lon="-5.09197"></trkpt>
      <trkpt lat="50.11579" lon="-5.09182"></trkpt>
      <trkpt lat="50.11585" lon="-5.09189"></trkpt>
      <trkpt lat="50.11615" lon="-5.09199"></trkpt>
      <trkpt lat="50.11636" lon="-5.0919"></trkpt>
      <trkpt lat="50.11669" lon="-5.09188"></trkpt>
      <trkpt lat="50.11735" lon="-5.09173"></trkpt>
      <trkpt lat="50.11783" lon="-5.0916"></trkpt>
      <trkpt lat="50.11791" lon="-5.09163"></trkpt>
      <trkpt lat="50.11808" lon="-5.09175"></trkpt>
      <trkpt lat="50.11822" lon="-5.0918"></trkpt>
      <trkpt lat="50.1185" lon="-5.09178"></trkpt>
      <trkpt lat="50.11857" lon="-5.09174"></trkpt>
      <trkpt lat="50.11874" lon="-5.09172"></trkpt>
      <trkpt lat="50.11881" lon="-5.09164"></trkpt>
      <trkpt lat="50.11899" lon="-5.09166"></trkpt>
      <trkpt lat="50.11926" lon="-5.09154"></trkpt>
      <trkpt lat="50.11939" lon="-5.09151"></trkpt>
      <trkpt lat="50.11959" lon="-5.09137"></trkpt>
      <trkpt lat="50.11976" lon="-5.09113"></trkpt>
      <trkpt lat="50.11984" lon="-5.09094"></trkpt>
      <trkpt lat="50.11983" lon="-5.09077"></trkpt>
      <trkpt lat="50.1201" lon="-5.09033"></trkpt>
      <trkpt lat="50.12023" lon="-5.09029"></trkpt>
      <trkpt lat="50.12029" lon="-5.09029"></trkpt>
      <trkpt lat="50.12042" lon="-5.0903"></trkpt>
      <trkpt lat="50.12075" lon="-5.09037"></trkpt>
      <trkpt lat="50.12087" lon="-5.09034"></trkpt>
      <trkpt lat="50.12118" lon="-5.09039"></trkpt>
      <trkpt lat="50.12127" lon="-5.09035"></trkpt>
      <trkpt lat="50.12178" lon="-5.09045"></trkpt>
      <trkpt lat="50.12217" lon="-5.09069"></trkpt>
      <trkpt lat="50.12223" lon="-5.0908"></trkpt>
      <trkpt lat="50.12224" lon="-5.09086"></trkpt>
      <trkpt lat="50.12234" lon="-5.09095"></trkpt>
      <trkpt lat="50.12255" lon="-5.09092"></trkpt>
      <trkpt lat="50.12265" lon="-5.09087"></trkpt>
      <trkpt lat="50.12261" lon="-5.09096"></trkpt>
      <trkpt lat="50.12276" lon="-5.09102"></trkpt>
      <trkpt lat="50.12305" lon="-5.09129"></trkpt>
      <trkpt lat="50.12312" lon="-5.09142"></trkpt>
      <trkpt lat="50.12321" lon="-5.09146"></trkpt>
      <trkpt lat="50.1235" lon="-5.0914"></trkpt>
      <trkpt lat="50.12376" lon="-5.09132"></trkpt>
      <trkpt lat="50.12395" lon="-5.09133"></trkpt>
      <trkpt lat="50.12413" lon="-5.09147"></trkpt>
      <trkpt lat="50.12417" lon="-5.09155"></trkpt>
      <trkpt lat="50.12421" lon="-5.09172"></trkpt>
      <trkpt lat="50.12423" lon="-5.0919"></trkpt>
      <trkpt lat="50.12428" lon="-5.09215"></trkpt>
      <trkpt lat="50.12433" lon="-5.09259"></trkpt>
      <trkpt lat="50.12432" lon="-5.09287"></trkpt>
      <trkpt lat="50.12428" lon="-5.09312"></trkpt>
      <trkpt lat="50.12422" lon="-5.09334"></trkpt>
      <trkpt lat="50.12442" lon="-5.09356"></trkpt>
      <trkpt lat="50.12464" lon="-5.09375"></trkpt>
      <trkpt lat="50.12551" lon="-5.09419"></trkpt>
      <trkpt lat="50.1259" lon="-5.09443"></trkpt>
      <trkpt lat="50.12612" lon="-5.09453"></trkpt>
      <trkpt lat="50.12614" lon="-5.09413"></trkpt>
      <trkpt lat="50.12626" lon="-5.09356"></trkpt>
      <trkpt lat="50.12665" lon="-5.09272"></trkpt>
      <trkpt lat="50.12707" lon="-5.09112"></trkpt>
      <trkpt lat="50.12709" lon="-5.09096"></trkpt>
      <trkpt lat="50.12709" lon="-5.09077"></trkpt>
      <trkpt lat="50.12715" lon="-5.08993"></trkpt>
      <trkpt lat="50.12727" lon="-5.08908"></trkpt>
      <trkpt lat="50.12746" lon="-5.08845"></trkpt>
      <trkpt lat="50.12781" lon="-5.08758"></trkpt>
      <trkpt lat="50.12792" lon="-5.08724"></trkpt>
      <trkpt lat="50.12818" lon="-5.08662"></trkpt>
      <trkpt lat="50.12834" lon="-5.08635"></trkpt>
      <trkpt lat="50.12851" lon="-5.08612"></trkpt>
      <trkpt lat="50.12883" lon="-5.08553"></trkpt>
      <trkpt lat="50.12895" lon="-5.08536"></trkpt>
      <trkpt lat="50.12955" lon="-5.08378"></trkpt>
      <trkpt lat="50.1298" lon="-5.08329"></trkpt>
      <trkpt lat="50.12996" lon="-5.08307"></trkpt>
      <trkpt lat="50.13013" lon="-5.08293"></trkpt>
      <trkpt lat="50.13037" lon="-5.08281"></trkpt>
      <trkpt lat="50.13086" lon="-5.08262"></trkpt>
      <trkpt lat="50.13101" lon="-5.08266"></trkpt>
      <trkpt lat="50.13131" lon="-5.08258"></trkpt>
      <trkpt lat="50.13161" lon="-5.08243"></trkpt>
      <trkpt lat="50.13278" lon="-5.08138"></trkpt>
      <trkpt lat="50.1333" lon="-5.08063"></trkpt>
      <trkpt lat="50.13373" lon="-5.07989"></trkpt>
      <trkpt lat="50.13379" lon="-5.07943"></trkpt>
      <trkpt lat="50.13385" lon="-5.07929"></trkpt>
      <trkpt lat="50.13387" lon="-5.07897"></trkpt>
      <trkpt lat="50.13396" lon="-5.07873"></trkpt>
      <trkpt lat="50.13396" lon="-5.07847"></trkpt>
      <trkpt lat="50.13418" lon="-5.0774"></trkpt>
      <trkpt lat="50.13429" lon="-5.07714"></trkpt>
      <trkpt lat="50.13446" lon="-5.07666"></trkpt>
      <trkpt lat="50.13449" lon="-5.07641"></trkpt>
      <trkpt lat="50.13462" lon="-5.07601"></trkpt>
      <trkpt lat="50.13461" lon="-5.07577"></trkpt>
      <trkpt lat="50.13457" lon="-5.07554"></trkpt>
      <trkpt lat="50.13448" lon="-5.07538"></trkpt>
      <trkpt lat="50.13446" lon="-5.07505"></trkpt>
      <trkpt lat="50.13451" lon="-5.07483"></trkpt>
      <trkpt lat="50.1346" lon="-5.07466"></trkpt>
      <trkpt lat="50.13458" lon="-5.07447"></trkpt>
      <trkpt lat="50.1346" lon="-5.07466"></trkpt>
      <trkpt lat="50.13477" lon="-5.07476"></trkpt>
      <trkpt lat="50.13493" lon="-5.07496"></trkpt>
      <trkpt lat="50.13507" lon="-5.07523"></trkpt>
      <trkpt lat="50.13519" lon="-5.07541"></trkpt>
      <trkpt lat="50.1354" lon="-5.07578"></trkpt>
      <trkpt lat="50.13584" lon="-5.07642"></trkpt>
      <trkpt lat="50.13606" lon="-5.07679"></trkpt>
      <trkpt lat="50.13632" lon="-5.07696"></trkpt>
      <trkpt lat="50.13672" lon="-5.07751"></trkpt>
      <trkpt lat="50.13694" lon="-5.0777"></trkpt>
      <trkpt lat="50.13716" lon="-5.07779"></trkpt>
      <trkpt lat="50.13724" lon="-5.07778"></trkpt>
      <trkpt lat="50.1373" lon="-5.07765"></trkpt>
      <trkpt lat="50.13921" lon="-5.0778"></trkpt>
      <trkpt lat="50.13928" lon="-5.0775"></trkpt>
      <trkpt lat="50.13935" lon="-5.07735"></trkpt>
      <trkpt lat="50.13944" lon="-5.07727"></trkpt>
      <trkpt lat="50.1397" lon="-5.07716"></trkpt>
      <trkpt lat="50.13986" lon="-5.07717"></trkpt>
      <trkpt lat="50.14002" lon="-5.0773"></trkpt>
      <trkpt lat="50.14011" lon="-5.07732"></trkpt>
      <trkpt lat="50.1407" lon="-5.07706"></trkpt>
      <trkpt lat="50.14089" lon="-5.077"></trkpt>
      <trkpt lat="50.14092" lon="-5.07664"></trkpt>
      <trkpt lat="50.14101" lon="-5.07627"></trkpt>
      <trkpt lat="50.14103" lon="-5.07599"></trkpt>
      <trkpt lat="50.14086" lon="-5.07551"></trkpt>
      <trkpt lat="50.14084" lon="-5.07529"></trkpt>
      <trkpt lat="50.14086" lon="-5.07521"></trkpt>
      <trkpt lat="50.1408" lon="-5.07489"></trkpt>
      <trkpt lat="50.14088" lon="-5.07478"></trkpt>
      <trkpt lat="50.14088" lon="-5.07444"></trkpt>
      <trkpt lat="50.14098" lon="-5.0739"></trkpt>
      <trkpt lat="50.1412" lon="-5.07329"></trkpt>
      <trkpt lat="50.14142" lon="-5.07275"></trkpt>
      <trkpt lat="50.14144" lon="-5.07238"></trkpt>
      <trkpt lat="50.14154" lon="-5.07203"></trkpt>
      <trkpt lat="50.14166" lon="-5.07182"></trkpt>
      <trkpt lat="50.14192" lon="-5.07137"></trkpt>
      <trkpt lat="50.14208" lon="-5.07128"></trkpt>
      <trkpt lat="50.14222" lon="-5.07116"></trkpt>
      <trkpt lat="50.14226" lon="-5.07049"></trkpt>
      <trkpt lat="50.14224" lon="-5.07047"></trkpt>
      <trkpt lat="50.14234" lon="-5.07025"></trkpt>
      <trkpt lat="50.14244" lon="-5.07015"></trkpt>
      <trkpt lat="50.14262" lon="-5.06981"></trkpt>
      <trkpt lat="50.14282" lon="-5.06948"></trkpt>
      <trkpt lat="50.14292" lon="-5.06939"></trkpt>
      <trkpt lat="50.14307" lon="-5.06927"></trkpt>
      <trkpt lat="50.14324" lon="-5.06927"></trkpt>
      <trkpt lat="50.14337" lon="-5.0693"></trkpt>
      <trkpt lat="50.14348" lon="-5.06942"></trkpt>
      <trkpt lat="50.14373" lon="-5.06949"></trkpt>
      <trkpt lat="50.14379" lon="-5.0694"></trkpt>
      <trkpt lat="50.14409" lon="-5.06932"></trkpt>
      <trkpt lat="50.14439" lon="-5.0692"></trkpt>
      <trkpt lat="50.14465" lon="-5.06897"></trkpt>
      <trkpt lat="50.14486" lon="-5.06867"></trkpt>
      <trkpt lat="50.14491" lon="-5.06863"></trkpt>
      <trkpt lat="50.14494" lon="-5.06797"></trkpt>
      <trkpt lat="50.14522" lon="-5.06647"></trkpt>
      <trkpt lat="50.14531" lon="-5.06575"></trkpt>
      <trkpt lat="50.14546" lon="-5.06508"></trkpt>
      <trkpt lat="50.14548" lon="-5.0649"></trkpt>
      <trkpt lat="50.14552" lon="-5.06475"></trkpt>
      <trkpt lat="50.14554" lon="-5.06458"></trkpt>
      <trkpt lat="50.14563" lon="-5.06433"></trkpt>
      <trkpt lat="50.14571" lon="-5.06393"></trkpt>
      <trkpt lat="50.14559" lon="-5.06381"></trkpt>
      <trkpt lat="50.14559" lon="-5.06373"></trkpt>
      <trkpt lat="50.14566" lon="-5.06355"></trkpt>
      <trkpt lat="50.14582" lon="-5.06334"></trkpt>
      <trkpt lat="50.14586" lon="-5.06324"></trkpt>
      <trkpt lat="50.14597" lon="-5.06284"></trkpt>
      <trkpt lat="50.14605" lon="-5.06266"></trkpt>
      <trkpt lat="50.14615" lon="-5.06212"></trkpt>
      <trkpt lat="50.14623" lon="-5.06188"></trkpt>
      <trkpt lat="50.14627" lon="-5.06165"></trkpt>
      <trkpt lat="50.14643" lon="-5.06123"></trkpt>
      <trkpt lat="50.14648" lon="-5.06114"></trkpt>
      <trkpt lat="50.14655" lon="-5.06094"></trkpt>
      <trkpt lat="50.14663" lon="-5.06078"></trkpt>
      <trkpt lat="50.14664" lon="-5.0608"></trkpt>
      <trkpt lat="50.14703" lon="-5.05978"></trkpt>
      <trkpt lat="50.14765" lon="-5.05839"></trkpt>
      <trkpt lat="50.1482" lon="-5.05671"></trkpt>
      <trkpt lat="50.14844" lon="-5.05542"></trkpt>
      <trkpt lat="50.14847" lon="-5.05512"></trkpt>
      <trkpt lat="50.14854" lon="-5.05447"></trkpt>
      <trkpt lat="50.14865" lon="-5.054"></trkpt>
      <trkpt lat="50.14873" lon="-5.05399"></trkpt>
      <trkpt lat="50.1486" lon="-5.05228"></trkpt>
      <trkpt lat="50.14846" lon="-5.0521"></trkpt>
      <trkpt lat="50.1483" lon="-5.05144"></trkpt>
      <trkpt lat="50.14799" lon="-5.05091"></trkpt>
      <trkpt lat="50.14805" lon="-5.05076"></trkpt>
      <trkpt lat="50.14793" lon="-5.05061"></trkpt>
      <trkpt lat="50.14772" lon="-5.0505"></trkpt>
      <trkpt lat="50.14775" lon="-5.05001"></trkpt>
      <trkpt lat="50.14773" lon="-5.04992"></trkpt>
      <trkpt lat="50.14751" lon="-5.04985"></trkpt>
      <trkpt lat="50.14737" lon="-5.04972"></trkpt>
      <trkpt lat="50.14734" lon="-5.04969"></trkpt>
      <trkpt lat="50.14689" lon="-5.04961"></trkpt>
      <trkpt lat="50.14639" lon="-5.04927"></trkpt>
      <trkpt lat="50.14587" lon="-5.04925"></trkpt>
      <trkpt lat="50.14578" lon="-5.04902"></trkpt>
      <trkpt lat="50.14559" lon="-5.04864"></trkpt>
      <trkpt lat="50.14503" lon="-5.04808"></trkpt>
      <trkpt lat="50.14494" lon="-5.04784"></trkpt>
      <trkpt lat="50.14486" lon="-5.04753"></trkpt>
      <trkpt lat="50.14483" lon="-5.04722"></trkpt>
      <trkpt lat="50.14488" lon="-5.04668"></trkpt>
      <trkpt lat="50.14487" lon="-5.04643"></trkpt>
      <trkpt lat="50.14483" lon="-5.04601"></trkpt>
      <trkpt lat="50.14479" lon="-5.04566"></trkpt>
      <trkpt lat="50.14473" lon="-5.04466"></trkpt>
      <trkpt lat="50.14467" lon="-5.04419"></trkpt>
      <trkpt lat="50.14468" lon="-5.04387"></trkpt>
      <trkpt lat="50.14451" lon="-5.04366"></trkpt>
      <trkpt lat="50.14452" lon="-5.04364"></trkpt>
      <trkpt lat="50.14447" lon="-5.04346"></trkpt>
      <trkpt lat="50.14452" lon="-5.04364"></trkpt>
      <trkpt lat="50.14463" lon="-5.0437"></trkpt>
      <trkpt lat="50.14476" lon="-5.04368"></trkpt>
      <trkpt lat="50.14494" lon="-5.04373"></trkpt>
      <trkpt lat="50.14515" lon="-5.04367"></trkpt>
      <trkpt lat="50.14523" lon="-5.0437"></trkpt>
      <trkpt lat="50.14529" lon="-5.0438"></trkpt>
      <trkpt lat="50.14572" lon="-5.04413"></trkpt>
      <trkpt lat="50.14604" lon="-5.04421"></trkpt>
      <trkpt lat="50.14644" lon="-5.0441"></trkpt>
      <trkpt lat="50.14671" lon="-5.04423"></trkpt>
      <trkpt lat="50.14688" lon="-5.04451"></trkpt>
      <trkpt lat="50.14695" lon="-5.04458"></trkpt>
      <trkpt lat="50.14712" lon="-5.04478"></trkpt>
      <trkpt lat="50.14739" lon="-5.04489"></trkpt>
      <trkpt lat="50.14762" lon="-5.04478"></trkpt>
      <trkpt lat="50.14769" lon="-5.04497"></trkpt>
      <trkpt lat="50.14784" lon="-5.04521"></trkpt>
      <trkpt lat="50.14809" lon="-5.04576"></trkpt>
      <trkpt lat="50.14858" lon="-5.046"></trkpt>
      <trkpt lat="50.14882" lon="-5.0463"></trkpt>
      <trkpt lat="50.14895" lon="-5.04662"></trkpt>
      <trkpt lat="50.14908" lon="-5.04742"></trkpt>
      <trkpt lat="50.14913" lon="-5.04759"></trkpt>
      <trkpt lat="50.14922" lon="-5.04834"></trkpt>
      <trkpt lat="50.14941" lon="-5.04909"></trkpt>
      <trkpt lat="50.15039" lon="-5.05075"></trkpt>
      <trkpt lat="50.15041" lon="-5.05089"></trkpt>
      <trkpt lat="50.15071" lon="-5.05144"></trkpt>
      <trkpt lat="50.15083" lon="-5.05176"></trkpt>
      <trkpt lat="50.15104" lon="-5.05233"></trkpt>
      <trkpt lat="50.1511" lon="-5.05253"></trkpt>
      <trkpt lat="50.15114" lon="-5.05282"></trkpt>
      <trkpt lat="50.15114" lon="-5.05309"></trkpt>
      <trkpt lat="50.15111" lon="-5.0535"></trkpt>
      <trkpt lat="50.15101" lon="-5.05404"></trkpt>
      <trkpt lat="50.1509" lon="-5.05433"></trkpt>
      <trkpt lat="50.15079" lon="-5.05452"></trkpt>
      <trkpt lat="50.15066" lon="-5.05469"></trkpt>
      <trkpt lat="50.15051" lon="-5.05485"></trkpt>
      <trkpt lat="50.15006" lon="-5.05524"></trkpt>
      <trkpt lat="50.14969" lon="-5.05569"></trkpt>
      <trkpt lat="50.14982" lon="-5.05595"></trkpt>
      <trkpt lat="50.14973" lon="-5.05605"></trkpt>
      <trkpt lat="50.14988" lon="-5.05637"></trkpt>
      <trkpt lat="50.14959" lon="-5.05722"></trkpt>
      <trkpt lat="50.15013" lon="-5.05804"></trkpt>
      <trkpt lat="50.15024" lon="-5.05832"></trkpt>
      <trkpt lat="50.15025" lon="-5.05846"></trkpt>
      <trkpt lat="50.15023" lon="-5.05861"></trkpt>
      <trkpt lat="50.1501" lon="-5.05902"></trkpt>
      <trkpt lat="50.14955" lon="-5.06087"></trkpt>
      <trkpt lat="50.14943" lon="-5.06148"></trkpt>
      <trkpt lat="50.14943" lon="-5.06189"></trkpt>
      <trkpt lat="50.14946" lon="-5.06216"></trkpt>
      <trkpt lat="50.14957" lon="-5.06247"></trkpt>
      <trkpt lat="50.14973" lon="-5.06275"></trkpt>
      <trkpt lat="50.14985" lon="-5.06288"></trkpt>
      <trkpt lat="50.15037" lon="-5.06324"></trkpt>
      <trkpt lat="50.15087" lon="-5.06382"></trkpt>
      <trkpt lat="50.15116" lon="-5.0642"></trkpt>
      <trkpt lat="50.15242" lon="-5.06616"></trkpt>
      <trkpt lat="50.15287" lon="-5.06682"></trkpt>
      <trkpt lat="50.15321" lon="-5.06735"></trkpt>
      <trkpt lat="50.15327" lon="-5.06752"></trkpt>
      <trkpt lat="50.15331" lon="-5.06778"></trkpt>
      <trkpt lat="50.15333" lon="-5.06781"></trkpt>
      <trkpt lat="50.15367" lon="-5.068"></trkpt>
      <trkpt lat="50.15447" lon="-5.06848"></trkpt>
      <trkpt lat="50.15481" lon="-5.06864"></trkpt>
      <trkpt lat="50.15504" lon="-5.06872"></trkpt>
      <trkpt lat="50.15515" lon="-5.06883"></trkpt>
      <trkpt lat="50.15525" lon="-5.06898"></trkpt>
      <trkpt lat="50.15546" lon="-5.06938"></trkpt>
      <trkpt lat="50.15568" lon="-5.06992"></trkpt>
      <trkpt lat="50.15582" lon="-5.07031"></trkpt>
      <trkpt lat="50.15585" lon="-5.0707"></trkpt>
      <trkpt lat="50.15599" lon="-5.07108"></trkpt>
      <trkpt lat="50.15608" lon="-5.07108"></trkpt>
      <trkpt lat="50.1562" lon="-5.07111"></trkpt>
      <trkpt lat="50.15637" lon="-5.07057"></trkpt>
      <trkpt lat="50.15652" lon="-5.07015"></trkpt>
    </trkseg>
  </trk>
</gpx>
