<?xml version="1.0" encoding="UTF-8"?>
<gpx version="1.1" creator="swcp-walk (imported from OS Maps route 33845061)"
     xmlns="http://www.topografix.com/GPX/1/1">
  <metadata>
    <name>SWCP30-Falmouth-Portloe</name>
  </metadata>
  <trk>
    <name>SWCP30-Falmouth-Portloe</name>
    <trkseg>
      <trkpt lat="50.153233469800256" lon="-5.002714818823819"></trkpt>
      <trkpt lat="50.1535" lon="-5.00325"></trkpt>
      <trkpt lat="50.15292" lon="-5.00398"></trkpt>
      <trkpt lat="50.15268" lon="-5.0042"></trkpt>
      <trkpt lat="50.15247" lon="-5.00421"></trkpt>
      <trkpt lat="50.15228" lon="-5.00414"></trkpt>
      <trkpt lat="50.15213" lon="-5.00414"></trkpt>
      <trkpt lat="50.15184" lon="-5.0042"></trkpt>
      <trkpt lat="50.15158" lon="-5.00419"></trkpt>
      <trkpt lat="50.15147" lon="-5.00416"></trkpt>
      <trkpt lat="50.1514" lon="-5.00409"></trkpt>
      <trkpt lat="50.15099" lon="-5.00353"></trkpt>
      <trkpt lat="50.15082" lon="-5.00302"></trkpt>
      <trkpt lat="50.1507" lon="-5.00273"></trkpt>
      <trkpt lat="50.1506" lon="-5.00257"></trkpt>
      <trkpt lat="50.15047" lon="-5.00231"></trkpt>
      <trkpt lat="50.15032" lon="-5.00214"></trkpt>
      <trkpt lat="50.14963" lon="-5.00158"></trkpt>
      <trkpt lat="50.14934" lon="-5.00155"></trkpt>
      <trkpt lat="50.14935" lon="-5.00201"></trkpt>
      <trkpt lat="50.14939" lon="-5.00239"></trkpt>
      <trkpt lat="50.14946" lon="-5.00265"></trkpt>
      <trkpt lat="50.14948" lon="-5.0028"></trkpt>
      <trkpt lat="50.14938" lon="-5.00395"></trkpt>
      <trkpt lat="50.14938" lon="-5.00413"></trkpt>
      <trkpt lat="50.14937" lon="-5.00419"></trkpt>
      <trkpt lat="50.14929" lon="-5.00423"></trkpt>
      <trkpt lat="50.14932" lon="-5.00458"></trkpt>
      <trkpt lat="50.1493" lon="-5.00467"></trkpt>
      <trkpt lat="50.1493" lon="-5.00478"></trkpt>
      <trkpt lat="50.14936" lon="-5.00479"></trkpt>
      <trkpt lat="50.14938" lon="-5.00482"></trkpt>
      <trkpt lat="50.14937" lon="-5.00487"></trkpt>
      <trkpt lat="50.14984" lon="-5.00471"></trkpt>
      <trkpt lat="50.14992" lon="-5.00473"></trkpt>
      <trkpt lat="50.15063" lon="-5.00509"></trkpt>
      <trkpt lat="50.15091" lon="-5.00545"></trkpt>
      <trkpt lat="50.15107" lon="-5.00571"></trkpt>
      <trkpt lat="50.15114" lon="-5.00598"></trkpt>
      <trkpt lat="50.15114" lon="-5.00616"></trkpt>
      <trkpt lat="50.15108" lon="-5.00636"></trkpt>
      <trkpt lat="50.15067" lon="-5.00698"></trkpt>
      <trkpt lat="50.15064" lon="-5.00718"></trkpt>
      <trkpt lat="50.15075" lon="-5.00774"></trkpt>
      <trkpt lat="50.15103" lon="-5.00834"></trkpt>
      <trkpt lat="50.15109" lon="-5.00851"></trkpt>
      <trkpt lat="50.15115" lon="-5.00883"></trkpt>
      <trkpt lat="50.15134" lon="-5.00913"></trkpt>
      <trkpt lat="50.15164" lon="-5.0102"></trkpt>
      <trkpt lat="50.15174" lon="-5.01045"></trkpt>
      <trkpt lat="50.15198" lon="-5.01096"></trkpt>
      <trkpt lat="50.15191" lon="-5.01138"></trkpt>
      <trkpt lat="50.1519" lon="-5.01138"></trkpt>
      <trkpt lat="50.15161" lon="-5.01223"></trkpt>
      <trkpt lat="50.15147" lon="-5.01285"></trkpt>
      <trkpt lat="50.15141" lon="-5.01306"></trkpt>
      <trkpt lat="50.15114" lon="-5.0137"></trkpt>
      <trkpt lat="50.15056" lon="-5.01448"></trkpt>
      <trkpt lat="50.15048" lon="-5.01462"></trkpt>
      <trkpt lat="50.15009" lon="-5.01553"></trkpt>
      <trkpt lat="50.14975" lon="-5.01623"></trkpt>
      <trkpt lat="50.14956" lon="-5.01666"></trkpt>
      <trkpt lat="50.14952" lon="-5.01679"></trkpt>
      <trkpt lat="50.14951" lon="-5.01699"></trkpt>
      <trkpt lat="50.14933" lon="-5.01743"></trkpt>
      <trkpt lat="50.14914" lon="-5.01759"></trkpt>
      <trkpt lat="50.14902" lon="-5.01752"></trkpt>
      <trkpt lat="50.14897" lon="-5.01749"></trkpt>
      <trkpt lat="50.14874" lon="-5.01768"></trkpt>
      <trkpt lat="50.14851" lon="-5.01768"></trkpt>
      <trkpt lat="50.14837" lon="-5.01759"></trkpt>
      <trkpt lat="50.1483" lon="-5.01744"></trkpt>
      <trkpt lat="50.14833" lon="-5.01683"></trkpt>
      <trkpt lat="50.14831" lon="-5.01666"></trkpt>
      <trkpt lat="50.14823" lon="-5.01627"></trkpt>
      <trkpt lat="50.1483" lon="-5.01622"></trkpt>
      <trkpt lat="50.14824" lon="-5.01612"></trkpt>
      <trkpt lat="50.148" lon="-5.01593"></trkpt>
      <trkpt lat="50.14793" lon="-5.01595"></trkpt>
      <trkpt lat="50.14786" lon="-5.01604"></trkpt>
      <trkpt lat="50.14768" lon="-5.01599"></trkpt>
      <trkpt lat="50.14739" lon="-5.01605"></trkpt>
      <trkpt lat="50.14719" lon="-5.01597"></trkpt>
      <trkpt lat="50.14661" lon="-5.01563"></trkpt>
      <trkpt lat="50.14622" lon="-5.0153"></trkpt>
      <trkpt lat="50.14606" lon="-5.01511"></trkpt>
      <trkpt lat="50.14573" lon="-5.01494"></trkpt>
      <trkpt lat="50.14554" lon="-5.01488"></trkpt>
      <trkpt lat="50.14518" lon="-5.01465"></trkpt>
      <trkpt lat="50.14501" lon="-5.01448"></trkpt>
      <trkpt lat="50.14492" lon="-5.0143"></trkpt>
      <trkpt lat="50.14481" lon="-5.01414"></trkpt>
      <trkpt lat="50.14478" lon="-5.01412"></trkpt>
      <trkpt lat="50.14476" lon="-5.01416"></trkpt>
      <trkpt lat="50.14475" lon="-5.01426"></trkpt>
      <trkpt lat="50.14471" lon="-5.01425"></trkpt>
      <trkpt lat="50.14469" lon="-5.01419"></trkpt>
      <trkpt lat="50.14467" lon="-5.01423"></trkpt>
      <trkpt lat="50.14448" lon="-5.01412"></trkpt>
      <trkpt lat="50.14437" lon="-5.01444"></trkpt>
      <trkpt lat="50.14429" lon="-5.01453"></trkpt>
      <trkpt lat="50.14392" lon="-5.01463"></trkpt>
      <trkpt lat="50.14331" lon="-5.01459"></trkpt>
      <trkpt lat="50.14294" lon="-5.01473"></trkpt>
      <trkpt lat="50.14245" lon="-5.01501"></trkpt>
      <trkpt lat="50.14216" lon="-5.01514"></trkpt>
      <trkpt lat="50.14215" lon="-5.01514"></trkpt>
      <trkpt lat="50.14178" lon="-5.01546"></trkpt>
      <trkpt lat="50.14183" lon="-5.01532"></trkpt>
      <trkpt lat="50.14202" lon="-5.01499"></trkpt>
      <trkpt lat="50.14223" lon="-5.01478"></trkpt>
      <trkpt lat="50.14264" lon="-5.01414"></trkpt>
      <trkpt lat="50.14267" lon="-5.01382"></trkpt>
      <trkpt lat="50.14256" lon="-5.01367"></trkpt>
      <trkpt lat="50.14243" lon="-5.01377"></trkpt>
      <trkpt lat="50.14234" lon="-5.01389"></trkpt>
      <trkpt lat="50.14228" lon="-5.01388"></trkpt>
      <trkpt lat="50.14223" lon="-5.01383"></trkpt>
      <trkpt lat="50.14214" lon="-5.01379"></trkpt>
      <trkpt lat="50.14208" lon="-5.01361"></trkpt>
      <trkpt lat="50.14209" lon="-5.01338"></trkpt>
      <trkpt lat="50.14206" lon="-5.0133"></trkpt>
      <trkpt lat="50.14195" lon="-5.01316"></trkpt>
      <trkpt lat="50.14185" lon="-5.01308"></trkpt>
      <trkpt lat="50.14189" lon="-5.01287"></trkpt>
      <trkpt lat="50.14182" lon="-5.01271"></trkpt>
      <trkpt lat="50.14179" lon="-5.0126"></trkpt>
      <trkpt lat="50.14176" lon="-5.01233"></trkpt>
      <trkpt lat="50.14171" lon="-5.01212"></trkpt>
      <trkpt lat="50.14168" lon="-5.01183"></trkpt>
      <trkpt lat="50.14154" lon="-5.01113"></trkpt>
      <trkpt lat="50.14138" lon="-5.01079"></trkpt>
      <trkpt lat="50.14139" lon="-5.01077"></trkpt>
      <trkpt lat="50.14116" lon="-5.01024"></trkpt>
      <trkpt lat="50.14104" lon="-5.01006"></trkpt>
      <trkpt lat="50.14082" lon="-5.00993"></trkpt>
      <trkpt lat="50.14064" lon="-5.00974"></trkpt>
      <trkpt lat="50.14062" lon="-5.00966"></trkpt>
      <trkpt lat="50.1406" lon="-5.00957"></trkpt>
      <trkpt lat="50.14058" lon="-5.00941"></trkpt>
      <trkpt lat="50.14061" lon="-5.00912"></trkpt>
      <trkpt lat="50.14061" lon="-5.00869"></trkpt>
      <trkpt lat="50.14076" lon="-5.00837"></trkpt>
      <trkpt lat="50.14102" lon="-5.00811"></trkpt>
      <trkpt lat="50.14113" lon="-5.00794"></trkpt>
      <trkpt lat="50.14111" lon="-5.00787"></trkpt>
      <trkpt lat="50.14145" lon="-5.00744"></trkpt>
      <trkpt lat="50.14149" lon="-5.00735"></trkpt>
      <trkpt lat="50.14152" lon="-5.00712"></trkpt>
      <trkpt lat="50.14184" lon="-5.00659"></trkpt>
      <trkpt lat="50.14218" lon="-5.00609"></trkpt>
      <trkpt lat="50.14251" lon="-5.0058"></trkpt>
      <trkpt lat="50.14278" lon="-5.00562"></trkpt>
      <trkpt lat="50.14294" lon="-5.00561"></trkpt>
      <trkpt lat="50.14304" lon="-5.00577"></trkpt>
      <trkpt lat="50.1431" lon="-5.0058"></trkpt>
      <trkpt lat="50.14321" lon="-5.00577"></trkpt>
      <trkpt lat="50.14343" lon="-5.00541"></trkpt>
      <trkpt lat="50.14349" lon="-5.00526"></trkpt>
      <trkpt lat="50.14362" lon="-5.0051"></trkpt>
      <trkpt lat="50.14393" lon="-5.00415"></trkpt>
      <trkpt lat="50.14403" lon="-5.00347"></trkpt>
      <trkpt lat="50.14408" lon="-5.00332"></trkpt>
      <trkpt lat="50.14449" lon="-5.00277"></trkpt>
      <trkpt lat="50.14459" lon="-5.00229"></trkpt>
      <trkpt lat="50.14471" lon="-5.00198"></trkpt>
      <trkpt lat="50.14496" lon="-5.00154"></trkpt>
      <trkpt lat="50.14524" lon="-5.00112"></trkpt>
      <trkpt lat="50.14555" lon="-5.00059"></trkpt>
      <trkpt lat="50.14695" lon="-4.99868"></trkpt>
      <trkpt lat="50.14705" lon="-4.9985"></trkpt>
      <trkpt lat="50.14711" lon="-4.9984"></trkpt>
      <trkpt lat="50.14722" lon="-4.99809"></trkpt>
      <trkpt lat="50.14733" lon="-4.99787"></trkpt>
      <trkpt lat="50.14753" lon="-4.99759"></trkpt>
      <trkpt lat="50.14759" lon="-4.99752"></trkpt>
      <trkpt lat="50.14791" lon="-4.99738"></trkpt>
      <trkpt lat="50.14798" lon="-4.9973"></trkpt>
      <trkpt lat="50.14808" lon="-4.99707"></trkpt>
      <trkpt lat="50.14821" lon="-4.99693"></trkpt>
      <trkpt lat="50.14873" lon="-4.99671"></trkpt>
      <trkpt lat="50.14897" lon="-4.99655"></trkpt>
      <trkpt lat="50.14912" lon="-4.99635"></trkpt>
      <trkpt lat="50.14918" lon="-4.99622"></trkpt>
      <trkpt lat="50.14921" lon="-4.99593"></trkpt>
      <trkpt lat="50.14928" lon="-4.99567"></trkpt>
      <trkpt lat="50.14934" lon="-4.99554"></trkpt>
      <trkpt lat="50.1495" lon="-4.9953"></trkpt>
      <trkpt lat="50.14955" lon="-4.9953"></trkpt>
      <trkpt lat="50.14965" lon="-4.99513"></trkpt>
      <trkpt lat="50.14988" lon="-4.99488"></trkpt>
      <trkpt lat="50.14998" lon="-4.99472"></trkpt>
      <trkpt lat="50.15005" lon="-4.9945"></trkpt>
      <trkpt lat="50.15008" lon="-4.99432"></trkpt>
      <trkpt lat="50.15031" lon="-4.99368"></trkpt>
      <trkpt lat="50.15034" lon="-4.99349"></trkpt>
      <trkpt lat="50.15043" lon="-4.99262"></trkpt>
      <trkpt lat="50.15042" lon="-4.99251"></trkpt>
      <trkpt lat="50.15033" lon="-4.99214"></trkpt>
      <trkpt lat="50.15036" lon="-4.99166"></trkpt>
      <trkpt lat="50.15039" lon="-4.99147"></trkpt>
      <trkpt lat="50.15044" lon="-4.9913"></trkpt>
      <trkpt lat="50.15051" lon="-4.99116"></trkpt>
      <trkpt lat="50.15056" lon="-4.99094"></trkpt>
      <trkpt lat="50.15054" lon="-4.99086"></trkpt>
      <trkpt lat="50.15044" lon="-4.99077"></trkpt>
      <trkpt lat="50.15039" lon="-4.99066"></trkpt>
      <trkpt lat="50.15037" lon="-4.99056"></trkpt>
      <trkpt lat="50.15036" lon="-4.99034"></trkpt>
      <trkpt lat="50.15049" lon="-4.98975"></trkpt>
      <trkpt lat="50.15056" lon="-4.98927"></trkpt>
      <trkpt lat="50.15068" lon="-4.98889"></trkpt>
      <trkpt lat="50.15077" lon="-4.98871"></trkpt>
      <trkpt lat="50.1508" lon="-4.98851"></trkpt>
      <trkpt lat="50.1508" lon="-4.98823"></trkpt>
      <trkpt lat="50.1507" lon="-4.98791"></trkpt>
      <trkpt lat="50.15066" lon="-4.9878"></trkpt>
      <trkpt lat="50.15056" lon="-4.98764"></trkpt>
      <trkpt lat="50.15051" lon="-4.98701"></trkpt>
      <trkpt lat="50.15054" lon="-4.9867"></trkpt>
      <trkpt lat="50.15067" lon="-4.98608"></trkpt>
      <trkpt lat="50.15074" lon="-4.98587"></trkpt>
      <trkpt lat="50.15087" lon="-4.98567"></trkpt>
      <trkpt lat="50.15089" lon="-4.98558"></trkpt>
      <trkpt lat="50.15091" lon="-4.9854"></trkpt>
      <trkpt lat="50.15087" lon="-4.98519"></trkpt>
      <trkpt lat="50.15089" lon="-4.98499"></trkpt>
      <trkpt lat="50.15094" lon="-4.98472"></trkpt>
      <trkpt lat="50.15105" lon="-4.98438"></trkpt>
      <trkpt lat="50.15129" lon="-4.98381"></trkpt>
      <trkpt lat="50.15153" lon="-4.98308"></trkpt>
      <trkpt lat="50.15168" lon="-4.98283"></trkpt>
      <trkpt lat="50.15179" lon="-4.98268"></trkpt>
      <trkpt lat="50.15185" lon="-4.98265"></trkpt>
      <trkpt lat="50.15189" lon="-4.98264"></trkpt>
      <trkpt lat="50.15199" lon="-4.98264"></trkpt>
      <trkpt lat="50.15219" lon="-4.98276"></trkpt>
      <trkpt lat="50.15259" lon="-4.9832"></trkpt>
      <trkpt lat="50.15271" lon="-4.98339"></trkpt>
      <trkpt lat="50.15315" lon="-4.98432"></trkpt>
      <trkpt lat="50.1532" lon="-4.98437"></trkpt>
      <trkpt lat="50.15395" lon="-4.98469"></trkpt>
      <trkpt lat="50.15419" lon="-4.98471"></trkpt>
      <trkpt lat="50.15438" lon="-4.98469"></trkpt>
      <trkpt lat="50.15476" lon="-4.9845"></trkpt>
      <trkpt lat="50.15488" lon="-4.98447"></trkpt>
      <trkpt lat="50.15504" lon="-4.98448"></trkpt>
      <trkpt lat="50.15517" lon="-4.98454"></trkpt>
      <trkpt lat="50.15543" lon="-4.98474"></trkpt>
      <trkpt lat="50.15558" lon="-4.98478"></trkpt>
      <trkpt lat="50.1558" lon="-4.9849"></trkpt>
      <trkpt lat="50.15636" lon="-4.98472"></trkpt>
      <trkpt lat="50.15659" lon="-4.98485"></trkpt>
      <trkpt lat="50.15671" lon="-4.98487"></trkpt>
      <trkpt lat="50.1569" lon="-4.98485"></trkpt>
      <trkpt lat="50.15714" lon="-4.98489"></trkpt>
      <trkpt lat="50.15724" lon="-4.98488"></trkpt>
      <trkpt lat="50.15741" lon="-4.98474"></trkpt>
      <trkpt lat="50.15746" lon="-4.98464"></trkpt>
      <trkpt lat="50.15752" lon="-4.98458"></trkpt>
      <trkpt lat="50.15759" lon="-4.98457"></trkpt>
      <trkpt lat="50.15773" lon="-4.98461"></trkpt>
      <trkpt lat="50.15786" lon="-4.98441"></trkpt>
      <trkpt lat="50.15801" lon="-4.98431"></trkpt>
      <trkpt lat="50.15831" lon="-4.98389"></trkpt>
      <trkpt lat="50.15911" lon="-4.983"></trkpt>
      <trkpt lat="50.15946" lon="-4.98244"></trkpt>
      <trkpt lat="50.15976" lon="-4.98204"></trkpt>
      <trkpt lat="50.16001" lon="-4.98156"></trkpt>
      <trkpt lat="50.16027" lon="-4.98091"></trkpt>
      <trkpt lat="50.16036" lon="-4.98039"></trkpt>
      <trkpt lat="50.16046" lon="-4.98003"></trkpt>
      <trkpt lat="50.16052" lon="-4.9797"></trkpt>
      <trkpt lat="50.16054" lon="-4.97947"></trkpt>
      <trkpt lat="50.16049" lon="-4.97916"></trkpt>
      <trkpt lat="50.16048" lon="-4.97903"></trkpt>
      <trkpt lat="50.1605" lon="-4.97888"></trkpt>
      <trkpt lat="50.16055" lon="-4.97876"></trkpt>
      <trkpt lat="50.16064" lon="-4.97864"></trkpt>
      <trkpt lat="50.16074" lon="-4.9786"></trkpt>
      <trkpt lat="50.16079" lon="-4.97853"></trkpt>
      <trkpt lat="50.16081" lon="-4.97845"></trkpt>
      <trkpt lat="50.16081" lon="-4.97819"></trkpt>
      <trkpt lat="50.16083" lon="-4.97808"></trkpt>
      <trkpt lat="50.16089" lon="-4.97802"></trkpt>
      <trkpt lat="50.16088" lon="-4.97802"></trkpt>
      <trkpt lat="50.16097" lon="-4.97798"></trkpt>
      <trkpt lat="50.16124" lon="-4.97807"></trkpt>
      <trkpt lat="50.16133" lon="-4.97805"></trkpt>
      <trkpt lat="50.16142" lon="-4.97798"></trkpt>
      <trkpt lat="50.16166" lon="-4.97758"></trkpt>
      <trkpt lat="50.16189" lon="-4.97742"></trkpt>
      <trkpt lat="50.16206" lon="-4.97728"></trkpt>
      <trkpt lat="50.16221" lon="-4.97709"></trkpt>
      <trkpt lat="50.16247" lon="-4.97683"></trkpt>
      <trkpt lat="50.16263" lon="-4.97658"></trkpt>
      <trkpt lat="50.16277" lon="-4.97628"></trkpt>
      <trkpt lat="50.16312" lon="-4.97582"></trkpt>
      <trkpt lat="50.16356" lon="-4.97553"></trkpt>
      <trkpt lat="50.16369" lon="-4.97542"></trkpt>
      <trkpt lat="50.16381" lon="-4.97514"></trkpt>
      <trkpt lat="50.16382" lon="-4.97496"></trkpt>
      <trkpt lat="50.16407" lon="-4.97451"></trkpt>
      <trkpt lat="50.16412" lon="-4.97435"></trkpt>
      <trkpt lat="50.16428" lon="-4.97353"></trkpt>
      <trkpt lat="50.16432" lon="-4.97339"></trkpt>
      <trkpt lat="50.16445" lon="-4.9732"></trkpt>
      <trkpt lat="50.16456" lon="-4.9731"></trkpt>
      <trkpt lat="50.16469" lon="-4.97305"></trkpt>
      <trkpt lat="50.16477" lon="-4.97305"></trkpt>
      <trkpt lat="50.16516" lon="-4.97317"></trkpt>
      <trkpt lat="50.16527" lon="-4.97324"></trkpt>
      <trkpt lat="50.1655" lon="-4.97349"></trkpt>
      <trkpt lat="50.166" lon="-4.97375"></trkpt>
      <trkpt lat="50.16622" lon="-4.97377"></trkpt>
      <trkpt lat="50.16648" lon="-4.97387"></trkpt>
      <trkpt lat="50.16666" lon="-4.97398"></trkpt>
      <trkpt lat="50.16707" lon="-4.97411"></trkpt>
      <trkpt lat="50.16729" lon="-4.97427"></trkpt>
      <trkpt lat="50.16779" lon="-4.97446"></trkpt>
      <trkpt lat="50.16792" lon="-4.97457"></trkpt>
      <trkpt lat="50.16864" lon="-4.97459"></trkpt>
      <trkpt lat="50.16931" lon="-4.97477"></trkpt>
      <trkpt lat="50.17008" lon="-4.97482"></trkpt>
      <trkpt lat="50.17063" lon="-4.97466"></trkpt>
      <trkpt lat="50.17128" lon="-4.97458"></trkpt>
      <trkpt lat="50.17191" lon="-4.97438"></trkpt>
      <trkpt lat="50.17203" lon="-4.97424"></trkpt>
      <trkpt lat="50.1721" lon="-4.97423"></trkpt>
      <trkpt lat="50.17244" lon="-4.97437"></trkpt>
      <trkpt lat="50.17272" lon="-4.97453"></trkpt>
      <trkpt lat="50.17287" lon="-4.97456"></trkpt>
      <trkpt lat="50.17308" lon="-4.97454"></trkpt>
      <trkpt lat="50.17335" lon="-4.97446"></trkpt>
      <trkpt lat="50.17361" lon="-4.97428"></trkpt>
      <trkpt lat="50.17375" lon="-4.97426"></trkpt>
      <trkpt lat="50.17386" lon="-4.97428"></trkpt>
      <trkpt lat="50.17412" lon="-4.97426"></trkpt>
      <trkpt lat="50.17425" lon="-4.97427"></trkpt>
      <trkpt lat="50.17439" lon="-4.97423"></trkpt>
      <trkpt lat="50.17451" lon="-4.97409"></trkpt>
      <trkpt lat="50.17457" lon="-4.97395"></trkpt>
      <trkpt lat="50.17461" lon="-4.97377"></trkpt>
      <trkpt lat="50.17472" lon="-4.97364"></trkpt>
      <trkpt lat="50.17479" lon="-4.97358"></trkpt>
      <trkpt lat="50.17498" lon="-4.97354"></trkpt>
      <trkpt lat="50.17502" lon="-4.97364"></trkpt>
      <trkpt lat="50.17596" lon="-4.97342"></trkpt>
      <trkpt lat="50.17607" lon="-4.97345"></trkpt>
      <trkpt lat="50.17613" lon="-4.97339"></trkpt>
      <trkpt lat="50.17626" lon="-4.97335"></trkpt>
      <trkpt lat="50.17635" lon="-4.97329"></trkpt>
      <trkpt lat="50.17642" lon="-4.97327"></trkpt>
      <trkpt lat="50.17647" lon="-4.97317"></trkpt>
      <trkpt lat="50.17653" lon="-4.97295"></trkpt>
      <trkpt lat="50.17663" lon="-4.97279"></trkpt>
      <trkpt lat="50.17769" lon="-4.97197"></trkpt>
      <trkpt lat="50.17782" lon="-4.97184"></trkpt>
      <trkpt lat="50.17789" lon="-4.97181"></trkpt>
      <trkpt lat="50.17802" lon="-4.97184"></trkpt>
      <trkpt lat="50.17808" lon="-4.97182"></trkpt>
      <trkpt lat="50.17843" lon="-4.97185"></trkpt>
      <trkpt lat="50.17857" lon="-4.97184"></trkpt>
      <trkpt lat="50.17867" lon="-4.97187"></trkpt>
      <trkpt lat="50.1787" lon="-4.9719"></trkpt>
      <trkpt lat="50.17871" lon="-4.97211"></trkpt>
      <trkpt lat="50.17884" lon="-4.97267"></trkpt>
      <trkpt lat="50.17887" lon="-4.97286"></trkpt>
      <trkpt lat="50.17888" lon="-4.97302"></trkpt>
      <trkpt lat="50.17886" lon="-4.97329"></trkpt>
      <trkpt lat="50.17886" lon="-4.97353"></trkpt>
      <trkpt lat="50.17888" lon="-4.97371"></trkpt>
      <trkpt lat="50.17901" lon="-4.97431"></trkpt>
      <trkpt lat="50.17919" lon="-4.975"></trkpt>
      <trkpt lat="50.17928" lon="-4.97499"></trkpt>
      <trkpt lat="50.17969" lon="-4.97512"></trkpt>
      <trkpt lat="50.18069" lon="-4.97526"></trkpt>
      <trkpt lat="50.18101" lon="-4.97519"></trkpt>
      <trkpt lat="50.18131" lon="-4.97516"></trkpt>
      <trkpt lat="50.18139" lon="-4.9751"></trkpt>
      <trkpt lat="50.1817" lon="-4.97505"></trkpt>
      <trkpt lat="50.18188" lon="-4.97506"></trkpt>
      <trkpt lat="50.18243" lon="-4.97498"></trkpt>
      <trkpt lat="50.18252" lon="-4.9751"></trkpt>
      <trkpt lat="50.18274" lon="-4.9752"></trkpt>
      <trkpt lat="50.18288" lon="-4.97518"></trkpt>
      <trkpt lat="50.18293" lon="-4.97507"></trkpt>
      <trkpt lat="50.18316" lon="-4.97486"></trkpt>
      <trkpt lat="50.18329" lon="-4.97482"></trkpt>
      <trkpt lat="50.18363" lon="-4.97478"></trkpt>
      <trkpt lat="50.18387" lon="-4.97463"></trkpt>
      <trkpt lat="50.18408" lon="-4.97441"></trkpt>
      <trkpt lat="50.18446" lon="-4.97412"></trkpt>
      <trkpt lat="50.18526" lon="-4.9738"></trkpt>
      <trkpt lat="50.18535" lon="-4.97374"></trkpt>
      <trkpt lat="50.18542" lon="-4.97372"></trkpt>
      <trkpt lat="50.1856" lon="-4.97383"></trkpt>
      <trkpt lat="50.1857" lon="-4.97377"></trkpt>
      <trkpt lat="50.18589" lon="-4.97372"></trkpt>
      <trkpt lat="50.18594" lon="-4.97373"></trkpt>
      <trkpt lat="50.186" lon="-4.97368"></trkpt>
      <trkpt lat="50.18607" lon="-4.97366"></trkpt>
      <trkpt lat="50.1861" lon="-4.97368"></trkpt>
      <trkpt lat="50.18629" lon="-4.97338"></trkpt>
      <trkpt lat="50.1863" lon="-4.97333"></trkpt>
      <trkpt lat="50.18629" lon="-4.97319"></trkpt>
      <trkpt lat="50.18645" lon="-4.97264"></trkpt>
      <trkpt lat="50.18647" lon="-4.97232"></trkpt>
      <trkpt lat="50.18656" lon="-4.972"></trkpt>
      <trkpt lat="50.18653" lon="-4.97152"></trkpt>
      <trkpt lat="50.18662" lon="-4.97084"></trkpt>
      <trkpt lat="50.18662" lon="-4.97049"></trkpt>
      <trkpt lat="50.18659" lon="-4.97043"></trkpt>
      <trkpt lat="50.18644" lon="-4.97025"></trkpt>
      <trkpt lat="50.18636" lon="-4.97003"></trkpt>
      <trkpt lat="50.18632" lon="-4.96966"></trkpt>
      <trkpt lat="50.18623" lon="-4.96934"></trkpt>
      <trkpt lat="50.18614" lon="-4.9685"></trkpt>
      <trkpt lat="50.1859" lon="-4.9682"></trkpt>
      <trkpt lat="50.18614" lon="-4.9685"></trkpt>
      <trkpt lat="50.18619" lon="-4.9684"></trkpt>
      <trkpt lat="50.18625" lon="-4.96835"></trkpt>
      <trkpt lat="50.18714" lon="-4.96833"></trkpt>
      <trkpt lat="50.18752" lon="-4.96838"></trkpt>
      <trkpt lat="50.18789" lon="-4.96852"></trkpt>
      <trkpt lat="50.18835" lon="-4.96874"></trkpt>
      <trkpt lat="50.18858" lon="-4.96854"></trkpt>
      <trkpt lat="50.18865" lon="-4.96854"></trkpt>
      <trkpt lat="50.18874" lon="-4.96861"></trkpt>
      <trkpt lat="50.18901" lon="-4.96899"></trkpt>
      <trkpt lat="50.18913" lon="-4.96908"></trkpt>
      <trkpt lat="50.18957" lon="-4.96914"></trkpt>
      <trkpt lat="50.19009" lon="-4.96909"></trkpt>
      <trkpt lat="50.19036" lon="-4.96913"></trkpt>
      <trkpt lat="50.19062" lon="-4.96909"></trkpt>
      <trkpt lat="50.19064" lon="-4.96913"></trkpt>
      <trkpt lat="50.19068" lon="-4.96933"></trkpt>
      <trkpt lat="50.19072" lon="-4.96941"></trkpt>
      <trkpt lat="50.19087" lon="-4.96946"></trkpt>
      <trkpt lat="50.19107" lon="-4.96945"></trkpt>
      <trkpt lat="50.1915" lon="-4.96936"></trkpt>
      <trkpt lat="50.19164" lon="-4.96931"></trkpt>
      <trkpt lat="50.19179" lon="-4.96936"></trkpt>
      <trkpt lat="50.19181" lon="-4.96929"></trkpt>
      <trkpt lat="50.19196" lon="-4.96925"></trkpt>
      <trkpt lat="50.19206" lon="-4.96917"></trkpt>
      <trkpt lat="50.19207" lon="-4.96902"></trkpt>
      <trkpt lat="50.19205" lon="-4.9689"></trkpt>
      <trkpt lat="50.1921" lon="-4.96884"></trkpt>
      <trkpt lat="50.19223" lon="-4.96878"></trkpt>
      <trkpt lat="50.19228" lon="-4.96878"></trkpt>
      <trkpt lat="50.19232" lon="-4.96882"></trkpt>
      <trkpt lat="50.19243" lon="-4.96882"></trkpt>
      <trkpt lat="50.19264" lon="-4.96872"></trkpt>
      <trkpt lat="50.19281" lon="-4.96857"></trkpt>
      <trkpt lat="50.19292" lon="-4.96831"></trkpt>
      <trkpt lat="50.1931" lon="-4.96812"></trkpt>
      <trkpt lat="50.19347" lon="-4.96765"></trkpt>
      <trkpt lat="50.19386" lon="-4.96737"></trkpt>
      <trkpt lat="50.194" lon="-4.96719"></trkpt>
      <trkpt lat="50.19405" lon="-4.96715"></trkpt>
      <trkpt lat="50.19444" lon="-4.96605"></trkpt>
      <trkpt lat="50.19454" lon="-4.96582"></trkpt>
      <trkpt lat="50.1946" lon="-4.96574"></trkpt>
      <trkpt lat="50.19465" lon="-4.96575"></trkpt>
      <trkpt lat="50.1948" lon="-4.96598"></trkpt>
      <trkpt lat="50.19487" lon="-4.96601"></trkpt>
      <trkpt lat="50.195" lon="-4.96595"></trkpt>
      <trkpt lat="50.19519" lon="-4.96572"></trkpt>
      <trkpt lat="50.19544" lon="-4.96528"></trkpt>
      <trkpt lat="50.19551" lon="-4.96501"></trkpt>
      <trkpt lat="50.19563" lon="-4.96473"></trkpt>
      <trkpt lat="50.19567" lon="-4.96431"></trkpt>
      <trkpt lat="50.19592" lon="-4.96392"></trkpt>
      <trkpt lat="50.19597" lon="-4.96381"></trkpt>
      <trkpt lat="50.19607" lon="-4.96381"></trkpt>
      <trkpt lat="50.1962" lon="-4.96332"></trkpt>
      <trkpt lat="50.19623" lon="-4.96327"></trkpt>
      <trkpt lat="50.19624" lon="-4.96301"></trkpt>
      <trkpt lat="50.19636" lon="-4.96268"></trkpt>
      <trkpt lat="50.19641" lon="-4.96261"></trkpt>
      <trkpt lat="50.19649" lon="-4.96259"></trkpt>
      <trkpt lat="50.19659" lon="-4.96262"></trkpt>
      <trkpt lat="50.19674" lon="-4.96272"></trkpt>
      <trkpt lat="50.1969" lon="-4.96294"></trkpt>
      <trkpt lat="50.19726" lon="-4.96317"></trkpt>
      <trkpt lat="50.19751" lon="-4.96326"></trkpt>
      <trkpt lat="50.19794" lon="-4.9633"></trkpt>
      <trkpt lat="50.19806" lon="-4.96323"></trkpt>
      <trkpt lat="50.19816" lon="-4.96304"></trkpt>
      <trkpt lat="50.19841" lon="-4.96285"></trkpt>
      <trkpt lat="50.19854" lon="-4.96261"></trkpt>
      <trkpt lat="50.19863" lon="-4.96239"></trkpt>
      <trkpt lat="50.19879" lon="-4.96187"></trkpt>
      <trkpt lat="50.19885" lon="-4.96173"></trkpt>
      <trkpt lat="50.19908" lon="-4.96137"></trkpt>
      <trkpt lat="50.19918" lon="-4.96101"></trkpt>
      <trkpt lat="50.19925" lon="-4.96091"></trkpt>
      <trkpt lat="50.19933" lon="-4.96087"></trkpt>
      <trkpt lat="50.19946" lon="-4.96086"></trkpt>
      <trkpt lat="50.1996" lon="-4.96078"></trkpt>
      <trkpt lat="50.19987" lon="-4.96074"></trkpt>
      <trkpt lat="50.20001" lon="-4.96063"></trkpt>
      <trkpt lat="50.2001" lon="-4.9605"></trkpt>
      <trkpt lat="50.20026" lon="-4.9605"></trkpt>
      <trkpt lat="50.20037" lon="-4.96042"></trkpt>
      <trkpt lat="50.20049" lon="-4.96024"></trkpt>
      <trkpt lat="50.20061" lon="-4.96011"></trkpt>
      <trkpt lat="50.20105" lon="-4.95926"></trkpt>
      <trkpt lat="50.20115" lon="-4.95913"></trkpt>
      <trkpt lat="50.20133" lon="-4.95915"></trkpt>
      <trkpt lat="50.20157" lon="-4.95922"></trkpt>
      <trkpt lat="50.20168" lon="-4.95918"></trkpt>
      <trkpt lat="50.20175" lon="-4.95913"></trkpt>
      <trkpt lat="50.20189" lon="-4.95896"></trkpt>
      <trkpt lat="50.20201" lon="-4.95887"></trkpt>
      <trkpt lat="50.20219" lon="-4.95885"></trkpt>
      <trkpt lat="50.20226" lon="-4.95876"></trkpt>
      <trkpt lat="50.2025" lon="-4.95833"></trkpt>
      <trkpt lat="50.20275" lon="-4.9581"></trkpt>
      <trkpt lat="50.20284" lon="-4.95807"></trkpt>
      <trkpt lat="50.20298" lon="-4.95755"></trkpt>
      <trkpt lat="50.20317" lon="-4.95707"></trkpt>
      <trkpt lat="50.20334" lon="-4.95652"></trkpt>
      <trkpt lat="50.20352" lon="-4.95617"></trkpt>
      <trkpt lat="50.20377" lon="-4.95585"></trkpt>
      <trkpt lat="50.20386" lon="-4.95562"></trkpt>
      <trkpt lat="50.2039" lon="-4.955"></trkpt>
      <trkpt lat="50.20397" lon="-4.95465"></trkpt>
      <trkpt lat="50.20405" lon="-4.95443"></trkpt>
      <trkpt lat="50.20418" lon="-4.95379"></trkpt>
      <trkpt lat="50.20426" lon="-4.95348"></trkpt>
      <trkpt lat="50.20432" lon="-4.95284"></trkpt>
      <trkpt lat="50.20438" lon="-4.95267"></trkpt>
      <trkpt lat="50.20452" lon="-4.9525"></trkpt>
      <trkpt lat="50.20468" lon="-4.95245"></trkpt>
      <trkpt lat="50.20478" lon="-4.95249"></trkpt>
      <trkpt lat="50.20509" lon="-4.95297"></trkpt>
      <trkpt lat="50.20564" lon="-4.95405"></trkpt>
      <trkpt lat="50.20573" lon="-4.9537"></trkpt>
      <trkpt lat="50.20574" lon="-4.95353"></trkpt>
      <trkpt lat="50.20545" lon="-4.95248"></trkpt>
      <trkpt lat="50.20529" lon="-4.95166"></trkpt>
      <trkpt lat="50.20529" lon="-4.95126"></trkpt>
      <trkpt lat="50.20536" lon="-4.95063"></trkpt>
      <trkpt lat="50.20546" lon="-4.94975"></trkpt>
      <trkpt lat="50.20561" lon="-4.94936"></trkpt>
      <trkpt lat="50.20573" lon="-4.94919"></trkpt>
      <trkpt lat="50.20617" lon="-4.9487"></trkpt>
      <trkpt lat="50.20622" lon="-4.94861"></trkpt>
      <trkpt lat="50.20622" lon="-4.94838"></trkpt>
      <trkpt lat="50.2062" lon="-4.9483"></trkpt>
      <trkpt lat="50.20622" lon="-4.94824"></trkpt>
      <trkpt lat="50.20636" lon="-4.94811"></trkpt>
      <trkpt lat="50.20646" lon="-4.94792"></trkpt>
      <trkpt lat="50.20647" lon="-4.94786"></trkpt>
      <trkpt lat="50.20644" lon="-4.94782"></trkpt>
      <trkpt lat="50.20641" lon="-4.94707"></trkpt>
      <trkpt lat="50.20658" lon="-4.94671"></trkpt>
      <trkpt lat="50.20642" lon="-4.94662"></trkpt>
      <trkpt lat="50.20638" lon="-4.94652"></trkpt>
      <trkpt lat="50.20639" lon="-4.94642"></trkpt>
      <trkpt lat="50.20635" lon="-4.94634"></trkpt>
      <trkpt lat="50.20636" lon="-4.94616"></trkpt>
      <trkpt lat="50.20626" lon="-4.94568"></trkpt>
      <trkpt lat="50.2063" lon="-4.94494"></trkpt>
      <trkpt lat="50.20639" lon="-4.9445"></trkpt>
      <trkpt lat="50.20653" lon="-4.94406"></trkpt>
      <trkpt lat="50.20671" lon="-4.94367"></trkpt>
      <trkpt lat="50.20686" lon="-4.94302"></trkpt>
      <trkpt lat="50.20696" lon="-4.94192"></trkpt>
      <trkpt lat="50.20708" lon="-4.94093"></trkpt>
      <trkpt lat="50.2071" lon="-4.94086"></trkpt>
      <trkpt lat="50.20713" lon="-4.94085"></trkpt>
      <trkpt lat="50.20772" lon="-4.94111"></trkpt>
      <trkpt lat="50.20773" lon="-4.94106"></trkpt>
      <trkpt lat="50.20779" lon="-4.94111"></trkpt>
      <trkpt lat="50.2078" lon="-4.94071"></trkpt>
      <trkpt lat="50.20784" lon="-4.94021"></trkpt>
      <trkpt lat="50.20806" lon="-4.9398"></trkpt>
      <trkpt lat="50.20789" lon="-4.93945"></trkpt>
      <trkpt lat="50.20754" lon="-4.93852"></trkpt>
      <trkpt lat="50.20746" lon="-4.93821"></trkpt>
      <trkpt lat="50.20736" lon="-4.93718"></trkpt>
      <trkpt lat="50.20726" lon="-4.93696"></trkpt>
      <trkpt lat="50.20724" lon="-4.93682"></trkpt>
      <trkpt lat="50.20726" lon="-4.93677"></trkpt>
      <trkpt lat="50.20735" lon="-4.93668"></trkpt>
      <trkpt lat="50.20735" lon="-4.93659"></trkpt>
      <trkpt lat="50.20743" lon="-4.93583"></trkpt>
      <trkpt lat="50.20738" lon="-4.93531"></trkpt>
      <trkpt lat="50.20736" lon="-4.93481"></trkpt>
      <trkpt lat="50.20736" lon="-4.93399"></trkpt>
      <trkpt lat="50.20739" lon="-4.93319"></trkpt>
      <trkpt lat="50.20708" lon="-4.93272"></trkpt>
      <trkpt lat="50.20672" lon="-4.93195"></trkpt>
      <trkpt lat="50.20641" lon="-4.93139"></trkpt>
      <trkpt lat="50.20626" lon="-4.93105"></trkpt>
      <trkpt lat="50.20616" lon="-4.93062"></trkpt>
      <trkpt lat="50.20605" lon="-4.93031"></trkpt>
      <trkpt lat="50.20595" lon="-4.93024"></trkpt>
      <trkpt lat="50.20556" lon="-4.93018"></trkpt>
      <trkpt lat="50.20549" lon="-4.92992"></trkpt>
      <trkpt lat="50.2054" lon="-4.92984"></trkpt>
      <trkpt lat="50.20534" lon="-4.92967"></trkpt>
      <trkpt lat="50.2053" lon="-4.92948"></trkpt>
      <trkpt lat="50.20525" lon="-4.92939"></trkpt>
      <trkpt lat="50.20515" lon="-4.92917"></trkpt>
      <trkpt lat="50.205" lon="-4.92872"></trkpt>
      <trkpt lat="50.2049" lon="-4.92865"></trkpt>
      <trkpt lat="50.20465" lon="-4.92822"></trkpt>
      <trkpt lat="50.20447" lon="-4.92801"></trkpt>
      <trkpt lat="50.20408" lon="-4.92744"></trkpt>
      <trkpt lat="50.20394" lon="-4.92734"></trkpt>
      <trkpt lat="50.20385" lon="-4.92723"></trkpt>
      <trkpt lat="50.20372" lon="-4.92692"></trkpt>
      <trkpt lat="50.20372" lon="-4.92687"></trkpt>
      <trkpt lat="50.20375" lon="-4.92678"></trkpt>
      <trkpt lat="50.20374" lon="-4.9267"></trkpt>
      <trkpt lat="50.20361" lon="-4.92656"></trkpt>
      <trkpt lat="50.20348" lon="-4.92637"></trkpt>
      <trkpt lat="50.20342" lon="-4.92621"></trkpt>
      <trkpt lat="50.20342" lon="-4.92593"></trkpt>
      <trkpt lat="50.2034" lon="-4.92581"></trkpt>
      <trkpt lat="50.20324" lon="-4.92571"></trkpt>
      <trkpt lat="50.20315" lon="-4.92549"></trkpt>
      <trkpt lat="50.2029" lon="-4.92521"></trkpt>
      <trkpt lat="50.20284" lon="-4.92516"></trkpt>
      <trkpt lat="50.20276" lon="-4.92517"></trkpt>
      <trkpt lat="50.20269" lon="-4.92513"></trkpt>
      <trkpt lat="50.20264" lon="-4.92503"></trkpt>
      <trkpt lat="50.20263" lon="-4.92491"></trkpt>
      <trkpt lat="50.20269" lon="-4.9246"></trkpt>
      <trkpt lat="50.20275" lon="-4.92453"></trkpt>
      <trkpt lat="50.20277" lon="-4.92446"></trkpt>
      <trkpt lat="50.20272" lon="-4.92419"></trkpt>
      <trkpt lat="50.20276" lon="-4.92399"></trkpt>
      <trkpt lat="50.20277" lon="-4.92383"></trkpt>
      <trkpt lat="50.20269" lon="-4.92347"></trkpt>
      <trkpt lat="50.20267" lon="-4.92331"></trkpt>
      <trkpt lat="50.20259" lon="-4.92321"></trkpt>
      <trkpt lat="50.20256" lon="-4.92289"></trkpt>
      <trkpt lat="50.20249" lon="-4.92296"></trkpt>
      <trkpt lat="50.20243" lon="-4.92262"></trkpt>
      <trkpt lat="50.20239" lon="-4.92255"></trkpt>
      <trkpt lat="50.2023" lon="-4.92254"></trkpt>
      <trkpt lat="50.20221" lon="-4.92243"></trkpt>
      <trkpt lat="50.20211" lon="-4.92241"></trkpt>
      <trkpt lat="50.20203" lon="-4.92245"></trkpt>
      <trkpt lat="50.20198" lon="-4.92237"></trkpt>
      <trkpt lat="50.2019" lon="-4.92241"></trkpt>
      <trkpt lat="50.20179" lon="-4.92235"></trkpt>
      <trkpt lat="50.20169" lon="-4.92233"></trkpt>
      <trkpt lat="50.2016" lon="-4.92239"></trkpt>
      <trkpt lat="50.20143" lon="-4.92256"></trkpt>
      <trkpt lat="50.20135" lon="-4.9226"></trkpt>
      <trkpt lat="50.20123" lon="-4.92259"></trkpt>
      <trkpt lat="50.20115" lon="-4.92255"></trkpt>
      <trkpt lat="50.20113" lon="-4.92248"></trkpt>
      <trkpt lat="50.20104" lon="-4.9224"></trkpt>
      <trkpt lat="50.20091" lon="-4.92224"></trkpt>
      <trkpt lat="50.20072" lon="-4.92213"></trkpt>
      <trkpt lat="50.20062" lon="-4.92213"></trkpt>
      <trkpt lat="50.2004" lon="-4.92221"></trkpt>
      <trkpt lat="50.20026" lon="-4.92223"></trkpt>
      <trkpt lat="50.20017" lon="-4.92222"></trkpt>
      <trkpt lat="50.19989" lon="-4.92204"></trkpt>
      <trkpt lat="50.19986" lon="-4.92193"></trkpt>
      <trkpt lat="50.19966" lon="-4.92185"></trkpt>
      <trkpt lat="50.19947" lon="-4.92172"></trkpt>
      <trkpt lat="50.19935" lon="-4.92143"></trkpt>
      <trkpt lat="50.19855" lon="-4.92087"></trkpt>
      <trkpt lat="50.19843" lon="-4.9207"></trkpt>
      <trkpt lat="50.19836" lon="-4.92064"></trkpt>
      <trkpt lat="50.19825" lon="-4.92063"></trkpt>
      <trkpt lat="50.19822" lon="-4.92083"></trkpt>
      <trkpt lat="50.19819" lon="-4.92087"></trkpt>
      <trkpt lat="50.19786" lon="-4.92086"></trkpt>
      <trkpt lat="50.19754" lon="-4.92081"></trkpt>
      <trkpt lat="50.19722" lon="-4.92086"></trkpt>
      <trkpt lat="50.19688" lon="-4.92099"></trkpt>
      <trkpt lat="50.1968" lon="-4.92108"></trkpt>
      <trkpt lat="50.19679" lon="-4.92108"></trkpt>
      <trkpt lat="50.19688" lon="-4.92099"></trkpt>
      <trkpt lat="50.19722" lon="-4.92086"></trkpt>
      <trkpt lat="50.19729" lon="-4.92058"></trkpt>
      <trkpt lat="50.19759" lon="-4.92028"></trkpt>
      <trkpt lat="50.19781" lon="-4.91983"></trkpt>
      <trkpt lat="50.19788" lon="-4.9193"></trkpt>
      <trkpt lat="50.19818" lon="-4.91814"></trkpt>
      <trkpt lat="50.19822" lon="-4.91756"></trkpt>
      <trkpt lat="50.19826" lon="-4.91735"></trkpt>
      <trkpt lat="50.19882" lon="-4.91676"></trkpt>
      <trkpt lat="50.1994" lon="-4.9161"></trkpt>
      <trkpt lat="50.19997" lon="-4.91551"></trkpt>
      <trkpt lat="50.20007" lon="-4.91508"></trkpt>
      <trkpt lat="50.20047" lon="-4.91419"></trkpt>
      <trkpt lat="50.20062" lon="-4.91403"></trkpt>
      <trkpt lat="50.20065" lon="-4.91396"></trkpt>
      <trkpt lat="50.20066" lon="-4.91387"></trkpt>
      <trkpt lat="50.20062" lon="-4.91372"></trkpt>
      <trkpt lat="50.20049" lon="-4.91348"></trkpt>
      <trkpt lat="50.20036" lon="-4.91308"></trkpt>
      <trkpt lat="50.20035" lon="-4.91291"></trkpt>
      <trkpt lat="50.20039" lon="-4.91273"></trkpt>
      <trkpt lat="50.20048" lon="-4.91261"></trkpt>
      <trkpt lat="50.20058" lon="-4.91252"></trkpt>
      <trkpt lat="50.20073" lon="-4.91247"></trkpt>
      <trkpt lat="50.20185" lon="-4.91241"></trkpt>
      <trkpt lat="50.20214" lon="-4.91225"></trkpt>
      <trkpt lat="50.20235" lon="-4.91209"></trkpt>
      <trkpt lat="50.20239" lon="-4.91202"></trkpt>
      <trkpt lat="50.20246" lon="-4.912"></trkpt>
      <trkpt lat="50.20267" lon="-4.91216"></trkpt>
      <trkpt lat="50.20322" lon="-4.91244"></trkpt>
      <trkpt lat="50.20361" lon="-4.91252"></trkpt>
      <trkpt lat="50.20394" lon="-4.91272"></trkpt>
      <trkpt lat="50.20416" lon="-4.91272"></trkpt>
      <trkpt lat="50.20486" lon="-4.91313"></trkpt>
      <trkpt lat="50.20493" lon="-4.91315"></trkpt>
      <trkpt lat="50.20503" lon="-4.91314"></trkpt>
      <trkpt lat="50.20555" lon="-4.91283"></trkpt>
      <trkpt lat="50.20579" lon="-4.91257"></trkpt>
      <trkpt lat="50.2059" lon="-4.91237"></trkpt>
      <trkpt lat="50.20593" lon="-4.91226"></trkpt>
      <trkpt lat="50.20594" lon="-4.91217"></trkpt>
      <trkpt lat="50.20593" lon="-4.91207"></trkpt>
      <trkpt lat="50.20586" lon="-4.91186"></trkpt>
      <trkpt lat="50.20585" lon="-4.91177"></trkpt>
      <trkpt lat="50.20593" lon="-4.91107"></trkpt>
      <trkpt lat="50.20605" lon="-4.91061"></trkpt>
      <trkpt lat="50.20623" lon="-4.91017"></trkpt>
      <trkpt lat="50.20662" lon="-4.90963"></trkpt>
      <trkpt lat="50.20669" lon="-4.90944"></trkpt>
      <trkpt lat="50.20673" lon="-4.90924"></trkpt>
      <trkpt lat="50.20672" lon="-4.90915"></trkpt>
      <trkpt lat="50.20667" lon="-4.90902"></trkpt>
      <trkpt lat="50.20665" lon="-4.90885"></trkpt>
      <trkpt lat="50.20674" lon="-4.90843"></trkpt>
      <trkpt lat="50.20674" lon="-4.90828"></trkpt>
      <trkpt lat="50.20666" lon="-4.90786"></trkpt>
      <trkpt lat="50.20661" lon="-4.90722"></trkpt>
      <trkpt lat="50.20652" lon="-4.90654"></trkpt>
      <trkpt lat="50.2065" lon="-4.90619"></trkpt>
      <trkpt lat="50.20646" lon="-4.9056"></trkpt>
      <trkpt lat="50.20638" lon="-4.90534"></trkpt>
      <trkpt lat="50.20639" lon="-4.90522"></trkpt>
      <trkpt lat="50.20644" lon="-4.90513"></trkpt>
      <trkpt lat="50.20661" lon="-4.90492"></trkpt>
      <trkpt lat="50.20687" lon="-4.90475"></trkpt>
      <trkpt lat="50.20725" lon="-4.90438"></trkpt>
      <trkpt lat="50.20757" lon="-4.90417"></trkpt>
      <trkpt lat="50.20774" lon="-4.90415"></trkpt>
      <trkpt lat="50.2078" lon="-4.90421"></trkpt>
      <trkpt lat="50.20784" lon="-4.90459"></trkpt>
      <trkpt lat="50.20803" lon="-4.90535"></trkpt>
      <trkpt lat="50.20839" lon="-4.90565"></trkpt>
      <trkpt lat="50.20922" lon="-4.90575"></trkpt>
      <trkpt lat="50.20928" lon="-4.9057"></trkpt>
      <trkpt lat="50.20932" lon="-4.90571"></trkpt>
      <trkpt lat="50.20941" lon="-4.90578"></trkpt>
      <trkpt lat="50.20943" lon="-4.90584"></trkpt>
      <trkpt lat="50.20958" lon="-4.90587"></trkpt>
      <trkpt lat="50.20971" lon="-4.90586"></trkpt>
      <trkpt lat="50.20978" lon="-4.90569"></trkpt>
      <trkpt lat="50.20986" lon="-4.90527"></trkpt>
      <trkpt lat="50.20993" lon="-4.90507"></trkpt>
      <trkpt lat="50.21006" lon="-4.90484"></trkpt>
      <trkpt lat="50.21015" lon="-4.90463"></trkpt>
      <trkpt lat="50.2104" lon="-4.90454"></trkpt>
      <trkpt lat="50.21067" lon="-4.90436"></trkpt>
      <trkpt lat="50.21083" lon="-4.90419"></trkpt>
      <trkpt lat="50.21094" lon="-4.90399"></trkpt>
      <trkpt lat="50.21101" lon="-4.90396"></trkpt>
      <trkpt lat="50.21113" lon="-4.90398"></trkpt>
      <trkpt lat="50.21122" lon="-4.90395"></trkpt>
      <trkpt lat="50.21131" lon="-4.90397"></trkpt>
      <trkpt lat="50.21146" lon="-4.90433"></trkpt>
      <trkpt lat="50.21153" lon="-4.90433"></trkpt>
      <trkpt lat="50.2118" lon="-4.90391"></trkpt>
      <trkpt lat="50.21198" lon="-4.90367"></trkpt>
      <trkpt lat="50.21209" lon="-4.90364"></trkpt>
      <trkpt lat="50.21245" lon="-4.90329"></trkpt>
      <trkpt lat="50.21262" lon="-4.90321"></trkpt>
      <trkpt lat="50.2127" lon="-4.90314"></trkpt>
      <trkpt lat="50.21272" lon="-4.90315"></trkpt>
      <trkpt lat="50.21272" lon="-4.90317"></trkpt>
      <trkpt lat="50.21268" lon="-4.90331"></trkpt>
      <trkpt lat="50.21262" lon="-4.90345"></trkpt>
      <trkpt lat="50.21277" lon="-4.90344"></trkpt>
      <trkpt lat="50.21293" lon="-4.90333"></trkpt>
      <trkpt lat="50.21301" lon="-4.90315"></trkpt>
      <trkpt lat="50.21309" lon="-4.90309"></trkpt>
      <trkpt lat="50.21338" lon="-4.90293"></trkpt>
      <trkpt lat="50.2134" lon="-4.9028"></trkpt>
      <trkpt lat="50.21342" lon="-4.90278"></trkpt>
      <trkpt lat="50.21361" lon="-4.9027"></trkpt>
      <trkpt lat="50.2136" lon="-4.90282"></trkpt>
      <trkpt lat="50.21345" lon="-4.9031"></trkpt>
      <trkpt lat="50.21346" lon="-4.90314"></trkpt>
      <trkpt lat="50.21355" lon="-4.90316"></trkpt>
      <trkpt lat="50.21367" lon="-4.90314"></trkpt>
      <trkpt lat="50.21382" lon="-4.90305"></trkpt>
      <trkpt lat="50.21386" lon="-4.90306"></trkpt>
      <trkpt lat="50.21397" lon="-4.90292"></trkpt>
      <trkpt lat="50.21403" lon="-4.90278"></trkpt>
      <trkpt lat="50.21411" lon="-4.90271"></trkpt>
      <trkpt lat="50.21445" lon="-4.90191"></trkpt>
      <trkpt lat="50.21456" lon="-4.90172"></trkpt>
      <trkpt lat="50.21466" lon="-4.90166"></trkpt>
      <trkpt lat="50.2147" lon="-4.90141"></trkpt>
      <trkpt lat="50.21473" lon="-4.90139"></trkpt>
      <trkpt lat="50.21477" lon="-4.90139"></trkpt>
      <trkpt lat="50.21486" lon="-4.90072"></trkpt>
      <trkpt lat="50.21486" lon="-4.90009"></trkpt>
      <trkpt lat="50.21488" lon="-4.89968"></trkpt>
      <trkpt lat="50.21478" lon="-4.8995"></trkpt>
      <trkpt lat="50.21476" lon="-4.8994"></trkpt>
      <trkpt lat="50.21475" lon="-4.8991"></trkpt>
      <trkpt lat="50.21477" lon="-4.89885"></trkpt>
      <trkpt lat="50.21474" lon="-4.89879"></trkpt>
      <trkpt lat="50.21456" lon="-4.89863"></trkpt>
      <trkpt lat="50.21449" lon="-4.89853"></trkpt>
      <trkpt lat="50.21435" lon="-4.8977"></trkpt>
      <trkpt lat="50.21429" lon="-4.89747"></trkpt>
      <trkpt lat="50.21423" lon="-4.89734"></trkpt>
      <trkpt lat="50.21415" lon="-4.89706"></trkpt>
      <trkpt lat="50.21416" lon="-4.89703"></trkpt>
      <trkpt lat="50.21441" lon="-4.89671"></trkpt>
      <trkpt lat="50.21447" lon="-4.89652"></trkpt>
      <trkpt lat="50.21458" lon="-4.89632"></trkpt>
      <trkpt lat="50.21482" lon="-4.89612"></trkpt>
      <trkpt lat="50.21506" lon="-4.89567"></trkpt>
      <trkpt lat="50.21533" lon="-4.89497"></trkpt>
      <trkpt lat="50.21541" lon="-4.89488"></trkpt>
      <trkpt lat="50.21549" lon="-4.89484"></trkpt>
      <trkpt lat="50.21568" lon="-4.89469"></trkpt>
      <trkpt lat="50.21574" lon="-4.89469"></trkpt>
      <trkpt lat="50.21613" lon="-4.89488"></trkpt>
      <trkpt lat="50.21621" lon="-4.89499"></trkpt>
      <trkpt lat="50.21631" lon="-4.89501"></trkpt>
      <trkpt lat="50.21642" lon="-4.89499"></trkpt>
      <trkpt lat="50.21656" lon="-4.89478"></trkpt>
      <trkpt lat="50.21666" lon="-4.89459"></trkpt>
      <trkpt lat="50.21671" lon="-4.89457"></trkpt>
      <trkpt lat="50.21691" lon="-4.89458"></trkpt>
      <trkpt lat="50.21695" lon="-4.89446"></trkpt>
      <trkpt lat="50.21699" lon="-4.89445"></trkpt>
      <trkpt lat="50.21717" lon="-4.89395"></trkpt>
      <trkpt lat="50.21734" lon="-4.89356"></trkpt>
      <trkpt lat="50.21737" lon="-4.89352"></trkpt>
      <trkpt lat="50.21748" lon="-4.89347"></trkpt>
      <trkpt lat="50.2177" lon="-4.89315"></trkpt>
      <trkpt lat="50.21777" lon="-4.89298"></trkpt>
      <trkpt lat="50.21791" lon="-4.89275"></trkpt>
      <trkpt lat="50.21796" lon="-4.8925"></trkpt>
      <trkpt lat="50.21802" lon="-4.89264"></trkpt>
      <trkpt lat="50.21823" lon="-4.89213"></trkpt>
      <trkpt lat="50.21829" lon="-4.89192"></trkpt>
      <trkpt lat="50.2183" lon="-4.8918"></trkpt>
      <trkpt lat="50.21834" lon="-4.89175"></trkpt>
      <trkpt lat="50.21831" lon="-4.89164"></trkpt>
      <trkpt lat="50.21837" lon="-4.89202"></trkpt>
      <trkpt lat="50.2184" lon="-4.89211"></trkpt>
      <trkpt lat="50.21845" lon="-4.89217"></trkpt>
      <trkpt lat="50.21855" lon="-4.89221"></trkpt>
      <trkpt lat="50.21859" lon="-4.89227"></trkpt>
      <trkpt lat="50.21868" lon="-4.89223"></trkpt>
      <trkpt lat="50.21875" lon="-4.89223"></trkpt>
      <trkpt lat="50.21881" lon="-4.8919"></trkpt>
      <trkpt lat="50.21885" lon="-4.89183"></trkpt>
      <trkpt lat="50.21886" lon="-4.89176"></trkpt>
    </trkseg>
  </trk>
</gpx>
