<?xml version="1.0" encoding="UTF-8"?>
<gpx version="1.1" creator="swcp-walk (imported from OS Maps route 33845138)"
     xmlns="http://www.topografix.com/GPX/1/1">
  <metadata>
    <name>SWCP31-Portloe-Mevagissey</name>
  </metadata>
  <trk>
    <name>SWCP31-Portloe-Mevagissey</name>
    <trkseg>
      <trkpt lat="50.218771305251124" lon="-4.892168807325419"></trkpt>
      <trkpt lat="50.21876" lon="-4.89217"></trkpt>
      <trkpt lat="50.21875" lon="-4.89223"></trkpt>
      <trkpt lat="50.21866" lon="-4.89224"></trkpt>
      <trkpt lat="50.21874" lon="-4.89172"></trkpt>
      <trkpt lat="50.21884" lon="-4.89132"></trkpt>
      <trkpt lat="50.21891" lon="-4.89113"></trkpt>
      <trkpt lat="50.21896" lon="-4.89118"></trkpt>
      <trkpt lat="50.21901" lon="-4.89115"></trkpt>
      <trkpt lat="50.21903" lon="-4.89119"></trkpt>
      <trkpt lat="50.21905" lon="-4.89119"></trkpt>
      <trkpt lat="50.21909" lon="-4.8911"></trkpt>
      <trkpt lat="50.21926" lon="-4.89099"></trkpt>
      <trkpt lat="50.21926" lon="-4.89093"></trkpt>
      <trkpt lat="50.21933" lon="-4.89085"></trkpt>
      <trkpt lat="50.21943" lon="-4.89077"></trkpt>
      <trkpt lat="50.2195" lon="-4.89075"></trkpt>
      <trkpt lat="50.2195" lon="-4.8906"></trkpt>
      <trkpt lat="50.21925" lon="-4.89049"></trkpt>
      <trkpt lat="50.21928" lon="-4.8903"></trkpt>
      <trkpt lat="50.21921" lon="-4.89024"></trkpt>
      <trkpt lat="50.21916" lon="-4.89023"></trkpt>
      <trkpt lat="50.2191" lon="-4.89017"></trkpt>
      <trkpt lat="50.2191" lon="-4.89005"></trkpt>
      <trkpt lat="50.21908" lon="-4.88997"></trkpt>
      <trkpt lat="50.21912" lon="-4.88953"></trkpt>
      <trkpt lat="50.2191" lon="-4.88932"></trkpt>
      <trkpt lat="50.21933" lon="-4.88874"></trkpt>
      <trkpt lat="50.21949" lon="-4.88858"></trkpt>
      <trkpt lat="50.21968" lon="-4.88846"></trkpt>
      <trkpt lat="50.21973" lon="-4.88851"></trkpt>
      <trkpt lat="50.21979" lon="-4.88854"></trkpt>
      <trkpt lat="50.21984" lon="-4.88852"></trkpt>
      <trkpt lat="50.21993" lon="-4.88843"></trkpt>
      <trkpt lat="50.21995" lon="-4.88836"></trkpt>
      <trkpt lat="50.21995" lon="-4.88823"></trkpt>
      <trkpt lat="50.22003" lon="-4.88798"></trkpt>
      <trkpt lat="50.22012" lon="-4.88781"></trkpt>
      <trkpt lat="50.22043" lon="-4.88731"></trkpt>
      <trkpt lat="50.22049" lon="-4.88724"></trkpt>
      <trkpt lat="50.22078" lon="-4.88707"></trkpt>
      <trkpt lat="50.22103" lon="-4.88678"></trkpt>
      <trkpt lat="50.22106" lon="-4.88652"></trkpt>
      <trkpt lat="50.22104" lon="-4.88617"></trkpt>
      <trkpt lat="50.22106" lon="-4.8861"></trkpt>
      <trkpt lat="50.22124" lon="-4.88587"></trkpt>
      <trkpt lat="50.22143" lon="-4.88558"></trkpt>
      <trkpt lat="50.22161" lon="-4.8855"></trkpt>
      <trkpt lat="50.22187" lon="-4.88563"></trkpt>
      <trkpt lat="50.22198" lon="-4.8856"></trkpt>
      <trkpt lat="50.22211" lon="-4.8856"></trkpt>
      <trkpt lat="50.22224" lon="-4.88569"></trkpt>
      <trkpt lat="50.22231" lon="-4.88563"></trkpt>
      <trkpt lat="50.22239" lon="-4.88546"></trkpt>
      <trkpt lat="50.22261" lon="-4.88486"></trkpt>
      <trkpt lat="50.22265" lon="-4.88484"></trkpt>
      <trkpt lat="50.22287" lon="-4.88481"></trkpt>
      <trkpt lat="50.22298" lon="-4.88469"></trkpt>
      <trkpt lat="50.22306" lon="-4.88453"></trkpt>
      <trkpt lat="50.22314" lon="-4.88446"></trkpt>
      <trkpt lat="50.22319" lon="-4.88445"></trkpt>
      <trkpt lat="50.22323" lon="-4.88441"></trkpt>
      <trkpt lat="50.22333" lon="-4.88438"></trkpt>
      <trkpt lat="50.2234" lon="-4.88429"></trkpt>
      <trkpt lat="50.22345" lon="-4.88419"></trkpt>
      <trkpt lat="50.22352" lon="-4.88393"></trkpt>
      <trkpt lat="50.22357" lon="-4.88388"></trkpt>
      <trkpt lat="50.22397" lon="-4.88368"></trkpt>
      <trkpt lat="50.22427" lon="-4.88344"></trkpt>
      <trkpt lat="50.22429" lon="-4.8834"></trkpt>
      <trkpt lat="50.22427" lon="-4.88323"></trkpt>
      <trkpt lat="50.22428" lon="-4.88319"></trkpt>
      <trkpt lat="50.22431" lon="-4.88315"></trkpt>
      <trkpt lat="50.22457" lon="-4.88306"></trkpt>
      <trkpt lat="50.22465" lon="-4.88297"></trkpt>
      <trkpt lat="50.22469" lon="-4.8829"></trkpt>
      <trkpt lat="50.22471" lon="-4.8828"></trkpt>
      <trkpt lat="50.22469" lon="-4.88266"></trkpt>
      <trkpt lat="50.22462" lon="-4.88245"></trkpt>
      <trkpt lat="50.22455" lon="-4.88236"></trkpt>
      <trkpt lat="50.22442" lon="-4.88225"></trkpt>
      <trkpt lat="50.2243" lon="-4.88207"></trkpt>
      <trkpt lat="50.2242" lon="-4.88185"></trkpt>
      <trkpt lat="50.22398" lon="-4.88103"></trkpt>
      <trkpt lat="50.22391" lon="-4.88078"></trkpt>
      <trkpt lat="50.22387" lon="-4.8805"></trkpt>
      <trkpt lat="50.22384" lon="-4.88017"></trkpt>
      <trkpt lat="50.22388" lon="-4.87999"></trkpt>
      <trkpt lat="50.22391" lon="-4.87997"></trkpt>
      <trkpt lat="50.22394" lon="-4.87997"></trkpt>
      <trkpt lat="50.22397" lon="-4.88"></trkpt>
      <trkpt lat="50.22421" lon="-4.87996"></trkpt>
      <trkpt lat="50.22433" lon="-4.87989"></trkpt>
      <trkpt lat="50.22437" lon="-4.87984"></trkpt>
      <trkpt lat="50.22438" lon="-4.87969"></trkpt>
      <trkpt lat="50.22448" lon="-4.87958"></trkpt>
      <trkpt lat="50.22451" lon="-4.87948"></trkpt>
      <trkpt lat="50.22453" lon="-4.87927"></trkpt>
      <trkpt lat="50.22457" lon="-4.87917"></trkpt>
      <trkpt lat="50.2247" lon="-4.87898"></trkpt>
      <trkpt lat="50.22478" lon="-4.87882"></trkpt>
      <trkpt lat="50.22486" lon="-4.8787"></trkpt>
      <trkpt lat="50.22491" lon="-4.87864"></trkpt>
      <trkpt lat="50.2252" lon="-4.87803"></trkpt>
      <trkpt lat="50.22521" lon="-4.87791"></trkpt>
      <trkpt lat="50.22526" lon="-4.87801"></trkpt>
      <trkpt lat="50.22527" lon="-4.878"></trkpt>
      <trkpt lat="50.22546" lon="-4.87749"></trkpt>
      <trkpt lat="50.22559" lon="-4.87738"></trkpt>
      <trkpt lat="50.22669" lon="-4.8768"></trkpt>
      <trkpt lat="50.22699" lon="-4.87662"></trkpt>
      <trkpt lat="50.22711" lon="-4.87658"></trkpt>
      <trkpt lat="50.22729" lon="-4.87642"></trkpt>
      <trkpt lat="50.2279" lon="-4.87614"></trkpt>
      <trkpt lat="50.22797" lon="-4.87608"></trkpt>
      <trkpt lat="50.22806" lon="-4.87608"></trkpt>
      <trkpt lat="50.22818" lon="-4.87602"></trkpt>
      <trkpt lat="50.22822" lon="-4.87602"></trkpt>
      <trkpt lat="50.22824" lon="-4.87606"></trkpt>
      <trkpt lat="50.22829" lon="-4.87607"></trkpt>
      <trkpt lat="50.22845" lon="-4.87602"></trkpt>
      <trkpt lat="50.2285" lon="-4.87595"></trkpt>
      <trkpt lat="50.22866" lon="-4.87586"></trkpt>
      <trkpt lat="50.22877" lon="-4.87571"></trkpt>
      <trkpt lat="50.22886" lon="-4.87554"></trkpt>
      <trkpt lat="50.2289" lon="-4.87541"></trkpt>
      <trkpt lat="50.22894" lon="-4.87515"></trkpt>
      <trkpt lat="50.22897" lon="-4.87508"></trkpt>
      <trkpt lat="50.22906" lon="-4.87496"></trkpt>
      <trkpt lat="50.22912" lon="-4.87493"></trkpt>
      <trkpt lat="50.22965" lon="-4.87493"></trkpt>
      <trkpt lat="50.22986" lon="-4.87491"></trkpt>
      <trkpt lat="50.22999" lon="-4.87485"></trkpt>
      <trkpt lat="50.23007" lon="-4.87477"></trkpt>
      <trkpt lat="50.23024" lon="-4.87471"></trkpt>
      <trkpt lat="50.23065" lon="-4.87467"></trkpt>
      <trkpt lat="50.23082" lon="-4.87461"></trkpt>
      <trkpt lat="50.23106" lon="-4.87448"></trkpt>
      <trkpt lat="50.2312" lon="-4.87426"></trkpt>
      <trkpt lat="50.23128" lon="-4.87417"></trkpt>
      <trkpt lat="50.23131" lon="-4.87402"></trkpt>
      <trkpt lat="50.23142" lon="-4.87394"></trkpt>
      <trkpt lat="50.23152" lon="-4.87379"></trkpt>
      <trkpt lat="50.23164" lon="-4.87344"></trkpt>
      <trkpt lat="50.23195" lon="-4.87299"></trkpt>
      <trkpt lat="50.23217" lon="-4.87285"></trkpt>
      <trkpt lat="50.23258" lon="-4.87239"></trkpt>
      <trkpt lat="50.23277" lon="-4.87198"></trkpt>
      <trkpt lat="50.23307" lon="-4.87203"></trkpt>
      <trkpt lat="50.23333" lon="-4.87217"></trkpt>
      <trkpt lat="50.23353" lon="-4.87222"></trkpt>
      <trkpt lat="50.23364" lon="-4.87216"></trkpt>
      <trkpt lat="50.23373" lon="-4.87189"></trkpt>
      <trkpt lat="50.23386" lon="-4.87098"></trkpt>
      <trkpt lat="50.23397" lon="-4.87053"></trkpt>
      <trkpt lat="50.23408" lon="-4.87019"></trkpt>
      <trkpt lat="50.23413" lon="-4.86982"></trkpt>
      <trkpt lat="50.23423" lon="-4.86943"></trkpt>
      <trkpt lat="50.23427" lon="-4.8691"></trkpt>
      <trkpt lat="50.23432" lon="-4.86844"></trkpt>
      <trkpt lat="50.23434" lon="-4.86837"></trkpt>
      <trkpt lat="50.2345" lon="-4.86831"></trkpt>
      <trkpt lat="50.23455" lon="-4.86822"></trkpt>
      <trkpt lat="50.23455" lon="-4.86817"></trkpt>
      <trkpt lat="50.23449" lon="-4.86809"></trkpt>
      <trkpt lat="50.23437" lon="-4.86775"></trkpt>
      <trkpt lat="50.23434" lon="-4.86742"></trkpt>
      <trkpt lat="50.2343" lon="-4.8672"></trkpt>
      <trkpt lat="50.23423" lon="-4.86698"></trkpt>
      <trkpt lat="50.23422" lon="-4.86683"></trkpt>
      <trkpt lat="50.23429" lon="-4.86654"></trkpt>
      <trkpt lat="50.2344" lon="-4.86639"></trkpt>
      <trkpt lat="50.23451" lon="-4.86632"></trkpt>
      <trkpt lat="50.23479" lon="-4.86648"></trkpt>
      <trkpt lat="50.23482" lon="-4.86642"></trkpt>
      <trkpt lat="50.23488" lon="-4.86635"></trkpt>
      <trkpt lat="50.23513" lon="-4.86682"></trkpt>
      <trkpt lat="50.23519" lon="-4.86674"></trkpt>
      <trkpt lat="50.23522" lon="-4.86655"></trkpt>
      <trkpt lat="50.23515" lon="-4.86599"></trkpt>
      <trkpt lat="50.2351" lon="-4.86575"></trkpt>
      <trkpt lat="50.2351" lon="-4.86556"></trkpt>
      <trkpt lat="50.23513" lon="-4.86545"></trkpt>
      <trkpt lat="50.23548" lon="-4.86461"></trkpt>
      <trkpt lat="50.23595" lon="-4.86368"></trkpt>
      <trkpt lat="50.23605" lon="-4.86355"></trkpt>
      <trkpt lat="50.23624" lon="-4.86345"></trkpt>
      <trkpt lat="50.23636" lon="-4.86345"></trkpt>
      <trkpt lat="50.2367" lon="-4.86353"></trkpt>
      <trkpt lat="50.23619" lon="-4.86302"></trkpt>
      <trkpt lat="50.23613" lon="-4.86284"></trkpt>
      <trkpt lat="50.23615" lon="-4.86241"></trkpt>
      <trkpt lat="50.23608" lon="-4.86216"></trkpt>
      <trkpt lat="50.23593" lon="-4.86187"></trkpt>
      <trkpt lat="50.23575" lon="-4.86165"></trkpt>
      <trkpt lat="50.2356" lon="-4.86156"></trkpt>
      <trkpt lat="50.23556" lon="-4.8615"></trkpt>
      <trkpt lat="50.23559" lon="-4.86145"></trkpt>
      <trkpt lat="50.23603" lon="-4.86131"></trkpt>
      <trkpt lat="50.23612" lon="-4.86126"></trkpt>
      <trkpt lat="50.23608" lon="-4.86117"></trkpt>
      <trkpt lat="50.23599" lon="-4.86107"></trkpt>
      <trkpt lat="50.23571" lon="-4.86106"></trkpt>
      <trkpt lat="50.23559" lon="-4.861"></trkpt>
      <trkpt lat="50.23551" lon="-4.86083"></trkpt>
      <trkpt lat="50.23547" lon="-4.86067"></trkpt>
      <trkpt lat="50.23548" lon="-4.86052"></trkpt>
      <trkpt lat="50.23558" lon="-4.86012"></trkpt>
      <trkpt lat="50.23578" lon="-4.85947"></trkpt>
      <trkpt lat="50.23578" lon="-4.85914"></trkpt>
      <trkpt lat="50.23571" lon="-4.85874"></trkpt>
      <trkpt lat="50.2357" lon="-4.85802"></trkpt>
      <trkpt lat="50.23568" lon="-4.85783"></trkpt>
      <trkpt lat="50.23575" lon="-4.85693"></trkpt>
      <trkpt lat="50.23599" lon="-4.85586"></trkpt>
      <trkpt lat="50.23621" lon="-4.85412"></trkpt>
      <trkpt lat="50.23644" lon="-4.85284"></trkpt>
      <trkpt lat="50.23657" lon="-4.85199"></trkpt>
      <trkpt lat="50.23638" lon="-4.85198"></trkpt>
      <trkpt lat="50.2357" lon="-4.85208"></trkpt>
      <trkpt lat="50.23566" lon="-4.85205"></trkpt>
      <trkpt lat="50.2356" lon="-4.85189"></trkpt>
      <trkpt lat="50.23556" lon="-4.85155"></trkpt>
      <trkpt lat="50.23552" lon="-4.85083"></trkpt>
      <trkpt lat="50.23549" lon="-4.85058"></trkpt>
      <trkpt lat="50.23537" lon="-4.85005"></trkpt>
      <trkpt lat="50.23536" lon="-4.84937"></trkpt>
      <trkpt lat="50.23526" lon="-4.84872"></trkpt>
      <trkpt lat="50.23528" lon="-4.84791"></trkpt>
      <trkpt lat="50.23535" lon="-4.84718"></trkpt>
      <trkpt lat="50.23541" lon="-4.84629"></trkpt>
      <trkpt lat="50.23539" lon="-4.84604"></trkpt>
      <trkpt lat="50.2354" lon="-4.84577"></trkpt>
      <trkpt lat="50.23546" lon="-4.84549"></trkpt>
      <trkpt lat="50.23545" lon="-4.84549"></trkpt>
      <trkpt lat="50.23551" lon="-4.84533"></trkpt>
      <trkpt lat="50.23564" lon="-4.84524"></trkpt>
      <trkpt lat="50.23579" lon="-4.8452"></trkpt>
      <trkpt lat="50.23596" lon="-4.84523"></trkpt>
      <trkpt lat="50.23659" lon="-4.84544"></trkpt>
      <trkpt lat="50.23666" lon="-4.84536"></trkpt>
      <trkpt lat="50.23711" lon="-4.84507"></trkpt>
      <trkpt lat="50.23776" lon="-4.84477"></trkpt>
      <trkpt lat="50.23781" lon="-4.84471"></trkpt>
      <trkpt lat="50.23783" lon="-4.84465"></trkpt>
      <trkpt lat="50.23783" lon="-4.84455"></trkpt>
      <trkpt lat="50.23772" lon="-4.84419"></trkpt>
      <trkpt lat="50.2377" lon="-4.84408"></trkpt>
      <trkpt lat="50.23771" lon="-4.84399"></trkpt>
      <trkpt lat="50.2379" lon="-4.84345"></trkpt>
      <trkpt lat="50.238" lon="-4.84309"></trkpt>
      <trkpt lat="50.23802" lon="-4.84292"></trkpt>
      <trkpt lat="50.23802" lon="-4.84277"></trkpt>
      <trkpt lat="50.23792" lon="-4.84213"></trkpt>
      <trkpt lat="50.23798" lon="-4.84173"></trkpt>
      <trkpt lat="50.23809" lon="-4.84138"></trkpt>
      <trkpt lat="50.23805" lon="-4.84134"></trkpt>
      <trkpt lat="50.23806" lon="-4.8412"></trkpt>
      <trkpt lat="50.238" lon="-4.84101"></trkpt>
      <trkpt lat="50.23777" lon="-4.83981"></trkpt>
      <trkpt lat="50.23771" lon="-4.83979"></trkpt>
      <trkpt lat="50.23756" lon="-4.83994"></trkpt>
      <trkpt lat="50.23748" lon="-4.84012"></trkpt>
      <trkpt lat="50.23745" lon="-4.84013"></trkpt>
      <trkpt lat="50.2371" lon="-4.83997"></trkpt>
      <trkpt lat="50.23678" lon="-4.83987"></trkpt>
      <trkpt lat="50.23638" lon="-4.8396"></trkpt>
      <trkpt lat="50.23542" lon="-4.83902"></trkpt>
      <trkpt lat="50.23525" lon="-4.83889"></trkpt>
      <trkpt lat="50.23521" lon="-4.83895"></trkpt>
      <trkpt lat="50.23516" lon="-4.83898"></trkpt>
      <trkpt lat="50.23503" lon="-4.83901"></trkpt>
      <trkpt lat="50.23487" lon="-4.83911"></trkpt>
      <trkpt lat="50.2347" lon="-4.83909"></trkpt>
      <trkpt lat="50.23427" lon="-4.83893"></trkpt>
      <trkpt lat="50.2339" lon="-4.83848"></trkpt>
      <trkpt lat="50.23381" lon="-4.83832"></trkpt>
      <trkpt lat="50.23368" lon="-4.83774"></trkpt>
      <trkpt lat="50.23369" lon="-4.83733"></trkpt>
      <trkpt lat="50.23367" lon="-4.83674"></trkpt>
      <trkpt lat="50.2337" lon="-4.83649"></trkpt>
      <trkpt lat="50.234" lon="-4.83555"></trkpt>
      <trkpt lat="50.23403" lon="-4.83536"></trkpt>
      <trkpt lat="50.23403" lon="-4.83522"></trkpt>
      <trkpt lat="50.23386" lon="-4.8345"></trkpt>
      <trkpt lat="50.23386" lon="-4.83438"></trkpt>
      <trkpt lat="50.2339" lon="-4.83416"></trkpt>
      <trkpt lat="50.23403" lon="-4.83377"></trkpt>
      <trkpt lat="50.23397" lon="-4.83327"></trkpt>
      <trkpt lat="50.23394" lon="-4.83289"></trkpt>
      <trkpt lat="50.23391" lon="-4.83287"></trkpt>
      <trkpt lat="50.23387" lon="-4.8329"></trkpt>
      <trkpt lat="50.23379" lon="-4.83275"></trkpt>
      <trkpt lat="50.23365" lon="-4.83254"></trkpt>
      <trkpt lat="50.23357" lon="-4.83217"></trkpt>
      <trkpt lat="50.23352" lon="-4.83214"></trkpt>
      <trkpt lat="50.23343" lon="-4.83184"></trkpt>
      <trkpt lat="50.23331" lon="-4.8316"></trkpt>
      <trkpt lat="50.23324" lon="-4.83131"></trkpt>
      <trkpt lat="50.23326" lon="-4.8312"></trkpt>
      <trkpt lat="50.23324" lon="-4.83115"></trkpt>
      <trkpt lat="50.23307" lon="-4.831"></trkpt>
      <trkpt lat="50.23289" lon="-4.8308"></trkpt>
      <trkpt lat="50.23266" lon="-4.83062"></trkpt>
      <trkpt lat="50.23255" lon="-4.83056"></trkpt>
      <trkpt lat="50.23249" lon="-4.83047"></trkpt>
      <trkpt lat="50.23245" lon="-4.83044"></trkpt>
      <trkpt lat="50.23235" lon="-4.83021"></trkpt>
      <trkpt lat="50.23222" lon="-4.83017"></trkpt>
      <trkpt lat="50.23216" lon="-4.83006"></trkpt>
      <trkpt lat="50.23217" lon="-4.83001"></trkpt>
      <trkpt lat="50.23201" lon="-4.82995"></trkpt>
      <trkpt lat="50.23181" lon="-4.82991"></trkpt>
      <trkpt lat="50.23175" lon="-4.82982"></trkpt>
      <trkpt lat="50.23176" lon="-4.82974"></trkpt>
      <trkpt lat="50.23175" lon="-4.82967"></trkpt>
      <trkpt lat="50.23163" lon="-4.82946"></trkpt>
      <trkpt lat="50.23162" lon="-4.82941"></trkpt>
      <trkpt lat="50.23167" lon="-4.82932"></trkpt>
      <trkpt lat="50.23173" lon="-4.82894"></trkpt>
      <trkpt lat="50.2317" lon="-4.82891"></trkpt>
      <trkpt lat="50.23155" lon="-4.82889"></trkpt>
      <trkpt lat="50.23152" lon="-4.82885"></trkpt>
      <trkpt lat="50.23147" lon="-4.82889"></trkpt>
      <trkpt lat="50.23139" lon="-4.82882"></trkpt>
      <trkpt lat="50.23131" lon="-4.82879"></trkpt>
      <trkpt lat="50.23123" lon="-4.82851"></trkpt>
      <trkpt lat="50.23115" lon="-4.82844"></trkpt>
      <trkpt lat="50.23104" lon="-4.82806"></trkpt>
      <trkpt lat="50.23108" lon="-4.82775"></trkpt>
      <trkpt lat="50.23105" lon="-4.82756"></trkpt>
      <trkpt lat="50.2311" lon="-4.82737"></trkpt>
      <trkpt lat="50.23111" lon="-4.82722"></trkpt>
      <trkpt lat="50.23118" lon="-4.82703"></trkpt>
      <trkpt lat="50.23125" lon="-4.82701"></trkpt>
      <trkpt lat="50.23129" lon="-4.8269"></trkpt>
      <trkpt lat="50.23134" lon="-4.82691"></trkpt>
      <trkpt lat="50.23138" lon="-4.82689"></trkpt>
      <trkpt lat="50.23139" lon="-4.8268"></trkpt>
      <trkpt lat="50.23135" lon="-4.82672"></trkpt>
      <trkpt lat="50.23135" lon="-4.82668"></trkpt>
      <trkpt lat="50.23137" lon="-4.8266"></trkpt>
      <trkpt lat="50.23137" lon="-4.82646"></trkpt>
      <trkpt lat="50.23142" lon="-4.82641"></trkpt>
      <trkpt lat="50.23143" lon="-4.82637"></trkpt>
      <trkpt lat="50.23145" lon="-4.82615"></trkpt>
      <trkpt lat="50.23144" lon="-4.82606"></trkpt>
      <trkpt lat="50.23148" lon="-4.8259"></trkpt>
      <trkpt lat="50.23158" lon="-4.82571"></trkpt>
      <trkpt lat="50.23161" lon="-4.82555"></trkpt>
      <trkpt lat="50.23167" lon="-4.82546"></trkpt>
      <trkpt lat="50.23167" lon="-4.82534"></trkpt>
      <trkpt lat="50.23163" lon="-4.8251"></trkpt>
      <trkpt lat="50.23165" lon="-4.82477"></trkpt>
      <trkpt lat="50.23163" lon="-4.82467"></trkpt>
      <trkpt lat="50.23162" lon="-4.82449"></trkpt>
      <trkpt lat="50.23156" lon="-4.82434"></trkpt>
      <trkpt lat="50.23154" lon="-4.82422"></trkpt>
      <trkpt lat="50.23155" lon="-4.82413"></trkpt>
      <trkpt lat="50.23161" lon="-4.82393"></trkpt>
      <trkpt lat="50.23166" lon="-4.82386"></trkpt>
      <trkpt lat="50.2318" lon="-4.82374"></trkpt>
      <trkpt lat="50.23182" lon="-4.82368"></trkpt>
      <trkpt lat="50.23184" lon="-4.82349"></trkpt>
      <trkpt lat="50.23191" lon="-4.82332"></trkpt>
      <trkpt lat="50.23207" lon="-4.82268"></trkpt>
      <trkpt lat="50.23211" lon="-4.82231"></trkpt>
      <trkpt lat="50.23207" lon="-4.82181"></trkpt>
      <trkpt lat="50.23206" lon="-4.82142"></trkpt>
      <trkpt lat="50.23207" lon="-4.82132"></trkpt>
      <trkpt lat="50.23215" lon="-4.82115"></trkpt>
      <trkpt lat="50.23226" lon="-4.82078"></trkpt>
      <trkpt lat="50.23231" lon="-4.82052"></trkpt>
      <trkpt lat="50.23234" lon="-4.82009"></trkpt>
      <trkpt lat="50.23232" lon="-4.81994"></trkpt>
      <trkpt lat="50.23222" lon="-4.81954"></trkpt>
      <trkpt lat="50.23215" lon="-4.81933"></trkpt>
      <trkpt lat="50.23206" lon="-4.81917"></trkpt>
      <trkpt lat="50.23189" lon="-4.81896"></trkpt>
      <trkpt lat="50.23192" lon="-4.81883"></trkpt>
      <trkpt lat="50.23194" lon="-4.81879"></trkpt>
      <trkpt lat="50.23186" lon="-4.81858"></trkpt>
      <trkpt lat="50.23167" lon="-4.81781"></trkpt>
      <trkpt lat="50.23123" lon="-4.81744"></trkpt>
      <trkpt lat="50.2312" lon="-4.81741"></trkpt>
      <trkpt lat="50.23097" lon="-4.81699"></trkpt>
      <trkpt lat="50.2309" lon="-4.81679"></trkpt>
      <trkpt lat="50.23102" lon="-4.81637"></trkpt>
      <trkpt lat="50.23103" lon="-4.81624"></trkpt>
      <trkpt lat="50.23085" lon="-4.81568"></trkpt>
      <trkpt lat="50.23065" lon="-4.81461"></trkpt>
      <trkpt lat="50.23064" lon="-4.81417"></trkpt>
      <trkpt lat="50.23056" lon="-4.81413"></trkpt>
      <trkpt lat="50.23054" lon="-4.81403"></trkpt>
      <trkpt lat="50.23055" lon="-4.81379"></trkpt>
      <trkpt lat="50.23057" lon="-4.81374"></trkpt>
      <trkpt lat="50.23054" lon="-4.81366"></trkpt>
      <trkpt lat="50.23055" lon="-4.81359"></trkpt>
      <trkpt lat="50.23058" lon="-4.81352"></trkpt>
      <trkpt lat="50.23068" lon="-4.81347"></trkpt>
      <trkpt lat="50.23068" lon="-4.81336"></trkpt>
      <trkpt lat="50.23064" lon="-4.81331"></trkpt>
      <trkpt lat="50.23052" lon="-4.81326"></trkpt>
      <trkpt lat="50.23038" lon="-4.81309"></trkpt>
      <trkpt lat="50.23034" lon="-4.813"></trkpt>
      <trkpt lat="50.23034" lon="-4.81295"></trkpt>
      <trkpt lat="50.22995" lon="-4.81266"></trkpt>
      <trkpt lat="50.22976" lon="-4.81247"></trkpt>
      <trkpt lat="50.22937" lon="-4.81227"></trkpt>
      <trkpt lat="50.22915" lon="-4.81221"></trkpt>
      <trkpt lat="50.22905" lon="-4.81215"></trkpt>
      <trkpt lat="50.22894" lon="-4.81197"></trkpt>
      <trkpt lat="50.22878" lon="-4.81185"></trkpt>
      <trkpt lat="50.22872" lon="-4.81175"></trkpt>
      <trkpt lat="50.22866" lon="-4.8117"></trkpt>
      <trkpt lat="50.2285" lon="-4.81173"></trkpt>
      <trkpt lat="50.22838" lon="-4.81169"></trkpt>
      <trkpt lat="50.22834" lon="-4.81167"></trkpt>
      <trkpt lat="50.22812" lon="-4.8117"></trkpt>
      <trkpt lat="50.22803" lon="-4.81167"></trkpt>
      <trkpt lat="50.22784" lon="-4.81169"></trkpt>
      <trkpt lat="50.22776" lon="-4.81172"></trkpt>
      <trkpt lat="50.22721" lon="-4.81172"></trkpt>
      <trkpt lat="50.22697" lon="-4.81167"></trkpt>
      <trkpt lat="50.22642" lon="-4.81176"></trkpt>
      <trkpt lat="50.22591" lon="-4.81164"></trkpt>
      <trkpt lat="50.22563" lon="-4.81143"></trkpt>
      <trkpt lat="50.22551" lon="-4.81124"></trkpt>
      <trkpt lat="50.22546" lon="-4.81106"></trkpt>
      <trkpt lat="50.22549" lon="-4.81042"></trkpt>
      <trkpt lat="50.22547" lon="-4.81026"></trkpt>
      <trkpt lat="50.22534" lon="-4.81004"></trkpt>
      <trkpt lat="50.22517" lon="-4.80993"></trkpt>
      <trkpt lat="50.22493" lon="-4.80983"></trkpt>
      <trkpt lat="50.22489" lon="-4.80974"></trkpt>
      <trkpt lat="50.22476" lon="-4.80965"></trkpt>
      <trkpt lat="50.22448" lon="-4.80961"></trkpt>
      <trkpt lat="50.22443" lon="-4.80957"></trkpt>
      <trkpt lat="50.22438" lon="-4.8095"></trkpt>
      <trkpt lat="50.22445" lon="-4.80945"></trkpt>
      <trkpt lat="50.2245" lon="-4.80939"></trkpt>
      <trkpt lat="50.22452" lon="-4.8093"></trkpt>
      <trkpt lat="50.22451" lon="-4.80916"></trkpt>
      <trkpt lat="50.2244" lon="-4.80876"></trkpt>
      <trkpt lat="50.22443" lon="-4.80794"></trkpt>
      <trkpt lat="50.22437" lon="-4.80771"></trkpt>
      <trkpt lat="50.22407" lon="-4.80725"></trkpt>
      <trkpt lat="50.22367" lon="-4.80677"></trkpt>
      <trkpt lat="50.22359" lon="-4.80686"></trkpt>
      <trkpt lat="50.22355" lon="-4.80686"></trkpt>
      <trkpt lat="50.22263" lon="-4.80606"></trkpt>
      <trkpt lat="50.22231" lon="-4.80554"></trkpt>
      <trkpt lat="50.22218" lon="-4.80544"></trkpt>
      <trkpt lat="50.2221" lon="-4.80524"></trkpt>
      <trkpt lat="50.22189" lon="-4.80491"></trkpt>
      <trkpt lat="50.22162" lon="-4.80454"></trkpt>
      <trkpt lat="50.22143" lon="-4.80435"></trkpt>
      <trkpt lat="50.2213" lon="-4.80409"></trkpt>
      <trkpt lat="50.22053" lon="-4.80334"></trkpt>
      <trkpt lat="50.22021" lon="-4.80295"></trkpt>
      <trkpt lat="50.22015" lon="-4.8029"></trkpt>
      <trkpt lat="50.22005" lon="-4.80286"></trkpt>
      <trkpt lat="50.22012" lon="-4.80257"></trkpt>
      <trkpt lat="50.22017" lon="-4.80215"></trkpt>
      <trkpt lat="50.22016" lon="-4.80198"></trkpt>
      <trkpt lat="50.22019" lon="-4.80167"></trkpt>
      <trkpt lat="50.22037" lon="-4.80124"></trkpt>
      <trkpt lat="50.22047" lon="-4.80106"></trkpt>
      <trkpt lat="50.22047" lon="-4.80107"></trkpt>
      <trkpt lat="50.22078" lon="-4.80021"></trkpt>
      <trkpt lat="50.22089" lon="-4.80009"></trkpt>
      <trkpt lat="50.2212" lon="-4.80003"></trkpt>
      <trkpt lat="50.22148" lon="-4.79983"></trkpt>
      <trkpt lat="50.22175" lon="-4.79975"></trkpt>
      <trkpt lat="50.22197" lon="-4.79974"></trkpt>
      <trkpt lat="50.22196" lon="-4.79974"></trkpt>
      <trkpt lat="50.22231" lon="-4.79984"></trkpt>
      <trkpt lat="50.22272" lon="-4.80016"></trkpt>
      <trkpt lat="50.2233" lon="-4.80036"></trkpt>
      <trkpt lat="50.22496" lon="-4.80028"></trkpt>
      <trkpt lat="50.2252" lon="-4.80041"></trkpt>
      <trkpt lat="50.22529" lon="-4.8005"></trkpt>
      <trkpt lat="50.22538" lon="-4.80052"></trkpt>
      <trkpt lat="50.22551" lon="-4.80063"></trkpt>
      <trkpt lat="50.22566" lon="-4.80069"></trkpt>
      <trkpt lat="50.22574" lon="-4.80075"></trkpt>
      <trkpt lat="50.22584" lon="-4.80071"></trkpt>
      <trkpt lat="50.22602" lon="-4.80081"></trkpt>
      <trkpt lat="50.2261" lon="-4.80083"></trkpt>
      <trkpt lat="50.2262" lon="-4.80105"></trkpt>
      <trkpt lat="50.22626" lon="-4.80111"></trkpt>
      <trkpt lat="50.22679" lon="-4.80138"></trkpt>
      <trkpt lat="50.22735" lon="-4.8013"></trkpt>
      <trkpt lat="50.22784" lon="-4.80113"></trkpt>
      <trkpt lat="50.22804" lon="-4.80108"></trkpt>
      <trkpt lat="50.22818" lon="-4.8011"></trkpt>
      <trkpt lat="50.22885" lon="-4.80138"></trkpt>
      <trkpt lat="50.22895" lon="-4.80145"></trkpt>
      <trkpt lat="50.22907" lon="-4.80131"></trkpt>
      <trkpt lat="50.2292" lon="-4.80121"></trkpt>
      <trkpt lat="50.22945" lon="-4.8011"></trkpt>
      <trkpt lat="50.22976" lon="-4.8009"></trkpt>
      <trkpt lat="50.22993" lon="-4.80086"></trkpt>
      <trkpt lat="50.22999" lon="-4.80082"></trkpt>
      <trkpt lat="50.23007" lon="-4.80081"></trkpt>
      <trkpt lat="50.23016" lon="-4.80069"></trkpt>
      <trkpt lat="50.23037" lon="-4.80057"></trkpt>
      <trkpt lat="50.23064" lon="-4.80048"></trkpt>
      <trkpt lat="50.23094" lon="-4.80044"></trkpt>
      <trkpt lat="50.23128" lon="-4.80018"></trkpt>
      <trkpt lat="50.23134" lon="-4.80009"></trkpt>
      <trkpt lat="50.23139" lon="-4.79993"></trkpt>
      <trkpt lat="50.23161" lon="-4.79961"></trkpt>
      <trkpt lat="50.23199" lon="-4.79911"></trkpt>
      <trkpt lat="50.23217" lon="-4.79852"></trkpt>
      <trkpt lat="50.23241" lon="-4.79801"></trkpt>
      <trkpt lat="50.23286" lon="-4.79731"></trkpt>
      <trkpt lat="50.23304" lon="-4.79686"></trkpt>
      <trkpt lat="50.23365" lon="-4.7959"></trkpt>
      <trkpt lat="50.23374" lon="-4.79571"></trkpt>
      <trkpt lat="50.23385" lon="-4.79555"></trkpt>
      <trkpt lat="50.23415" lon="-4.7948"></trkpt>
      <trkpt lat="50.23425" lon="-4.79443"></trkpt>
      <trkpt lat="50.23428" lon="-4.79422"></trkpt>
      <trkpt lat="50.23436" lon="-4.794"></trkpt>
      <trkpt lat="50.23439" lon="-4.79376"></trkpt>
      <trkpt lat="50.2344" lon="-4.79351"></trkpt>
      <trkpt lat="50.23448" lon="-4.79337"></trkpt>
      <trkpt lat="50.23454" lon="-4.79334"></trkpt>
      <trkpt lat="50.23456" lon="-4.79331"></trkpt>
      <trkpt lat="50.23458" lon="-4.79296"></trkpt>
      <trkpt lat="50.23462" lon="-4.7929"></trkpt>
      <trkpt lat="50.23462" lon="-4.79273"></trkpt>
      <trkpt lat="50.23472" lon="-4.79218"></trkpt>
      <trkpt lat="50.23494" lon="-4.79134"></trkpt>
      <trkpt lat="50.23494" lon="-4.79135"></trkpt>
      <trkpt lat="50.235" lon="-4.79108"></trkpt>
      <trkpt lat="50.23517" lon="-4.79064"></trkpt>
      <trkpt lat="50.2353" lon="-4.79041"></trkpt>
      <trkpt lat="50.23565" lon="-4.78988"></trkpt>
      <trkpt lat="50.23574" lon="-4.78979"></trkpt>
      <trkpt lat="50.2358" lon="-4.78977"></trkpt>
      <trkpt lat="50.2359" lon="-4.78931"></trkpt>
      <trkpt lat="50.23596" lon="-4.78895"></trkpt>
      <trkpt lat="50.23597" lon="-4.78874"></trkpt>
      <trkpt lat="50.23584" lon="-4.78812"></trkpt>
      <trkpt lat="50.23579" lon="-4.78776"></trkpt>
      <trkpt lat="50.23576" lon="-4.78706"></trkpt>
      <trkpt lat="50.23583" lon="-4.7863"></trkpt>
      <trkpt lat="50.23583" lon="-4.78579"></trkpt>
      <trkpt lat="50.2357" lon="-4.7853"></trkpt>
      <trkpt lat="50.2355" lon="-4.78484"></trkpt>
      <trkpt lat="50.23531" lon="-4.78449"></trkpt>
      <trkpt lat="50.23529" lon="-4.78439"></trkpt>
      <trkpt lat="50.23524" lon="-4.7842"></trkpt>
      <trkpt lat="50.23524" lon="-4.78404"></trkpt>
      <trkpt lat="50.23536" lon="-4.78382"></trkpt>
      <trkpt lat="50.236" lon="-4.78378"></trkpt>
      <trkpt lat="50.23615" lon="-4.78381"></trkpt>
      <trkpt lat="50.23628" lon="-4.7838"></trkpt>
      <trkpt lat="50.23633" lon="-4.78374"></trkpt>
      <trkpt lat="50.23675" lon="-4.78348"></trkpt>
      <trkpt lat="50.23692" lon="-4.78307"></trkpt>
      <trkpt lat="50.23706" lon="-4.78286"></trkpt>
      <trkpt lat="50.23719" lon="-4.78247"></trkpt>
      <trkpt lat="50.23723" lon="-4.78218"></trkpt>
      <trkpt lat="50.23729" lon="-4.78201"></trkpt>
      <trkpt lat="50.2374" lon="-4.78185"></trkpt>
      <trkpt lat="50.2375" lon="-4.78178"></trkpt>
      <trkpt lat="50.2376" lon="-4.78176"></trkpt>
      <trkpt lat="50.23759" lon="-4.78176"></trkpt>
      <trkpt lat="50.23774" lon="-4.78189"></trkpt>
      <trkpt lat="50.23779" lon="-4.78202"></trkpt>
      <trkpt lat="50.23781" lon="-4.78269"></trkpt>
      <trkpt lat="50.23772" lon="-4.78321"></trkpt>
      <trkpt lat="50.23773" lon="-4.78327"></trkpt>
      <trkpt lat="50.23794" lon="-4.78375"></trkpt>
      <trkpt lat="50.23803" lon="-4.78403"></trkpt>
      <trkpt lat="50.2382" lon="-4.78439"></trkpt>
      <trkpt lat="50.2383" lon="-4.78453"></trkpt>
      <trkpt lat="50.23832" lon="-4.78461"></trkpt>
      <trkpt lat="50.23836" lon="-4.78463"></trkpt>
      <trkpt lat="50.23842" lon="-4.78474"></trkpt>
      <trkpt lat="50.23877" lon="-4.78511"></trkpt>
      <trkpt lat="50.23921" lon="-4.78543"></trkpt>
      <trkpt lat="50.23959" lon="-4.78578"></trkpt>
      <trkpt lat="50.23972" lon="-4.78596"></trkpt>
      <trkpt lat="50.23979" lon="-4.78608"></trkpt>
      <trkpt lat="50.23989" lon="-4.78635"></trkpt>
      <trkpt lat="50.24003" lon="-4.78656"></trkpt>
      <trkpt lat="50.24005" lon="-4.78665"></trkpt>
      <trkpt lat="50.24011" lon="-4.78666"></trkpt>
      <trkpt lat="50.24012" lon="-4.7867"></trkpt>
      <trkpt lat="50.24015" lon="-4.78718"></trkpt>
      <trkpt lat="50.24013" lon="-4.7876"></trkpt>
      <trkpt lat="50.24015" lon="-4.78774"></trkpt>
      <trkpt lat="50.24017" lon="-4.78775"></trkpt>
      <trkpt lat="50.24018" lon="-4.78781"></trkpt>
      <trkpt lat="50.24027" lon="-4.78786"></trkpt>
      <trkpt lat="50.24033" lon="-4.78794"></trkpt>
      <trkpt lat="50.24041" lon="-4.7881"></trkpt>
      <trkpt lat="50.24043" lon="-4.78809"></trkpt>
      <trkpt lat="50.24051" lon="-4.7882"></trkpt>
      <trkpt lat="50.24062" lon="-4.78804"></trkpt>
      <trkpt lat="50.24076" lon="-4.78823"></trkpt>
      <trkpt lat="50.24111" lon="-4.78895"></trkpt>
      <trkpt lat="50.24133" lon="-4.78922"></trkpt>
      <trkpt lat="50.24138" lon="-4.78914"></trkpt>
      <trkpt lat="50.24143" lon="-4.78911"></trkpt>
      <trkpt lat="50.24169" lon="-4.78927"></trkpt>
      <trkpt lat="50.24183" lon="-4.78932"></trkpt>
      <trkpt lat="50.24199" lon="-4.78927"></trkpt>
      <trkpt lat="50.24214" lon="-4.78914"></trkpt>
      <trkpt lat="50.2426" lon="-4.78858"></trkpt>
      <trkpt lat="50.24279" lon="-4.78848"></trkpt>
      <trkpt lat="50.24293" lon="-4.78846"></trkpt>
      <trkpt lat="50.2431" lon="-4.78796"></trkpt>
      <trkpt lat="50.24339" lon="-4.78754"></trkpt>
      <trkpt lat="50.24363" lon="-4.78714"></trkpt>
      <trkpt lat="50.2441" lon="-4.78663"></trkpt>
      <trkpt lat="50.2442" lon="-4.78656"></trkpt>
      <trkpt lat="50.24437" lon="-4.78661"></trkpt>
      <trkpt lat="50.24445" lon="-4.78652"></trkpt>
      <trkpt lat="50.24448" lon="-4.78657"></trkpt>
      <trkpt lat="50.24465" lon="-4.78641"></trkpt>
      <trkpt lat="50.24489" lon="-4.78662"></trkpt>
      <trkpt lat="50.24489" lon="-4.78661"></trkpt>
      <trkpt lat="50.24549" lon="-4.78717"></trkpt>
      <trkpt lat="50.2456" lon="-4.78733"></trkpt>
      <trkpt lat="50.24576" lon="-4.78748"></trkpt>
      <trkpt lat="50.24586" lon="-4.7875"></trkpt>
      <trkpt lat="50.24593" lon="-4.78747"></trkpt>
      <trkpt lat="50.24599" lon="-4.78735"></trkpt>
      <trkpt lat="50.24606" lon="-4.78707"></trkpt>
      <trkpt lat="50.24623" lon="-4.78698"></trkpt>
      <trkpt lat="50.24637" lon="-4.78681"></trkpt>
      <trkpt lat="50.2466" lon="-4.78668"></trkpt>
      <trkpt lat="50.24681" lon="-4.78647"></trkpt>
      <trkpt lat="50.24688" lon="-4.78624"></trkpt>
      <trkpt lat="50.24714" lon="-4.78592"></trkpt>
      <trkpt lat="50.2474" lon="-4.78544"></trkpt>
      <trkpt lat="50.24743" lon="-4.78532"></trkpt>
      <trkpt lat="50.24752" lon="-4.78524"></trkpt>
      <trkpt lat="50.24782" lon="-4.78483"></trkpt>
      <trkpt lat="50.24782" lon="-4.78484"></trkpt>
      <trkpt lat="50.24809" lon="-4.78446"></trkpt>
      <trkpt lat="50.24811" lon="-4.78435"></trkpt>
      <trkpt lat="50.24839" lon="-4.78404"></trkpt>
      <trkpt lat="50.24878" lon="-4.78346"></trkpt>
      <trkpt lat="50.24896" lon="-4.78308"></trkpt>
      <trkpt lat="50.24922" lon="-4.78235"></trkpt>
      <trkpt lat="50.24946" lon="-4.78188"></trkpt>
      <trkpt lat="50.24952" lon="-4.78181"></trkpt>
      <trkpt lat="50.24953" lon="-4.78089"></trkpt>
      <trkpt lat="50.24956" lon="-4.78079"></trkpt>
      <trkpt lat="50.25032" lon="-4.78028"></trkpt>
      <trkpt lat="50.25034" lon="-4.78023"></trkpt>
      <trkpt lat="50.25041" lon="-4.77985"></trkpt>
      <trkpt lat="50.25044" lon="-4.77956"></trkpt>
      <trkpt lat="50.25087" lon="-4.77896"></trkpt>
      <trkpt lat="50.25122" lon="-4.77806"></trkpt>
      <trkpt lat="50.25137" lon="-4.77753"></trkpt>
      <trkpt lat="50.25137" lon="-4.77742"></trkpt>
      <trkpt lat="50.25125" lon="-4.77719"></trkpt>
      <trkpt lat="50.25124" lon="-4.77695"></trkpt>
      <trkpt lat="50.25129" lon="-4.77664"></trkpt>
      <trkpt lat="50.2514" lon="-4.77634"></trkpt>
      <trkpt lat="50.25153" lon="-4.77568"></trkpt>
      <trkpt lat="50.25153" lon="-4.7755"></trkpt>
      <trkpt lat="50.25147" lon="-4.77494"></trkpt>
      <trkpt lat="50.25148" lon="-4.77471"></trkpt>
      <trkpt lat="50.25146" lon="-4.77444"></trkpt>
      <trkpt lat="50.25146" lon="-4.77413"></trkpt>
      <trkpt lat="50.25149" lon="-4.7739"></trkpt>
      <trkpt lat="50.25148" lon="-4.77366"></trkpt>
      <trkpt lat="50.25153" lon="-4.77343"></trkpt>
      <trkpt lat="50.2516" lon="-4.77326"></trkpt>
      <trkpt lat="50.25172" lon="-4.77268"></trkpt>
      <trkpt lat="50.25176" lon="-4.77261"></trkpt>
      <trkpt lat="50.2521" lon="-4.7724"></trkpt>
      <trkpt lat="50.25214" lon="-4.77236"></trkpt>
      <trkpt lat="50.25233" lon="-4.7715"></trkpt>
      <trkpt lat="50.25241" lon="-4.77137"></trkpt>
      <trkpt lat="50.25268" lon="-4.77113"></trkpt>
      <trkpt lat="50.25298" lon="-4.7705"></trkpt>
      <trkpt lat="50.25304" lon="-4.77032"></trkpt>
      <trkpt lat="50.25304" lon="-4.77018"></trkpt>
      <trkpt lat="50.253" lon="-4.77007"></trkpt>
      <trkpt lat="50.25298" lon="-4.76986"></trkpt>
      <trkpt lat="50.25307" lon="-4.76978"></trkpt>
      <trkpt lat="50.25348" lon="-4.76968"></trkpt>
      <trkpt lat="50.25354" lon="-4.76961"></trkpt>
      <trkpt lat="50.25357" lon="-4.76926"></trkpt>
      <trkpt lat="50.25367" lon="-4.76878"></trkpt>
      <trkpt lat="50.25386" lon="-4.76874"></trkpt>
      <trkpt lat="50.25385" lon="-4.76874"></trkpt>
      <trkpt lat="50.25416" lon="-4.76872"></trkpt>
      <trkpt lat="50.25421" lon="-4.76881"></trkpt>
      <trkpt lat="50.25424" lon="-4.76906"></trkpt>
      <trkpt lat="50.2543" lon="-4.76922"></trkpt>
      <trkpt lat="50.25446" lon="-4.7694"></trkpt>
      <trkpt lat="50.25463" lon="-4.76967"></trkpt>
      <trkpt lat="50.25482" lon="-4.7699"></trkpt>
      <trkpt lat="50.25481" lon="-4.77031"></trkpt>
      <trkpt lat="50.25478" lon="-4.77068"></trkpt>
      <trkpt lat="50.25482" lon="-4.77091"></trkpt>
      <trkpt lat="50.25494" lon="-4.77116"></trkpt>
      <trkpt lat="50.25508" lon="-4.77136"></trkpt>
      <trkpt lat="50.25525" lon="-4.77138"></trkpt>
      <trkpt lat="50.25529" lon="-4.77132"></trkpt>
      <trkpt lat="50.25541" lon="-4.77124"></trkpt>
      <trkpt lat="50.25577" lon="-4.77113"></trkpt>
      <trkpt lat="50.25597" lon="-4.77104"></trkpt>
      <trkpt lat="50.25606" lon="-4.77103"></trkpt>
      <trkpt lat="50.25616" lon="-4.77107"></trkpt>
      <trkpt lat="50.25632" lon="-4.77125"></trkpt>
      <trkpt lat="50.25664" lon="-4.77138"></trkpt>
      <trkpt lat="50.25694" lon="-4.77164"></trkpt>
      <trkpt lat="50.257" lon="-4.77175"></trkpt>
      <trkpt lat="50.25732" lon="-4.77256"></trkpt>
      <trkpt lat="50.25746" lon="-4.77316"></trkpt>
      <trkpt lat="50.2576" lon="-4.77362"></trkpt>
      <trkpt lat="50.25764" lon="-4.77374"></trkpt>
      <trkpt lat="50.25767" lon="-4.77396"></trkpt>
      <trkpt lat="50.25781" lon="-4.77442"></trkpt>
      <trkpt lat="50.25795" lon="-4.7747"></trkpt>
      <trkpt lat="50.25823" lon="-4.77571"></trkpt>
      <trkpt lat="50.25833" lon="-4.77621"></trkpt>
      <trkpt lat="50.25856" lon="-4.77713"></trkpt>
      <trkpt lat="50.25862" lon="-4.77737"></trkpt>
      <trkpt lat="50.25873" lon="-4.77817"></trkpt>
      <trkpt lat="50.25874" lon="-4.7784"></trkpt>
      <trkpt lat="50.25881" lon="-4.77865"></trkpt>
      <trkpt lat="50.25881" lon="-4.77878"></trkpt>
      <trkpt lat="50.25876" lon="-4.77888"></trkpt>
      <trkpt lat="50.25873" lon="-4.779"></trkpt>
      <trkpt lat="50.25872" lon="-4.77922"></trkpt>
      <trkpt lat="50.25869" lon="-4.77931"></trkpt>
      <trkpt lat="50.25928" lon="-4.78059"></trkpt>
      <trkpt lat="50.25965" lon="-4.78122"></trkpt>
      <trkpt lat="50.26036" lon="-4.78231"></trkpt>
      <trkpt lat="50.26064" lon="-4.78291"></trkpt>
      <trkpt lat="50.26081" lon="-4.78346"></trkpt>
      <trkpt lat="50.26103" lon="-4.78448"></trkpt>
      <trkpt lat="50.26106" lon="-4.78531"></trkpt>
      <trkpt lat="50.26135" lon="-4.78503"></trkpt>
      <trkpt lat="50.2614" lon="-4.78502"></trkpt>
      <trkpt lat="50.26148" lon="-4.78509"></trkpt>
      <trkpt lat="50.26159" lon="-4.78529"></trkpt>
      <trkpt lat="50.26164" lon="-4.78542"></trkpt>
      <trkpt lat="50.26168" lon="-4.7856"></trkpt>
      <trkpt lat="50.26174" lon="-4.78575"></trkpt>
      <trkpt lat="50.26193" lon="-4.78595"></trkpt>
      <trkpt lat="50.26211" lon="-4.78604"></trkpt>
      <trkpt lat="50.26224" lon="-4.78602"></trkpt>
      <trkpt lat="50.26265" lon="-4.78552"></trkpt>
      <trkpt lat="50.26275" lon="-4.78511"></trkpt>
      <trkpt lat="50.26306" lon="-4.78435"></trkpt>
      <trkpt lat="50.26315" lon="-4.78425"></trkpt>
      <trkpt lat="50.26329" lon="-4.78423"></trkpt>
      <trkpt lat="50.2637" lon="-4.78442"></trkpt>
      <trkpt lat="50.26388" lon="-4.78448"></trkpt>
      <trkpt lat="50.26435" lon="-4.78453"></trkpt>
      <trkpt lat="50.26451" lon="-4.78458"></trkpt>
      <trkpt lat="50.26469" lon="-4.78469"></trkpt>
      <trkpt lat="50.26538" lon="-4.78528"></trkpt>
      <trkpt lat="50.26569" lon="-4.785"></trkpt>
      <trkpt lat="50.26594" lon="-4.78473"></trkpt>
      <trkpt lat="50.26602" lon="-4.78461"></trkpt>
      <trkpt lat="50.26625" lon="-4.78405"></trkpt>
      <trkpt lat="50.26652" lon="-4.78368"></trkpt>
      <trkpt lat="50.26669" lon="-4.78351"></trkpt>
      <trkpt lat="50.26687" lon="-4.78341"></trkpt>
      <trkpt lat="50.26704" lon="-4.7834"></trkpt>
      <trkpt lat="50.26732" lon="-4.78353"></trkpt>
      <trkpt lat="50.26744" lon="-4.78364"></trkpt>
      <trkpt lat="50.26755" lon="-4.78378"></trkpt>
      <trkpt lat="50.26768" lon="-4.78379"></trkpt>
      <trkpt lat="50.26781" lon="-4.78391"></trkpt>
      <trkpt lat="50.26774" lon="-4.7834"></trkpt>
      <trkpt lat="50.26786" lon="-4.78346"></trkpt>
      <trkpt lat="50.26813" lon="-4.78374"></trkpt>
      <trkpt lat="50.26814" lon="-4.78356"></trkpt>
      <trkpt lat="50.26822" lon="-4.78356"></trkpt>
      <trkpt lat="50.26824" lon="-4.78342"></trkpt>
      <trkpt lat="50.26822" lon="-4.78356"></trkpt>
      <trkpt lat="50.2682" lon="-4.78357"></trkpt>
      <trkpt lat="50.26828" lon="-4.78441"></trkpt>
      <trkpt lat="50.26819" lon="-4.78465"></trkpt>
      <trkpt lat="50.2684" lon="-4.78533"></trkpt>
      <trkpt lat="50.26841" lon="-4.78548"></trkpt>
      <trkpt lat="50.26855" lon="-4.78602"></trkpt>
      <trkpt lat="50.26877" lon="-4.78674"></trkpt>
      <trkpt lat="50.26891" lon="-4.787"></trkpt>
      <trkpt lat="50.26897" lon="-4.78677"></trkpt>
      <trkpt lat="50.26925" lon="-4.78691"></trkpt>
      <trkpt lat="50.26946" lon="-4.78706"></trkpt>
      <trkpt lat="50.2698" lon="-4.78697"></trkpt>
      <trkpt lat="50.2699" lon="-4.78685"></trkpt>
      <trkpt lat="50.27022" lon="-4.78682"></trkpt>
      <trkpt lat="50.27018" lon="-4.78641"></trkpt>
      <trkpt lat="50.27018" lon="-4.7853"></trkpt>
      <trkpt lat="50.27029" lon="-4.78453"></trkpt>
      <trkpt lat="50.27028" lon="-4.78452"></trkpt>
      <trkpt lat="50.2703" lon="-4.78448"></trkpt>
      <trkpt lat="50.2703" lon="-4.78461"></trkpt>
    </trkseg>
  </trk>
</gpx>
