<?xml version="1.0" encoding="UTF-8"?>
<gpx version="1.1" creator="swcp-walk (imported from OS Maps route 33845227)"
     xmlns="http://www.topografix.com/GPX/1/1">
  <metadata>
    <name>SWCP32-Mevagissey-Par</name>
  </metadata>
  <trk>
    <name>SWCP32-Mevagissey-Par</name>
    <trkseg>
      <trkpt lat="50.27019195028771" lon="-4.78458471749596"></trkpt>
      <trkpt lat="50.27018" lon="-4.78454"></trkpt>
      <trkpt lat="50.27025" lon="-4.78451"></trkpt>
      <trkpt lat="50.27028" lon="-4.78452"></trkpt>
      <trkpt lat="50.2703" lon="-4.78448"></trkpt>
      <trkpt lat="50.2703" lon="-4.78512"></trkpt>
      <trkpt lat="50.27032" lon="-4.78513"></trkpt>
      <trkpt lat="50.27042" lon="-4.78461"></trkpt>
      <trkpt lat="50.27049" lon="-4.78445"></trkpt>
      <trkpt lat="50.27059" lon="-4.78437"></trkpt>
      <trkpt lat="50.27075" lon="-4.78438"></trkpt>
      <trkpt lat="50.27082" lon="-4.78442"></trkpt>
      <trkpt lat="50.27089" lon="-4.78437"></trkpt>
      <trkpt lat="50.27134" lon="-4.78459"></trkpt>
      <trkpt lat="50.27152" lon="-4.78455"></trkpt>
      <trkpt lat="50.27229" lon="-4.78467"></trkpt>
      <trkpt lat="50.27286" lon="-4.78495"></trkpt>
      <trkpt lat="50.27309" lon="-4.78514"></trkpt>
      <trkpt lat="50.27317" lon="-4.78517"></trkpt>
      <trkpt lat="50.27323" lon="-4.78513"></trkpt>
      <trkpt lat="50.27353" lon="-4.7854"></trkpt>
      <trkpt lat="50.27369" lon="-4.78541"></trkpt>
      <trkpt lat="50.27387" lon="-4.78553"></trkpt>
      <trkpt lat="50.27399" lon="-4.78554"></trkpt>
      <trkpt lat="50.27432" lon="-4.78535"></trkpt>
      <trkpt lat="50.27442" lon="-4.78532"></trkpt>
      <trkpt lat="50.27446" lon="-4.78519"></trkpt>
      <trkpt lat="50.27472" lon="-4.78492"></trkpt>
      <trkpt lat="50.2749" lon="-4.78487"></trkpt>
      <trkpt lat="50.27507" lon="-4.78455"></trkpt>
      <trkpt lat="50.27562" lon="-4.78433"></trkpt>
      <trkpt lat="50.27574" lon="-4.7841"></trkpt>
      <trkpt lat="50.27577" lon="-4.78388"></trkpt>
      <trkpt lat="50.27587" lon="-4.78349"></trkpt>
      <trkpt lat="50.27599" lon="-4.78349"></trkpt>
      <trkpt lat="50.27602" lon="-4.78339"></trkpt>
      <trkpt lat="50.27625" lon="-4.7833"></trkpt>
      <trkpt lat="50.2764" lon="-4.78309"></trkpt>
      <trkpt lat="50.2767" lon="-4.78281"></trkpt>
      <trkpt lat="50.27704" lon="-4.78237"></trkpt>
      <trkpt lat="50.27717" lon="-4.78235"></trkpt>
      <trkpt lat="50.27752" lon="-4.78199"></trkpt>
      <trkpt lat="50.27761" lon="-4.78195"></trkpt>
      <trkpt lat="50.27765" lon="-4.78181"></trkpt>
      <trkpt lat="50.27768" lon="-4.78164"></trkpt>
      <trkpt lat="50.27782" lon="-4.78149"></trkpt>
      <trkpt lat="50.27814" lon="-4.78144"></trkpt>
      <trkpt lat="50.27813" lon="-4.78144"></trkpt>
      <trkpt lat="50.27834" lon="-4.78151"></trkpt>
      <trkpt lat="50.27853" lon="-4.78163"></trkpt>
      <trkpt lat="50.27871" lon="-4.78166"></trkpt>
      <trkpt lat="50.27887" lon="-4.78155"></trkpt>
      <trkpt lat="50.27899" lon="-4.7814"></trkpt>
      <trkpt lat="50.27909" lon="-4.78118"></trkpt>
      <trkpt lat="50.27922" lon="-4.78099"></trkpt>
      <trkpt lat="50.27932" lon="-4.7809"></trkpt>
      <trkpt lat="50.27942" lon="-4.78087"></trkpt>
      <trkpt lat="50.27941" lon="-4.78087"></trkpt>
      <trkpt lat="50.27973" lon="-4.78108"></trkpt>
      <trkpt lat="50.28009" lon="-4.78162"></trkpt>
      <trkpt lat="50.28039" lon="-4.78224"></trkpt>
      <trkpt lat="50.28096" lon="-4.78313"></trkpt>
      <trkpt lat="50.28126" lon="-4.78328"></trkpt>
      <trkpt lat="50.28144" lon="-4.78349"></trkpt>
      <trkpt lat="50.28168" lon="-4.78352"></trkpt>
      <trkpt lat="50.28195" lon="-4.78349"></trkpt>
      <trkpt lat="50.28217" lon="-4.7834"></trkpt>
      <trkpt lat="50.28251" lon="-4.78319"></trkpt>
      <trkpt lat="50.28267" lon="-4.78318"></trkpt>
      <trkpt lat="50.28272" lon="-4.7832"></trkpt>
      <trkpt lat="50.28279" lon="-4.78356"></trkpt>
      <trkpt lat="50.28288" lon="-4.78384"></trkpt>
      <trkpt lat="50.28296" lon="-4.78439"></trkpt>
      <trkpt lat="50.28294" lon="-4.78502"></trkpt>
      <trkpt lat="50.28296" lon="-4.78516"></trkpt>
      <trkpt lat="50.28299" lon="-4.78521"></trkpt>
      <trkpt lat="50.28335" lon="-4.78521"></trkpt>
      <trkpt lat="50.2846" lon="-4.78567"></trkpt>
      <trkpt lat="50.28462" lon="-4.78574"></trkpt>
      <trkpt lat="50.28473" lon="-4.78571"></trkpt>
      <trkpt lat="50.28476" lon="-4.78565"></trkpt>
      <trkpt lat="50.28509" lon="-4.78574"></trkpt>
      <trkpt lat="50.2852" lon="-4.78586"></trkpt>
      <trkpt lat="50.28522" lon="-4.786"></trkpt>
      <trkpt lat="50.28557" lon="-4.78661"></trkpt>
      <trkpt lat="50.28604" lon="-4.78749"></trkpt>
      <trkpt lat="50.28616" lon="-4.78756"></trkpt>
      <trkpt lat="50.28629" lon="-4.78758"></trkpt>
      <trkpt lat="50.28639" lon="-4.78755"></trkpt>
      <trkpt lat="50.28655" lon="-4.78742"></trkpt>
      <trkpt lat="50.28688" lon="-4.78699"></trkpt>
      <trkpt lat="50.28713" lon="-4.78646"></trkpt>
      <trkpt lat="50.28732" lon="-4.78623"></trkpt>
      <trkpt lat="50.28752" lon="-4.78617"></trkpt>
      <trkpt lat="50.28798" lon="-4.7863"></trkpt>
      <trkpt lat="50.28826" lon="-4.78629"></trkpt>
      <trkpt lat="50.28872" lon="-4.78654"></trkpt>
      <trkpt lat="50.28851" lon="-4.78629"></trkpt>
      <trkpt lat="50.28842" lon="-4.78624"></trkpt>
      <trkpt lat="50.28836" lon="-4.78615"></trkpt>
      <trkpt lat="50.28842" lon="-4.78624"></trkpt>
      <trkpt lat="50.28851" lon="-4.78629"></trkpt>
      <trkpt lat="50.28881" lon="-4.78664"></trkpt>
      <trkpt lat="50.28903" lon="-4.78667"></trkpt>
      <trkpt lat="50.2894" lon="-4.78664"></trkpt>
      <trkpt lat="50.29046" lon="-4.78631"></trkpt>
      <trkpt lat="50.29147" lon="-4.78613"></trkpt>
      <trkpt lat="50.29174" lon="-4.78612"></trkpt>
      <trkpt lat="50.29171" lon="-4.78565"></trkpt>
      <trkpt lat="50.29169" lon="-4.78523"></trkpt>
      <trkpt lat="50.2917" lon="-4.78503"></trkpt>
      <trkpt lat="50.29174" lon="-4.78481"></trkpt>
      <trkpt lat="50.29217" lon="-4.78421"></trkpt>
      <trkpt lat="50.2922" lon="-4.7841"></trkpt>
      <trkpt lat="50.29218" lon="-4.78405"></trkpt>
      <trkpt lat="50.29194" lon="-4.78367"></trkpt>
      <trkpt lat="50.29171" lon="-4.78339"></trkpt>
      <trkpt lat="50.29166" lon="-4.78329"></trkpt>
      <trkpt lat="50.29162" lon="-4.78312"></trkpt>
      <trkpt lat="50.29161" lon="-4.78293"></trkpt>
      <trkpt lat="50.29158" lon="-4.78292"></trkpt>
      <trkpt lat="50.29165" lon="-4.78254"></trkpt>
      <trkpt lat="50.29171" lon="-4.78238"></trkpt>
      <trkpt lat="50.29173" lon="-4.78229"></trkpt>
      <trkpt lat="50.29173" lon="-4.7821"></trkpt>
      <trkpt lat="50.29176" lon="-4.78183"></trkpt>
      <trkpt lat="50.29176" lon="-4.78149"></trkpt>
      <trkpt lat="50.29157" lon="-4.78152"></trkpt>
      <trkpt lat="50.29116" lon="-4.78168"></trkpt>
      <trkpt lat="50.29111" lon="-4.78161"></trkpt>
      <trkpt lat="50.29118" lon="-4.78146"></trkpt>
      <trkpt lat="50.29119" lon="-4.78133"></trkpt>
      <trkpt lat="50.29114" lon="-4.78127"></trkpt>
      <trkpt lat="50.29112" lon="-4.78119"></trkpt>
      <trkpt lat="50.29112" lon="-4.78106"></trkpt>
      <trkpt lat="50.29114" lon="-4.78097"></trkpt>
      <trkpt lat="50.29121" lon="-4.78096"></trkpt>
      <trkpt lat="50.2912" lon="-4.78056"></trkpt>
      <trkpt lat="50.29131" lon="-4.78009"></trkpt>
      <trkpt lat="50.29121" lon="-4.77936"></trkpt>
      <trkpt lat="50.29127" lon="-4.77904"></trkpt>
      <trkpt lat="50.29125" lon="-4.7787"></trkpt>
      <trkpt lat="50.29128" lon="-4.77851"></trkpt>
      <trkpt lat="50.29147" lon="-4.77814"></trkpt>
      <trkpt lat="50.29155" lon="-4.77804"></trkpt>
      <trkpt lat="50.29157" lon="-4.77796"></trkpt>
      <trkpt lat="50.29155" lon="-4.77783"></trkpt>
      <trkpt lat="50.29142" lon="-4.77731"></trkpt>
      <trkpt lat="50.29147" lon="-4.77689"></trkpt>
      <trkpt lat="50.29176" lon="-4.77649"></trkpt>
      <trkpt lat="50.29201" lon="-4.77639"></trkpt>
      <trkpt lat="50.29203" lon="-4.77632"></trkpt>
      <trkpt lat="50.29204" lon="-4.77596"></trkpt>
      <trkpt lat="50.29217" lon="-4.77561"></trkpt>
      <trkpt lat="50.29219" lon="-4.77512"></trkpt>
      <trkpt lat="50.29225" lon="-4.77493"></trkpt>
      <trkpt lat="50.29235" lon="-4.77474"></trkpt>
      <trkpt lat="50.29263" lon="-4.77384"></trkpt>
      <trkpt lat="50.29275" lon="-4.77364"></trkpt>
      <trkpt lat="50.29281" lon="-4.77362"></trkpt>
      <trkpt lat="50.29291" lon="-4.77363"></trkpt>
      <trkpt lat="50.29311" lon="-4.77351"></trkpt>
      <trkpt lat="50.29317" lon="-4.77352"></trkpt>
      <trkpt lat="50.29327" lon="-4.77362"></trkpt>
      <trkpt lat="50.29329" lon="-4.77388"></trkpt>
      <trkpt lat="50.29337" lon="-4.7741"></trkpt>
      <trkpt lat="50.29339" lon="-4.77432"></trkpt>
      <trkpt lat="50.29348" lon="-4.77464"></trkpt>
      <trkpt lat="50.29356" lon="-4.77453"></trkpt>
      <trkpt lat="50.29366" lon="-4.77453"></trkpt>
      <trkpt lat="50.29373" lon="-4.77449"></trkpt>
      <trkpt lat="50.29377" lon="-4.77442"></trkpt>
      <trkpt lat="50.29387" lon="-4.77437"></trkpt>
      <trkpt lat="50.29396" lon="-4.77424"></trkpt>
      <trkpt lat="50.29425" lon="-4.77412"></trkpt>
      <trkpt lat="50.29431" lon="-4.77405"></trkpt>
      <trkpt lat="50.29455" lon="-4.77387"></trkpt>
      <trkpt lat="50.29463" lon="-4.77376"></trkpt>
      <trkpt lat="50.29467" lon="-4.77365"></trkpt>
      <trkpt lat="50.29473" lon="-4.77357"></trkpt>
      <trkpt lat="50.2948" lon="-4.7736"></trkpt>
      <trkpt lat="50.29491" lon="-4.77382"></trkpt>
      <trkpt lat="50.29499" lon="-4.77408"></trkpt>
      <trkpt lat="50.29503" lon="-4.7741"></trkpt>
      <trkpt lat="50.29514" lon="-4.77408"></trkpt>
      <trkpt lat="50.2952" lon="-4.77399"></trkpt>
      <trkpt lat="50.29522" lon="-4.77389"></trkpt>
      <trkpt lat="50.29525" lon="-4.77389"></trkpt>
      <trkpt lat="50.29531" lon="-4.77351"></trkpt>
      <trkpt lat="50.29529" lon="-4.77313"></trkpt>
      <trkpt lat="50.29543" lon="-4.77292"></trkpt>
      <trkpt lat="50.29562" lon="-4.7727"></trkpt>
      <trkpt lat="50.29574" lon="-4.7722"></trkpt>
      <trkpt lat="50.2958" lon="-4.77207"></trkpt>
      <trkpt lat="50.29582" lon="-4.77197"></trkpt>
      <trkpt lat="50.29593" lon="-4.77173"></trkpt>
      <trkpt lat="50.29604" lon="-4.77168"></trkpt>
      <trkpt lat="50.29601" lon="-4.77158"></trkpt>
      <trkpt lat="50.29605" lon="-4.77158"></trkpt>
      <trkpt lat="50.29604" lon="-4.77147"></trkpt>
      <trkpt lat="50.29601" lon="-4.77144"></trkpt>
      <trkpt lat="50.29627" lon="-4.77091"></trkpt>
      <trkpt lat="50.2966" lon="-4.77049"></trkpt>
      <trkpt lat="50.29665" lon="-4.7702"></trkpt>
      <trkpt lat="50.29672" lon="-4.76992"></trkpt>
      <trkpt lat="50.29706" lon="-4.76872"></trkpt>
      <trkpt lat="50.29726" lon="-4.76819"></trkpt>
      <trkpt lat="50.29727" lon="-4.76808"></trkpt>
      <trkpt lat="50.29721" lon="-4.76783"></trkpt>
      <trkpt lat="50.2972" lon="-4.76762"></trkpt>
      <trkpt lat="50.29734" lon="-4.76734"></trkpt>
      <trkpt lat="50.29751" lon="-4.7672"></trkpt>
      <trkpt lat="50.29759" lon="-4.76718"></trkpt>
      <trkpt lat="50.29773" lon="-4.7673"></trkpt>
      <trkpt lat="50.29789" lon="-4.76738"></trkpt>
      <trkpt lat="50.298" lon="-4.76755"></trkpt>
      <trkpt lat="50.29807" lon="-4.76769"></trkpt>
      <trkpt lat="50.29853" lon="-4.76816"></trkpt>
      <trkpt lat="50.29863" lon="-4.76811"></trkpt>
      <trkpt lat="50.29865" lon="-4.76803"></trkpt>
      <trkpt lat="50.29869" lon="-4.76803"></trkpt>
      <trkpt lat="50.29894" lon="-4.76789"></trkpt>
      <trkpt lat="50.29908" lon="-4.76796"></trkpt>
      <trkpt lat="50.29935" lon="-4.76779"></trkpt>
      <trkpt lat="50.29947" lon="-4.76753"></trkpt>
      <trkpt lat="50.2995" lon="-4.76713"></trkpt>
      <trkpt lat="50.29952" lon="-4.76703"></trkpt>
      <trkpt lat="50.29962" lon="-4.76693"></trkpt>
      <trkpt lat="50.29969" lon="-4.76692"></trkpt>
      <trkpt lat="50.29988" lon="-4.7668"></trkpt>
      <trkpt lat="50.29992" lon="-4.76671"></trkpt>
      <trkpt lat="50.30001" lon="-4.76659"></trkpt>
      <trkpt lat="50.30002" lon="-4.76652"></trkpt>
      <trkpt lat="50.30046" lon="-4.7656"></trkpt>
      <trkpt lat="50.30051" lon="-4.76554"></trkpt>
      <trkpt lat="50.30066" lon="-4.76544"></trkpt>
      <trkpt lat="50.30072" lon="-4.76497"></trkpt>
      <trkpt lat="50.30084" lon="-4.76476"></trkpt>
      <trkpt lat="50.30149" lon="-4.76475"></trkpt>
      <trkpt lat="50.30169" lon="-4.76469"></trkpt>
      <trkpt lat="50.30184" lon="-4.76448"></trkpt>
      <trkpt lat="50.30186" lon="-4.76442"></trkpt>
      <trkpt lat="50.30185" lon="-4.76436"></trkpt>
      <trkpt lat="50.3017" lon="-4.76418"></trkpt>
      <trkpt lat="50.30158" lon="-4.76395"></trkpt>
      <trkpt lat="50.30145" lon="-4.76347"></trkpt>
      <trkpt lat="50.3014" lon="-4.76312"></trkpt>
      <trkpt lat="50.30146" lon="-4.7629"></trkpt>
      <trkpt lat="50.30145" lon="-4.76282"></trkpt>
      <trkpt lat="50.30137" lon="-4.7625"></trkpt>
      <trkpt lat="50.30142" lon="-4.7623"></trkpt>
      <trkpt lat="50.3012" lon="-4.76241"></trkpt>
      <trkpt lat="50.30113" lon="-4.7624"></trkpt>
      <trkpt lat="50.30101" lon="-4.76233"></trkpt>
      <trkpt lat="50.30096" lon="-4.76228"></trkpt>
      <trkpt lat="50.30094" lon="-4.76219"></trkpt>
      <trkpt lat="50.30087" lon="-4.76209"></trkpt>
      <trkpt lat="50.30044" lon="-4.76155"></trkpt>
      <trkpt lat="50.30024" lon="-4.7614"></trkpt>
      <trkpt lat="50.30007" lon="-4.76105"></trkpt>
      <trkpt lat="50.29997" lon="-4.76091"></trkpt>
      <trkpt lat="50.29985" lon="-4.76073"></trkpt>
      <trkpt lat="50.29979" lon="-4.76057"></trkpt>
      <trkpt lat="50.29981" lon="-4.76038"></trkpt>
      <trkpt lat="50.29992" lon="-4.76032"></trkpt>
      <trkpt lat="50.29995" lon="-4.76021"></trkpt>
      <trkpt lat="50.29974" lon="-4.75977"></trkpt>
      <trkpt lat="50.29972" lon="-4.75952"></trkpt>
      <trkpt lat="50.29981" lon="-4.75945"></trkpt>
      <trkpt lat="50.29997" lon="-4.75902"></trkpt>
      <trkpt lat="50.30011" lon="-4.75878"></trkpt>
      <trkpt lat="50.30026" lon="-4.75839"></trkpt>
      <trkpt lat="50.30052" lon="-4.75793"></trkpt>
      <trkpt lat="50.30068" lon="-4.75752"></trkpt>
      <trkpt lat="50.30074" lon="-4.75727"></trkpt>
      <trkpt lat="50.30071" lon="-4.75682"></trkpt>
      <trkpt lat="50.30072" lon="-4.75658"></trkpt>
      <trkpt lat="50.30067" lon="-4.75627"></trkpt>
      <trkpt lat="50.30076" lon="-4.75632"></trkpt>
      <trkpt lat="50.30085" lon="-4.75643"></trkpt>
      <trkpt lat="50.30108" lon="-4.75665"></trkpt>
      <trkpt lat="50.30135" lon="-4.75679"></trkpt>
      <trkpt lat="50.30144" lon="-4.75688"></trkpt>
      <trkpt lat="50.30151" lon="-4.75703"></trkpt>
      <trkpt lat="50.30152" lon="-4.75715"></trkpt>
      <trkpt lat="50.30174" lon="-4.75727"></trkpt>
      <trkpt lat="50.30182" lon="-4.75728"></trkpt>
      <trkpt lat="50.30223" lon="-4.75695"></trkpt>
      <trkpt lat="50.30243" lon="-4.75687"></trkpt>
      <trkpt lat="50.30256" lon="-4.7567"></trkpt>
      <trkpt lat="50.30271" lon="-4.75654"></trkpt>
      <trkpt lat="50.3029" lon="-4.75642"></trkpt>
      <trkpt lat="50.30297" lon="-4.75613"></trkpt>
      <trkpt lat="50.30301" lon="-4.75607"></trkpt>
      <trkpt lat="50.30334" lon="-4.75609"></trkpt>
      <trkpt lat="50.30351" lon="-4.75607"></trkpt>
      <trkpt lat="50.30369" lon="-4.75593"></trkpt>
      <trkpt lat="50.30393" lon="-4.75554"></trkpt>
      <trkpt lat="50.304" lon="-4.75551"></trkpt>
      <trkpt lat="50.30443" lon="-4.75579"></trkpt>
      <trkpt lat="50.30462" lon="-4.75586"></trkpt>
      <trkpt lat="50.30511" lon="-4.75593"></trkpt>
      <trkpt lat="50.30547" lon="-4.75607"></trkpt>
      <trkpt lat="50.30553" lon="-4.75609"></trkpt>
      <trkpt lat="50.30556" lon="-4.75618"></trkpt>
      <trkpt lat="50.30565" lon="-4.75672"></trkpt>
      <trkpt lat="50.30582" lon="-4.7571"></trkpt>
      <trkpt lat="50.30587" lon="-4.75731"></trkpt>
      <trkpt lat="50.306" lon="-4.75742"></trkpt>
      <trkpt lat="50.30616" lon="-4.75762"></trkpt>
      <trkpt lat="50.30642" lon="-4.75783"></trkpt>
      <trkpt lat="50.30648" lon="-4.75794"></trkpt>
      <trkpt lat="50.30649" lon="-4.75807"></trkpt>
      <trkpt lat="50.30639" lon="-4.75881"></trkpt>
      <trkpt lat="50.30642" lon="-4.75957"></trkpt>
      <trkpt lat="50.30646" lon="-4.75962"></trkpt>
      <trkpt lat="50.30649" lon="-4.7597"></trkpt>
      <trkpt lat="50.30654" lon="-4.75976"></trkpt>
      <trkpt lat="50.30684" lon="-4.75984"></trkpt>
      <trkpt lat="50.30698" lon="-4.75992"></trkpt>
      <trkpt lat="50.30709" lon="-4.76004"></trkpt>
      <trkpt lat="50.30725" lon="-4.76095"></trkpt>
      <trkpt lat="50.30727" lon="-4.76121"></trkpt>
      <trkpt lat="50.30728" lon="-4.76138"></trkpt>
      <trkpt lat="50.30743" lon="-4.76197"></trkpt>
      <trkpt lat="50.30756" lon="-4.76238"></trkpt>
      <trkpt lat="50.30765" lon="-4.76278"></trkpt>
      <trkpt lat="50.30765" lon="-4.7629"></trkpt>
      <trkpt lat="50.30758" lon="-4.763"></trkpt>
      <trkpt lat="50.3075" lon="-4.76308"></trkpt>
      <trkpt lat="50.30737" lon="-4.76335"></trkpt>
      <trkpt lat="50.30756" lon="-4.76353"></trkpt>
      <trkpt lat="50.30776" lon="-4.76385"></trkpt>
      <trkpt lat="50.30794" lon="-4.76407"></trkpt>
      <trkpt lat="50.30813" lon="-4.76438"></trkpt>
      <trkpt lat="50.30843" lon="-4.76439"></trkpt>
      <trkpt lat="50.30875" lon="-4.76431"></trkpt>
      <trkpt lat="50.30885" lon="-4.76432"></trkpt>
      <trkpt lat="50.3094" lon="-4.76464"></trkpt>
      <trkpt lat="50.30959" lon="-4.76489"></trkpt>
      <trkpt lat="50.30973" lon="-4.76496"></trkpt>
      <trkpt lat="50.30979" lon="-4.76505"></trkpt>
      <trkpt lat="50.30988" lon="-4.76531"></trkpt>
      <trkpt lat="50.30993" lon="-4.76542"></trkpt>
      <trkpt lat="50.31011" lon="-4.76555"></trkpt>
      <trkpt lat="50.31053" lon="-4.76572"></trkpt>
      <trkpt lat="50.31066" lon="-4.76575"></trkpt>
      <trkpt lat="50.31072" lon="-4.76574"></trkpt>
      <trkpt lat="50.31098" lon="-4.76551"></trkpt>
      <trkpt lat="50.31114" lon="-4.76545"></trkpt>
      <trkpt lat="50.31129" lon="-4.76535"></trkpt>
      <trkpt lat="50.31139" lon="-4.76537"></trkpt>
      <trkpt lat="50.31165" lon="-4.76573"></trkpt>
      <trkpt lat="50.31173" lon="-4.76579"></trkpt>
      <trkpt lat="50.31179" lon="-4.76577"></trkpt>
      <trkpt lat="50.31186" lon="-4.7657"></trkpt>
      <trkpt lat="50.31191" lon="-4.76568"></trkpt>
      <trkpt lat="50.31227" lon="-4.76568"></trkpt>
      <trkpt lat="50.31253" lon="-4.76556"></trkpt>
      <trkpt lat="50.31258" lon="-4.76551"></trkpt>
      <trkpt lat="50.31269" lon="-4.76534"></trkpt>
      <trkpt lat="50.31273" lon="-4.76532"></trkpt>
      <trkpt lat="50.31281" lon="-4.76538"></trkpt>
      <trkpt lat="50.31286" lon="-4.7655"></trkpt>
      <trkpt lat="50.3129" lon="-4.76553"></trkpt>
      <trkpt lat="50.31297" lon="-4.76545"></trkpt>
      <trkpt lat="50.31336" lon="-4.76551"></trkpt>
      <trkpt lat="50.31373" lon="-4.76552"></trkpt>
      <trkpt lat="50.31381" lon="-4.76551"></trkpt>
      <trkpt lat="50.31395" lon="-4.76544"></trkpt>
      <trkpt lat="50.31428" lon="-4.76553"></trkpt>
      <trkpt lat="50.31435" lon="-4.7655"></trkpt>
      <trkpt lat="50.31465" lon="-4.76527"></trkpt>
      <trkpt lat="50.31479" lon="-4.76525"></trkpt>
      <trkpt lat="50.31501" lon="-4.76501"></trkpt>
      <trkpt lat="50.31515" lon="-4.76497"></trkpt>
      <trkpt lat="50.31531" lon="-4.76489"></trkpt>
      <trkpt lat="50.31562" lon="-4.76487"></trkpt>
      <trkpt lat="50.31567" lon="-4.76487"></trkpt>
      <trkpt lat="50.31574" lon="-4.76497"></trkpt>
      <trkpt lat="50.31581" lon="-4.76517"></trkpt>
      <trkpt lat="50.3159" lon="-4.76529"></trkpt>
      <trkpt lat="50.31598" lon="-4.76543"></trkpt>
      <trkpt lat="50.31608" lon="-4.76553"></trkpt>
      <trkpt lat="50.31623" lon="-4.76572"></trkpt>
      <trkpt lat="50.31629" lon="-4.76574"></trkpt>
      <trkpt lat="50.31639" lon="-4.76571"></trkpt>
      <trkpt lat="50.31647" lon="-4.76558"></trkpt>
      <trkpt lat="50.31655" lon="-4.76553"></trkpt>
      <trkpt lat="50.31658" lon="-4.76555"></trkpt>
      <trkpt lat="50.31665" lon="-4.76567"></trkpt>
      <trkpt lat="50.31687" lon="-4.7659"></trkpt>
      <trkpt lat="50.31721" lon="-4.76584"></trkpt>
      <trkpt lat="50.31752" lon="-4.7659"></trkpt>
      <trkpt lat="50.31781" lon="-4.76603"></trkpt>
      <trkpt lat="50.31807" lon="-4.76611"></trkpt>
      <trkpt lat="50.31839" lon="-4.76609"></trkpt>
      <trkpt lat="50.31853" lon="-4.76615"></trkpt>
      <trkpt lat="50.31864" lon="-4.76638"></trkpt>
      <trkpt lat="50.31879" lon="-4.76661"></trkpt>
      <trkpt lat="50.31898" lon="-4.76683"></trkpt>
      <trkpt lat="50.31923" lon="-4.76695"></trkpt>
      <trkpt lat="50.31956" lon="-4.76697"></trkpt>
      <trkpt lat="50.31981" lon="-4.76708"></trkpt>
      <trkpt lat="50.32008" lon="-4.76705"></trkpt>
      <trkpt lat="50.32043" lon="-4.76709"></trkpt>
      <trkpt lat="50.32087" lon="-4.76729"></trkpt>
      <trkpt lat="50.32113" lon="-4.76731"></trkpt>
      <trkpt lat="50.32168" lon="-4.7668"></trkpt>
      <trkpt lat="50.32177" lon="-4.76684"></trkpt>
      <trkpt lat="50.322" lon="-4.76702"></trkpt>
      <trkpt lat="50.32224" lon="-4.7671"></trkpt>
      <trkpt lat="50.32235" lon="-4.767"></trkpt>
      <trkpt lat="50.3225" lon="-4.76694"></trkpt>
      <trkpt lat="50.32251" lon="-4.76686"></trkpt>
      <trkpt lat="50.32284" lon="-4.76668"></trkpt>
      <trkpt lat="50.32305" lon="-4.76652"></trkpt>
      <trkpt lat="50.32311" lon="-4.76652"></trkpt>
      <trkpt lat="50.32394" lon="-4.76573"></trkpt>
      <trkpt lat="50.32388" lon="-4.76595"></trkpt>
      <trkpt lat="50.32393" lon="-4.76596"></trkpt>
      <trkpt lat="50.32403" lon="-4.76593"></trkpt>
      <trkpt lat="50.32411" lon="-4.76587"></trkpt>
      <trkpt lat="50.32456" lon="-4.76507"></trkpt>
      <trkpt lat="50.32472" lon="-4.76459"></trkpt>
      <trkpt lat="50.32522" lon="-4.76407"></trkpt>
      <trkpt lat="50.32562" lon="-4.76391"></trkpt>
      <trkpt lat="50.32585" lon="-4.76382"></trkpt>
      <trkpt lat="50.3262" lon="-4.76377"></trkpt>
      <trkpt lat="50.32637" lon="-4.76388"></trkpt>
      <trkpt lat="50.32689" lon="-4.76336"></trkpt>
      <trkpt lat="50.32733" lon="-4.76252"></trkpt>
      <trkpt lat="50.32763" lon="-4.7623"></trkpt>
      <trkpt lat="50.32776" lon="-4.76226"></trkpt>
      <trkpt lat="50.32789" lon="-4.7621"></trkpt>
      <trkpt lat="50.32819" lon="-4.76156"></trkpt>
      <trkpt lat="50.32845" lon="-4.76138"></trkpt>
      <trkpt lat="50.32849" lon="-4.76131"></trkpt>
      <trkpt lat="50.32856" lon="-4.76104"></trkpt>
      <trkpt lat="50.32876" lon="-4.76076"></trkpt>
      <trkpt lat="50.32881" lon="-4.76075"></trkpt>
      <trkpt lat="50.32901" lon="-4.76027"></trkpt>
      <trkpt lat="50.32904" lon="-4.76005"></trkpt>
      <trkpt lat="50.32913" lon="-4.75993"></trkpt>
      <trkpt lat="50.32917" lon="-4.75983"></trkpt>
      <trkpt lat="50.32922" lon="-4.75958"></trkpt>
      <trkpt lat="50.32934" lon="-4.75942"></trkpt>
      <trkpt lat="50.32928" lon="-4.75935"></trkpt>
      <trkpt lat="50.32927" lon="-4.75925"></trkpt>
      <trkpt lat="50.32933" lon="-4.75907"></trkpt>
      <trkpt lat="50.32929" lon="-4.75868"></trkpt>
      <trkpt lat="50.32918" lon="-4.75858"></trkpt>
      <trkpt lat="50.32915" lon="-4.75858"></trkpt>
      <trkpt lat="50.32907" lon="-4.75839"></trkpt>
      <trkpt lat="50.32908" lon="-4.75816"></trkpt>
      <trkpt lat="50.32921" lon="-4.75779"></trkpt>
      <trkpt lat="50.32924" lon="-4.75778"></trkpt>
      <trkpt lat="50.32931" lon="-4.7578"></trkpt>
      <trkpt lat="50.32931" lon="-4.7577"></trkpt>
      <trkpt lat="50.32939" lon="-4.75746"></trkpt>
      <trkpt lat="50.32943" lon="-4.75738"></trkpt>
      <trkpt lat="50.32953" lon="-4.7574"></trkpt>
      <trkpt lat="50.32956" lon="-4.75744"></trkpt>
      <trkpt lat="50.3296" lon="-4.75751"></trkpt>
      <trkpt lat="50.32961" lon="-4.75763"></trkpt>
      <trkpt lat="50.32984" lon="-4.75756"></trkpt>
      <trkpt lat="50.33005" lon="-4.7576"></trkpt>
      <trkpt lat="50.33019" lon="-4.75759"></trkpt>
      <trkpt lat="50.33034" lon="-4.75766"></trkpt>
      <trkpt lat="50.33068" lon="-4.75797"></trkpt>
      <trkpt lat="50.3309" lon="-4.75787"></trkpt>
      <trkpt lat="50.33109" lon="-4.75771"></trkpt>
      <trkpt lat="50.33124" lon="-4.75762"></trkpt>
      <trkpt lat="50.33139" lon="-4.75757"></trkpt>
      <trkpt lat="50.33139" lon="-4.75752"></trkpt>
      <trkpt lat="50.33163" lon="-4.75712"></trkpt>
      <trkpt lat="50.33138" lon="-4.75682"></trkpt>
      <trkpt lat="50.3312" lon="-4.75689"></trkpt>
      <trkpt lat="50.3312" lon="-4.75632"></trkpt>
      <trkpt lat="50.33115" lon="-4.75625"></trkpt>
      <trkpt lat="50.33109" lon="-4.75621"></trkpt>
      <trkpt lat="50.33109" lon="-4.75609"></trkpt>
      <trkpt lat="50.33114" lon="-4.75607"></trkpt>
      <trkpt lat="50.33116" lon="-4.75602"></trkpt>
      <trkpt lat="50.33124" lon="-4.75599"></trkpt>
      <trkpt lat="50.33136" lon="-4.75557"></trkpt>
      <trkpt lat="50.33147" lon="-4.75527"></trkpt>
      <trkpt lat="50.33163" lon="-4.75509"></trkpt>
      <trkpt lat="50.33165" lon="-4.75502"></trkpt>
      <trkpt lat="50.33165" lon="-4.75493"></trkpt>
      <trkpt lat="50.33174" lon="-4.7547"></trkpt>
      <trkpt lat="50.33205" lon="-4.75415"></trkpt>
      <trkpt lat="50.33223" lon="-4.75377"></trkpt>
      <trkpt lat="50.33241" lon="-4.75317"></trkpt>
      <trkpt lat="50.33243" lon="-4.75275"></trkpt>
      <trkpt lat="50.33311" lon="-4.75037"></trkpt>
      <trkpt lat="50.33311" lon="-4.75032"></trkpt>
      <trkpt lat="50.3327" lon="-4.74955"></trkpt>
      <trkpt lat="50.33264" lon="-4.74932"></trkpt>
      <trkpt lat="50.33263" lon="-4.74917"></trkpt>
      <trkpt lat="50.33265" lon="-4.74865"></trkpt>
      <trkpt lat="50.33265" lon="-4.7486"></trkpt>
      <trkpt lat="50.33276" lon="-4.74844"></trkpt>
      <trkpt lat="50.33268" lon="-4.74801"></trkpt>
      <trkpt lat="50.33263" lon="-4.74745"></trkpt>
      <trkpt lat="50.33257" lon="-4.74742"></trkpt>
      <trkpt lat="50.3325" lon="-4.74711"></trkpt>
      <trkpt lat="50.33241" lon="-4.74661"></trkpt>
      <trkpt lat="50.33237" lon="-4.74621"></trkpt>
      <trkpt lat="50.33239" lon="-4.74592"></trkpt>
      <trkpt lat="50.33243" lon="-4.74577"></trkpt>
      <trkpt lat="50.33251" lon="-4.74552"></trkpt>
      <trkpt lat="50.33309" lon="-4.74456"></trkpt>
      <trkpt lat="50.33376" lon="-4.74407"></trkpt>
      <trkpt lat="50.33398" lon="-4.74376"></trkpt>
      <trkpt lat="50.33417" lon="-4.74367"></trkpt>
      <trkpt lat="50.3343" lon="-4.74344"></trkpt>
      <trkpt lat="50.33442" lon="-4.74333"></trkpt>
      <trkpt lat="50.33516" lon="-4.74214"></trkpt>
      <trkpt lat="50.33527" lon="-4.74183"></trkpt>
      <trkpt lat="50.33529" lon="-4.74184"></trkpt>
      <trkpt lat="50.3355" lon="-4.74146"></trkpt>
      <trkpt lat="50.33563" lon="-4.74107"></trkpt>
      <trkpt lat="50.33551" lon="-4.74085"></trkpt>
      <trkpt lat="50.33545" lon="-4.74061"></trkpt>
      <trkpt lat="50.33545" lon="-4.7402"></trkpt>
      <trkpt lat="50.3355" lon="-4.73982"></trkpt>
      <trkpt lat="50.33555" lon="-4.73922"></trkpt>
      <trkpt lat="50.33556" lon="-4.73882"></trkpt>
      <trkpt lat="50.33562" lon="-4.73852"></trkpt>
      <trkpt lat="50.33572" lon="-4.73829"></trkpt>
      <trkpt lat="50.33564" lon="-4.73778"></trkpt>
      <trkpt lat="50.33551" lon="-4.73749"></trkpt>
      <trkpt lat="50.33547" lon="-4.73724"></trkpt>
      <trkpt lat="50.33545" lon="-4.73714"></trkpt>
      <trkpt lat="50.33559" lon="-4.73679"></trkpt>
      <trkpt lat="50.33596" lon="-4.73641"></trkpt>
      <trkpt lat="50.3364" lon="-4.73624"></trkpt>
      <trkpt lat="50.33648" lon="-4.73613"></trkpt>
      <trkpt lat="50.33659" lon="-4.73611"></trkpt>
      <trkpt lat="50.33677" lon="-4.73598"></trkpt>
      <trkpt lat="50.33686" lon="-4.73587"></trkpt>
      <trkpt lat="50.33744" lon="-4.7349"></trkpt>
      <trkpt lat="50.33757" lon="-4.73471"></trkpt>
      <trkpt lat="50.33766" lon="-4.73465"></trkpt>
      <trkpt lat="50.33769" lon="-4.73465"></trkpt>
      <trkpt lat="50.33776" lon="-4.73449"></trkpt>
      <trkpt lat="50.33784" lon="-4.73414"></trkpt>
      <trkpt lat="50.33805" lon="-4.73378"></trkpt>
      <trkpt lat="50.33823" lon="-4.733"></trkpt>
      <trkpt lat="50.33823" lon="-4.7328"></trkpt>
      <trkpt lat="50.33825" lon="-4.73261"></trkpt>
      <trkpt lat="50.33832" lon="-4.73235"></trkpt>
      <trkpt lat="50.33847" lon="-4.73203"></trkpt>
      <trkpt lat="50.33863" lon="-4.73146"></trkpt>
      <trkpt lat="50.33871" lon="-4.73127"></trkpt>
      <trkpt lat="50.33872" lon="-4.73113"></trkpt>
      <trkpt lat="50.33869" lon="-4.73099"></trkpt>
      <trkpt lat="50.33861" lon="-4.73081"></trkpt>
      <trkpt lat="50.33854" lon="-4.73027"></trkpt>
      <trkpt lat="50.33853" lon="-4.73005"></trkpt>
      <trkpt lat="50.33846" lon="-4.72977"></trkpt>
      <trkpt lat="50.33831" lon="-4.7295"></trkpt>
      <trkpt lat="50.33823" lon="-4.7291"></trkpt>
      <trkpt lat="50.33819" lon="-4.72874"></trkpt>
      <trkpt lat="50.33823" lon="-4.72814"></trkpt>
      <trkpt lat="50.33835" lon="-4.72742"></trkpt>
      <trkpt lat="50.33846" lon="-4.72726"></trkpt>
      <trkpt lat="50.33859" lon="-4.72713"></trkpt>
      <trkpt lat="50.33874" lon="-4.72686"></trkpt>
      <trkpt lat="50.33899" lon="-4.72656"></trkpt>
      <trkpt lat="50.33909" lon="-4.72632"></trkpt>
      <trkpt lat="50.33917" lon="-4.72605"></trkpt>
      <trkpt lat="50.3393" lon="-4.72531"></trkpt>
      <trkpt lat="50.33936" lon="-4.72514"></trkpt>
      <trkpt lat="50.33921" lon="-4.72482"></trkpt>
      <trkpt lat="50.33917" lon="-4.72454"></trkpt>
      <trkpt lat="50.33915" lon="-4.72403"></trkpt>
      <trkpt lat="50.33917" lon="-4.72298"></trkpt>
      <trkpt lat="50.33919" lon="-4.72279"></trkpt>
      <trkpt lat="50.33918" lon="-4.72218"></trkpt>
      <trkpt lat="50.33932" lon="-4.72184"></trkpt>
      <trkpt lat="50.33951" lon="-4.72157"></trkpt>
      <trkpt lat="50.33956" lon="-4.72139"></trkpt>
      <trkpt lat="50.33956" lon="-4.72093"></trkpt>
      <trkpt lat="50.33964" lon="-4.72061"></trkpt>
      <trkpt lat="50.33966" lon="-4.72038"></trkpt>
      <trkpt lat="50.33955" lon="-4.71978"></trkpt>
      <trkpt lat="50.33944" lon="-4.71957"></trkpt>
      <trkpt lat="50.33941" lon="-4.71929"></trkpt>
      <trkpt lat="50.33934" lon="-4.7191"></trkpt>
      <trkpt lat="50.33919" lon="-4.71879"></trkpt>
      <trkpt lat="50.33894" lon="-4.71822"></trkpt>
      <trkpt lat="50.3387" lon="-4.71731"></trkpt>
      <trkpt lat="50.33866" lon="-4.71689"></trkpt>
      <trkpt lat="50.33868" lon="-4.7167"></trkpt>
      <trkpt lat="50.33874" lon="-4.71652"></trkpt>
      <trkpt lat="50.33889" lon="-4.71619"></trkpt>
      <trkpt lat="50.33902" lon="-4.71594"></trkpt>
      <trkpt lat="50.33907" lon="-4.71572"></trkpt>
      <trkpt lat="50.33906" lon="-4.7155"></trkpt>
      <trkpt lat="50.33901" lon="-4.71519"></trkpt>
      <trkpt lat="50.33911" lon="-4.71475"></trkpt>
      <trkpt lat="50.33919" lon="-4.7146"></trkpt>
      <trkpt lat="50.3392" lon="-4.71441"></trkpt>
      <trkpt lat="50.33914" lon="-4.71411"></trkpt>
      <trkpt lat="50.33914" lon="-4.71395"></trkpt>
      <trkpt lat="50.33919" lon="-4.71371"></trkpt>
      <trkpt lat="50.33928" lon="-4.71361"></trkpt>
      <trkpt lat="50.33941" lon="-4.71352"></trkpt>
      <trkpt lat="50.33953" lon="-4.71348"></trkpt>
      <trkpt lat="50.33957" lon="-4.71355"></trkpt>
      <trkpt lat="50.33963" lon="-4.71351"></trkpt>
      <trkpt lat="50.33968" lon="-4.71338"></trkpt>
      <trkpt lat="50.33968" lon="-4.71301"></trkpt>
      <trkpt lat="50.33963" lon="-4.71298"></trkpt>
      <trkpt lat="50.33964" lon="-4.71286"></trkpt>
      <trkpt lat="50.33958" lon="-4.71242"></trkpt>
      <trkpt lat="50.33958" lon="-4.71226"></trkpt>
      <trkpt lat="50.33963" lon="-4.71211"></trkpt>
      <trkpt lat="50.33967" lon="-4.71193"></trkpt>
      <trkpt lat="50.33978" lon="-4.71113"></trkpt>
      <trkpt lat="50.33988" lon="-4.71085"></trkpt>
      <trkpt lat="50.34026" lon="-4.71027"></trkpt>
      <trkpt lat="50.34068" lon="-4.70901"></trkpt>
      <trkpt lat="50.34078" lon="-4.70867"></trkpt>
      <trkpt lat="50.34082" lon="-4.70844"></trkpt>
      <trkpt lat="50.34083" lon="-4.70776"></trkpt>
      <trkpt lat="50.34069" lon="-4.70744"></trkpt>
      <trkpt lat="50.34067" lon="-4.70714"></trkpt>
      <trkpt lat="50.3407" lon="-4.70677"></trkpt>
      <trkpt lat="50.34068" lon="-4.70669"></trkpt>
      <trkpt lat="50.34065" lon="-4.70665"></trkpt>
      <trkpt lat="50.3406" lon="-4.70669"></trkpt>
      <trkpt lat="50.34065" lon="-4.70665"></trkpt>
      <trkpt lat="50.34068" lon="-4.70669"></trkpt>
      <trkpt lat="50.3407" lon="-4.70677"></trkpt>
      <trkpt lat="50.34102" lon="-4.70728"></trkpt>
      <trkpt lat="50.34182" lon="-4.7084"></trkpt>
      <trkpt lat="50.34224" lon="-4.7091"></trkpt>
      <trkpt lat="50.34259" lon="-4.70933"></trkpt>
      <trkpt lat="50.34281" lon="-4.70939"></trkpt>
      <trkpt lat="50.34299" lon="-4.70958"></trkpt>
      <trkpt lat="50.34361" lon="-4.7088"></trkpt>
      <trkpt lat="50.34398" lon="-4.70846"></trkpt>
      <trkpt lat="50.34431" lon="-4.70823"></trkpt>
      <trkpt lat="50.34439" lon="-4.70823"></trkpt>
      <trkpt lat="50.34483" lon="-4.70781"></trkpt>
      <trkpt lat="50.3456" lon="-4.70731"></trkpt>
      <trkpt lat="50.34616" lon="-4.707"></trkpt>
      <trkpt lat="50.34617" lon="-4.70703"></trkpt>
      <trkpt lat="50.3463" lon="-4.70686"></trkpt>
      <trkpt lat="50.34633" lon="-4.7069"></trkpt>
      <trkpt lat="50.34638" lon="-4.70686"></trkpt>
      <trkpt lat="50.34628" lon="-4.70654"></trkpt>
      <trkpt lat="50.34591" lon="-4.70654"></trkpt>
      <trkpt lat="50.34578" lon="-4.70643"></trkpt>
      <trkpt lat="50.34571" lon="-4.70619"></trkpt>
      <trkpt lat="50.34481" lon="-4.70753"></trkpt>
      <trkpt lat="50.34481" lon="-4.70754"></trkpt>
      <trkpt lat="50.34571" lon="-4.70619"></trkpt>
      <trkpt lat="50.34578" lon="-4.70643"></trkpt>
      <trkpt lat="50.34591" lon="-4.70654"></trkpt>
      <trkpt lat="50.34628" lon="-4.70654"></trkpt>
      <trkpt lat="50.34743" lon="-4.70587"></trkpt>
      <trkpt lat="50.34769" lon="-4.70575"></trkpt>
      <trkpt lat="50.34794" lon="-4.70568"></trkpt>
      <trkpt lat="50.34812" lon="-4.70572"></trkpt>
      <trkpt lat="50.34819" lon="-4.70576"></trkpt>
      <trkpt lat="50.34812" lon="-4.70572"></trkpt>
      <trkpt lat="50.34794" lon="-4.70568"></trkpt>
      <trkpt lat="50.34769" lon="-4.70575"></trkpt>
      <trkpt lat="50.34743" lon="-4.70587"></trkpt>
      <trkpt lat="50.3464" lon="-4.70647"></trkpt>
      <trkpt lat="50.34649" lon="-4.70679"></trkpt>
      <trkpt lat="50.34657" lon="-4.70675"></trkpt>
      <trkpt lat="50.34694" lon="-4.70674"></trkpt>
      <trkpt lat="50.34707" lon="-4.70669"></trkpt>
      <trkpt lat="50.34732" lon="-4.70653"></trkpt>
      <trkpt lat="50.34802" lon="-4.70598"></trkpt>
      <trkpt lat="50.34815" lon="-4.70593"></trkpt>
      <trkpt lat="50.34826" lon="-4.70592"></trkpt>
      <trkpt lat="50.34845" lon="-4.70595"></trkpt>
      <trkpt lat="50.34872" lon="-4.70609"></trkpt>
      <trkpt lat="50.3491" lon="-4.70643"></trkpt>
      <trkpt lat="50.34926" lon="-4.70663"></trkpt>
      <trkpt lat="50.34995" lon="-4.70769"></trkpt>
      <trkpt lat="50.35005" lon="-4.70758"></trkpt>
      <trkpt lat="50.35012" lon="-4.70745"></trkpt>
      <trkpt lat="50.35" lon="-4.70728"></trkpt>
      <trkpt lat="50.35012" lon="-4.70745"></trkpt>
      <trkpt lat="50.35036" lon="-4.70695"></trkpt>
      <trkpt lat="50.35044" lon="-4.70671"></trkpt>
      <trkpt lat="50.35056" lon="-4.70625"></trkpt>
      <trkpt lat="50.35064" lon="-4.70548"></trkpt>
      <trkpt lat="50.35072" lon="-4.70497"></trkpt>
      <trkpt lat="50.35119" lon="-4.7023"></trkpt>
      <trkpt lat="50.35091" lon="-4.70217"></trkpt>
    </trkseg>
  </trk>
</gpx>
