<?xml version="1.0" encoding="UTF-8"?>
<gpx version="1.1" creator="swcp-walk (imported from OS Maps route 33845315)"
     xmlns="http://www.topografix.com/GPX/1/1">
  <metadata>
    <name>SWCP33-Par-Polperro</name>
  </metadata>
  <trk>
    <name>SWCP33-Par-Polperro</name>
    <trkseg>
      <trkpt lat="50.35108891843663" lon="-4.702242389193714"></trkpt>
      <trkpt lat="50.35086" lon="-4.70215"></trkpt>
      <trkpt lat="50.35074" lon="-4.70207"></trkpt>
      <trkpt lat="50.35069" lon="-4.70191"></trkpt>
      <trkpt lat="50.35014" lon="-4.70163"></trkpt>
      <trkpt lat="50.35004" lon="-4.70164"></trkpt>
      <trkpt lat="50.34988" lon="-4.70172"></trkpt>
      <trkpt lat="50.34971" lon="-4.70188"></trkpt>
      <trkpt lat="50.34964" lon="-4.70191"></trkpt>
      <trkpt lat="50.34946" lon="-4.70187"></trkpt>
      <trkpt lat="50.34938" lon="-4.70177"></trkpt>
      <trkpt lat="50.34928" lon="-4.70178"></trkpt>
      <trkpt lat="50.34922" lon="-4.70183"></trkpt>
      <trkpt lat="50.34911" lon="-4.70186"></trkpt>
      <trkpt lat="50.34902" lon="-4.70193"></trkpt>
      <trkpt lat="50.34886" lon="-4.70252"></trkpt>
      <trkpt lat="50.3488" lon="-4.70261"></trkpt>
      <trkpt lat="50.34865" lon="-4.70268"></trkpt>
      <trkpt lat="50.34836" lon="-4.70266"></trkpt>
      <trkpt lat="50.34829" lon="-4.70262"></trkpt>
      <trkpt lat="50.34827" lon="-4.70252"></trkpt>
      <trkpt lat="50.34822" lon="-4.70247"></trkpt>
      <trkpt lat="50.3481" lon="-4.70247"></trkpt>
      <trkpt lat="50.34818" lon="-4.70171"></trkpt>
      <trkpt lat="50.34818" lon="-4.70132"></trkpt>
      <trkpt lat="50.34814" lon="-4.70145"></trkpt>
      <trkpt lat="50.34799" lon="-4.70116"></trkpt>
      <trkpt lat="50.34785" lon="-4.70104"></trkpt>
      <trkpt lat="50.34782" lon="-4.70096"></trkpt>
      <trkpt lat="50.3477" lon="-4.7009"></trkpt>
      <trkpt lat="50.34767" lon="-4.70085"></trkpt>
      <trkpt lat="50.34748" lon="-4.7007"></trkpt>
      <trkpt lat="50.34744" lon="-4.70062"></trkpt>
      <trkpt lat="50.34747" lon="-4.70061"></trkpt>
      <trkpt lat="50.34744" lon="-4.70062"></trkpt>
      <trkpt lat="50.34741" lon="-4.70049"></trkpt>
      <trkpt lat="50.34752" lon="-4.70021"></trkpt>
      <trkpt lat="50.34758" lon="-4.69975"></trkpt>
      <trkpt lat="50.34767" lon="-4.69942"></trkpt>
      <trkpt lat="50.34778" lon="-4.69854"></trkpt>
      <trkpt lat="50.34787" lon="-4.6976"></trkpt>
      <trkpt lat="50.34787" lon="-4.69761"></trkpt>
      <trkpt lat="50.34787" lon="-4.69753"></trkpt>
      <trkpt lat="50.34785" lon="-4.69742"></trkpt>
      <trkpt lat="50.34782" lon="-4.69607"></trkpt>
      <trkpt lat="50.34764" lon="-4.69547"></trkpt>
      <trkpt lat="50.34757" lon="-4.69485"></trkpt>
      <trkpt lat="50.34755" lon="-4.69479"></trkpt>
      <trkpt lat="50.34755" lon="-4.69466"></trkpt>
      <trkpt lat="50.34736" lon="-4.69411"></trkpt>
      <trkpt lat="50.34722" lon="-4.69361"></trkpt>
      <trkpt lat="50.34712" lon="-4.69306"></trkpt>
      <trkpt lat="50.34706" lon="-4.69261"></trkpt>
      <trkpt lat="50.34694" lon="-4.6922"></trkpt>
      <trkpt lat="50.3468" lon="-4.6919"></trkpt>
      <trkpt lat="50.34662" lon="-4.69157"></trkpt>
      <trkpt lat="50.34641" lon="-4.69096"></trkpt>
      <trkpt lat="50.34638" lon="-4.69072"></trkpt>
      <trkpt lat="50.34639" lon="-4.69067"></trkpt>
      <trkpt lat="50.34644" lon="-4.6906"></trkpt>
      <trkpt lat="50.34664" lon="-4.69051"></trkpt>
      <trkpt lat="50.34674" lon="-4.69043"></trkpt>
      <trkpt lat="50.34676" lon="-4.69032"></trkpt>
      <trkpt lat="50.34676" lon="-4.69015"></trkpt>
      <trkpt lat="50.34686" lon="-4.68984"></trkpt>
      <trkpt lat="50.34698" lon="-4.68984"></trkpt>
      <trkpt lat="50.34712" lon="-4.68981"></trkpt>
      <trkpt lat="50.34753" lon="-4.68984"></trkpt>
      <trkpt lat="50.34772" lon="-4.68963"></trkpt>
      <trkpt lat="50.34777" lon="-4.6896"></trkpt>
      <trkpt lat="50.34794" lon="-4.68956"></trkpt>
      <trkpt lat="50.34807" lon="-4.68949"></trkpt>
      <trkpt lat="50.348" lon="-4.68934"></trkpt>
      <trkpt lat="50.34795" lon="-4.68934"></trkpt>
      <trkpt lat="50.3479" lon="-4.68939"></trkpt>
      <trkpt lat="50.34787" lon="-4.68936"></trkpt>
      <trkpt lat="50.34754" lon="-4.68957"></trkpt>
      <trkpt lat="50.34728" lon="-4.68959"></trkpt>
      <trkpt lat="50.34717" lon="-4.68957"></trkpt>
      <trkpt lat="50.34708" lon="-4.68945"></trkpt>
      <trkpt lat="50.34691" lon="-4.68949"></trkpt>
      <trkpt lat="50.34682" lon="-4.68947"></trkpt>
      <trkpt lat="50.34666" lon="-4.68936"></trkpt>
      <trkpt lat="50.34648" lon="-4.68948"></trkpt>
      <trkpt lat="50.34635" lon="-4.68962"></trkpt>
      <trkpt lat="50.34618" lon="-4.68974"></trkpt>
      <trkpt lat="50.3459" lon="-4.68951"></trkpt>
      <trkpt lat="50.34575" lon="-4.68953"></trkpt>
      <trkpt lat="50.34551" lon="-4.68979"></trkpt>
      <trkpt lat="50.34543" lon="-4.68983"></trkpt>
      <trkpt lat="50.34521" lon="-4.68988"></trkpt>
      <trkpt lat="50.34494" lon="-4.69007"></trkpt>
      <trkpt lat="50.34467" lon="-4.69012"></trkpt>
      <trkpt lat="50.34439" lon="-4.69003"></trkpt>
      <trkpt lat="50.34425" lon="-4.68995"></trkpt>
      <trkpt lat="50.34393" lon="-4.68962"></trkpt>
      <trkpt lat="50.3439" lon="-4.68958"></trkpt>
      <trkpt lat="50.34388" lon="-4.68951"></trkpt>
      <trkpt lat="50.34383" lon="-4.68904"></trkpt>
      <trkpt lat="50.34362" lon="-4.68876"></trkpt>
      <trkpt lat="50.34358" lon="-4.68874"></trkpt>
      <trkpt lat="50.34328" lon="-4.68876"></trkpt>
      <trkpt lat="50.34276" lon="-4.68873"></trkpt>
      <trkpt lat="50.34272" lon="-4.68877"></trkpt>
      <trkpt lat="50.34263" lon="-4.68905"></trkpt>
      <trkpt lat="50.3425" lon="-4.68937"></trkpt>
      <trkpt lat="50.3423" lon="-4.68942"></trkpt>
      <trkpt lat="50.34191" lon="-4.68924"></trkpt>
      <trkpt lat="50.34147" lon="-4.68878"></trkpt>
      <trkpt lat="50.34154" lon="-4.68768"></trkpt>
      <trkpt lat="50.34159" lon="-4.68688"></trkpt>
      <trkpt lat="50.34159" lon="-4.68679"></trkpt>
      <trkpt lat="50.34157" lon="-4.68671"></trkpt>
      <trkpt lat="50.34107" lon="-4.68584"></trkpt>
      <trkpt lat="50.34071" lon="-4.68536"></trkpt>
      <trkpt lat="50.34058" lon="-4.68522"></trkpt>
      <trkpt lat="50.34041" lon="-4.68516"></trkpt>
      <trkpt lat="50.34033" lon="-4.68517"></trkpt>
      <trkpt lat="50.34029" lon="-4.68515"></trkpt>
      <trkpt lat="50.34008" lon="-4.68497"></trkpt>
      <trkpt lat="50.33966" lon="-4.6845"></trkpt>
      <trkpt lat="50.33967" lon="-4.68441"></trkpt>
      <trkpt lat="50.33964" lon="-4.68428"></trkpt>
      <trkpt lat="50.33956" lon="-4.68338"></trkpt>
      <trkpt lat="50.33937" lon="-4.68292"></trkpt>
      <trkpt lat="50.33923" lon="-4.68246"></trkpt>
      <trkpt lat="50.33893" lon="-4.68173"></trkpt>
      <trkpt lat="50.33881" lon="-4.68152"></trkpt>
      <trkpt lat="50.33867" lon="-4.68155"></trkpt>
      <trkpt lat="50.33853" lon="-4.68141"></trkpt>
      <trkpt lat="50.33844" lon="-4.68142"></trkpt>
      <trkpt lat="50.3384" lon="-4.68138"></trkpt>
      <trkpt lat="50.3383" lon="-4.68118"></trkpt>
      <trkpt lat="50.33823" lon="-4.68113"></trkpt>
      <trkpt lat="50.33806" lon="-4.6808"></trkpt>
      <trkpt lat="50.33798" lon="-4.68106"></trkpt>
      <trkpt lat="50.33789" lon="-4.68137"></trkpt>
      <trkpt lat="50.33784" lon="-4.68134"></trkpt>
      <trkpt lat="50.3376" lon="-4.68106"></trkpt>
      <trkpt lat="50.33749" lon="-4.68082"></trkpt>
      <trkpt lat="50.33745" lon="-4.68082"></trkpt>
      <trkpt lat="50.33743" lon="-4.68021"></trkpt>
      <trkpt lat="50.33746" lon="-4.67978"></trkpt>
      <trkpt lat="50.33745" lon="-4.67961"></trkpt>
      <trkpt lat="50.33742" lon="-4.67961"></trkpt>
      <trkpt lat="50.33721" lon="-4.67993"></trkpt>
      <trkpt lat="50.33726" lon="-4.6792"></trkpt>
      <trkpt lat="50.33687" lon="-4.68043"></trkpt>
      <trkpt lat="50.33639" lon="-4.68105"></trkpt>
      <trkpt lat="50.33604" lon="-4.6814"></trkpt>
      <trkpt lat="50.33594" lon="-4.68156"></trkpt>
      <trkpt lat="50.33581" lon="-4.68167"></trkpt>
      <trkpt lat="50.33521" lon="-4.68176"></trkpt>
      <trkpt lat="50.33499" lon="-4.68182"></trkpt>
      <trkpt lat="50.33464" lon="-4.68177"></trkpt>
      <trkpt lat="50.33435" lon="-4.68178"></trkpt>
      <trkpt lat="50.33397" lon="-4.6819"></trkpt>
      <trkpt lat="50.33362" lon="-4.68192"></trkpt>
      <trkpt lat="50.33348" lon="-4.68195"></trkpt>
      <trkpt lat="50.33335" lon="-4.682"></trkpt>
      <trkpt lat="50.33322" lon="-4.68198"></trkpt>
      <trkpt lat="50.33313" lon="-4.68194"></trkpt>
      <trkpt lat="50.33289" lon="-4.68177"></trkpt>
      <trkpt lat="50.33282" lon="-4.68168"></trkpt>
      <trkpt lat="50.33273" lon="-4.68166"></trkpt>
      <trkpt lat="50.33259" lon="-4.68166"></trkpt>
      <trkpt lat="50.33232" lon="-4.68181"></trkpt>
      <trkpt lat="50.33216" lon="-4.68187"></trkpt>
      <trkpt lat="50.33195" lon="-4.68191"></trkpt>
      <trkpt lat="50.33179" lon="-4.68191"></trkpt>
      <trkpt lat="50.33157" lon="-4.68188"></trkpt>
      <trkpt lat="50.33151" lon="-4.6819"></trkpt>
      <trkpt lat="50.33141" lon="-4.68195"></trkpt>
      <trkpt lat="50.33133" lon="-4.68208"></trkpt>
      <trkpt lat="50.33126" lon="-4.68214"></trkpt>
      <trkpt lat="50.33097" lon="-4.68225"></trkpt>
      <trkpt lat="50.33069" lon="-4.68214"></trkpt>
      <trkpt lat="50.33031" lon="-4.68192"></trkpt>
      <trkpt lat="50.33026" lon="-4.68186"></trkpt>
      <trkpt lat="50.3302" lon="-4.68172"></trkpt>
      <trkpt lat="50.32985" lon="-4.68129"></trkpt>
      <trkpt lat="50.3296" lon="-4.68105"></trkpt>
      <trkpt lat="50.32956" lon="-4.68091"></trkpt>
      <trkpt lat="50.32936" lon="-4.68096"></trkpt>
      <trkpt lat="50.32924" lon="-4.68101"></trkpt>
      <trkpt lat="50.32903" lon="-4.68101"></trkpt>
      <trkpt lat="50.32884" lon="-4.68106"></trkpt>
      <trkpt lat="50.32871" lon="-4.68113"></trkpt>
      <trkpt lat="50.32842" lon="-4.68114"></trkpt>
      <trkpt lat="50.32826" lon="-4.68106"></trkpt>
      <trkpt lat="50.32784" lon="-4.68105"></trkpt>
      <trkpt lat="50.32757" lon="-4.68097"></trkpt>
      <trkpt lat="50.32741" lon="-4.68106"></trkpt>
      <trkpt lat="50.327" lon="-4.68112"></trkpt>
      <trkpt lat="50.32653" lon="-4.68129"></trkpt>
      <trkpt lat="50.32642" lon="-4.6813"></trkpt>
      <trkpt lat="50.32528" lon="-4.68099"></trkpt>
      <trkpt lat="50.32506" lon="-4.68097"></trkpt>
      <trkpt lat="50.32453" lon="-4.68107"></trkpt>
      <trkpt lat="50.32419" lon="-4.68119"></trkpt>
      <trkpt lat="50.32373" lon="-4.68141"></trkpt>
      <trkpt lat="50.32305" lon="-4.68143"></trkpt>
      <trkpt lat="50.32227" lon="-4.68167"></trkpt>
      <trkpt lat="50.32204" lon="-4.68178"></trkpt>
      <trkpt lat="50.3208" lon="-4.6825"></trkpt>
      <trkpt lat="50.32062" lon="-4.68253"></trkpt>
      <trkpt lat="50.32044" lon="-4.68249"></trkpt>
      <trkpt lat="50.32049" lon="-4.68213"></trkpt>
      <trkpt lat="50.32026" lon="-4.68187"></trkpt>
      <trkpt lat="50.32004" lon="-4.68168"></trkpt>
      <trkpt lat="50.31982" lon="-4.6812"></trkpt>
      <trkpt lat="50.31964" lon="-4.68107"></trkpt>
      <trkpt lat="50.31926" lon="-4.68088"></trkpt>
      <trkpt lat="50.31903" lon="-4.68079"></trkpt>
      <trkpt lat="50.3187" lon="-4.68073"></trkpt>
      <trkpt lat="50.31872" lon="-4.68058"></trkpt>
      <trkpt lat="50.31876" lon="-4.68049"></trkpt>
      <trkpt lat="50.31895" lon="-4.68001"></trkpt>
      <trkpt lat="50.31902" lon="-4.67975"></trkpt>
      <trkpt lat="50.31903" lon="-4.67943"></trkpt>
      <trkpt lat="50.31914" lon="-4.67915"></trkpt>
      <trkpt lat="50.319" lon="-4.67862"></trkpt>
      <trkpt lat="50.31887" lon="-4.67798"></trkpt>
      <trkpt lat="50.31874" lon="-4.67769"></trkpt>
      <trkpt lat="50.31862" lon="-4.67734"></trkpt>
      <trkpt lat="50.31858" lon="-4.67668"></trkpt>
      <trkpt lat="50.31844" lon="-4.67634"></trkpt>
      <trkpt lat="50.31822" lon="-4.67598"></trkpt>
      <trkpt lat="50.31809" lon="-4.67573"></trkpt>
      <trkpt lat="50.31783" lon="-4.67541"></trkpt>
      <trkpt lat="50.31781" lon="-4.67527"></trkpt>
      <trkpt lat="50.31774" lon="-4.67525"></trkpt>
      <trkpt lat="50.31767" lon="-4.67513"></trkpt>
      <trkpt lat="50.31751" lon="-4.675"></trkpt>
      <trkpt lat="50.31727" lon="-4.67486"></trkpt>
      <trkpt lat="50.31721" lon="-4.67488"></trkpt>
      <trkpt lat="50.31717" lon="-4.67489"></trkpt>
      <trkpt lat="50.31712" lon="-4.67485"></trkpt>
      <trkpt lat="50.31705" lon="-4.67473"></trkpt>
      <trkpt lat="50.31703" lon="-4.67464"></trkpt>
      <trkpt lat="50.31698" lon="-4.67372"></trkpt>
      <trkpt lat="50.31703" lon="-4.67312"></trkpt>
      <trkpt lat="50.31701" lon="-4.67304"></trkpt>
      <trkpt lat="50.31703" lon="-4.67312"></trkpt>
      <trkpt lat="50.31725" lon="-4.67303"></trkpt>
      <trkpt lat="50.31743" lon="-4.67272"></trkpt>
      <trkpt lat="50.31786" lon="-4.67222"></trkpt>
      <trkpt lat="50.31826" lon="-4.67159"></trkpt>
      <trkpt lat="50.31922" lon="-4.67057"></trkpt>
      <trkpt lat="50.31956" lon="-4.67036"></trkpt>
      <trkpt lat="50.32004" lon="-4.66992"></trkpt>
      <trkpt lat="50.32014" lon="-4.6698"></trkpt>
      <trkpt lat="50.32038" lon="-4.66979"></trkpt>
      <trkpt lat="50.32055" lon="-4.6698"></trkpt>
      <trkpt lat="50.3206" lon="-4.66986"></trkpt>
      <trkpt lat="50.32064" lon="-4.66986"></trkpt>
      <trkpt lat="50.32108" lon="-4.66928"></trkpt>
      <trkpt lat="50.3213" lon="-4.66905"></trkpt>
      <trkpt lat="50.32166" lon="-4.66862"></trkpt>
      <trkpt lat="50.32189" lon="-4.66866"></trkpt>
      <trkpt lat="50.32212" lon="-4.66827"></trkpt>
      <trkpt lat="50.32237" lon="-4.66824"></trkpt>
      <trkpt lat="50.32246" lon="-4.66828"></trkpt>
      <trkpt lat="50.32254" lon="-4.66826"></trkpt>
      <trkpt lat="50.32267" lon="-4.66833"></trkpt>
      <trkpt lat="50.32275" lon="-4.6683"></trkpt>
      <trkpt lat="50.32312" lon="-4.66803"></trkpt>
      <trkpt lat="50.32328" lon="-4.66786"></trkpt>
      <trkpt lat="50.3233" lon="-4.66775"></trkpt>
      <trkpt lat="50.32323" lon="-4.66773"></trkpt>
      <trkpt lat="50.3232" lon="-4.66762"></trkpt>
      <trkpt lat="50.32321" lon="-4.66727"></trkpt>
      <trkpt lat="50.3232" lon="-4.66697"></trkpt>
      <trkpt lat="50.32326" lon="-4.6667"></trkpt>
      <trkpt lat="50.32328" lon="-4.66655"></trkpt>
      <trkpt lat="50.32345" lon="-4.66633"></trkpt>
      <trkpt lat="50.32352" lon="-4.66626"></trkpt>
      <trkpt lat="50.32371" lon="-4.66615"></trkpt>
      <trkpt lat="50.32379" lon="-4.66599"></trkpt>
      <trkpt lat="50.32381" lon="-4.6657"></trkpt>
      <trkpt lat="50.32379" lon="-4.66549"></trkpt>
      <trkpt lat="50.32381" lon="-4.66544"></trkpt>
      <trkpt lat="50.32378" lon="-4.66534"></trkpt>
      <trkpt lat="50.32378" lon="-4.66508"></trkpt>
      <trkpt lat="50.32374" lon="-4.66496"></trkpt>
      <trkpt lat="50.32366" lon="-4.66492"></trkpt>
      <trkpt lat="50.32337" lon="-4.66485"></trkpt>
      <trkpt lat="50.32322" lon="-4.66477"></trkpt>
      <trkpt lat="50.32317" lon="-4.66461"></trkpt>
      <trkpt lat="50.32312" lon="-4.66455"></trkpt>
      <trkpt lat="50.32304" lon="-4.66451"></trkpt>
      <trkpt lat="50.32294" lon="-4.66455"></trkpt>
      <trkpt lat="50.32284" lon="-4.66449"></trkpt>
      <trkpt lat="50.32262" lon="-4.66415"></trkpt>
      <trkpt lat="50.32248" lon="-4.66389"></trkpt>
      <trkpt lat="50.32248" lon="-4.66369"></trkpt>
      <trkpt lat="50.32262" lon="-4.66294"></trkpt>
      <trkpt lat="50.32265" lon="-4.66262"></trkpt>
      <trkpt lat="50.3228" lon="-4.66193"></trkpt>
      <trkpt lat="50.32297" lon="-4.66145"></trkpt>
      <trkpt lat="50.32332" lon="-4.66025"></trkpt>
      <trkpt lat="50.32365" lon="-4.65941"></trkpt>
      <trkpt lat="50.32373" lon="-4.65927"></trkpt>
      <trkpt lat="50.32375" lon="-4.65904"></trkpt>
      <trkpt lat="50.32371" lon="-4.65868"></trkpt>
      <trkpt lat="50.32369" lon="-4.65805"></trkpt>
      <trkpt lat="50.32362" lon="-4.65774"></trkpt>
      <trkpt lat="50.32367" lon="-4.65717"></trkpt>
      <trkpt lat="50.32365" lon="-4.6569"></trkpt>
      <trkpt lat="50.32355" lon="-4.65632"></trkpt>
      <trkpt lat="50.32346" lon="-4.65592"></trkpt>
      <trkpt lat="50.32353" lon="-4.65546"></trkpt>
      <trkpt lat="50.32383" lon="-4.65439"></trkpt>
      <trkpt lat="50.32395" lon="-4.65413"></trkpt>
      <trkpt lat="50.32416" lon="-4.65381"></trkpt>
      <trkpt lat="50.32445" lon="-4.65347"></trkpt>
      <trkpt lat="50.32449" lon="-4.6534"></trkpt>
      <trkpt lat="50.32458" lon="-4.65324"></trkpt>
      <trkpt lat="50.32488" lon="-4.65298"></trkpt>
      <trkpt lat="50.32505" lon="-4.65294"></trkpt>
      <trkpt lat="50.32511" lon="-4.65296"></trkpt>
      <trkpt lat="50.32517" lon="-4.65303"></trkpt>
      <trkpt lat="50.32535" lon="-4.65346"></trkpt>
      <trkpt lat="50.32544" lon="-4.65354"></trkpt>
      <trkpt lat="50.32556" lon="-4.65356"></trkpt>
      <trkpt lat="50.3256" lon="-4.65353"></trkpt>
      <trkpt lat="50.32589" lon="-4.65292"></trkpt>
      <trkpt lat="50.32597" lon="-4.65284"></trkpt>
      <trkpt lat="50.3262" lon="-4.6527"></trkpt>
      <trkpt lat="50.3263" lon="-4.65266"></trkpt>
      <trkpt lat="50.32659" lon="-4.65279"></trkpt>
      <trkpt lat="50.32673" lon="-4.65288"></trkpt>
      <trkpt lat="50.3268" lon="-4.65285"></trkpt>
      <trkpt lat="50.32696" lon="-4.65289"></trkpt>
      <trkpt lat="50.32693" lon="-4.65259"></trkpt>
      <trkpt lat="50.32687" lon="-4.65246"></trkpt>
      <trkpt lat="50.32689" lon="-4.65242"></trkpt>
      <trkpt lat="50.32695" lon="-4.65245"></trkpt>
      <trkpt lat="50.32731" lon="-4.65195"></trkpt>
      <trkpt lat="50.32732" lon="-4.65181"></trkpt>
      <trkpt lat="50.32722" lon="-4.65153"></trkpt>
      <trkpt lat="50.32704" lon="-4.65121"></trkpt>
      <trkpt lat="50.32699" lon="-4.65102"></trkpt>
      <trkpt lat="50.3272" lon="-4.65042"></trkpt>
      <trkpt lat="50.3273" lon="-4.65004"></trkpt>
      <trkpt lat="50.32742" lon="-4.64948"></trkpt>
      <trkpt lat="50.32746" lon="-4.64899"></trkpt>
      <trkpt lat="50.32755" lon="-4.64838"></trkpt>
      <trkpt lat="50.32761" lon="-4.64787"></trkpt>
      <trkpt lat="50.32768" lon="-4.64754"></trkpt>
      <trkpt lat="50.32782" lon="-4.64732"></trkpt>
      <trkpt lat="50.328" lon="-4.64714"></trkpt>
      <trkpt lat="50.32812" lon="-4.64691"></trkpt>
      <trkpt lat="50.32835" lon="-4.64636"></trkpt>
      <trkpt lat="50.32843" lon="-4.64627"></trkpt>
      <trkpt lat="50.32854" lon="-4.64609"></trkpt>
      <trkpt lat="50.32861" lon="-4.64588"></trkpt>
      <trkpt lat="50.32856" lon="-4.64572"></trkpt>
      <trkpt lat="50.32866" lon="-4.64599"></trkpt>
      <trkpt lat="50.32918" lon="-4.64669"></trkpt>
      <trkpt lat="50.32949" lon="-4.64702"></trkpt>
      <trkpt lat="50.32963" lon="-4.64723"></trkpt>
      <trkpt lat="50.32953" lon="-4.64666"></trkpt>
      <trkpt lat="50.32959" lon="-4.6462"></trkpt>
      <trkpt lat="50.32976" lon="-4.64594"></trkpt>
      <trkpt lat="50.32978" lon="-4.64589"></trkpt>
      <trkpt lat="50.32979" lon="-4.64538"></trkpt>
      <trkpt lat="50.32974" lon="-4.64463"></trkpt>
      <trkpt lat="50.32975" lon="-4.6444"></trkpt>
      <trkpt lat="50.32993" lon="-4.64386"></trkpt>
      <trkpt lat="50.33001" lon="-4.64369"></trkpt>
      <trkpt lat="50.33011" lon="-4.64353"></trkpt>
      <trkpt lat="50.33041" lon="-4.64313"></trkpt>
      <trkpt lat="50.33043" lon="-4.64319"></trkpt>
      <trkpt lat="50.33064" lon="-4.64295"></trkpt>
      <trkpt lat="50.33106" lon="-4.64254"></trkpt>
      <trkpt lat="50.33109" lon="-4.64248"></trkpt>
      <trkpt lat="50.33107" lon="-4.64244"></trkpt>
      <trkpt lat="50.33135" lon="-4.64215"></trkpt>
      <trkpt lat="50.33181" lon="-4.64155"></trkpt>
      <trkpt lat="50.33192" lon="-4.64145"></trkpt>
      <trkpt lat="50.33205" lon="-4.6411"></trkpt>
      <trkpt lat="50.33324" lon="-4.63834"></trkpt>
      <trkpt lat="50.33301" lon="-4.63804"></trkpt>
      <trkpt lat="50.33293" lon="-4.63813"></trkpt>
      <trkpt lat="50.33303" lon="-4.63786"></trkpt>
      <trkpt lat="50.3331" lon="-4.63785"></trkpt>
      <trkpt lat="50.33311" lon="-4.63767"></trkpt>
      <trkpt lat="50.33335" lon="-4.63695"></trkpt>
      <trkpt lat="50.33198" lon="-4.63595"></trkpt>
      <trkpt lat="50.32995" lon="-4.63456"></trkpt>
      <trkpt lat="50.3295" lon="-4.63472"></trkpt>
      <trkpt lat="50.32945" lon="-4.63472"></trkpt>
      <trkpt lat="50.32941" lon="-4.63475"></trkpt>
      <trkpt lat="50.32926" lon="-4.63478"></trkpt>
      <trkpt lat="50.32923" lon="-4.63468"></trkpt>
      <trkpt lat="50.32899" lon="-4.63453"></trkpt>
      <trkpt lat="50.32903" lon="-4.63423"></trkpt>
      <trkpt lat="50.32889" lon="-4.63417"></trkpt>
      <trkpt lat="50.32888" lon="-4.63421"></trkpt>
      <trkpt lat="50.32879" lon="-4.63526"></trkpt>
      <trkpt lat="50.3288" lon="-4.63619"></trkpt>
      <trkpt lat="50.32888" lon="-4.63673"></trkpt>
      <trkpt lat="50.32907" lon="-4.63728"></trkpt>
      <trkpt lat="50.32917" lon="-4.63746"></trkpt>
      <trkpt lat="50.32907" lon="-4.63728"></trkpt>
      <trkpt lat="50.32843" lon="-4.6378"></trkpt>
      <trkpt lat="50.32792" lon="-4.63868"></trkpt>
      <trkpt lat="50.32779" lon="-4.63851"></trkpt>
      <trkpt lat="50.32761" lon="-4.63817"></trkpt>
      <trkpt lat="50.32754" lon="-4.63804"></trkpt>
      <trkpt lat="50.32736" lon="-4.63779"></trkpt>
      <trkpt lat="50.32731" lon="-4.63775"></trkpt>
      <trkpt lat="50.32706" lon="-4.6374"></trkpt>
      <trkpt lat="50.32685" lon="-4.63701"></trkpt>
      <trkpt lat="50.32711" lon="-4.63671"></trkpt>
      <trkpt lat="50.32692" lon="-4.6361"></trkpt>
      <trkpt lat="50.32687" lon="-4.63583"></trkpt>
      <trkpt lat="50.32668" lon="-4.63543"></trkpt>
      <trkpt lat="50.32661" lon="-4.63473"></trkpt>
      <trkpt lat="50.32668" lon="-4.63455"></trkpt>
      <trkpt lat="50.3268" lon="-4.63459"></trkpt>
      <trkpt lat="50.32671" lon="-4.63432"></trkpt>
      <trkpt lat="50.3267" lon="-4.63421"></trkpt>
      <trkpt lat="50.32653" lon="-4.6337"></trkpt>
      <trkpt lat="50.32641" lon="-4.63315"></trkpt>
      <trkpt lat="50.32639" lon="-4.63297"></trkpt>
      <trkpt lat="50.32641" lon="-4.63287"></trkpt>
      <trkpt lat="50.3262" lon="-4.63306"></trkpt>
      <trkpt lat="50.32611" lon="-4.63302"></trkpt>
      <trkpt lat="50.32594" lon="-4.63301"></trkpt>
      <trkpt lat="50.32567" lon="-4.6329"></trkpt>
      <trkpt lat="50.32547" lon="-4.63265"></trkpt>
      <trkpt lat="50.32536" lon="-4.63231"></trkpt>
      <trkpt lat="50.32518" lon="-4.63148"></trkpt>
      <trkpt lat="50.32512" lon="-4.63116"></trkpt>
      <trkpt lat="50.32506" lon="-4.63036"></trkpt>
      <trkpt lat="50.32511" lon="-4.62957"></trkpt>
      <trkpt lat="50.32526" lon="-4.62897"></trkpt>
      <trkpt lat="50.32532" lon="-4.62892"></trkpt>
      <trkpt lat="50.32535" lon="-4.62876"></trkpt>
      <trkpt lat="50.32549" lon="-4.6285"></trkpt>
      <trkpt lat="50.32551" lon="-4.62839"></trkpt>
      <trkpt lat="50.32542" lon="-4.6283"></trkpt>
      <trkpt lat="50.32516" lon="-4.62817"></trkpt>
      <trkpt lat="50.32506" lon="-4.62808"></trkpt>
      <trkpt lat="50.32496" lon="-4.62796"></trkpt>
      <trkpt lat="50.32476" lon="-4.62722"></trkpt>
      <trkpt lat="50.32475" lon="-4.62703"></trkpt>
      <trkpt lat="50.32476" lon="-4.62678"></trkpt>
      <trkpt lat="50.32481" lon="-4.62652"></trkpt>
      <trkpt lat="50.32486" lon="-4.62629"></trkpt>
      <trkpt lat="50.32489" lon="-4.62578"></trkpt>
      <trkpt lat="50.32494" lon="-4.62536"></trkpt>
      <trkpt lat="50.32492" lon="-4.625"></trkpt>
      <trkpt lat="50.32497" lon="-4.62468"></trkpt>
      <trkpt lat="50.32502" lon="-4.62456"></trkpt>
      <trkpt lat="50.32503" lon="-4.62444"></trkpt>
      <trkpt lat="50.32507" lon="-4.62432"></trkpt>
      <trkpt lat="50.32511" lon="-4.62426"></trkpt>
      <trkpt lat="50.3252" lon="-4.62402"></trkpt>
      <trkpt lat="50.32543" lon="-4.62357"></trkpt>
      <trkpt lat="50.32553" lon="-4.62334"></trkpt>
      <trkpt lat="50.3256" lon="-4.62293"></trkpt>
      <trkpt lat="50.32561" lon="-4.62276"></trkpt>
      <trkpt lat="50.3256" lon="-4.6226"></trkpt>
      <trkpt lat="50.32563" lon="-4.62238"></trkpt>
      <trkpt lat="50.32553" lon="-4.62134"></trkpt>
      <trkpt lat="50.32567" lon="-4.62087"></trkpt>
      <trkpt lat="50.32567" lon="-4.62039"></trkpt>
      <trkpt lat="50.32565" lon="-4.61974"></trkpt>
      <trkpt lat="50.32565" lon="-4.61876"></trkpt>
      <trkpt lat="50.3258" lon="-4.61824"></trkpt>
      <trkpt lat="50.32582" lon="-4.618"></trkpt>
      <trkpt lat="50.32581" lon="-4.61753"></trkpt>
      <trkpt lat="50.32585" lon="-4.61733"></trkpt>
      <trkpt lat="50.32615" lon="-4.61669"></trkpt>
      <trkpt lat="50.32652" lon="-4.61607"></trkpt>
      <trkpt lat="50.32664" lon="-4.61592"></trkpt>
      <trkpt lat="50.32732" lon="-4.61543"></trkpt>
      <trkpt lat="50.32749" lon="-4.61521"></trkpt>
      <trkpt lat="50.32768" lon="-4.61488"></trkpt>
      <trkpt lat="50.32775" lon="-4.61483"></trkpt>
      <trkpt lat="50.32798" lon="-4.61452"></trkpt>
      <trkpt lat="50.32812" lon="-4.61418"></trkpt>
      <trkpt lat="50.32845" lon="-4.61311"></trkpt>
      <trkpt lat="50.3285" lon="-4.61293"></trkpt>
      <trkpt lat="50.32856" lon="-4.61224"></trkpt>
      <trkpt lat="50.32862" lon="-4.61205"></trkpt>
      <trkpt lat="50.3287" lon="-4.6116"></trkpt>
      <trkpt lat="50.32871" lon="-4.61112"></trkpt>
      <trkpt lat="50.32867" lon="-4.61091"></trkpt>
      <trkpt lat="50.32866" lon="-4.61077"></trkpt>
      <trkpt lat="50.32868" lon="-4.61044"></trkpt>
      <trkpt lat="50.32875" lon="-4.61012"></trkpt>
      <trkpt lat="50.32884" lon="-4.60991"></trkpt>
      <trkpt lat="50.32894" lon="-4.60953"></trkpt>
      <trkpt lat="50.32904" lon="-4.60909"></trkpt>
      <trkpt lat="50.32905" lon="-4.60896"></trkpt>
      <trkpt lat="50.32916" lon="-4.60849"></trkpt>
      <trkpt lat="50.32918" lon="-4.60831"></trkpt>
      <trkpt lat="50.32916" lon="-4.60802"></trkpt>
      <trkpt lat="50.32917" lon="-4.60787"></trkpt>
      <trkpt lat="50.32922" lon="-4.60767"></trkpt>
      <trkpt lat="50.32925" lon="-4.60732"></trkpt>
      <trkpt lat="50.32935" lon="-4.60682"></trkpt>
      <trkpt lat="50.32937" lon="-4.60664"></trkpt>
      <trkpt lat="50.32943" lon="-4.60642"></trkpt>
      <trkpt lat="50.32945" lon="-4.6054"></trkpt>
      <trkpt lat="50.32945" lon="-4.60468"></trkpt>
      <trkpt lat="50.32947" lon="-4.60433"></trkpt>
      <trkpt lat="50.3295" lon="-4.60401"></trkpt>
      <trkpt lat="50.32963" lon="-4.60366"></trkpt>
      <trkpt lat="50.32965" lon="-4.60355"></trkpt>
      <trkpt lat="50.32967" lon="-4.60322"></trkpt>
      <trkpt lat="50.32967" lon="-4.60252"></trkpt>
      <trkpt lat="50.32975" lon="-4.60225"></trkpt>
      <trkpt lat="50.32978" lon="-4.60206"></trkpt>
      <trkpt lat="50.32975" lon="-4.60205"></trkpt>
      <trkpt lat="50.32974" lon="-4.602"></trkpt>
      <trkpt lat="50.32975" lon="-4.60177"></trkpt>
      <trkpt lat="50.32974" lon="-4.60172"></trkpt>
      <trkpt lat="50.32979" lon="-4.60166"></trkpt>
      <trkpt lat="50.32978" lon="-4.60157"></trkpt>
      <trkpt lat="50.32966" lon="-4.60144"></trkpt>
      <trkpt lat="50.32953" lon="-4.60138"></trkpt>
      <trkpt lat="50.32913" lon="-4.60104"></trkpt>
      <trkpt lat="50.32884" lon="-4.60063"></trkpt>
      <trkpt lat="50.32857" lon="-4.60029"></trkpt>
      <trkpt lat="50.32839" lon="-4.60018"></trkpt>
      <trkpt lat="50.32825" lon="-4.59996"></trkpt>
      <trkpt lat="50.32774" lon="-4.59943"></trkpt>
      <trkpt lat="50.32756" lon="-4.59931"></trkpt>
      <trkpt lat="50.32708" lon="-4.59915"></trkpt>
      <trkpt lat="50.32696" lon="-4.59921"></trkpt>
      <trkpt lat="50.32667" lon="-4.59958"></trkpt>
      <trkpt lat="50.32618" lon="-4.59978"></trkpt>
      <trkpt lat="50.32592" lon="-4.59974"></trkpt>
      <trkpt lat="50.32591" lon="-4.59974"></trkpt>
      <trkpt lat="50.32569" lon="-4.59992"></trkpt>
      <trkpt lat="50.32542" lon="-4.59992"></trkpt>
      <trkpt lat="50.32514" lon="-4.59981"></trkpt>
      <trkpt lat="50.32503" lon="-4.59918"></trkpt>
      <trkpt lat="50.32495" lon="-4.59823"></trkpt>
      <trkpt lat="50.32508" lon="-4.598"></trkpt>
      <trkpt lat="50.32535" lon="-4.5979"></trkpt>
      <trkpt lat="50.32549" lon="-4.59785"></trkpt>
      <trkpt lat="50.32566" lon="-4.59786"></trkpt>
      <trkpt lat="50.32617" lon="-4.59769"></trkpt>
      <trkpt lat="50.32638" lon="-4.59766"></trkpt>
      <trkpt lat="50.32652" lon="-4.59753"></trkpt>
      <trkpt lat="50.32659" lon="-4.59742"></trkpt>
      <trkpt lat="50.3267" lon="-4.59738"></trkpt>
      <trkpt lat="50.32695" lon="-4.59706"></trkpt>
      <trkpt lat="50.32707" lon="-4.597"></trkpt>
      <trkpt lat="50.32713" lon="-4.59691"></trkpt>
      <trkpt lat="50.32773" lon="-4.59628"></trkpt>
      <trkpt lat="50.32802" lon="-4.59572"></trkpt>
      <trkpt lat="50.32876" lon="-4.59421"></trkpt>
      <trkpt lat="50.32892" lon="-4.59379"></trkpt>
      <trkpt lat="50.32938" lon="-4.59272"></trkpt>
      <trkpt lat="50.32951" lon="-4.59254"></trkpt>
      <trkpt lat="50.32964" lon="-4.59224"></trkpt>
      <trkpt lat="50.33045" lon="-4.59113"></trkpt>
      <trkpt lat="50.33061" lon="-4.59086"></trkpt>
      <trkpt lat="50.33078" lon="-4.59043"></trkpt>
      <trkpt lat="50.33089" lon="-4.59028"></trkpt>
      <trkpt lat="50.33088" lon="-4.59028"></trkpt>
      <trkpt lat="50.33139" lon="-4.58957"></trkpt>
      <trkpt lat="50.33173" lon="-4.58916"></trkpt>
      <trkpt lat="50.33201" lon="-4.58873"></trkpt>
      <trkpt lat="50.3324" lon="-4.58823"></trkpt>
      <trkpt lat="50.33251" lon="-4.58805"></trkpt>
      <trkpt lat="50.33257" lon="-4.5879"></trkpt>
      <trkpt lat="50.33256" lon="-4.58767"></trkpt>
      <trkpt lat="50.33233" lon="-4.58717"></trkpt>
      <trkpt lat="50.33229" lon="-4.58693"></trkpt>
      <trkpt lat="50.3323" lon="-4.5865"></trkpt>
      <trkpt lat="50.33218" lon="-4.5862"></trkpt>
      <trkpt lat="50.33216" lon="-4.58603"></trkpt>
      <trkpt lat="50.33218" lon="-4.58581"></trkpt>
      <trkpt lat="50.33217" lon="-4.58566"></trkpt>
      <trkpt lat="50.33229" lon="-4.58548"></trkpt>
      <trkpt lat="50.33243" lon="-4.58486"></trkpt>
      <trkpt lat="50.3324" lon="-4.5844"></trkpt>
      <trkpt lat="50.33243" lon="-4.58408"></trkpt>
      <trkpt lat="50.33239" lon="-4.58392"></trkpt>
      <trkpt lat="50.33241" lon="-4.58361"></trkpt>
      <trkpt lat="50.3324" lon="-4.58304"></trkpt>
      <trkpt lat="50.33242" lon="-4.58296"></trkpt>
      <trkpt lat="50.33228" lon="-4.58212"></trkpt>
      <trkpt lat="50.33229" lon="-4.58161"></trkpt>
      <trkpt lat="50.3323" lon="-4.58106"></trkpt>
      <trkpt lat="50.33254" lon="-4.58039"></trkpt>
      <trkpt lat="50.33253" lon="-4.58005"></trkpt>
      <trkpt lat="50.3326" lon="-4.57971"></trkpt>
      <trkpt lat="50.33264" lon="-4.57933"></trkpt>
      <trkpt lat="50.33277" lon="-4.57891"></trkpt>
      <trkpt lat="50.33305" lon="-4.57837"></trkpt>
      <trkpt lat="50.33306" lon="-4.5783"></trkpt>
      <trkpt lat="50.33305" lon="-4.57805"></trkpt>
      <trkpt lat="50.33291" lon="-4.57778"></trkpt>
      <trkpt lat="50.333" lon="-4.57767"></trkpt>
      <trkpt lat="50.33336" lon="-4.57744"></trkpt>
      <trkpt lat="50.33358" lon="-4.57718"></trkpt>
      <trkpt lat="50.33316" lon="-4.57715"></trkpt>
      <trkpt lat="50.33292" lon="-4.57717"></trkpt>
      <trkpt lat="50.33256" lon="-4.57726"></trkpt>
      <trkpt lat="50.33249" lon="-4.5772"></trkpt>
      <trkpt lat="50.33246" lon="-4.5771"></trkpt>
      <trkpt lat="50.33238" lon="-4.57584"></trkpt>
      <trkpt lat="50.33235" lon="-4.57571"></trkpt>
      <trkpt lat="50.33231" lon="-4.57561"></trkpt>
      <trkpt lat="50.33213" lon="-4.57552"></trkpt>
      <trkpt lat="50.33206" lon="-4.57545"></trkpt>
      <trkpt lat="50.33184" lon="-4.57507"></trkpt>
      <trkpt lat="50.33166" lon="-4.5748"></trkpt>
      <trkpt lat="50.33153" lon="-4.57441"></trkpt>
      <trkpt lat="50.33145" lon="-4.57408"></trkpt>
      <trkpt lat="50.33137" lon="-4.57381"></trkpt>
      <trkpt lat="50.33124" lon="-4.5732"></trkpt>
      <trkpt lat="50.33124" lon="-4.57295"></trkpt>
      <trkpt lat="50.33128" lon="-4.57282"></trkpt>
      <trkpt lat="50.33131" lon="-4.57219"></trkpt>
      <trkpt lat="50.3313" lon="-4.57197"></trkpt>
      <trkpt lat="50.33115" lon="-4.57157"></trkpt>
      <trkpt lat="50.33112" lon="-4.57124"></trkpt>
      <trkpt lat="50.33097" lon="-4.5709"></trkpt>
      <trkpt lat="50.33078" lon="-4.57064"></trkpt>
      <trkpt lat="50.33065" lon="-4.57051"></trkpt>
      <trkpt lat="50.33037" lon="-4.57031"></trkpt>
      <trkpt lat="50.33027" lon="-4.57009"></trkpt>
      <trkpt lat="50.33015" lon="-4.56989"></trkpt>
      <trkpt lat="50.33011" lon="-4.56977"></trkpt>
      <trkpt lat="50.33006" lon="-4.56939"></trkpt>
      <trkpt lat="50.32991" lon="-4.56913"></trkpt>
      <trkpt lat="50.32973" lon="-4.5687"></trkpt>
      <trkpt lat="50.32943" lon="-4.5679"></trkpt>
      <trkpt lat="50.32931" lon="-4.56767"></trkpt>
      <trkpt lat="50.32927" lon="-4.56756"></trkpt>
      <trkpt lat="50.32924" lon="-4.56736"></trkpt>
      <trkpt lat="50.32906" lon="-4.5669"></trkpt>
      <trkpt lat="50.32896" lon="-4.5665"></trkpt>
      <trkpt lat="50.32894" lon="-4.56638"></trkpt>
      <trkpt lat="50.32895" lon="-4.56623"></trkpt>
      <trkpt lat="50.32886" lon="-4.56597"></trkpt>
      <trkpt lat="50.32874" lon="-4.56544"></trkpt>
      <trkpt lat="50.3286" lon="-4.56456"></trkpt>
      <trkpt lat="50.32859" lon="-4.56403"></trkpt>
      <trkpt lat="50.32863" lon="-4.56385"></trkpt>
      <trkpt lat="50.32862" lon="-4.56385"></trkpt>
      <trkpt lat="50.32877" lon="-4.5635"></trkpt>
      <trkpt lat="50.32877" lon="-4.56343"></trkpt>
      <trkpt lat="50.32872" lon="-4.56305"></trkpt>
      <trkpt lat="50.32838" lon="-4.56182"></trkpt>
      <trkpt lat="50.32832" lon="-4.56148"></trkpt>
      <trkpt lat="50.32818" lon="-4.55935"></trkpt>
      <trkpt lat="50.32809" lon="-4.55911"></trkpt>
      <trkpt lat="50.32807" lon="-4.55884"></trkpt>
      <trkpt lat="50.32802" lon="-4.55852"></trkpt>
      <trkpt lat="50.32797" lon="-4.55839"></trkpt>
      <trkpt lat="50.32795" lon="-4.55824"></trkpt>
      <trkpt lat="50.32752" lon="-4.55658"></trkpt>
      <trkpt lat="50.32719" lon="-4.55516"></trkpt>
      <trkpt lat="50.32705" lon="-4.55492"></trkpt>
      <trkpt lat="50.32693" lon="-4.55447"></trkpt>
      <trkpt lat="50.32678" lon="-4.55332"></trkpt>
      <trkpt lat="50.32683" lon="-4.55273"></trkpt>
      <trkpt lat="50.32687" lon="-4.5526"></trkpt>
      <trkpt lat="50.32685" lon="-4.55226"></trkpt>
      <trkpt lat="50.32687" lon="-4.5521"></trkpt>
      <trkpt lat="50.32685" lon="-4.55193"></trkpt>
      <trkpt lat="50.3268" lon="-4.55101"></trkpt>
      <trkpt lat="50.32682" lon="-4.55019"></trkpt>
      <trkpt lat="50.3268" lon="-4.55013"></trkpt>
      <trkpt lat="50.32646" lon="-4.54992"></trkpt>
      <trkpt lat="50.32629" lon="-4.54977"></trkpt>
      <trkpt lat="50.3262" lon="-4.54963"></trkpt>
      <trkpt lat="50.32614" lon="-4.54926"></trkpt>
      <trkpt lat="50.32613" lon="-4.54898"></trkpt>
      <trkpt lat="50.32616" lon="-4.54805"></trkpt>
      <trkpt lat="50.32605" lon="-4.54725"></trkpt>
      <trkpt lat="50.32603" lon="-4.5469"></trkpt>
      <trkpt lat="50.32609" lon="-4.54532"></trkpt>
      <trkpt lat="50.32609" lon="-4.54507"></trkpt>
      <trkpt lat="50.32604" lon="-4.54489"></trkpt>
      <trkpt lat="50.32597" lon="-4.54468"></trkpt>
      <trkpt lat="50.32599" lon="-4.54438"></trkpt>
      <trkpt lat="50.32598" lon="-4.54427"></trkpt>
      <trkpt lat="50.32595" lon="-4.5442"></trkpt>
      <trkpt lat="50.32595" lon="-4.54413"></trkpt>
      <trkpt lat="50.32584" lon="-4.54404"></trkpt>
      <trkpt lat="50.32577" lon="-4.54392"></trkpt>
      <trkpt lat="50.32553" lon="-4.5433"></trkpt>
      <trkpt lat="50.32537" lon="-4.54293"></trkpt>
      <trkpt lat="50.32522" lon="-4.54271"></trkpt>
      <trkpt lat="50.32519" lon="-4.54249"></trkpt>
      <trkpt lat="50.32519" lon="-4.54231"></trkpt>
      <trkpt lat="50.32524" lon="-4.54226"></trkpt>
      <trkpt lat="50.32524" lon="-4.54199"></trkpt>
      <trkpt lat="50.32508" lon="-4.54119"></trkpt>
      <trkpt lat="50.32502" lon="-4.541"></trkpt>
      <trkpt lat="50.32505" lon="-4.5407"></trkpt>
      <trkpt lat="50.32496" lon="-4.54031"></trkpt>
      <trkpt lat="50.32496" lon="-4.54004"></trkpt>
      <trkpt lat="50.32485" lon="-4.53968"></trkpt>
      <trkpt lat="50.32482" lon="-4.53953"></trkpt>
      <trkpt lat="50.32481" lon="-4.53925"></trkpt>
      <trkpt lat="50.32457" lon="-4.53857"></trkpt>
      <trkpt lat="50.32456" lon="-4.53841"></trkpt>
      <trkpt lat="50.32453" lon="-4.53829"></trkpt>
      <trkpt lat="50.32454" lon="-4.53807"></trkpt>
      <trkpt lat="50.32464" lon="-4.53765"></trkpt>
      <trkpt lat="50.32464" lon="-4.53749"></trkpt>
      <trkpt lat="50.32473" lon="-4.53717"></trkpt>
      <trkpt lat="50.32472" lon="-4.53702"></trkpt>
      <trkpt lat="50.32479" lon="-4.5368"></trkpt>
      <trkpt lat="50.32478" lon="-4.53661"></trkpt>
      <trkpt lat="50.32472" lon="-4.5362"></trkpt>
      <trkpt lat="50.32475" lon="-4.53598"></trkpt>
      <trkpt lat="50.3248" lon="-4.53581"></trkpt>
      <trkpt lat="50.32495" lon="-4.53551"></trkpt>
      <trkpt lat="50.32499" lon="-4.53536"></trkpt>
      <trkpt lat="50.32501" lon="-4.53519"></trkpt>
      <trkpt lat="50.325" lon="-4.53487"></trkpt>
      <trkpt lat="50.32502" lon="-4.53472"></trkpt>
      <trkpt lat="50.32509" lon="-4.5346"></trkpt>
      <trkpt lat="50.32515" lon="-4.53456"></trkpt>
      <trkpt lat="50.32524" lon="-4.53446"></trkpt>
      <trkpt lat="50.32525" lon="-4.53436"></trkpt>
      <trkpt lat="50.32524" lon="-4.53424"></trkpt>
      <trkpt lat="50.3252" lon="-4.53411"></trkpt>
      <trkpt lat="50.3252" lon="-4.53392"></trkpt>
      <trkpt lat="50.32525" lon="-4.53356"></trkpt>
      <trkpt lat="50.32535" lon="-4.53348"></trkpt>
      <trkpt lat="50.32539" lon="-4.53338"></trkpt>
      <trkpt lat="50.32536" lon="-4.53323"></trkpt>
      <trkpt lat="50.32537" lon="-4.53317"></trkpt>
      <trkpt lat="50.32543" lon="-4.53309"></trkpt>
      <trkpt lat="50.32548" lon="-4.53294"></trkpt>
      <trkpt lat="50.32548" lon="-4.53255"></trkpt>
      <trkpt lat="50.32551" lon="-4.53232"></trkpt>
      <trkpt lat="50.32547" lon="-4.53183"></trkpt>
      <trkpt lat="50.32549" lon="-4.5317"></trkpt>
      <trkpt lat="50.32568" lon="-4.53106"></trkpt>
      <trkpt lat="50.32569" lon="-4.53087"></trkpt>
      <trkpt lat="50.32585" lon="-4.5305"></trkpt>
      <trkpt lat="50.32584" lon="-4.53035"></trkpt>
      <trkpt lat="50.32591" lon="-4.52997"></trkpt>
      <trkpt lat="50.32608" lon="-4.52951"></trkpt>
      <trkpt lat="50.32626" lon="-4.5292"></trkpt>
      <trkpt lat="50.32649" lon="-4.52854"></trkpt>
      <trkpt lat="50.32671" lon="-4.52821"></trkpt>
      <trkpt lat="50.32685" lon="-4.52796"></trkpt>
      <trkpt lat="50.32693" lon="-4.52786"></trkpt>
      <trkpt lat="50.32707" lon="-4.52774"></trkpt>
      <trkpt lat="50.32715" lon="-4.52761"></trkpt>
      <trkpt lat="50.32734" lon="-4.52741"></trkpt>
      <trkpt lat="50.32745" lon="-4.52733"></trkpt>
      <trkpt lat="50.32757" lon="-4.52711"></trkpt>
      <trkpt lat="50.32779" lon="-4.52623"></trkpt>
      <trkpt lat="50.32791" lon="-4.52606"></trkpt>
      <trkpt lat="50.32813" lon="-4.52536"></trkpt>
      <trkpt lat="50.3282" lon="-4.52489"></trkpt>
      <trkpt lat="50.32816" lon="-4.52452"></trkpt>
      <trkpt lat="50.32799" lon="-4.52369"></trkpt>
      <trkpt lat="50.3279" lon="-4.52333"></trkpt>
      <trkpt lat="50.32788" lon="-4.52316"></trkpt>
      <trkpt lat="50.32791" lon="-4.52296"></trkpt>
      <trkpt lat="50.32818" lon="-4.52223"></trkpt>
      <trkpt lat="50.32827" lon="-4.52207"></trkpt>
      <trkpt lat="50.32861" lon="-4.52162"></trkpt>
      <trkpt lat="50.32868" lon="-4.52147"></trkpt>
      <trkpt lat="50.32873" lon="-4.52125"></trkpt>
      <trkpt lat="50.32874" lon="-4.52102"></trkpt>
      <trkpt lat="50.32869" lon="-4.52062"></trkpt>
      <trkpt lat="50.32868" lon="-4.52042"></trkpt>
      <trkpt lat="50.32873" lon="-4.52022"></trkpt>
      <trkpt lat="50.32874" lon="-4.52001"></trkpt>
      <trkpt lat="50.32892" lon="-4.51934"></trkpt>
      <trkpt lat="50.32899" lon="-4.51898"></trkpt>
      <trkpt lat="50.32924" lon="-4.51831"></trkpt>
      <trkpt lat="50.32934" lon="-4.51791"></trkpt>
      <trkpt lat="50.32939" lon="-4.5175"></trkpt>
      <trkpt lat="50.32937" lon="-4.51746"></trkpt>
      <trkpt lat="50.32939" lon="-4.51737"></trkpt>
      <trkpt lat="50.32945" lon="-4.51731"></trkpt>
      <trkpt lat="50.32962" lon="-4.51719"></trkpt>
      <trkpt lat="50.32965" lon="-4.51719"></trkpt>
      <trkpt lat="50.32975" lon="-4.51711"></trkpt>
      <trkpt lat="50.32974" lon="-4.51711"></trkpt>
      <trkpt lat="50.32982" lon="-4.51712"></trkpt>
      <trkpt lat="50.32984" lon="-4.51716"></trkpt>
      <trkpt lat="50.32993" lon="-4.51712"></trkpt>
      <trkpt lat="50.32998" lon="-4.5169"></trkpt>
      <trkpt lat="50.3302" lon="-4.5165"></trkpt>
      <trkpt lat="50.33021" lon="-4.5165"></trkpt>
      <trkpt lat="50.33044" lon="-4.51684"></trkpt>
      <trkpt lat="50.33047" lon="-4.51693"></trkpt>
      <trkpt lat="50.33071" lon="-4.51701"></trkpt>
      <trkpt lat="50.33087" lon="-4.51717"></trkpt>
      <trkpt lat="50.33095" lon="-4.51723"></trkpt>
      <trkpt lat="50.33098" lon="-4.51707"></trkpt>
      <trkpt lat="50.33104" lon="-4.51714"></trkpt>
      <trkpt lat="50.33111" lon="-4.51718"></trkpt>
      <trkpt lat="50.33113" lon="-4.51723"></trkpt>
      <trkpt lat="50.33119" lon="-4.51805"></trkpt>
    </trkseg>
  </trk>
</gpx>
