<?xml version="1.0" encoding="UTF-8"?>
<gpx version="1.1" creator="swcp-walk (imported from OS Maps route 33845422)"
     xmlns="http://www.topografix.com/GPX/1/1">
  <metadata>
    <name>SWCP34-Polperro-Portwrinkle</name>
  </metadata>
  <trk>
    <name>SWCP34-Polperro-Portwrinkle</name>
    <trkseg>
      <trkpt lat="50.33126696550244" lon="-4.518148471643144"></trkpt>
      <trkpt lat="50.3312" lon="-4.51816"></trkpt>
      <trkpt lat="50.3312" lon="-4.51822"></trkpt>
      <trkpt lat="50.33118" lon="-4.51825"></trkpt>
      <trkpt lat="50.3312" lon="-4.51833"></trkpt>
      <trkpt lat="50.33146" lon="-4.51841"></trkpt>
      <trkpt lat="50.33148" lon="-4.51839"></trkpt>
      <trkpt lat="50.33148" lon="-4.51815"></trkpt>
      <trkpt lat="50.33149" lon="-4.5181"></trkpt>
      <trkpt lat="50.33152" lon="-4.51808"></trkpt>
      <trkpt lat="50.33156" lon="-4.51771"></trkpt>
      <trkpt lat="50.33163" lon="-4.51741"></trkpt>
      <trkpt lat="50.33165" lon="-4.51714"></trkpt>
      <trkpt lat="50.33165" lon="-4.51672"></trkpt>
      <trkpt lat="50.33171" lon="-4.51635"></trkpt>
      <trkpt lat="50.3317" lon="-4.5163"></trkpt>
      <trkpt lat="50.33152" lon="-4.5162"></trkpt>
      <trkpt lat="50.33135" lon="-4.51582"></trkpt>
      <trkpt lat="50.33124" lon="-4.51567"></trkpt>
      <trkpt lat="50.33115" lon="-4.51541"></trkpt>
      <trkpt lat="50.33108" lon="-4.51525"></trkpt>
      <trkpt lat="50.33105" lon="-4.51509"></trkpt>
      <trkpt lat="50.331" lon="-4.51455"></trkpt>
      <trkpt lat="50.331" lon="-4.5143"></trkpt>
      <trkpt lat="50.33094" lon="-4.51347"></trkpt>
      <trkpt lat="50.33089" lon="-4.51339"></trkpt>
      <trkpt lat="50.33085" lon="-4.5132"></trkpt>
      <trkpt lat="50.33081" lon="-4.51253"></trkpt>
      <trkpt lat="50.33074" lon="-4.51215"></trkpt>
      <trkpt lat="50.33066" lon="-4.51204"></trkpt>
      <trkpt lat="50.33074" lon="-4.51215"></trkpt>
      <trkpt lat="50.3308" lon="-4.51154"></trkpt>
      <trkpt lat="50.33087" lon="-4.51118"></trkpt>
      <trkpt lat="50.33109" lon="-4.51056"></trkpt>
      <trkpt lat="50.33121" lon="-4.51017"></trkpt>
      <trkpt lat="50.33133" lon="-4.50961"></trkpt>
      <trkpt lat="50.33153" lon="-4.50899"></trkpt>
      <trkpt lat="50.33164" lon="-4.50832"></trkpt>
      <trkpt lat="50.33164" lon="-4.50811"></trkpt>
      <trkpt lat="50.3317" lon="-4.50767"></trkpt>
      <trkpt lat="50.33174" lon="-4.50656"></trkpt>
      <trkpt lat="50.33168" lon="-4.50631"></trkpt>
      <trkpt lat="50.33166" lon="-4.5058"></trkpt>
      <trkpt lat="50.33157" lon="-4.50562"></trkpt>
      <trkpt lat="50.33151" lon="-4.50533"></trkpt>
      <trkpt lat="50.33132" lon="-4.50465"></trkpt>
      <trkpt lat="50.33132" lon="-4.5042"></trkpt>
      <trkpt lat="50.33129" lon="-4.50338"></trkpt>
      <trkpt lat="50.33128" lon="-4.5031"></trkpt>
      <trkpt lat="50.33122" lon="-4.50261"></trkpt>
      <trkpt lat="50.33122" lon="-4.50244"></trkpt>
      <trkpt lat="50.33127" lon="-4.50241"></trkpt>
      <trkpt lat="50.33148" lon="-4.5022"></trkpt>
      <trkpt lat="50.33153" lon="-4.50205"></trkpt>
      <trkpt lat="50.33178" lon="-4.50162"></trkpt>
      <trkpt lat="50.33215" lon="-4.50106"></trkpt>
      <trkpt lat="50.33229" lon="-4.5009"></trkpt>
      <trkpt lat="50.33228" lon="-4.5009"></trkpt>
      <trkpt lat="50.33254" lon="-4.50064"></trkpt>
      <trkpt lat="50.33274" lon="-4.5003"></trkpt>
      <trkpt lat="50.33308" lon="-4.49989"></trkpt>
      <trkpt lat="50.33337" lon="-4.49964"></trkpt>
      <trkpt lat="50.33371" lon="-4.49976"></trkpt>
      <trkpt lat="50.33409" lon="-4.50013"></trkpt>
      <trkpt lat="50.33419" lon="-4.50014"></trkpt>
      <trkpt lat="50.33491" lon="-4.50059"></trkpt>
      <trkpt lat="50.33497" lon="-4.50059"></trkpt>
      <trkpt lat="50.3351" lon="-4.50053"></trkpt>
      <trkpt lat="50.3353" lon="-4.50036"></trkpt>
      <trkpt lat="50.33545" lon="-4.50016"></trkpt>
      <trkpt lat="50.33589" lon="-4.49972"></trkpt>
      <trkpt lat="50.33644" lon="-4.49923"></trkpt>
      <trkpt lat="50.33647" lon="-4.49918"></trkpt>
      <trkpt lat="50.33655" lon="-4.49897"></trkpt>
      <trkpt lat="50.33656" lon="-4.49859"></trkpt>
      <trkpt lat="50.33665" lon="-4.49834"></trkpt>
      <trkpt lat="50.33679" lon="-4.49814"></trkpt>
      <trkpt lat="50.33704" lon="-4.49812"></trkpt>
      <trkpt lat="50.33721" lon="-4.49786"></trkpt>
      <trkpt lat="50.33729" lon="-4.49754"></trkpt>
      <trkpt lat="50.3373" lon="-4.49736"></trkpt>
      <trkpt lat="50.33732" lon="-4.49731"></trkpt>
      <trkpt lat="50.33748" lon="-4.49695"></trkpt>
      <trkpt lat="50.33752" lon="-4.49691"></trkpt>
      <trkpt lat="50.33755" lon="-4.49693"></trkpt>
      <trkpt lat="50.33775" lon="-4.49695"></trkpt>
      <trkpt lat="50.33757" lon="-4.49654"></trkpt>
      <trkpt lat="50.33731" lon="-4.49583"></trkpt>
      <trkpt lat="50.3373" lon="-4.49565"></trkpt>
      <trkpt lat="50.33739" lon="-4.49506"></trkpt>
      <trkpt lat="50.33749" lon="-4.49459"></trkpt>
      <trkpt lat="50.33769" lon="-4.49396"></trkpt>
      <trkpt lat="50.33765" lon="-4.4939"></trkpt>
      <trkpt lat="50.3374" lon="-4.49386"></trkpt>
      <trkpt lat="50.33736" lon="-4.49378"></trkpt>
      <trkpt lat="50.33724" lon="-4.49334"></trkpt>
      <trkpt lat="50.33714" lon="-4.49309"></trkpt>
      <trkpt lat="50.33713" lon="-4.49303"></trkpt>
      <trkpt lat="50.33716" lon="-4.49285"></trkpt>
      <trkpt lat="50.33706" lon="-4.49232"></trkpt>
      <trkpt lat="50.33702" lon="-4.4922"></trkpt>
      <trkpt lat="50.33702" lon="-4.49214"></trkpt>
      <trkpt lat="50.33709" lon="-4.49172"></trkpt>
      <trkpt lat="50.33708" lon="-4.49166"></trkpt>
      <trkpt lat="50.33696" lon="-4.49148"></trkpt>
      <trkpt lat="50.33681" lon="-4.49131"></trkpt>
      <trkpt lat="50.33643" lon="-4.491"></trkpt>
      <trkpt lat="50.33632" lon="-4.49067"></trkpt>
      <trkpt lat="50.3362" lon="-4.4905"></trkpt>
      <trkpt lat="50.33616" lon="-4.49039"></trkpt>
      <trkpt lat="50.33612" lon="-4.49015"></trkpt>
      <trkpt lat="50.33611" lon="-4.49006"></trkpt>
      <trkpt lat="50.33609" lon="-4.48943"></trkpt>
      <trkpt lat="50.3361" lon="-4.4891"></trkpt>
      <trkpt lat="50.33613" lon="-4.48889"></trkpt>
      <trkpt lat="50.33633" lon="-4.48792"></trkpt>
      <trkpt lat="50.33644" lon="-4.48691"></trkpt>
      <trkpt lat="50.33643" lon="-4.48645"></trkpt>
      <trkpt lat="50.33635" lon="-4.48571"></trkpt>
      <trkpt lat="50.33631" lon="-4.48548"></trkpt>
      <trkpt lat="50.33626" lon="-4.48534"></trkpt>
      <trkpt lat="50.33602" lon="-4.48495"></trkpt>
      <trkpt lat="50.3357" lon="-4.48456"></trkpt>
      <trkpt lat="50.33553" lon="-4.48444"></trkpt>
      <trkpt lat="50.33536" lon="-4.48417"></trkpt>
      <trkpt lat="50.3352" lon="-4.48387"></trkpt>
      <trkpt lat="50.33514" lon="-4.4837"></trkpt>
      <trkpt lat="50.33506" lon="-4.48358"></trkpt>
      <trkpt lat="50.335" lon="-4.4834"></trkpt>
      <trkpt lat="50.33493" lon="-4.48308"></trkpt>
      <trkpt lat="50.33493" lon="-4.48298"></trkpt>
      <trkpt lat="50.33478" lon="-4.4823"></trkpt>
      <trkpt lat="50.33479" lon="-4.48208"></trkpt>
      <trkpt lat="50.33485" lon="-4.48186"></trkpt>
      <trkpt lat="50.33482" lon="-4.48162"></trkpt>
      <trkpt lat="50.33483" lon="-4.48152"></trkpt>
      <trkpt lat="50.33462" lon="-4.4807"></trkpt>
      <trkpt lat="50.33455" lon="-4.48027"></trkpt>
      <trkpt lat="50.33454" lon="-4.47991"></trkpt>
      <trkpt lat="50.33449" lon="-4.47962"></trkpt>
      <trkpt lat="50.33419" lon="-4.47881"></trkpt>
      <trkpt lat="50.33407" lon="-4.47822"></trkpt>
      <trkpt lat="50.33401" lon="-4.47796"></trkpt>
      <trkpt lat="50.3337" lon="-4.47619"></trkpt>
      <trkpt lat="50.3334" lon="-4.47469"></trkpt>
      <trkpt lat="50.3333" lon="-4.47391"></trkpt>
      <trkpt lat="50.33329" lon="-4.47364"></trkpt>
      <trkpt lat="50.3333" lon="-4.4735"></trkpt>
      <trkpt lat="50.33358" lon="-4.47311"></trkpt>
      <trkpt lat="50.33376" lon="-4.47292"></trkpt>
      <trkpt lat="50.33383" lon="-4.47287"></trkpt>
      <trkpt lat="50.33397" lon="-4.47286"></trkpt>
      <trkpt lat="50.33418" lon="-4.47296"></trkpt>
      <trkpt lat="50.33425" lon="-4.47295"></trkpt>
      <trkpt lat="50.33434" lon="-4.47284"></trkpt>
      <trkpt lat="50.33443" lon="-4.47266"></trkpt>
      <trkpt lat="50.33461" lon="-4.47248"></trkpt>
      <trkpt lat="50.33489" lon="-4.47235"></trkpt>
      <trkpt lat="50.33511" lon="-4.47233"></trkpt>
      <trkpt lat="50.33537" lon="-4.47224"></trkpt>
      <trkpt lat="50.3356" lon="-4.47227"></trkpt>
      <trkpt lat="50.33569" lon="-4.47232"></trkpt>
      <trkpt lat="50.33584" lon="-4.47246"></trkpt>
      <trkpt lat="50.33593" lon="-4.47249"></trkpt>
      <trkpt lat="50.33601" lon="-4.47255"></trkpt>
      <trkpt lat="50.33611" lon="-4.47265"></trkpt>
      <trkpt lat="50.3364" lon="-4.47306"></trkpt>
      <trkpt lat="50.33665" lon="-4.47349"></trkpt>
      <trkpt lat="50.33676" lon="-4.47359"></trkpt>
      <trkpt lat="50.33682" lon="-4.47361"></trkpt>
      <trkpt lat="50.33704" lon="-4.47361"></trkpt>
      <trkpt lat="50.33712" lon="-4.47369"></trkpt>
      <trkpt lat="50.33729" lon="-4.474"></trkpt>
      <trkpt lat="50.33766" lon="-4.47414"></trkpt>
      <trkpt lat="50.33793" lon="-4.47408"></trkpt>
      <trkpt lat="50.33807" lon="-4.47408"></trkpt>
      <trkpt lat="50.33816" lon="-4.47411"></trkpt>
      <trkpt lat="50.33836" lon="-4.47409"></trkpt>
      <trkpt lat="50.33848" lon="-4.47406"></trkpt>
      <trkpt lat="50.33871" lon="-4.47392"></trkpt>
      <trkpt lat="50.33907" lon="-4.47396"></trkpt>
      <trkpt lat="50.33922" lon="-4.47392"></trkpt>
      <trkpt lat="50.33949" lon="-4.47357"></trkpt>
      <trkpt lat="50.33958" lon="-4.47337"></trkpt>
      <trkpt lat="50.33961" lon="-4.47322"></trkpt>
      <trkpt lat="50.33962" lon="-4.47263"></trkpt>
      <trkpt lat="50.33967" lon="-4.47234"></trkpt>
      <trkpt lat="50.33971" lon="-4.47173"></trkpt>
      <trkpt lat="50.33975" lon="-4.47154"></trkpt>
      <trkpt lat="50.34001" lon="-4.47063"></trkpt>
      <trkpt lat="50.34026" lon="-4.47023"></trkpt>
      <trkpt lat="50.3403" lon="-4.47012"></trkpt>
      <trkpt lat="50.3403" lon="-4.4699"></trkpt>
      <trkpt lat="50.34033" lon="-4.46945"></trkpt>
      <trkpt lat="50.34048" lon="-4.4685"></trkpt>
      <trkpt lat="50.34055" lon="-4.46834"></trkpt>
      <trkpt lat="50.34057" lon="-4.46818"></trkpt>
      <trkpt lat="50.34054" lon="-4.46809"></trkpt>
      <trkpt lat="50.34054" lon="-4.46799"></trkpt>
      <trkpt lat="50.34058" lon="-4.46793"></trkpt>
      <trkpt lat="50.34059" lon="-4.46778"></trkpt>
      <trkpt lat="50.34062" lon="-4.46767"></trkpt>
      <trkpt lat="50.34062" lon="-4.4675"></trkpt>
      <trkpt lat="50.34064" lon="-4.4674"></trkpt>
      <trkpt lat="50.34069" lon="-4.46727"></trkpt>
      <trkpt lat="50.34067" lon="-4.46715"></trkpt>
      <trkpt lat="50.34068" lon="-4.46697"></trkpt>
      <trkpt lat="50.34084" lon="-4.46627"></trkpt>
      <trkpt lat="50.34121" lon="-4.46527"></trkpt>
      <trkpt lat="50.34127" lon="-4.46521"></trkpt>
      <trkpt lat="50.34147" lon="-4.46452"></trkpt>
      <trkpt lat="50.34178" lon="-4.46323"></trkpt>
      <trkpt lat="50.34182" lon="-4.46272"></trkpt>
      <trkpt lat="50.34211" lon="-4.46144"></trkpt>
      <trkpt lat="50.34181" lon="-4.46115"></trkpt>
      <trkpt lat="50.34171" lon="-4.46099"></trkpt>
      <trkpt lat="50.34169" lon="-4.4609"></trkpt>
      <trkpt lat="50.34171" lon="-4.46032"></trkpt>
      <trkpt lat="50.34174" lon="-4.46018"></trkpt>
      <trkpt lat="50.34193" lon="-4.45979"></trkpt>
      <trkpt lat="50.34199" lon="-4.45957"></trkpt>
      <trkpt lat="50.34214" lon="-4.45929"></trkpt>
      <trkpt lat="50.34256" lon="-4.45898"></trkpt>
      <trkpt lat="50.34297" lon="-4.45893"></trkpt>
      <trkpt lat="50.34344" lon="-4.45879"></trkpt>
      <trkpt lat="50.34408" lon="-4.45816"></trkpt>
      <trkpt lat="50.34419" lon="-4.45792"></trkpt>
      <trkpt lat="50.34423" lon="-4.45791"></trkpt>
      <trkpt lat="50.34466" lon="-4.45484"></trkpt>
      <trkpt lat="50.34486" lon="-4.45394"></trkpt>
      <trkpt lat="50.34477" lon="-4.45388"></trkpt>
      <trkpt lat="50.34474" lon="-4.45383"></trkpt>
      <trkpt lat="50.34479" lon="-4.45356"></trkpt>
      <trkpt lat="50.34492" lon="-4.45315"></trkpt>
      <trkpt lat="50.34491" lon="-4.45315"></trkpt>
      <trkpt lat="50.34498" lon="-4.45294"></trkpt>
      <trkpt lat="50.34608" lon="-4.45196"></trkpt>
      <trkpt lat="50.34671" lon="-4.4515"></trkpt>
      <trkpt lat="50.34708" lon="-4.4513"></trkpt>
      <trkpt lat="50.34743" lon="-4.45117"></trkpt>
      <trkpt lat="50.348" lon="-4.45101"></trkpt>
      <trkpt lat="50.34813" lon="-4.4509"></trkpt>
      <trkpt lat="50.34837" lon="-4.4509"></trkpt>
      <trkpt lat="50.34837" lon="-4.45091"></trkpt>
      <trkpt lat="50.34912" lon="-4.45073"></trkpt>
      <trkpt lat="50.34943" lon="-4.45068"></trkpt>
      <trkpt lat="50.34931" lon="-4.45093"></trkpt>
      <trkpt lat="50.3492" lon="-4.451"></trkpt>
      <trkpt lat="50.34916" lon="-4.45106"></trkpt>
      <trkpt lat="50.34935" lon="-4.45106"></trkpt>
      <trkpt lat="50.34941" lon="-4.45108"></trkpt>
      <trkpt lat="50.34955" lon="-4.45123"></trkpt>
      <trkpt lat="50.34955" lon="-4.4513"></trkpt>
      <trkpt lat="50.35015" lon="-4.45142"></trkpt>
      <trkpt lat="50.35031" lon="-4.45157"></trkpt>
      <trkpt lat="50.35062" lon="-4.45246"></trkpt>
      <trkpt lat="50.35092" lon="-4.4532"></trkpt>
      <trkpt lat="50.35114" lon="-4.45388"></trkpt>
      <trkpt lat="50.35117" lon="-4.45393"></trkpt>
      <trkpt lat="50.35119" lon="-4.45391"></trkpt>
      <trkpt lat="50.35123" lon="-4.45395"></trkpt>
      <trkpt lat="50.35124" lon="-4.45393"></trkpt>
      <trkpt lat="50.35149" lon="-4.4541"></trkpt>
      <trkpt lat="50.35173" lon="-4.45429"></trkpt>
      <trkpt lat="50.35186" lon="-4.45433"></trkpt>
      <trkpt lat="50.35194" lon="-4.4544"></trkpt>
      <trkpt lat="50.35211" lon="-4.45451"></trkpt>
      <trkpt lat="50.35219" lon="-4.45466"></trkpt>
      <trkpt lat="50.35219" lon="-4.45479"></trkpt>
      <trkpt lat="50.35236" lon="-4.45499"></trkpt>
      <trkpt lat="50.35239" lon="-4.45499"></trkpt>
      <trkpt lat="50.35251" lon="-4.45506"></trkpt>
      <trkpt lat="50.3526" lon="-4.45517"></trkpt>
      <trkpt lat="50.35272" lon="-4.45537"></trkpt>
      <trkpt lat="50.35282" lon="-4.45561"></trkpt>
      <trkpt lat="50.35293" lon="-4.45576"></trkpt>
      <trkpt lat="50.35306" lon="-4.45589"></trkpt>
      <trkpt lat="50.35353" lon="-4.45604"></trkpt>
      <trkpt lat="50.35406" lon="-4.45616"></trkpt>
      <trkpt lat="50.35406" lon="-4.45626"></trkpt>
      <trkpt lat="50.3544" lon="-4.45627"></trkpt>
      <trkpt lat="50.35473" lon="-4.45637"></trkpt>
      <trkpt lat="50.35557" lon="-4.45656"></trkpt>
      <trkpt lat="50.35612" lon="-4.4566"></trkpt>
      <trkpt lat="50.35625" lon="-4.45662"></trkpt>
      <trkpt lat="50.35625" lon="-4.45672"></trkpt>
      <trkpt lat="50.35623" lon="-4.45664"></trkpt>
      <trkpt lat="50.35617" lon="-4.45663"></trkpt>
      <trkpt lat="50.35623" lon="-4.45541"></trkpt>
      <trkpt lat="50.35622" lon="-4.45528"></trkpt>
      <trkpt lat="50.3562" lon="-4.45522"></trkpt>
      <trkpt lat="50.35615" lon="-4.45517"></trkpt>
      <trkpt lat="50.35616" lon="-4.45512"></trkpt>
      <trkpt lat="50.35608" lon="-4.45511"></trkpt>
      <trkpt lat="50.35564" lon="-4.45489"></trkpt>
      <trkpt lat="50.3554" lon="-4.45466"></trkpt>
      <trkpt lat="50.35519" lon="-4.45453"></trkpt>
      <trkpt lat="50.35493" lon="-4.45432"></trkpt>
      <trkpt lat="50.35478" lon="-4.4542"></trkpt>
      <trkpt lat="50.35465" lon="-4.45413"></trkpt>
      <trkpt lat="50.35452" lon="-4.45415"></trkpt>
      <trkpt lat="50.35431" lon="-4.45414"></trkpt>
      <trkpt lat="50.35391" lon="-4.45402"></trkpt>
      <trkpt lat="50.35357" lon="-4.45396"></trkpt>
      <trkpt lat="50.3536" lon="-4.45362"></trkpt>
      <trkpt lat="50.35358" lon="-4.45339"></trkpt>
      <trkpt lat="50.35354" lon="-4.45325"></trkpt>
      <trkpt lat="50.35343" lon="-4.4531"></trkpt>
      <trkpt lat="50.35309" lon="-4.45196"></trkpt>
      <trkpt lat="50.35315" lon="-4.45165"></trkpt>
      <trkpt lat="50.35326" lon="-4.45148"></trkpt>
      <trkpt lat="50.35328" lon="-4.4513"></trkpt>
      <trkpt lat="50.35329" lon="-4.45094"></trkpt>
      <trkpt lat="50.35336" lon="-4.45077"></trkpt>
      <trkpt lat="50.35343" lon="-4.45049"></trkpt>
      <trkpt lat="50.35347" lon="-4.45044"></trkpt>
      <trkpt lat="50.3535" lon="-4.45031"></trkpt>
      <trkpt lat="50.35354" lon="-4.45006"></trkpt>
      <trkpt lat="50.35367" lon="-4.44989"></trkpt>
      <trkpt lat="50.35368" lon="-4.44981"></trkpt>
      <trkpt lat="50.35372" lon="-4.44977"></trkpt>
      <trkpt lat="50.3538" lon="-4.44978"></trkpt>
      <trkpt lat="50.35417" lon="-4.44951"></trkpt>
      <trkpt lat="50.35462" lon="-4.44904"></trkpt>
      <trkpt lat="50.35499" lon="-4.44825"></trkpt>
      <trkpt lat="50.35521" lon="-4.44766"></trkpt>
      <trkpt lat="50.35567" lon="-4.44685"></trkpt>
      <trkpt lat="50.35588" lon="-4.44637"></trkpt>
      <trkpt lat="50.35607" lon="-4.44604"></trkpt>
      <trkpt lat="50.3563" lon="-4.44565"></trkpt>
      <trkpt lat="50.35667" lon="-4.44515"></trkpt>
      <trkpt lat="50.35682" lon="-4.445"></trkpt>
      <trkpt lat="50.35697" lon="-4.4448"></trkpt>
      <trkpt lat="50.3575" lon="-4.44442"></trkpt>
      <trkpt lat="50.35763" lon="-4.44425"></trkpt>
      <trkpt lat="50.35775" lon="-4.44417"></trkpt>
      <trkpt lat="50.35786" lon="-4.44362"></trkpt>
      <trkpt lat="50.35817" lon="-4.44301"></trkpt>
      <trkpt lat="50.35827" lon="-4.44265"></trkpt>
      <trkpt lat="50.35833" lon="-4.4425"></trkpt>
      <trkpt lat="50.35851" lon="-4.44224"></trkpt>
      <trkpt lat="50.35881" lon="-4.44211"></trkpt>
      <trkpt lat="50.35887" lon="-4.44205"></trkpt>
      <trkpt lat="50.3589" lon="-4.44202"></trkpt>
      <trkpt lat="50.35897" lon="-4.44189"></trkpt>
      <trkpt lat="50.35908" lon="-4.44151"></trkpt>
      <trkpt lat="50.3591" lon="-4.44143"></trkpt>
      <trkpt lat="50.3591" lon="-4.44123"></trkpt>
      <trkpt lat="50.35913" lon="-4.44117"></trkpt>
      <trkpt lat="50.35939" lon="-4.44083"></trkpt>
      <trkpt lat="50.3598" lon="-4.44016"></trkpt>
      <trkpt lat="50.35985" lon="-4.44002"></trkpt>
      <trkpt lat="50.35989" lon="-4.4397"></trkpt>
      <trkpt lat="50.35991" lon="-4.43966"></trkpt>
      <trkpt lat="50.36027" lon="-4.43957"></trkpt>
      <trkpt lat="50.36037" lon="-4.43953"></trkpt>
      <trkpt lat="50.36036" lon="-4.43938"></trkpt>
      <trkpt lat="50.36038" lon="-4.4388"></trkpt>
      <trkpt lat="50.36066" lon="-4.43846"></trkpt>
      <trkpt lat="50.36088" lon="-4.43825"></trkpt>
      <trkpt lat="50.36107" lon="-4.43815"></trkpt>
      <trkpt lat="50.36111" lon="-4.43816"></trkpt>
      <trkpt lat="50.36115" lon="-4.43826"></trkpt>
      <trkpt lat="50.36124" lon="-4.43819"></trkpt>
      <trkpt lat="50.36141" lon="-4.438"></trkpt>
      <trkpt lat="50.36139" lon="-4.43796"></trkpt>
      <trkpt lat="50.36164" lon="-4.43766"></trkpt>
      <trkpt lat="50.36157" lon="-4.43679"></trkpt>
      <trkpt lat="50.36152" lon="-4.43672"></trkpt>
      <trkpt lat="50.36145" lon="-4.43644"></trkpt>
      <trkpt lat="50.36137" lon="-4.43636"></trkpt>
      <trkpt lat="50.36134" lon="-4.43629"></trkpt>
      <trkpt lat="50.36139" lon="-4.4356"></trkpt>
      <trkpt lat="50.36126" lon="-4.43514"></trkpt>
      <trkpt lat="50.36127" lon="-4.43505"></trkpt>
      <trkpt lat="50.36129" lon="-4.43502"></trkpt>
      <trkpt lat="50.36171" lon="-4.43474"></trkpt>
      <trkpt lat="50.36189" lon="-4.43456"></trkpt>
      <trkpt lat="50.36198" lon="-4.4344"></trkpt>
      <trkpt lat="50.3621" lon="-4.43408"></trkpt>
      <trkpt lat="50.36238" lon="-4.43298"></trkpt>
      <trkpt lat="50.3624" lon="-4.4325"></trkpt>
      <trkpt lat="50.36246" lon="-4.4322"></trkpt>
      <trkpt lat="50.36258" lon="-4.43186"></trkpt>
      <trkpt lat="50.36282" lon="-4.43126"></trkpt>
      <trkpt lat="50.36288" lon="-4.43119"></trkpt>
      <trkpt lat="50.36292" lon="-4.43111"></trkpt>
      <trkpt lat="50.36299" lon="-4.43076"></trkpt>
      <trkpt lat="50.36299" lon="-4.43053"></trkpt>
      <trkpt lat="50.36307" lon="-4.43027"></trkpt>
      <trkpt lat="50.36311" lon="-4.43002"></trkpt>
      <trkpt lat="50.36334" lon="-4.42947"></trkpt>
      <trkpt lat="50.36343" lon="-4.42915"></trkpt>
      <trkpt lat="50.36357" lon="-4.42874"></trkpt>
      <trkpt lat="50.36377" lon="-4.42829"></trkpt>
      <trkpt lat="50.36423" lon="-4.42739"></trkpt>
      <trkpt lat="50.36448" lon="-4.42673"></trkpt>
      <trkpt lat="50.36478" lon="-4.42559"></trkpt>
      <trkpt lat="50.365" lon="-4.42432"></trkpt>
      <trkpt lat="50.36528" lon="-4.42187"></trkpt>
      <trkpt lat="50.36534" lon="-4.42135"></trkpt>
      <trkpt lat="50.36558" lon="-4.41984"></trkpt>
      <trkpt lat="50.36621" lon="-4.41737"></trkpt>
      <trkpt lat="50.36645" lon="-4.41607"></trkpt>
      <trkpt lat="50.36648" lon="-4.41515"></trkpt>
      <trkpt lat="50.36653" lon="-4.41454"></trkpt>
      <trkpt lat="50.36728" lon="-4.4125"></trkpt>
      <trkpt lat="50.36786" lon="-4.41092"></trkpt>
      <trkpt lat="50.36807" lon="-4.41018"></trkpt>
      <trkpt lat="50.36824" lon="-4.40948"></trkpt>
      <trkpt lat="50.36738" lon="-4.40942"></trkpt>
      <trkpt lat="50.36723" lon="-4.40935"></trkpt>
      <trkpt lat="50.36712" lon="-4.40921"></trkpt>
      <trkpt lat="50.367" lon="-4.40924"></trkpt>
      <trkpt lat="50.36674" lon="-4.40831"></trkpt>
      <trkpt lat="50.36664" lon="-4.40784"></trkpt>
      <trkpt lat="50.36655" lon="-4.40772"></trkpt>
      <trkpt lat="50.36643" lon="-4.40762"></trkpt>
      <trkpt lat="50.36623" lon="-4.40723"></trkpt>
      <trkpt lat="50.36613" lon="-4.40677"></trkpt>
      <trkpt lat="50.36619" lon="-4.40644"></trkpt>
      <trkpt lat="50.36638" lon="-4.40592"></trkpt>
      <trkpt lat="50.3663" lon="-4.40565"></trkpt>
      <trkpt lat="50.36622" lon="-4.40549"></trkpt>
      <trkpt lat="50.36611" lon="-4.4054"></trkpt>
      <trkpt lat="50.36589" lon="-4.40509"></trkpt>
      <trkpt lat="50.36563" lon="-4.40483"></trkpt>
      <trkpt lat="50.36544" lon="-4.40472"></trkpt>
      <trkpt lat="50.36539" lon="-4.40483"></trkpt>
      <trkpt lat="50.36524" lon="-4.40464"></trkpt>
      <trkpt lat="50.36518" lon="-4.40432"></trkpt>
      <trkpt lat="50.36506" lon="-4.40421"></trkpt>
      <trkpt lat="50.36501" lon="-4.4043"></trkpt>
      <trkpt lat="50.36497" lon="-4.40456"></trkpt>
      <trkpt lat="50.36495" lon="-4.40457"></trkpt>
      <trkpt lat="50.3648" lon="-4.40417"></trkpt>
      <trkpt lat="50.36461" lon="-4.40349"></trkpt>
      <trkpt lat="50.36459" lon="-4.40326"></trkpt>
      <trkpt lat="50.36458" lon="-4.40293"></trkpt>
      <trkpt lat="50.36462" lon="-4.40254"></trkpt>
      <trkpt lat="50.36459" lon="-4.40222"></trkpt>
      <trkpt lat="50.36464" lon="-4.40179"></trkpt>
      <trkpt lat="50.36463" lon="-4.4017"></trkpt>
      <trkpt lat="50.36458" lon="-4.40104"></trkpt>
      <trkpt lat="50.36461" lon="-4.39991"></trkpt>
      <trkpt lat="50.36484" lon="-4.39896"></trkpt>
      <trkpt lat="50.36462" lon="-4.39778"></trkpt>
      <trkpt lat="50.36472" lon="-4.39728"></trkpt>
      <trkpt lat="50.36474" lon="-4.39701"></trkpt>
      <trkpt lat="50.36475" lon="-4.39663"></trkpt>
      <trkpt lat="50.36479" lon="-4.39639"></trkpt>
      <trkpt lat="50.36488" lon="-4.39626"></trkpt>
      <trkpt lat="50.36522" lon="-4.39593"></trkpt>
      <trkpt lat="50.36553" lon="-4.39565"></trkpt>
      <trkpt lat="50.36577" lon="-4.39565"></trkpt>
      <trkpt lat="50.36565" lon="-4.39522"></trkpt>
      <trkpt lat="50.36575" lon="-4.3951"></trkpt>
      <trkpt lat="50.3656" lon="-4.39456"></trkpt>
      <trkpt lat="50.36539" lon="-4.39419"></trkpt>
      <trkpt lat="50.36507" lon="-4.3937"></trkpt>
      <trkpt lat="50.36495" lon="-4.39348"></trkpt>
      <trkpt lat="50.36489" lon="-4.39325"></trkpt>
      <trkpt lat="50.36479" lon="-4.39234"></trkpt>
      <trkpt lat="50.36463" lon="-4.39168"></trkpt>
      <trkpt lat="50.36453" lon="-4.39105"></trkpt>
      <trkpt lat="50.36448" lon="-4.39058"></trkpt>
      <trkpt lat="50.36446" lon="-4.38992"></trkpt>
      <trkpt lat="50.36448" lon="-4.38974"></trkpt>
      <trkpt lat="50.36453" lon="-4.38951"></trkpt>
      <trkpt lat="50.36471" lon="-4.38899"></trkpt>
      <trkpt lat="50.36493" lon="-4.38816"></trkpt>
      <trkpt lat="50.36508" lon="-4.38743"></trkpt>
      <trkpt lat="50.36513" lon="-4.3873"></trkpt>
      <trkpt lat="50.3652" lon="-4.38718"></trkpt>
      <trkpt lat="50.36532" lon="-4.38707"></trkpt>
      <trkpt lat="50.36543" lon="-4.38704"></trkpt>
      <trkpt lat="50.36555" lon="-4.38703"></trkpt>
      <trkpt lat="50.36574" lon="-4.38718"></trkpt>
      <trkpt lat="50.36571" lon="-4.38693"></trkpt>
      <trkpt lat="50.36557" lon="-4.38643"></trkpt>
      <trkpt lat="50.36522" lon="-4.38582"></trkpt>
      <trkpt lat="50.36439" lon="-4.38468"></trkpt>
      <trkpt lat="50.36426" lon="-4.38449"></trkpt>
      <trkpt lat="50.36413" lon="-4.38423"></trkpt>
      <trkpt lat="50.36386" lon="-4.38396"></trkpt>
      <trkpt lat="50.36382" lon="-4.38383"></trkpt>
      <trkpt lat="50.3638" lon="-4.38369"></trkpt>
      <trkpt lat="50.3638" lon="-4.38332"></trkpt>
      <trkpt lat="50.36371" lon="-4.3827"></trkpt>
      <trkpt lat="50.36364" lon="-4.38208"></trkpt>
      <trkpt lat="50.36358" lon="-4.38185"></trkpt>
      <trkpt lat="50.3634" lon="-4.38072"></trkpt>
      <trkpt lat="50.36295" lon="-4.37879"></trkpt>
      <trkpt lat="50.36258" lon="-4.37636"></trkpt>
      <trkpt lat="50.36243" lon="-4.37437"></trkpt>
      <trkpt lat="50.36248" lon="-4.37375"></trkpt>
      <trkpt lat="50.36234" lon="-4.37273"></trkpt>
      <trkpt lat="50.36231" lon="-4.37231"></trkpt>
      <trkpt lat="50.36231" lon="-4.37159"></trkpt>
      <trkpt lat="50.36226" lon="-4.37139"></trkpt>
      <trkpt lat="50.3622" lon="-4.37124"></trkpt>
      <trkpt lat="50.36207" lon="-4.37099"></trkpt>
      <trkpt lat="50.36187" lon="-4.36941"></trkpt>
      <trkpt lat="50.3617" lon="-4.36746"></trkpt>
      <trkpt lat="50.36159" lon="-4.36665"></trkpt>
      <trkpt lat="50.36138" lon="-4.36384"></trkpt>
      <trkpt lat="50.36128" lon="-4.36275"></trkpt>
      <trkpt lat="50.36127" lon="-4.36219"></trkpt>
      <trkpt lat="50.36131" lon="-4.3619"></trkpt>
      <trkpt lat="50.36146" lon="-4.36124"></trkpt>
      <trkpt lat="50.36149" lon="-4.36108"></trkpt>
      <trkpt lat="50.36148" lon="-4.36086"></trkpt>
      <trkpt lat="50.36143" lon="-4.36063"></trkpt>
      <trkpt lat="50.36138" lon="-4.36047"></trkpt>
      <trkpt lat="50.36133" lon="-4.36014"></trkpt>
      <trkpt lat="50.36137" lon="-4.3593"></trkpt>
      <trkpt lat="50.3614" lon="-4.35916"></trkpt>
      <trkpt lat="50.36142" lon="-4.3591"></trkpt>
      <trkpt lat="50.36145" lon="-4.35908"></trkpt>
      <trkpt lat="50.3615" lon="-4.35908"></trkpt>
      <trkpt lat="50.36155" lon="-4.35911"></trkpt>
      <trkpt lat="50.36164" lon="-4.35904"></trkpt>
      <trkpt lat="50.36201" lon="-4.35846"></trkpt>
      <trkpt lat="50.36206" lon="-4.35831"></trkpt>
      <trkpt lat="50.36207" lon="-4.35819"></trkpt>
      <trkpt lat="50.36205" lon="-4.35804"></trkpt>
      <trkpt lat="50.36198" lon="-4.35788"></trkpt>
      <trkpt lat="50.36196" lon="-4.35766"></trkpt>
      <trkpt lat="50.36199" lon="-4.3575"></trkpt>
      <trkpt lat="50.36209" lon="-4.3573"></trkpt>
      <trkpt lat="50.36217" lon="-4.3573"></trkpt>
      <trkpt lat="50.36219" lon="-4.35735"></trkpt>
      <trkpt lat="50.36216" lon="-4.35777"></trkpt>
      <trkpt lat="50.36219" lon="-4.35783"></trkpt>
      <trkpt lat="50.36222" lon="-4.35782"></trkpt>
      <trkpt lat="50.36225" lon="-4.35768"></trkpt>
      <trkpt lat="50.36227" lon="-4.35766"></trkpt>
      <trkpt lat="50.36235" lon="-4.35797"></trkpt>
      <trkpt lat="50.3624" lon="-4.35804"></trkpt>
      <trkpt lat="50.36248" lon="-4.358"></trkpt>
      <trkpt lat="50.36253" lon="-4.35783"></trkpt>
      <trkpt lat="50.36269" lon="-4.35703"></trkpt>
      <trkpt lat="50.36274" lon="-4.35646"></trkpt>
      <trkpt lat="50.36277" lon="-4.35635"></trkpt>
      <trkpt lat="50.36299" lon="-4.35615"></trkpt>
      <trkpt lat="50.36313" lon="-4.35616"></trkpt>
      <trkpt lat="50.36315" lon="-4.35614"></trkpt>
      <trkpt lat="50.36323" lon="-4.35583"></trkpt>
      <trkpt lat="50.36322" lon="-4.35559"></trkpt>
      <trkpt lat="50.36309" lon="-4.35472"></trkpt>
      <trkpt lat="50.36308" lon="-4.3545"></trkpt>
      <trkpt lat="50.36316" lon="-4.35395"></trkpt>
      <trkpt lat="50.3631" lon="-4.35352"></trkpt>
      <trkpt lat="50.36314" lon="-4.35289"></trkpt>
      <trkpt lat="50.36309" lon="-4.35274"></trkpt>
      <trkpt lat="50.363" lon="-4.35227"></trkpt>
      <trkpt lat="50.36275" lon="-4.35179"></trkpt>
      <trkpt lat="50.36266" lon="-4.35143"></trkpt>
      <trkpt lat="50.3626" lon="-4.35098"></trkpt>
      <trkpt lat="50.36276" lon="-4.34983"></trkpt>
      <trkpt lat="50.36276" lon="-4.34972"></trkpt>
      <trkpt lat="50.36271" lon="-4.34952"></trkpt>
      <trkpt lat="50.36249" lon="-4.34917"></trkpt>
      <trkpt lat="50.36242" lon="-4.34891"></trkpt>
      <trkpt lat="50.36237" lon="-4.34861"></trkpt>
      <trkpt lat="50.36233" lon="-4.34796"></trkpt>
      <trkpt lat="50.36226" lon="-4.34692"></trkpt>
      <trkpt lat="50.36227" lon="-4.34664"></trkpt>
      <trkpt lat="50.36233" lon="-4.34643"></trkpt>
      <trkpt lat="50.36258" lon="-4.3461"></trkpt>
      <trkpt lat="50.36263" lon="-4.34591"></trkpt>
      <trkpt lat="50.36265" lon="-4.34563"></trkpt>
      <trkpt lat="50.36251" lon="-4.34502"></trkpt>
      <trkpt lat="50.36249" lon="-4.34486"></trkpt>
      <trkpt lat="50.3625" lon="-4.34473"></trkpt>
      <trkpt lat="50.36256" lon="-4.34454"></trkpt>
      <trkpt lat="50.36271" lon="-4.34434"></trkpt>
      <trkpt lat="50.36274" lon="-4.34422"></trkpt>
      <trkpt lat="50.36273" lon="-4.3441"></trkpt>
      <trkpt lat="50.36263" lon="-4.34365"></trkpt>
      <trkpt lat="50.36255" lon="-4.34273"></trkpt>
      <trkpt lat="50.36257" lon="-4.34224"></trkpt>
      <trkpt lat="50.36255" lon="-4.34209"></trkpt>
      <trkpt lat="50.3625" lon="-4.34194"></trkpt>
      <trkpt lat="50.36207" lon="-4.34115"></trkpt>
      <trkpt lat="50.36193" lon="-4.34075"></trkpt>
      <trkpt lat="50.36189" lon="-4.34046"></trkpt>
      <trkpt lat="50.36189" lon="-4.33988"></trkpt>
      <trkpt lat="50.36182" lon="-4.33958"></trkpt>
      <trkpt lat="50.36182" lon="-4.33896"></trkpt>
      <trkpt lat="50.36179" lon="-4.33862"></trkpt>
      <trkpt lat="50.36174" lon="-4.33829"></trkpt>
      <trkpt lat="50.36169" lon="-4.33812"></trkpt>
      <trkpt lat="50.36161" lon="-4.33799"></trkpt>
      <trkpt lat="50.3612" lon="-4.33769"></trkpt>
      <trkpt lat="50.36117" lon="-4.33764"></trkpt>
      <trkpt lat="50.36117" lon="-4.33758"></trkpt>
      <trkpt lat="50.36125" lon="-4.33752"></trkpt>
      <trkpt lat="50.36127" lon="-4.33737"></trkpt>
      <trkpt lat="50.36127" lon="-4.33738"></trkpt>
      <trkpt lat="50.36126" lon="-4.33725"></trkpt>
      <trkpt lat="50.36128" lon="-4.33717"></trkpt>
      <trkpt lat="50.36197" lon="-4.33573"></trkpt>
      <trkpt lat="50.36226" lon="-4.33519"></trkpt>
      <trkpt lat="50.36249" lon="-4.33467"></trkpt>
      <trkpt lat="50.36317" lon="-4.33386"></trkpt>
      <trkpt lat="50.36358" lon="-4.33317"></trkpt>
      <trkpt lat="50.36369" lon="-4.33289"></trkpt>
      <trkpt lat="50.36371" lon="-4.33241"></trkpt>
      <trkpt lat="50.36375" lon="-4.3323"></trkpt>
      <trkpt lat="50.36382" lon="-4.33218"></trkpt>
      <trkpt lat="50.36386" lon="-4.33197"></trkpt>
      <trkpt lat="50.36392" lon="-4.33076"></trkpt>
      <trkpt lat="50.36394" lon="-4.33058"></trkpt>
      <trkpt lat="50.36399" lon="-4.33023"></trkpt>
      <trkpt lat="50.36397" lon="-4.33015"></trkpt>
      <trkpt lat="50.36393" lon="-4.33008"></trkpt>
      <trkpt lat="50.36373" lon="-4.32991"></trkpt>
      <trkpt lat="50.36338" lon="-4.32984"></trkpt>
      <trkpt lat="50.36334" lon="-4.3298"></trkpt>
      <trkpt lat="50.36332" lon="-4.32973"></trkpt>
      <trkpt lat="50.3633" lon="-4.32916"></trkpt>
      <trkpt lat="50.36326" lon="-4.32897"></trkpt>
      <trkpt lat="50.36303" lon="-4.32813"></trkpt>
      <trkpt lat="50.36282" lon="-4.32655"></trkpt>
      <trkpt lat="50.36281" lon="-4.32599"></trkpt>
      <trkpt lat="50.36284" lon="-4.32542"></trkpt>
      <trkpt lat="50.36273" lon="-4.32459"></trkpt>
      <trkpt lat="50.3627" lon="-4.32448"></trkpt>
      <trkpt lat="50.3625" lon="-4.32371"></trkpt>
      <trkpt lat="50.36256" lon="-4.32291"></trkpt>
      <trkpt lat="50.36275" lon="-4.32136"></trkpt>
      <trkpt lat="50.36277" lon="-4.321"></trkpt>
      <trkpt lat="50.36275" lon="-4.32085"></trkpt>
      <trkpt lat="50.36271" lon="-4.32071"></trkpt>
      <trkpt lat="50.36253" lon="-4.32037"></trkpt>
      <trkpt lat="50.36226" lon="-4.32022"></trkpt>
      <trkpt lat="50.3621" lon="-4.32015"></trkpt>
      <trkpt lat="50.36171" lon="-4.32009"></trkpt>
      <trkpt lat="50.36164" lon="-4.32005"></trkpt>
      <trkpt lat="50.36171" lon="-4.31947"></trkpt>
      <trkpt lat="50.36174" lon="-4.31878"></trkpt>
      <trkpt lat="50.36172" lon="-4.31867"></trkpt>
      <trkpt lat="50.36176" lon="-4.3185"></trkpt>
      <trkpt lat="50.36206" lon="-4.31822"></trkpt>
      <trkpt lat="50.36246" lon="-4.31779"></trkpt>
      <trkpt lat="50.36263" lon="-4.31736"></trkpt>
      <trkpt lat="50.36265" lon="-4.31704"></trkpt>
      <trkpt lat="50.36264" lon="-4.31676"></trkpt>
      <trkpt lat="50.36261" lon="-4.31658"></trkpt>
      <trkpt lat="50.36255" lon="-4.31642"></trkpt>
      <trkpt lat="50.36244" lon="-4.3162"></trkpt>
      <trkpt lat="50.36242" lon="-4.31607"></trkpt>
      <trkpt lat="50.36239" lon="-4.31523"></trkpt>
      <trkpt lat="50.36248" lon="-4.31522"></trkpt>
      <trkpt lat="50.3623" lon="-4.31389"></trkpt>
      <trkpt lat="50.36226" lon="-4.3139"></trkpt>
      <trkpt lat="50.3622" lon="-4.31398"></trkpt>
      <trkpt lat="50.3621" lon="-4.31417"></trkpt>
      <trkpt lat="50.36202" lon="-4.31446"></trkpt>
      <trkpt lat="50.36199" lon="-4.31451"></trkpt>
      <trkpt lat="50.36195" lon="-4.31454"></trkpt>
      <trkpt lat="50.36174" lon="-4.31458"></trkpt>
      <trkpt lat="50.3616" lon="-4.31453"></trkpt>
      <trkpt lat="50.36149" lon="-4.31431"></trkpt>
      <trkpt lat="50.36148" lon="-4.31414"></trkpt>
      <trkpt lat="50.36148" lon="-4.31384"></trkpt>
      <trkpt lat="50.3615" lon="-4.31366"></trkpt>
      <trkpt lat="50.3615" lon="-4.31269"></trkpt>
      <trkpt lat="50.36153" lon="-4.31225"></trkpt>
      <trkpt lat="50.3617" lon="-4.31076"></trkpt>
    </trkseg>
  </trk>
</gpx>
