<?xml version="1.0" encoding="UTF-8"?>
<gpx version="1.1" creator="swcp-walk (imported from OS Maps route 33845530)"
     xmlns="http://www.topografix.com/GPX/1/1">
  <metadata>
    <name>SWCP35-Portwrinkle-Plymouth</name>
  </metadata>
  <trk>
    <name>SWCP35-Portwrinkle-Plymouth</name>
    <trkseg>
      <trkpt lat="50.36170029120089" lon="-4.310754265693333"></trkpt>
      <trkpt lat="50.36193" lon="-4.3089"></trkpt>
      <trkpt lat="50.36217" lon="-4.30808"></trkpt>
      <trkpt lat="50.36234" lon="-4.3069"></trkpt>
      <trkpt lat="50.36208" lon="-4.30702"></trkpt>
      <trkpt lat="50.36203" lon="-4.30702"></trkpt>
      <trkpt lat="50.36202" lon="-4.30696"></trkpt>
      <trkpt lat="50.36203" lon="-4.30687"></trkpt>
      <trkpt lat="50.36198" lon="-4.30668"></trkpt>
      <trkpt lat="50.36189" lon="-4.30661"></trkpt>
      <trkpt lat="50.36184" lon="-4.30652"></trkpt>
      <trkpt lat="50.3618" lon="-4.30627"></trkpt>
      <trkpt lat="50.36173" lon="-4.30611"></trkpt>
      <trkpt lat="50.36176" lon="-4.30592"></trkpt>
      <trkpt lat="50.36174" lon="-4.30548"></trkpt>
      <trkpt lat="50.36166" lon="-4.30536"></trkpt>
      <trkpt lat="50.36164" lon="-4.30518"></trkpt>
      <trkpt lat="50.36152" lon="-4.30396"></trkpt>
      <trkpt lat="50.36139" lon="-4.3019"></trkpt>
      <trkpt lat="50.36129" lon="-4.30168"></trkpt>
      <trkpt lat="50.36125" lon="-4.30137"></trkpt>
      <trkpt lat="50.36126" lon="-4.30122"></trkpt>
      <trkpt lat="50.36122" lon="-4.30085"></trkpt>
      <trkpt lat="50.36123" lon="-4.30054"></trkpt>
      <trkpt lat="50.36112" lon="-4.30013"></trkpt>
      <trkpt lat="50.36108" lon="-4.29984"></trkpt>
      <trkpt lat="50.36107" lon="-4.29932"></trkpt>
      <trkpt lat="50.36104" lon="-4.29892"></trkpt>
      <trkpt lat="50.36093" lon="-4.29835"></trkpt>
      <trkpt lat="50.36088" lon="-4.29806"></trkpt>
      <trkpt lat="50.36084" lon="-4.2972"></trkpt>
      <trkpt lat="50.36067" lon="-4.29653"></trkpt>
      <trkpt lat="50.36061" lon="-4.29618"></trkpt>
      <trkpt lat="50.36026" lon="-4.29368"></trkpt>
      <trkpt lat="50.36039" lon="-4.2923"></trkpt>
      <trkpt lat="50.36043" lon="-4.29208"></trkpt>
      <trkpt lat="50.36042" lon="-4.2919"></trkpt>
      <trkpt lat="50.36039" lon="-4.29171"></trkpt>
      <trkpt lat="50.3603" lon="-4.2915"></trkpt>
      <trkpt lat="50.36002" lon="-4.291"></trkpt>
      <trkpt lat="50.35967" lon="-4.29045"></trkpt>
      <trkpt lat="50.35932" lon="-4.28966"></trkpt>
      <trkpt lat="50.35927" lon="-4.2895"></trkpt>
      <trkpt lat="50.3592" lon="-4.28931"></trkpt>
      <trkpt lat="50.35918" lon="-4.28908"></trkpt>
      <trkpt lat="50.35923" lon="-4.28833"></trkpt>
      <trkpt lat="50.3592" lon="-4.28779"></trkpt>
      <trkpt lat="50.35846" lon="-4.284"></trkpt>
      <trkpt lat="50.3584" lon="-4.28296"></trkpt>
      <trkpt lat="50.35837" lon="-4.28275"></trkpt>
      <trkpt lat="50.3582" lon="-4.28166"></trkpt>
      <trkpt lat="50.35815" lon="-4.28118"></trkpt>
      <trkpt lat="50.35816" lon="-4.28076"></trkpt>
      <trkpt lat="50.35828" lon="-4.28037"></trkpt>
      <trkpt lat="50.35832" lon="-4.28014"></trkpt>
      <trkpt lat="50.35838" lon="-4.27956"></trkpt>
      <trkpt lat="50.35822" lon="-4.27862"></trkpt>
      <trkpt lat="50.35808" lon="-4.27824"></trkpt>
      <trkpt lat="50.35794" lon="-4.27792"></trkpt>
      <trkpt lat="50.35779" lon="-4.27737"></trkpt>
      <trkpt lat="50.35778" lon="-4.27693"></trkpt>
      <trkpt lat="50.35776" lon="-4.27665"></trkpt>
      <trkpt lat="50.35777" lon="-4.27632"></trkpt>
      <trkpt lat="50.35784" lon="-4.27591"></trkpt>
      <trkpt lat="50.35787" lon="-4.27559"></trkpt>
      <trkpt lat="50.35808" lon="-4.27361"></trkpt>
      <trkpt lat="50.35809" lon="-4.27312"></trkpt>
      <trkpt lat="50.35803" lon="-4.2728"></trkpt>
      <trkpt lat="50.35798" lon="-4.27273"></trkpt>
      <trkpt lat="50.35778" lon="-4.2729"></trkpt>
      <trkpt lat="50.35709" lon="-4.2728"></trkpt>
      <trkpt lat="50.35696" lon="-4.27269"></trkpt>
      <trkpt lat="50.3569" lon="-4.27258"></trkpt>
      <trkpt lat="50.35683" lon="-4.27229"></trkpt>
      <trkpt lat="50.35682" lon="-4.27216"></trkpt>
      <trkpt lat="50.35661" lon="-4.27156"></trkpt>
      <trkpt lat="50.35651" lon="-4.271"></trkpt>
      <trkpt lat="50.35654" lon="-4.27005"></trkpt>
      <trkpt lat="50.3565" lon="-4.26806"></trkpt>
      <trkpt lat="50.35654" lon="-4.26786"></trkpt>
      <trkpt lat="50.3566" lon="-4.26772"></trkpt>
      <trkpt lat="50.357" lon="-4.26738"></trkpt>
      <trkpt lat="50.35685" lon="-4.2671"></trkpt>
      <trkpt lat="50.35652" lon="-4.26627"></trkpt>
      <trkpt lat="50.35648" lon="-4.26596"></trkpt>
      <trkpt lat="50.35642" lon="-4.26593"></trkpt>
      <trkpt lat="50.35629" lon="-4.26576"></trkpt>
      <trkpt lat="50.3556" lon="-4.26452"></trkpt>
      <trkpt lat="50.35553" lon="-4.2645"></trkpt>
      <trkpt lat="50.35538" lon="-4.26441"></trkpt>
      <trkpt lat="50.35533" lon="-4.26443"></trkpt>
      <trkpt lat="50.35468" lon="-4.26527"></trkpt>
      <trkpt lat="50.35449" lon="-4.26555"></trkpt>
      <trkpt lat="50.35453" lon="-4.26556"></trkpt>
      <trkpt lat="50.35455" lon="-4.26562"></trkpt>
      <trkpt lat="50.35442" lon="-4.26585"></trkpt>
      <trkpt lat="50.354" lon="-4.26702"></trkpt>
      <trkpt lat="50.35394" lon="-4.26739"></trkpt>
      <trkpt lat="50.35385" lon="-4.26776"></trkpt>
      <trkpt lat="50.35369" lon="-4.26819"></trkpt>
      <trkpt lat="50.35368" lon="-4.26853"></trkpt>
      <trkpt lat="50.35361" lon="-4.26855"></trkpt>
      <trkpt lat="50.35353" lon="-4.26866"></trkpt>
      <trkpt lat="50.35346" lon="-4.26881"></trkpt>
      <trkpt lat="50.3533" lon="-4.269"></trkpt>
      <trkpt lat="50.35324" lon="-4.26902"></trkpt>
      <trkpt lat="50.35315" lon="-4.26895"></trkpt>
      <trkpt lat="50.353" lon="-4.26865"></trkpt>
      <trkpt lat="50.35288" lon="-4.2685"></trkpt>
      <trkpt lat="50.35267" lon="-4.26836"></trkpt>
      <trkpt lat="50.3524" lon="-4.26805"></trkpt>
      <trkpt lat="50.35198" lon="-4.26751"></trkpt>
      <trkpt lat="50.35125" lon="-4.26644"></trkpt>
      <trkpt lat="50.35106" lon="-4.26603"></trkpt>
      <trkpt lat="50.35097" lon="-4.26585"></trkpt>
      <trkpt lat="50.35092" lon="-4.26558"></trkpt>
      <trkpt lat="50.35081" lon="-4.26521"></trkpt>
      <trkpt lat="50.3508" lon="-4.2651"></trkpt>
      <trkpt lat="50.35085" lon="-4.26476"></trkpt>
      <trkpt lat="50.35083" lon="-4.26473"></trkpt>
      <trkpt lat="50.35075" lon="-4.26409"></trkpt>
      <trkpt lat="50.35052" lon="-4.26332"></trkpt>
      <trkpt lat="50.35037" lon="-4.26317"></trkpt>
      <trkpt lat="50.35022" lon="-4.26294"></trkpt>
      <trkpt lat="50.35008" lon="-4.26254"></trkpt>
      <trkpt lat="50.34961" lon="-4.26157"></trkpt>
      <trkpt lat="50.34952" lon="-4.26129"></trkpt>
      <trkpt lat="50.34948" lon="-4.26112"></trkpt>
      <trkpt lat="50.34946" lon="-4.2609"></trkpt>
      <trkpt lat="50.34943" lon="-4.26086"></trkpt>
      <trkpt lat="50.34927" lon="-4.26042"></trkpt>
      <trkpt lat="50.34909" lon="-4.26017"></trkpt>
      <trkpt lat="50.34866" lon="-4.259"></trkpt>
      <trkpt lat="50.34859" lon="-4.25868"></trkpt>
      <trkpt lat="50.34867" lon="-4.25828"></trkpt>
      <trkpt lat="50.34864" lon="-4.25803"></trkpt>
      <trkpt lat="50.34859" lon="-4.25791"></trkpt>
      <trkpt lat="50.34853" lon="-4.25781"></trkpt>
      <trkpt lat="50.3484" lon="-4.25772"></trkpt>
      <trkpt lat="50.34832" lon="-4.25772"></trkpt>
      <trkpt lat="50.34829" lon="-4.25775"></trkpt>
      <trkpt lat="50.34828" lon="-4.25781"></trkpt>
      <trkpt lat="50.3483" lon="-4.25789"></trkpt>
      <trkpt lat="50.34828" lon="-4.25781"></trkpt>
      <trkpt lat="50.34829" lon="-4.25775"></trkpt>
      <trkpt lat="50.34832" lon="-4.25772"></trkpt>
      <trkpt lat="50.34819" lon="-4.25774"></trkpt>
      <trkpt lat="50.34801" lon="-4.25767"></trkpt>
      <trkpt lat="50.34784" lon="-4.25748"></trkpt>
      <trkpt lat="50.34767" lon="-4.25715"></trkpt>
      <trkpt lat="50.34764" lon="-4.25698"></trkpt>
      <trkpt lat="50.34766" lon="-4.25687"></trkpt>
      <trkpt lat="50.34764" lon="-4.25676"></trkpt>
      <trkpt lat="50.34766" lon="-4.25666"></trkpt>
      <trkpt lat="50.3476" lon="-4.25611"></trkpt>
      <trkpt lat="50.34754" lon="-4.25596"></trkpt>
      <trkpt lat="50.34754" lon="-4.25556"></trkpt>
      <trkpt lat="50.34747" lon="-4.2553"></trkpt>
      <trkpt lat="50.34764" lon="-4.25423"></trkpt>
      <trkpt lat="50.34768" lon="-4.2541"></trkpt>
      <trkpt lat="50.34766" lon="-4.25397"></trkpt>
      <trkpt lat="50.34759" lon="-4.25386"></trkpt>
      <trkpt lat="50.34751" lon="-4.25382"></trkpt>
      <trkpt lat="50.3472" lon="-4.25377"></trkpt>
      <trkpt lat="50.347" lon="-4.25365"></trkpt>
      <trkpt lat="50.3467" lon="-4.25299"></trkpt>
      <trkpt lat="50.34646" lon="-4.25229"></trkpt>
      <trkpt lat="50.34635" lon="-4.25207"></trkpt>
      <trkpt lat="50.34606" lon="-4.25169"></trkpt>
      <trkpt lat="50.34588" lon="-4.25134"></trkpt>
      <trkpt lat="50.34566" lon="-4.25065"></trkpt>
      <trkpt lat="50.34556" lon="-4.25012"></trkpt>
      <trkpt lat="50.3455" lon="-4.24996"></trkpt>
      <trkpt lat="50.34541" lon="-4.2498"></trkpt>
      <trkpt lat="50.34516" lon="-4.24947"></trkpt>
      <trkpt lat="50.34494" lon="-4.24911"></trkpt>
      <trkpt lat="50.34477" lon="-4.24856"></trkpt>
      <trkpt lat="50.3447" lon="-4.24823"></trkpt>
      <trkpt lat="50.34466" lon="-4.24796"></trkpt>
      <trkpt lat="50.34462" lon="-4.24719"></trkpt>
      <trkpt lat="50.34458" lon="-4.24697"></trkpt>
      <trkpt lat="50.34451" lon="-4.24679"></trkpt>
      <trkpt lat="50.34426" lon="-4.24642"></trkpt>
      <trkpt lat="50.34371" lon="-4.24524"></trkpt>
      <trkpt lat="50.34314" lon="-4.24343"></trkpt>
      <trkpt lat="50.34306" lon="-4.24324"></trkpt>
      <trkpt lat="50.34287" lon="-4.24288"></trkpt>
      <trkpt lat="50.3423" lon="-4.24213"></trkpt>
      <trkpt lat="50.34196" lon="-4.24167"></trkpt>
      <trkpt lat="50.34181" lon="-4.24135"></trkpt>
      <trkpt lat="50.34152" lon="-4.24056"></trkpt>
      <trkpt lat="50.34098" lon="-4.23886"></trkpt>
      <trkpt lat="50.3409" lon="-4.23851"></trkpt>
      <trkpt lat="50.34076" lon="-4.23767"></trkpt>
      <trkpt lat="50.34069" lon="-4.23744"></trkpt>
      <trkpt lat="50.34061" lon="-4.23725"></trkpt>
      <trkpt lat="50.33995" lon="-4.23608"></trkpt>
      <trkpt lat="50.33976" lon="-4.23587"></trkpt>
      <trkpt lat="50.33955" lon="-4.23581"></trkpt>
      <trkpt lat="50.33928" lon="-4.23569"></trkpt>
      <trkpt lat="50.33909" lon="-4.23566"></trkpt>
      <trkpt lat="50.33897" lon="-4.2356"></trkpt>
      <trkpt lat="50.33885" lon="-4.23563"></trkpt>
      <trkpt lat="50.33876" lon="-4.23569"></trkpt>
      <trkpt lat="50.33866" lon="-4.23569"></trkpt>
      <trkpt lat="50.33849" lon="-4.23551"></trkpt>
      <trkpt lat="50.33822" lon="-4.23538"></trkpt>
      <trkpt lat="50.33809" lon="-4.23537"></trkpt>
      <trkpt lat="50.33743" lon="-4.23442"></trkpt>
      <trkpt lat="50.33739" lon="-4.2343"></trkpt>
      <trkpt lat="50.33725" lon="-4.23433"></trkpt>
      <trkpt lat="50.33721" lon="-4.2341"></trkpt>
      <trkpt lat="50.33715" lon="-4.23401"></trkpt>
      <trkpt lat="50.33707" lon="-4.23389"></trkpt>
      <trkpt lat="50.33707" lon="-4.23348"></trkpt>
      <trkpt lat="50.33709" lon="-4.2334"></trkpt>
      <trkpt lat="50.33705" lon="-4.23325"></trkpt>
      <trkpt lat="50.33699" lon="-4.23283"></trkpt>
      <trkpt lat="50.33704" lon="-4.23279"></trkpt>
      <trkpt lat="50.33721" lon="-4.23253"></trkpt>
      <trkpt lat="50.33731" lon="-4.23244"></trkpt>
      <trkpt lat="50.33731" lon="-4.23232"></trkpt>
      <trkpt lat="50.33739" lon="-4.23218"></trkpt>
      <trkpt lat="50.33746" lon="-4.23202"></trkpt>
      <trkpt lat="50.33758" lon="-4.23193"></trkpt>
      <trkpt lat="50.33764" lon="-4.23179"></trkpt>
      <trkpt lat="50.33761" lon="-4.23168"></trkpt>
      <trkpt lat="50.33751" lon="-4.23162"></trkpt>
      <trkpt lat="50.33752" lon="-4.23148"></trkpt>
      <trkpt lat="50.33751" lon="-4.23108"></trkpt>
      <trkpt lat="50.33759" lon="-4.23061"></trkpt>
      <trkpt lat="50.33751" lon="-4.23029"></trkpt>
      <trkpt lat="50.3375" lon="-4.23017"></trkpt>
      <trkpt lat="50.33735" lon="-4.23016"></trkpt>
      <trkpt lat="50.3371" lon="-4.23008"></trkpt>
      <trkpt lat="50.33688" lon="-4.23016"></trkpt>
      <trkpt lat="50.33647" lon="-4.2302"></trkpt>
      <trkpt lat="50.33643" lon="-4.23018"></trkpt>
      <trkpt lat="50.3363" lon="-4.22996"></trkpt>
      <trkpt lat="50.33599" lon="-4.22978"></trkpt>
      <trkpt lat="50.33579" lon="-4.22967"></trkpt>
      <trkpt lat="50.33557" lon="-4.22964"></trkpt>
      <trkpt lat="50.3354" lon="-4.22966"></trkpt>
      <trkpt lat="50.33517" lon="-4.22953"></trkpt>
      <trkpt lat="50.33498" lon="-4.22948"></trkpt>
      <trkpt lat="50.33479" lon="-4.2293"></trkpt>
      <trkpt lat="50.3348" lon="-4.22927"></trkpt>
      <trkpt lat="50.33488" lon="-4.22932"></trkpt>
      <trkpt lat="50.33489" lon="-4.22929"></trkpt>
      <trkpt lat="50.33486" lon="-4.22917"></trkpt>
      <trkpt lat="50.33491" lon="-4.229"></trkpt>
      <trkpt lat="50.33499" lon="-4.22891"></trkpt>
      <trkpt lat="50.33501" lon="-4.22885"></trkpt>
      <trkpt lat="50.33501" lon="-4.22867"></trkpt>
      <trkpt lat="50.3349" lon="-4.22873"></trkpt>
      <trkpt lat="50.3349" lon="-4.22882"></trkpt>
      <trkpt lat="50.33488" lon="-4.22883"></trkpt>
      <trkpt lat="50.3346" lon="-4.22866"></trkpt>
      <trkpt lat="50.33456" lon="-4.2284"></trkpt>
      <trkpt lat="50.33447" lon="-4.22818"></trkpt>
      <trkpt lat="50.33442" lon="-4.2278"></trkpt>
      <trkpt lat="50.33428" lon="-4.22767"></trkpt>
      <trkpt lat="50.33426" lon="-4.2276"></trkpt>
      <trkpt lat="50.33406" lon="-4.22751"></trkpt>
      <trkpt lat="50.33392" lon="-4.22737"></trkpt>
      <trkpt lat="50.33386" lon="-4.22722"></trkpt>
      <trkpt lat="50.33374" lon="-4.22709"></trkpt>
      <trkpt lat="50.33372" lon="-4.22689"></trkpt>
      <trkpt lat="50.33351" lon="-4.22636"></trkpt>
      <trkpt lat="50.33338" lon="-4.22623"></trkpt>
      <trkpt lat="50.33327" lon="-4.22618"></trkpt>
      <trkpt lat="50.33305" lon="-4.22601"></trkpt>
      <trkpt lat="50.33283" lon="-4.22574"></trkpt>
      <trkpt lat="50.33264" lon="-4.22557"></trkpt>
      <trkpt lat="50.33224" lon="-4.22483"></trkpt>
      <trkpt lat="50.3316" lon="-4.22324"></trkpt>
      <trkpt lat="50.33143" lon="-4.22271"></trkpt>
      <trkpt lat="50.3314" lon="-4.22257"></trkpt>
      <trkpt lat="50.3314" lon="-4.22301"></trkpt>
      <trkpt lat="50.33134" lon="-4.22369"></trkpt>
      <trkpt lat="50.33126" lon="-4.22382"></trkpt>
      <trkpt lat="50.33123" lon="-4.22395"></trkpt>
      <trkpt lat="50.33119" lon="-4.22395"></trkpt>
      <trkpt lat="50.33065" lon="-4.22351"></trkpt>
      <trkpt lat="50.32918" lon="-4.22236"></trkpt>
      <trkpt lat="50.32901" lon="-4.22228"></trkpt>
      <trkpt lat="50.32867" lon="-4.22206"></trkpt>
      <trkpt lat="50.3286" lon="-4.22196"></trkpt>
      <trkpt lat="50.32848" lon="-4.22171"></trkpt>
      <trkpt lat="50.32839" lon="-4.2216"></trkpt>
      <trkpt lat="50.32794" lon="-4.22137"></trkpt>
      <trkpt lat="50.32781" lon="-4.22138"></trkpt>
      <trkpt lat="50.32768" lon="-4.22131"></trkpt>
      <trkpt lat="50.3275" lon="-4.221"></trkpt>
      <trkpt lat="50.32744" lon="-4.22095"></trkpt>
      <trkpt lat="50.32724" lon="-4.22063"></trkpt>
      <trkpt lat="50.32717" lon="-4.22058"></trkpt>
      <trkpt lat="50.32703" lon="-4.22038"></trkpt>
      <trkpt lat="50.32702" lon="-4.22032"></trkpt>
      <trkpt lat="50.32682" lon="-4.22017"></trkpt>
      <trkpt lat="50.32669" lon="-4.21997"></trkpt>
      <trkpt lat="50.32643" lon="-4.21971"></trkpt>
      <trkpt lat="50.32615" lon="-4.21952"></trkpt>
      <trkpt lat="50.32516" lon="-4.21903"></trkpt>
      <trkpt lat="50.32504" lon="-4.21902"></trkpt>
      <trkpt lat="50.32455" lon="-4.2188"></trkpt>
      <trkpt lat="50.32404" lon="-4.21869"></trkpt>
      <trkpt lat="50.32358" lon="-4.21865"></trkpt>
      <trkpt lat="50.32354" lon="-4.21859"></trkpt>
      <trkpt lat="50.32347" lon="-4.21868"></trkpt>
      <trkpt lat="50.3232" lon="-4.21884"></trkpt>
      <trkpt lat="50.32305" lon="-4.21884"></trkpt>
      <trkpt lat="50.32288" lon="-4.21887"></trkpt>
      <trkpt lat="50.32273" lon="-4.21894"></trkpt>
      <trkpt lat="50.32258" lon="-4.21896"></trkpt>
      <trkpt lat="50.32248" lon="-4.21894"></trkpt>
      <trkpt lat="50.32241" lon="-4.21889"></trkpt>
      <trkpt lat="50.32237" lon="-4.21868"></trkpt>
      <trkpt lat="50.3223" lon="-4.21861"></trkpt>
      <trkpt lat="50.32228" lon="-4.21849"></trkpt>
      <trkpt lat="50.32221" lon="-4.21839"></trkpt>
      <trkpt lat="50.32213" lon="-4.21833"></trkpt>
      <trkpt lat="50.32179" lon="-4.2187"></trkpt>
      <trkpt lat="50.32153" lon="-4.2191"></trkpt>
      <trkpt lat="50.32092" lon="-4.22022"></trkpt>
      <trkpt lat="50.32086" lon="-4.22053"></trkpt>
      <trkpt lat="50.32057" lon="-4.22121"></trkpt>
      <trkpt lat="50.32044" lon="-4.22136"></trkpt>
      <trkpt lat="50.32001" lon="-4.22208"></trkpt>
      <trkpt lat="50.31969" lon="-4.22279"></trkpt>
      <trkpt lat="50.31957" lon="-4.2228"></trkpt>
      <trkpt lat="50.31925" lon="-4.22307"></trkpt>
      <trkpt lat="50.31892" lon="-4.22385"></trkpt>
      <trkpt lat="50.31887" lon="-4.2239"></trkpt>
      <trkpt lat="50.31883" lon="-4.22391"></trkpt>
      <trkpt lat="50.31867" lon="-4.22382"></trkpt>
      <trkpt lat="50.31859" lon="-4.22371"></trkpt>
      <trkpt lat="50.31853" lon="-4.22362"></trkpt>
      <trkpt lat="50.31847" lon="-4.22346"></trkpt>
      <trkpt lat="50.31839" lon="-4.22337"></trkpt>
      <trkpt lat="50.31818" lon="-4.2233"></trkpt>
      <trkpt lat="50.31789" lon="-4.22336"></trkpt>
      <trkpt lat="50.31781" lon="-4.22333"></trkpt>
      <trkpt lat="50.31766" lon="-4.22318"></trkpt>
      <trkpt lat="50.31755" lon="-4.22294"></trkpt>
      <trkpt lat="50.31755" lon="-4.22288"></trkpt>
      <trkpt lat="50.31737" lon="-4.22273"></trkpt>
      <trkpt lat="50.31727" lon="-4.22249"></trkpt>
      <trkpt lat="50.3171" lon="-4.22238"></trkpt>
      <trkpt lat="50.31667" lon="-4.22186"></trkpt>
      <trkpt lat="50.31645" lon="-4.22149"></trkpt>
      <trkpt lat="50.31639" lon="-4.22145"></trkpt>
      <trkpt lat="50.31595" lon="-4.22175"></trkpt>
      <trkpt lat="50.31547" lon="-4.2218"></trkpt>
      <trkpt lat="50.31538" lon="-4.22192"></trkpt>
      <trkpt lat="50.31529" lon="-4.22199"></trkpt>
      <trkpt lat="50.31507" lon="-4.22227"></trkpt>
      <trkpt lat="50.31477" lon="-4.22246"></trkpt>
      <trkpt lat="50.31466" lon="-4.22247"></trkpt>
      <trkpt lat="50.31437" lon="-4.22272"></trkpt>
      <trkpt lat="50.31431" lon="-4.22274"></trkpt>
      <trkpt lat="50.31423" lon="-4.22285"></trkpt>
      <trkpt lat="50.3142" lon="-4.22285"></trkpt>
      <trkpt lat="50.31418" lon="-4.22282"></trkpt>
      <trkpt lat="50.31416" lon="-4.22286"></trkpt>
      <trkpt lat="50.31391" lon="-4.22294"></trkpt>
      <trkpt lat="50.31384" lon="-4.22307"></trkpt>
      <trkpt lat="50.31381" lon="-4.22311"></trkpt>
      <trkpt lat="50.3138" lon="-4.22311"></trkpt>
      <trkpt lat="50.31384" lon="-4.22307"></trkpt>
      <trkpt lat="50.31391" lon="-4.22294"></trkpt>
      <trkpt lat="50.31416" lon="-4.22286"></trkpt>
      <trkpt lat="50.31418" lon="-4.22282"></trkpt>
      <trkpt lat="50.3142" lon="-4.22285"></trkpt>
      <trkpt lat="50.31423" lon="-4.22285"></trkpt>
      <trkpt lat="50.31431" lon="-4.22274"></trkpt>
      <trkpt lat="50.31437" lon="-4.22272"></trkpt>
      <trkpt lat="50.31466" lon="-4.22247"></trkpt>
      <trkpt lat="50.31477" lon="-4.22246"></trkpt>
      <trkpt lat="50.31507" lon="-4.22227"></trkpt>
      <trkpt lat="50.31529" lon="-4.22199"></trkpt>
      <trkpt lat="50.31538" lon="-4.22192"></trkpt>
      <trkpt lat="50.31547" lon="-4.2218"></trkpt>
      <trkpt lat="50.31588" lon="-4.22073"></trkpt>
      <trkpt lat="50.31646" lon="-4.21933"></trkpt>
      <trkpt lat="50.31672" lon="-4.21869"></trkpt>
      <trkpt lat="50.31691" lon="-4.21816"></trkpt>
      <trkpt lat="50.31695" lon="-4.21793"></trkpt>
      <trkpt lat="50.31801" lon="-4.21628"></trkpt>
      <trkpt lat="50.31823" lon="-4.21596"></trkpt>
      <trkpt lat="50.3183" lon="-4.21563"></trkpt>
      <trkpt lat="50.31854" lon="-4.21506"></trkpt>
      <trkpt lat="50.31915" lon="-4.21323"></trkpt>
      <trkpt lat="50.31936" lon="-4.21229"></trkpt>
      <trkpt lat="50.31953" lon="-4.21153"></trkpt>
      <trkpt lat="50.31963" lon="-4.21117"></trkpt>
      <trkpt lat="50.31968" lon="-4.21071"></trkpt>
      <trkpt lat="50.31975" lon="-4.21047"></trkpt>
      <trkpt lat="50.31992" lon="-4.20878"></trkpt>
      <trkpt lat="50.31987" lon="-4.20741"></trkpt>
      <trkpt lat="50.31973" lon="-4.20634"></trkpt>
      <trkpt lat="50.31961" lon="-4.20586"></trkpt>
      <trkpt lat="50.31956" lon="-4.20552"></trkpt>
      <trkpt lat="50.31954" lon="-4.20512"></trkpt>
      <trkpt lat="50.31965" lon="-4.20454"></trkpt>
      <trkpt lat="50.31971" lon="-4.20429"></trkpt>
      <trkpt lat="50.31974" lon="-4.20366"></trkpt>
      <trkpt lat="50.31983" lon="-4.20296"></trkpt>
      <trkpt lat="50.31985" lon="-4.20259"></trkpt>
      <trkpt lat="50.31977" lon="-4.20204"></trkpt>
      <trkpt lat="50.31971" lon="-4.20179"></trkpt>
      <trkpt lat="50.31956" lon="-4.20133"></trkpt>
      <trkpt lat="50.3195" lon="-4.20096"></trkpt>
      <trkpt lat="50.31957" lon="-4.19947"></trkpt>
      <trkpt lat="50.31958" lon="-4.19775"></trkpt>
      <trkpt lat="50.31957" lon="-4.19651"></trkpt>
      <trkpt lat="50.31944" lon="-4.19485"></trkpt>
      <trkpt lat="50.31926" lon="-4.19396"></trkpt>
      <trkpt lat="50.31926" lon="-4.19385"></trkpt>
      <trkpt lat="50.31921" lon="-4.19371"></trkpt>
      <trkpt lat="50.31885" lon="-4.19188"></trkpt>
      <trkpt lat="50.31872" lon="-4.19102"></trkpt>
      <trkpt lat="50.31871" lon="-4.19094"></trkpt>
      <trkpt lat="50.3187" lon="-4.19045"></trkpt>
      <trkpt lat="50.31872" lon="-4.1904"></trkpt>
      <trkpt lat="50.31883" lon="-4.19031"></trkpt>
      <trkpt lat="50.319" lon="-4.19028"></trkpt>
      <trkpt lat="50.31927" lon="-4.19028"></trkpt>
      <trkpt lat="50.31941" lon="-4.1903"></trkpt>
      <trkpt lat="50.3202" lon="-4.19062"></trkpt>
      <trkpt lat="50.32104" lon="-4.19063"></trkpt>
      <trkpt lat="50.32138" lon="-4.19052"></trkpt>
      <trkpt lat="50.32157" lon="-4.19053"></trkpt>
      <trkpt lat="50.3219" lon="-4.19082"></trkpt>
      <trkpt lat="50.32199" lon="-4.19089"></trkpt>
      <trkpt lat="50.32228" lon="-4.19087"></trkpt>
      <trkpt lat="50.32256" lon="-4.19071"></trkpt>
      <trkpt lat="50.32266" lon="-4.19071"></trkpt>
      <trkpt lat="50.32296" lon="-4.19088"></trkpt>
      <trkpt lat="50.32351" lon="-4.19137"></trkpt>
      <trkpt lat="50.32362" lon="-4.1915"></trkpt>
      <trkpt lat="50.32503" lon="-4.19321"></trkpt>
      <trkpt lat="50.32616" lon="-4.19526"></trkpt>
      <trkpt lat="50.32741" lon="-4.19794"></trkpt>
      <trkpt lat="50.32806" lon="-4.19941"></trkpt>
      <trkpt lat="50.32854" lon="-4.20022"></trkpt>
      <trkpt lat="50.32876" lon="-4.20086"></trkpt>
      <trkpt lat="50.32888" lon="-4.20091"></trkpt>
      <trkpt lat="50.32916" lon="-4.20116"></trkpt>
      <trkpt lat="50.32931" lon="-4.20126"></trkpt>
      <trkpt lat="50.32994" lon="-4.20158"></trkpt>
      <trkpt lat="50.33035" lon="-4.20191"></trkpt>
      <trkpt lat="50.33042" lon="-4.20196"></trkpt>
      <trkpt lat="50.33061" lon="-4.20218"></trkpt>
      <trkpt lat="50.33088" lon="-4.20235"></trkpt>
      <trkpt lat="50.33095" lon="-4.20213"></trkpt>
      <trkpt lat="50.331" lon="-4.20202"></trkpt>
      <trkpt lat="50.33115" lon="-4.20183"></trkpt>
      <trkpt lat="50.33116" lon="-4.20187"></trkpt>
      <trkpt lat="50.33126" lon="-4.20171"></trkpt>
      <trkpt lat="50.33127" lon="-4.20161"></trkpt>
      <trkpt lat="50.33136" lon="-4.20141"></trkpt>
      <trkpt lat="50.33139" lon="-4.20113"></trkpt>
      <trkpt lat="50.33151" lon="-4.20103"></trkpt>
      <trkpt lat="50.3317" lon="-4.20097"></trkpt>
      <trkpt lat="50.33185" lon="-4.20086"></trkpt>
      <trkpt lat="50.33197" lon="-4.20082"></trkpt>
      <trkpt lat="50.33222" lon="-4.20084"></trkpt>
      <trkpt lat="50.33236" lon="-4.20092"></trkpt>
      <trkpt lat="50.33253" lon="-4.20107"></trkpt>
      <trkpt lat="50.33268" lon="-4.20128"></trkpt>
      <trkpt lat="50.33275" lon="-4.20144"></trkpt>
      <trkpt lat="50.33285" lon="-4.20155"></trkpt>
      <trkpt lat="50.333" lon="-4.20162"></trkpt>
      <trkpt lat="50.33325" lon="-4.20147"></trkpt>
      <trkpt lat="50.33334" lon="-4.20138"></trkpt>
      <trkpt lat="50.33337" lon="-4.20148"></trkpt>
      <trkpt lat="50.33385" lon="-4.20165"></trkpt>
      <trkpt lat="50.33389" lon="-4.20139"></trkpt>
      <trkpt lat="50.33391" lon="-4.2011"></trkpt>
      <trkpt lat="50.33389" lon="-4.20107"></trkpt>
      <trkpt lat="50.33392" lon="-4.20101"></trkpt>
      <trkpt lat="50.33423" lon="-4.20079"></trkpt>
      <trkpt lat="50.33441" lon="-4.20077"></trkpt>
      <trkpt lat="50.33458" lon="-4.20071"></trkpt>
      <trkpt lat="50.33465" lon="-4.20076"></trkpt>
      <trkpt lat="50.33469" lon="-4.20069"></trkpt>
      <trkpt lat="50.33468" lon="-4.20054"></trkpt>
      <trkpt lat="50.33459" lon="-4.20011"></trkpt>
      <trkpt lat="50.3349" lon="-4.1995"></trkpt>
      <trkpt lat="50.33503" lon="-4.19916"></trkpt>
      <trkpt lat="50.3351" lon="-4.19933"></trkpt>
      <trkpt lat="50.33524" lon="-4.1989"></trkpt>
      <trkpt lat="50.33554" lon="-4.19839"></trkpt>
      <trkpt lat="50.33586" lon="-4.19782"></trkpt>
      <trkpt lat="50.33608" lon="-4.19731"></trkpt>
      <trkpt lat="50.33637" lon="-4.1968"></trkpt>
      <trkpt lat="50.33654" lon="-4.19643"></trkpt>
      <trkpt lat="50.33747" lon="-4.19472"></trkpt>
      <trkpt lat="50.33783" lon="-4.19414"></trkpt>
      <trkpt lat="50.33822" lon="-4.19362"></trkpt>
      <trkpt lat="50.33838" lon="-4.19351"></trkpt>
      <trkpt lat="50.33846" lon="-4.19349"></trkpt>
      <trkpt lat="50.3386" lon="-4.19334"></trkpt>
      <trkpt lat="50.33876" lon="-4.19297"></trkpt>
      <trkpt lat="50.33883" lon="-4.19285"></trkpt>
      <trkpt lat="50.33943" lon="-4.19211"></trkpt>
      <trkpt lat="50.34022" lon="-4.1913"></trkpt>
      <trkpt lat="50.34034" lon="-4.1908"></trkpt>
      <trkpt lat="50.34085" lon="-4.1896"></trkpt>
      <trkpt lat="50.34132" lon="-4.18854"></trkpt>
      <trkpt lat="50.34149" lon="-4.1879"></trkpt>
      <trkpt lat="50.34155" lon="-4.18741"></trkpt>
      <trkpt lat="50.34159" lon="-4.18697"></trkpt>
      <trkpt lat="50.34183" lon="-4.18524"></trkpt>
      <trkpt lat="50.34195" lon="-4.18384"></trkpt>
      <trkpt lat="50.34203" lon="-4.18334"></trkpt>
      <trkpt lat="50.34209" lon="-4.183"></trkpt>
      <trkpt lat="50.34219" lon="-4.18256"></trkpt>
      <trkpt lat="50.34232" lon="-4.18219"></trkpt>
      <trkpt lat="50.34256" lon="-4.18195"></trkpt>
      <trkpt lat="50.34268" lon="-4.18188"></trkpt>
      <trkpt lat="50.34262" lon="-4.18154"></trkpt>
      <trkpt lat="50.34266" lon="-4.1814"></trkpt>
      <trkpt lat="50.34264" lon="-4.18132"></trkpt>
      <trkpt lat="50.3427" lon="-4.1808"></trkpt>
      <trkpt lat="50.3428" lon="-4.18044"></trkpt>
      <trkpt lat="50.34303" lon="-4.17986"></trkpt>
      <trkpt lat="50.3434" lon="-4.17928"></trkpt>
      <trkpt lat="50.34354" lon="-4.1789"></trkpt>
      <trkpt lat="50.34365" lon="-4.17853"></trkpt>
      <trkpt lat="50.34425" lon="-4.17655"></trkpt>
      <trkpt lat="50.34432" lon="-4.17579"></trkpt>
      <trkpt lat="50.34433" lon="-4.17542"></trkpt>
      <trkpt lat="50.34441" lon="-4.17513"></trkpt>
      <trkpt lat="50.34452" lon="-4.17503"></trkpt>
      <trkpt lat="50.34455" lon="-4.17488"></trkpt>
      <trkpt lat="50.34454" lon="-4.17472"></trkpt>
      <trkpt lat="50.34448" lon="-4.17449"></trkpt>
      <trkpt lat="50.34439" lon="-4.17435"></trkpt>
      <trkpt lat="50.34436" lon="-4.1742"></trkpt>
      <trkpt lat="50.34437" lon="-4.17401"></trkpt>
      <trkpt lat="50.34446" lon="-4.17357"></trkpt>
      <trkpt lat="50.3445" lon="-4.17352"></trkpt>
      <trkpt lat="50.34468" lon="-4.17348"></trkpt>
      <trkpt lat="50.34496" lon="-4.17353"></trkpt>
      <trkpt lat="50.34537" lon="-4.17354"></trkpt>
      <trkpt lat="50.34563" lon="-4.17346"></trkpt>
      <trkpt lat="50.34573" lon="-4.1734"></trkpt>
      <trkpt lat="50.34585" lon="-4.1733"></trkpt>
      <trkpt lat="50.34589" lon="-4.17324"></trkpt>
      <trkpt lat="50.3459" lon="-4.17316"></trkpt>
      <trkpt lat="50.34585" lon="-4.17297"></trkpt>
      <trkpt lat="50.34565" lon="-4.17255"></trkpt>
      <trkpt lat="50.34524" lon="-4.17223"></trkpt>
      <trkpt lat="50.34486" lon="-4.17174"></trkpt>
      <trkpt lat="50.34481" lon="-4.17159"></trkpt>
      <trkpt lat="50.34479" lon="-4.17148"></trkpt>
      <trkpt lat="50.34483" lon="-4.17122"></trkpt>
      <trkpt lat="50.34504" lon="-4.17053"></trkpt>
      <trkpt lat="50.34503" lon="-4.17053"></trkpt>
      <trkpt lat="50.34483" lon="-4.17122"></trkpt>
      <trkpt lat="50.34479" lon="-4.17148"></trkpt>
      <trkpt lat="50.34481" lon="-4.17159"></trkpt>
      <trkpt lat="50.34485" lon="-4.17169"></trkpt>
      <trkpt lat="50.34486" lon="-4.17156"></trkpt>
      <trkpt lat="50.34497" lon="-4.17127"></trkpt>
      <trkpt lat="50.34538" lon="-4.17039"></trkpt>
      <trkpt lat="50.34594" lon="-4.16944"></trkpt>
      <trkpt lat="50.34603" lon="-4.16908"></trkpt>
      <trkpt lat="50.34625" lon="-4.16878"></trkpt>
      <trkpt lat="50.34634" lon="-4.1687"></trkpt>
      <trkpt lat="50.34654" lon="-4.16862"></trkpt>
      <trkpt lat="50.34698" lon="-4.16858"></trkpt>
      <trkpt lat="50.34711" lon="-4.1685"></trkpt>
      <trkpt lat="50.34714" lon="-4.16838"></trkpt>
      <trkpt lat="50.34702" lon="-4.16816"></trkpt>
      <trkpt lat="50.34657" lon="-4.16768"></trkpt>
      <trkpt lat="50.34655" lon="-4.16762"></trkpt>
      <trkpt lat="50.34656" lon="-4.16757"></trkpt>
      <trkpt lat="50.34659" lon="-4.16755"></trkpt>
      <trkpt lat="50.34713" lon="-4.16768"></trkpt>
      <trkpt lat="50.34763" lon="-4.16777"></trkpt>
      <trkpt lat="50.34784" lon="-4.1678"></trkpt>
      <trkpt lat="50.34872" lon="-4.16818"></trkpt>
      <trkpt lat="50.34877" lon="-4.16812"></trkpt>
      <trkpt lat="50.349" lon="-4.16798"></trkpt>
      <trkpt lat="50.34922" lon="-4.16794"></trkpt>
      <trkpt lat="50.34966" lon="-4.168"></trkpt>
      <trkpt lat="50.35002" lon="-4.16796"></trkpt>
      <trkpt lat="50.35039" lon="-4.1678"></trkpt>
      <trkpt lat="50.35058" lon="-4.16767"></trkpt>
      <trkpt lat="50.3508" lon="-4.16757"></trkpt>
      <trkpt lat="50.35094" lon="-4.16753"></trkpt>
      <trkpt lat="50.35109" lon="-4.16752"></trkpt>
      <trkpt lat="50.35123" lon="-4.16758"></trkpt>
      <trkpt lat="50.35135" lon="-4.1677"></trkpt>
      <trkpt lat="50.35145" lon="-4.16785"></trkpt>
      <trkpt lat="50.35182" lon="-4.16805"></trkpt>
      <trkpt lat="50.35301" lon="-4.16904"></trkpt>
      <trkpt lat="50.35307" lon="-4.16909"></trkpt>
      <trkpt lat="50.35329" lon="-4.16941"></trkpt>
      <trkpt lat="50.35339" lon="-4.16961"></trkpt>
      <trkpt lat="50.35342" lon="-4.16973"></trkpt>
      <trkpt lat="50.35338" lon="-4.16998"></trkpt>
      <trkpt lat="50.35337" lon="-4.17019"></trkpt>
      <trkpt lat="50.35343" lon="-4.17043"></trkpt>
      <trkpt lat="50.35375" lon="-4.171"></trkpt>
      <trkpt lat="50.35468" lon="-4.17199"></trkpt>
      <trkpt lat="50.35521" lon="-4.17288"></trkpt>
      <trkpt lat="50.35564" lon="-4.17327"></trkpt>
      <trkpt lat="50.35625" lon="-4.17353"></trkpt>
      <trkpt lat="50.35648" lon="-4.17352"></trkpt>
      <trkpt lat="50.35677" lon="-4.17337"></trkpt>
      <trkpt lat="50.35681" lon="-4.17332"></trkpt>
      <trkpt lat="50.35683" lon="-4.17317"></trkpt>
      <trkpt lat="50.35686" lon="-4.17311"></trkpt>
      <trkpt lat="50.35703" lon="-4.17288"></trkpt>
      <trkpt lat="50.35722" lon="-4.17254"></trkpt>
      <trkpt lat="50.35758" lon="-4.17219"></trkpt>
      <trkpt lat="50.35808" lon="-4.17174"></trkpt>
      <trkpt lat="50.35812" lon="-4.17213"></trkpt>
      <trkpt lat="50.35813" lon="-4.17228"></trkpt>
      <trkpt lat="50.35812" lon="-4.17231"></trkpt>
      <trkpt lat="50.35829" lon="-4.17246"></trkpt>
      <trkpt lat="50.35844" lon="-4.17269"></trkpt>
      <trkpt lat="50.35852" lon="-4.1729"></trkpt>
      <trkpt lat="50.35838" lon="-4.17336"></trkpt>
      <trkpt lat="50.35844" lon="-4.17351"></trkpt>
      <trkpt lat="50.35849" lon="-4.17405"></trkpt>
      <trkpt lat="50.3585" lon="-4.17405"></trkpt>
      <trkpt lat="50.35854" lon="-4.17415"></trkpt>
      <trkpt lat="50.35861" lon="-4.17411"></trkpt>
      <trkpt lat="50.35866" lon="-4.17422"></trkpt>
      <trkpt lat="50.3588" lon="-4.17433"></trkpt>
      <trkpt lat="50.35894" lon="-4.17426"></trkpt>
      <trkpt lat="50.35901" lon="-4.17414"></trkpt>
      <trkpt lat="50.35906" lon="-4.17411"></trkpt>
      <trkpt lat="50.3592" lon="-4.1742"></trkpt>
      <trkpt lat="50.35924" lon="-4.17443"></trkpt>
      <trkpt lat="50.35934" lon="-4.17444"></trkpt>
      <trkpt lat="50.3594" lon="-4.1745"></trkpt>
      <trkpt lat="50.35943" lon="-4.17464"></trkpt>
      <trkpt lat="50.35947" lon="-4.17511"></trkpt>
      <trkpt lat="50.35999" lon="-4.17488"></trkpt>
    </trkseg>
  </trk>
</gpx>
