<?xml version="1.0" encoding="UTF-8"?>
<gpx version="1.1" creator="swcp-walk (imported from OS Maps route 33855651)"
     xmlns="http://www.topografix.com/GPX/1/1">
  <metadata>
    <name>SWCP36-Plymouth-RiverYealm</name>
  </metadata>
  <trk>
    <name>SWCP36-Plymouth-RiverYealm</name>
    <trkseg>
      <trkpt lat="50.365112393355986" lon="-4.165235738755342"></trkpt>
      <trkpt lat="50.36509" lon="-4.16521"></trkpt>
      <trkpt lat="50.36533" lon="-4.1649"></trkpt>
      <trkpt lat="50.3655" lon="-4.16459"></trkpt>
      <trkpt lat="50.36558" lon="-4.16438"></trkpt>
      <trkpt lat="50.3656" lon="-4.16424"></trkpt>
      <trkpt lat="50.36558" lon="-4.16409"></trkpt>
      <trkpt lat="50.36561" lon="-4.16403"></trkpt>
      <trkpt lat="50.3656" lon="-4.16381"></trkpt>
      <trkpt lat="50.36563" lon="-4.16327"></trkpt>
      <trkpt lat="50.36572" lon="-4.16267"></trkpt>
      <trkpt lat="50.36494" lon="-4.16245"></trkpt>
      <trkpt lat="50.36462" lon="-4.16234"></trkpt>
      <trkpt lat="50.36417" lon="-4.16228"></trkpt>
      <trkpt lat="50.36328" lon="-4.16245"></trkpt>
      <trkpt lat="50.36323" lon="-4.16243"></trkpt>
      <trkpt lat="50.36321" lon="-4.16238"></trkpt>
      <trkpt lat="50.36321" lon="-4.1623"></trkpt>
      <trkpt lat="50.36309" lon="-4.16239"></trkpt>
      <trkpt lat="50.36302" lon="-4.16235"></trkpt>
      <trkpt lat="50.36297" lon="-4.16235"></trkpt>
      <trkpt lat="50.36289" lon="-4.16241"></trkpt>
      <trkpt lat="50.36286" lon="-4.16246"></trkpt>
      <trkpt lat="50.36284" lon="-4.16261"></trkpt>
      <trkpt lat="50.36259" lon="-4.16269"></trkpt>
      <trkpt lat="50.3625" lon="-4.16286"></trkpt>
      <trkpt lat="50.36155" lon="-4.16542"></trkpt>
      <trkpt lat="50.3622" lon="-4.16598"></trkpt>
      <trkpt lat="50.36188" lon="-4.16686"></trkpt>
      <trkpt lat="50.36184" lon="-4.16698"></trkpt>
      <trkpt lat="50.36129" lon="-4.16709"></trkpt>
      <trkpt lat="50.36054" lon="-4.16717"></trkpt>
      <trkpt lat="50.36047" lon="-4.16714"></trkpt>
      <trkpt lat="50.36042" lon="-4.16708"></trkpt>
      <trkpt lat="50.36033" lon="-4.16702"></trkpt>
      <trkpt lat="50.36027" lon="-4.16717"></trkpt>
      <trkpt lat="50.36026" lon="-4.16717"></trkpt>
      <trkpt lat="50.36031" lon="-4.16705"></trkpt>
      <trkpt lat="50.36026" lon="-4.16701"></trkpt>
      <trkpt lat="50.36015" lon="-4.16715"></trkpt>
      <trkpt lat="50.36005" lon="-4.16688"></trkpt>
      <trkpt lat="50.36002" lon="-4.16678"></trkpt>
      <trkpt lat="50.3599" lon="-4.16658"></trkpt>
      <trkpt lat="50.35988" lon="-4.16613"></trkpt>
      <trkpt lat="50.35973" lon="-4.16562"></trkpt>
      <trkpt lat="50.35992" lon="-4.16565"></trkpt>
      <trkpt lat="50.35996" lon="-4.16555"></trkpt>
      <trkpt lat="50.35992" lon="-4.16532"></trkpt>
      <trkpt lat="50.36007" lon="-4.16473"></trkpt>
      <trkpt lat="50.36028" lon="-4.16407"></trkpt>
      <trkpt lat="50.36022" lon="-4.16382"></trkpt>
      <trkpt lat="50.36023" lon="-4.16376"></trkpt>
      <trkpt lat="50.36041" lon="-4.16348"></trkpt>
      <trkpt lat="50.36047" lon="-4.16332"></trkpt>
      <trkpt lat="50.36063" lon="-4.16319"></trkpt>
      <trkpt lat="50.36084" lon="-4.16292"></trkpt>
      <trkpt lat="50.36111" lon="-4.16245"></trkpt>
      <trkpt lat="50.36121" lon="-4.16211"></trkpt>
      <trkpt lat="50.36137" lon="-4.1616"></trkpt>
      <trkpt lat="50.36142" lon="-4.16157"></trkpt>
      <trkpt lat="50.36146" lon="-4.16157"></trkpt>
      <trkpt lat="50.36172" lon="-4.16175"></trkpt>
      <trkpt lat="50.36202" lon="-4.16173"></trkpt>
      <trkpt lat="50.36211" lon="-4.16165"></trkpt>
      <trkpt lat="50.36217" lon="-4.16152"></trkpt>
      <trkpt lat="50.36222" lon="-4.16131"></trkpt>
      <trkpt lat="50.36249" lon="-4.16079"></trkpt>
      <trkpt lat="50.36255" lon="-4.1608"></trkpt>
      <trkpt lat="50.36292" lon="-4.16103"></trkpt>
      <trkpt lat="50.36306" lon="-4.1611"></trkpt>
      <trkpt lat="50.36323" lon="-4.16112"></trkpt>
      <trkpt lat="50.36335" lon="-4.16118"></trkpt>
      <trkpt lat="50.36375" lon="-4.16126"></trkpt>
      <trkpt lat="50.36465" lon="-4.1615"></trkpt>
      <trkpt lat="50.36477" lon="-4.1615"></trkpt>
      <trkpt lat="50.36691" lon="-4.16209"></trkpt>
      <trkpt lat="50.36714" lon="-4.16216"></trkpt>
      <trkpt lat="50.3672" lon="-4.16131"></trkpt>
      <trkpt lat="50.36729" lon="-4.16089"></trkpt>
      <trkpt lat="50.36716" lon="-4.16008"></trkpt>
      <trkpt lat="50.36707" lon="-4.15934"></trkpt>
      <trkpt lat="50.36707" lon="-4.15917"></trkpt>
      <trkpt lat="50.36716" lon="-4.15841"></trkpt>
      <trkpt lat="50.3673" lon="-4.15758"></trkpt>
      <trkpt lat="50.36756" lon="-4.1565"></trkpt>
      <trkpt lat="50.36781" lon="-4.15555"></trkpt>
      <trkpt lat="50.36808" lon="-4.15516"></trkpt>
      <trkpt lat="50.36813" lon="-4.15504"></trkpt>
      <trkpt lat="50.36816" lon="-4.15487"></trkpt>
      <trkpt lat="50.36819" lon="-4.15413"></trkpt>
      <trkpt lat="50.36816" lon="-4.15386"></trkpt>
      <trkpt lat="50.36805" lon="-4.1534"></trkpt>
      <trkpt lat="50.36801" lon="-4.15317"></trkpt>
      <trkpt lat="50.36806" lon="-4.1531"></trkpt>
      <trkpt lat="50.36808" lon="-4.15301"></trkpt>
      <trkpt lat="50.36805" lon="-4.15292"></trkpt>
      <trkpt lat="50.36797" lon="-4.15276"></trkpt>
      <trkpt lat="50.36793" lon="-4.15259"></trkpt>
      <trkpt lat="50.3678" lon="-4.15141"></trkpt>
      <trkpt lat="50.36777" lon="-4.15087"></trkpt>
      <trkpt lat="50.36775" lon="-4.15056"></trkpt>
      <trkpt lat="50.36769" lon="-4.1505"></trkpt>
      <trkpt lat="50.36761" lon="-4.15054"></trkpt>
      <trkpt lat="50.36759" lon="-4.15062"></trkpt>
      <trkpt lat="50.36756" lon="-4.15099"></trkpt>
      <trkpt lat="50.36752" lon="-4.15111"></trkpt>
      <trkpt lat="50.36729" lon="-4.15139"></trkpt>
      <trkpt lat="50.36681" lon="-4.15189"></trkpt>
      <trkpt lat="50.36676" lon="-4.15191"></trkpt>
      <trkpt lat="50.36657" lon="-4.15185"></trkpt>
      <trkpt lat="50.36626" lon="-4.15168"></trkpt>
      <trkpt lat="50.36614" lon="-4.15165"></trkpt>
      <trkpt lat="50.36591" lon="-4.15151"></trkpt>
      <trkpt lat="50.36516" lon="-4.15092"></trkpt>
      <trkpt lat="50.36487" lon="-4.15063"></trkpt>
      <trkpt lat="50.3646" lon="-4.15046"></trkpt>
      <trkpt lat="50.36452" lon="-4.15057"></trkpt>
      <trkpt lat="50.36419" lon="-4.15056"></trkpt>
      <trkpt lat="50.36406" lon="-4.15055"></trkpt>
      <trkpt lat="50.36386" lon="-4.15046"></trkpt>
      <trkpt lat="50.36307" lon="-4.15004"></trkpt>
      <trkpt lat="50.36295" lon="-4.14989"></trkpt>
      <trkpt lat="50.36286" lon="-4.14963"></trkpt>
      <trkpt lat="50.36268" lon="-4.14966"></trkpt>
      <trkpt lat="50.36261" lon="-4.14973"></trkpt>
      <trkpt lat="50.36256" lon="-4.14973"></trkpt>
      <trkpt lat="50.36249" lon="-4.14964"></trkpt>
      <trkpt lat="50.3624" lon="-4.14945"></trkpt>
      <trkpt lat="50.3624" lon="-4.14892"></trkpt>
      <trkpt lat="50.3625" lon="-4.14861"></trkpt>
      <trkpt lat="50.36267" lon="-4.14847"></trkpt>
      <trkpt lat="50.36274" lon="-4.14843"></trkpt>
      <trkpt lat="50.36279" lon="-4.14843"></trkpt>
      <trkpt lat="50.36283" lon="-4.14847"></trkpt>
      <trkpt lat="50.36371" lon="-4.14705"></trkpt>
      <trkpt lat="50.36367" lon="-4.14697"></trkpt>
      <trkpt lat="50.36424" lon="-4.14604"></trkpt>
      <trkpt lat="50.36433" lon="-4.14522"></trkpt>
      <trkpt lat="50.36432" lon="-4.1449"></trkpt>
      <trkpt lat="50.36433" lon="-4.14522"></trkpt>
      <trkpt lat="50.36424" lon="-4.14604"></trkpt>
      <trkpt lat="50.36367" lon="-4.14697"></trkpt>
      <trkpt lat="50.36371" lon="-4.14705"></trkpt>
      <trkpt lat="50.36418" lon="-4.14631"></trkpt>
      <trkpt lat="50.36428" lon="-4.14611"></trkpt>
      <trkpt lat="50.36438" lon="-4.14568"></trkpt>
      <trkpt lat="50.36442" lon="-4.14511"></trkpt>
      <trkpt lat="50.36438" lon="-4.14481"></trkpt>
      <trkpt lat="50.36434" lon="-4.14472"></trkpt>
      <trkpt lat="50.36426" lon="-4.14426"></trkpt>
      <trkpt lat="50.36417" lon="-4.14391"></trkpt>
      <trkpt lat="50.36405" lon="-4.14352"></trkpt>
      <trkpt lat="50.36367" lon="-4.14281"></trkpt>
      <trkpt lat="50.36361" lon="-4.14262"></trkpt>
      <trkpt lat="50.3636" lon="-4.14245"></trkpt>
      <trkpt lat="50.36363" lon="-4.14222"></trkpt>
      <trkpt lat="50.36366" lon="-4.14211"></trkpt>
      <trkpt lat="50.36379" lon="-4.14185"></trkpt>
      <trkpt lat="50.3639" lon="-4.14175"></trkpt>
      <trkpt lat="50.36399" lon="-4.14163"></trkpt>
      <trkpt lat="50.36422" lon="-4.14096"></trkpt>
      <trkpt lat="50.36428" lon="-4.14089"></trkpt>
      <trkpt lat="50.36425" lon="-4.14078"></trkpt>
      <trkpt lat="50.36414" lon="-4.14014"></trkpt>
      <trkpt lat="50.36407" lon="-4.13984"></trkpt>
      <trkpt lat="50.36366" lon="-4.13899"></trkpt>
      <trkpt lat="50.36362" lon="-4.13883"></trkpt>
      <trkpt lat="50.36355" lon="-4.13844"></trkpt>
      <trkpt lat="50.36353" lon="-4.13793"></trkpt>
      <trkpt lat="50.36351" lon="-4.13793"></trkpt>
      <trkpt lat="50.3635" lon="-4.13758"></trkpt>
      <trkpt lat="50.36348" lon="-4.13746"></trkpt>
      <trkpt lat="50.36334" lon="-4.13714"></trkpt>
      <trkpt lat="50.36328" lon="-4.13688"></trkpt>
      <trkpt lat="50.36326" lon="-4.13671"></trkpt>
      <trkpt lat="50.36328" lon="-4.13688"></trkpt>
      <trkpt lat="50.36334" lon="-4.13714"></trkpt>
      <trkpt lat="50.36348" lon="-4.13746"></trkpt>
      <trkpt lat="50.3635" lon="-4.13758"></trkpt>
      <trkpt lat="50.36351" lon="-4.13793"></trkpt>
      <trkpt lat="50.36347" lon="-4.13794"></trkpt>
      <trkpt lat="50.36345" lon="-4.13759"></trkpt>
      <trkpt lat="50.36342" lon="-4.13744"></trkpt>
      <trkpt lat="50.36331" lon="-4.13723"></trkpt>
      <trkpt lat="50.36323" lon="-4.13686"></trkpt>
      <trkpt lat="50.36323" lon="-4.13652"></trkpt>
      <trkpt lat="50.36327" lon="-4.1363"></trkpt>
      <trkpt lat="50.36323" lon="-4.13628"></trkpt>
      <trkpt lat="50.36332" lon="-4.13594"></trkpt>
      <trkpt lat="50.36334" lon="-4.13581"></trkpt>
      <trkpt lat="50.36326" lon="-4.13496"></trkpt>
      <trkpt lat="50.36325" lon="-4.13468"></trkpt>
      <trkpt lat="50.36328" lon="-4.13456"></trkpt>
      <trkpt lat="50.36334" lon="-4.13447"></trkpt>
      <trkpt lat="50.36333" lon="-4.13447"></trkpt>
      <trkpt lat="50.36344" lon="-4.13436"></trkpt>
      <trkpt lat="50.36352" lon="-4.13434"></trkpt>
      <trkpt lat="50.36408" lon="-4.13455"></trkpt>
      <trkpt lat="50.36423" lon="-4.13458"></trkpt>
      <trkpt lat="50.36423" lon="-4.13454"></trkpt>
      <trkpt lat="50.36453" lon="-4.1345"></trkpt>
      <trkpt lat="50.36473" lon="-4.13441"></trkpt>
      <trkpt lat="50.36489" lon="-4.13423"></trkpt>
      <trkpt lat="50.36504" lon="-4.13416"></trkpt>
      <trkpt lat="50.36505" lon="-4.13423"></trkpt>
      <trkpt lat="50.36508" lon="-4.13427"></trkpt>
      <trkpt lat="50.3656" lon="-4.13416"></trkpt>
      <trkpt lat="50.36579" lon="-4.13417"></trkpt>
      <trkpt lat="50.36619" lon="-4.13399"></trkpt>
      <trkpt lat="50.36628" lon="-4.13359"></trkpt>
      <trkpt lat="50.36641" lon="-4.13322"></trkpt>
      <trkpt lat="50.36643" lon="-4.13301"></trkpt>
      <trkpt lat="50.36643" lon="-4.13266"></trkpt>
      <trkpt lat="50.36648" lon="-4.13251"></trkpt>
      <trkpt lat="50.36651" lon="-4.13176"></trkpt>
      <trkpt lat="50.36653" lon="-4.13176"></trkpt>
      <trkpt lat="50.36651" lon="-4.13176"></trkpt>
      <trkpt lat="50.36656" lon="-4.1311"></trkpt>
      <trkpt lat="50.36659" lon="-4.13106"></trkpt>
      <trkpt lat="50.36654" lon="-4.13078"></trkpt>
      <trkpt lat="50.36655" lon="-4.1307"></trkpt>
      <trkpt lat="50.36647" lon="-4.12999"></trkpt>
      <trkpt lat="50.36642" lon="-4.12981"></trkpt>
      <trkpt lat="50.36623" lon="-4.1286"></trkpt>
      <trkpt lat="50.36597" lon="-4.12649"></trkpt>
      <trkpt lat="50.36596" lon="-4.12625"></trkpt>
      <trkpt lat="50.36598" lon="-4.12605"></trkpt>
      <trkpt lat="50.36585" lon="-4.12592"></trkpt>
      <trkpt lat="50.366" lon="-4.12529"></trkpt>
      <trkpt lat="50.36604" lon="-4.12489"></trkpt>
      <trkpt lat="50.36586" lon="-4.12469"></trkpt>
      <trkpt lat="50.36566" lon="-4.12437"></trkpt>
      <trkpt lat="50.36559" lon="-4.12442"></trkpt>
      <trkpt lat="50.36548" lon="-4.12435"></trkpt>
      <trkpt lat="50.36532" lon="-4.12418"></trkpt>
      <trkpt lat="50.36513" lon="-4.12392"></trkpt>
      <trkpt lat="50.3649" lon="-4.12371"></trkpt>
      <trkpt lat="50.3649" lon="-4.1237"></trkpt>
      <trkpt lat="50.3639" lon="-4.12293"></trkpt>
      <trkpt lat="50.36384" lon="-4.12285"></trkpt>
      <trkpt lat="50.36384" lon="-4.12267"></trkpt>
      <trkpt lat="50.3639" lon="-4.12247"></trkpt>
      <trkpt lat="50.36389" lon="-4.1222"></trkpt>
      <trkpt lat="50.36384" lon="-4.12206"></trkpt>
      <trkpt lat="50.36381" lon="-4.12192"></trkpt>
      <trkpt lat="50.36361" lon="-4.12176"></trkpt>
      <trkpt lat="50.36264" lon="-4.12184"></trkpt>
      <trkpt lat="50.36252" lon="-4.12178"></trkpt>
      <trkpt lat="50.36196" lon="-4.12109"></trkpt>
      <trkpt lat="50.36194" lon="-4.12099"></trkpt>
      <trkpt lat="50.36189" lon="-4.12013"></trkpt>
      <trkpt lat="50.36189" lon="-4.11984"></trkpt>
      <trkpt lat="50.36226" lon="-4.11616"></trkpt>
      <trkpt lat="50.36229" lon="-4.11602"></trkpt>
      <trkpt lat="50.36234" lon="-4.11593"></trkpt>
      <trkpt lat="50.3624" lon="-4.11587"></trkpt>
      <trkpt lat="50.36271" lon="-4.11589"></trkpt>
      <trkpt lat="50.36277" lon="-4.11588"></trkpt>
      <trkpt lat="50.36285" lon="-4.11583"></trkpt>
      <trkpt lat="50.36296" lon="-4.11568"></trkpt>
      <trkpt lat="50.36316" lon="-4.11526"></trkpt>
      <trkpt lat="50.3632" lon="-4.11523"></trkpt>
      <trkpt lat="50.36323" lon="-4.11521"></trkpt>
      <trkpt lat="50.36329" lon="-4.1152"></trkpt>
      <trkpt lat="50.36334" lon="-4.11522"></trkpt>
      <trkpt lat="50.3634" lon="-4.11532"></trkpt>
      <trkpt lat="50.36371" lon="-4.11606"></trkpt>
      <trkpt lat="50.365" lon="-4.11464"></trkpt>
      <trkpt lat="50.36553" lon="-4.11405"></trkpt>
      <trkpt lat="50.36552" lon="-4.11399"></trkpt>
      <trkpt lat="50.36557" lon="-4.11387"></trkpt>
      <trkpt lat="50.36559" lon="-4.11371"></trkpt>
      <trkpt lat="50.36554" lon="-4.11327"></trkpt>
      <trkpt lat="50.36565" lon="-4.11322"></trkpt>
      <trkpt lat="50.36562" lon="-4.11303"></trkpt>
      <trkpt lat="50.36564" lon="-4.11287"></trkpt>
      <trkpt lat="50.36572" lon="-4.11256"></trkpt>
      <trkpt lat="50.36581" lon="-4.11241"></trkpt>
      <trkpt lat="50.36599" lon="-4.11221"></trkpt>
      <trkpt lat="50.36638" lon="-4.11186"></trkpt>
      <trkpt lat="50.36664" lon="-4.11173"></trkpt>
      <trkpt lat="50.36678" lon="-4.11169"></trkpt>
      <trkpt lat="50.36721" lon="-4.11171"></trkpt>
      <trkpt lat="50.36721" lon="-4.11193"></trkpt>
      <trkpt lat="50.36726" lon="-4.11193"></trkpt>
      <trkpt lat="50.36727" lon="-4.11187"></trkpt>
      <trkpt lat="50.3673" lon="-4.11183"></trkpt>
      <trkpt lat="50.36779" lon="-4.11181"></trkpt>
      <trkpt lat="50.36791" lon="-4.11178"></trkpt>
      <trkpt lat="50.36797" lon="-4.1118"></trkpt>
      <trkpt lat="50.368" lon="-4.11184"></trkpt>
      <trkpt lat="50.36805" lon="-4.11182"></trkpt>
      <trkpt lat="50.36809" lon="-4.11178"></trkpt>
      <trkpt lat="50.36811" lon="-4.11166"></trkpt>
      <trkpt lat="50.36889" lon="-4.11102"></trkpt>
      <trkpt lat="50.36944" lon="-4.11069"></trkpt>
      <trkpt lat="50.36936" lon="-4.11046"></trkpt>
      <trkpt lat="50.36939" lon="-4.11036"></trkpt>
      <trkpt lat="50.36938" lon="-4.11023"></trkpt>
      <trkpt lat="50.36787" lon="-4.1071"></trkpt>
      <trkpt lat="50.36782" lon="-4.10708"></trkpt>
      <trkpt lat="50.36765" lon="-4.10681"></trkpt>
      <trkpt lat="50.36757" lon="-4.10655"></trkpt>
      <trkpt lat="50.3675" lon="-4.10623"></trkpt>
      <trkpt lat="50.36749" lon="-4.10607"></trkpt>
      <trkpt lat="50.3664" lon="-4.10266"></trkpt>
      <trkpt lat="50.3663" lon="-4.10221"></trkpt>
      <trkpt lat="50.3662" lon="-4.10162"></trkpt>
      <trkpt lat="50.36617" lon="-4.10157"></trkpt>
      <trkpt lat="50.36568" lon="-4.10129"></trkpt>
      <trkpt lat="50.36546" lon="-4.10127"></trkpt>
      <trkpt lat="50.36543" lon="-4.10146"></trkpt>
      <trkpt lat="50.3655" lon="-4.1019"></trkpt>
      <trkpt lat="50.36565" lon="-4.10239"></trkpt>
      <trkpt lat="50.36604" lon="-4.10345"></trkpt>
      <trkpt lat="50.36607" lon="-4.104"></trkpt>
      <trkpt lat="50.36609" lon="-4.10497"></trkpt>
      <trkpt lat="50.366" lon="-4.10502"></trkpt>
      <trkpt lat="50.36599" lon="-4.10502"></trkpt>
      <trkpt lat="50.36609" lon="-4.10497"></trkpt>
      <trkpt lat="50.36611" lon="-4.10679"></trkpt>
      <trkpt lat="50.36589" lon="-4.10687"></trkpt>
      <trkpt lat="50.3658" lon="-4.10696"></trkpt>
      <trkpt lat="50.36512" lon="-4.1072"></trkpt>
      <trkpt lat="50.36497" lon="-4.10711"></trkpt>
      <trkpt lat="50.36389" lon="-4.10749"></trkpt>
      <trkpt lat="50.36367" lon="-4.10757"></trkpt>
      <trkpt lat="50.3637" lon="-4.10783"></trkpt>
      <trkpt lat="50.36369" lon="-4.1079"></trkpt>
      <trkpt lat="50.36311" lon="-4.10885"></trkpt>
      <trkpt lat="50.36311" lon="-4.10897"></trkpt>
      <trkpt lat="50.36282" lon="-4.11"></trkpt>
      <trkpt lat="50.36281" lon="-4.11016"></trkpt>
      <trkpt lat="50.36252" lon="-4.11014"></trkpt>
      <trkpt lat="50.36138" lon="-4.11006"></trkpt>
      <trkpt lat="50.36133" lon="-4.11004"></trkpt>
      <trkpt lat="50.36123" lon="-4.10989"></trkpt>
      <trkpt lat="50.36122" lon="-4.1098"></trkpt>
      <trkpt lat="50.36116" lon="-4.10962"></trkpt>
      <trkpt lat="50.3611" lon="-4.10955"></trkpt>
      <trkpt lat="50.36099" lon="-4.10968"></trkpt>
      <trkpt lat="50.3609" lon="-4.10983"></trkpt>
      <trkpt lat="50.36088" lon="-4.10994"></trkpt>
      <trkpt lat="50.36055" lon="-4.10977"></trkpt>
      <trkpt lat="50.3603" lon="-4.10964"></trkpt>
      <trkpt lat="50.35972" lon="-4.10927"></trkpt>
      <trkpt lat="50.3595" lon="-4.10911"></trkpt>
      <trkpt lat="50.35947" lon="-4.10905"></trkpt>
      <trkpt lat="50.35952" lon="-4.10838"></trkpt>
      <trkpt lat="50.35952" lon="-4.10814"></trkpt>
      <trkpt lat="50.35945" lon="-4.10791"></trkpt>
      <trkpt lat="50.35894" lon="-4.10718"></trkpt>
      <trkpt lat="50.35875" lon="-4.10664"></trkpt>
      <trkpt lat="50.35857" lon="-4.10627"></trkpt>
      <trkpt lat="50.35857" lon="-4.10621"></trkpt>
      <trkpt lat="50.35837" lon="-4.10603"></trkpt>
      <trkpt lat="50.35758" lon="-4.10525"></trkpt>
      <trkpt lat="50.35749" lon="-4.10521"></trkpt>
      <trkpt lat="50.3572" lon="-4.10514"></trkpt>
      <trkpt lat="50.35708" lon="-4.10518"></trkpt>
      <trkpt lat="50.35692" lon="-4.10518"></trkpt>
      <trkpt lat="50.35646" lon="-4.1053"></trkpt>
      <trkpt lat="50.35608" lon="-4.10671"></trkpt>
      <trkpt lat="50.3558" lon="-4.108"></trkpt>
      <trkpt lat="50.35574" lon="-4.10828"></trkpt>
      <trkpt lat="50.35569" lon="-4.10832"></trkpt>
      <trkpt lat="50.35548" lon="-4.10831"></trkpt>
      <trkpt lat="50.35544" lon="-4.10828"></trkpt>
      <trkpt lat="50.35532" lon="-4.10799"></trkpt>
      <trkpt lat="50.35528" lon="-4.10793"></trkpt>
      <trkpt lat="50.35509" lon="-4.1078"></trkpt>
      <trkpt lat="50.35505" lon="-4.10782"></trkpt>
      <trkpt lat="50.35503" lon="-4.10789"></trkpt>
      <trkpt lat="50.35498" lon="-4.1087"></trkpt>
      <trkpt lat="50.35484" lon="-4.10946"></trkpt>
      <trkpt lat="50.35479" lon="-4.10986"></trkpt>
      <trkpt lat="50.35465" lon="-4.11047"></trkpt>
      <trkpt lat="50.35465" lon="-4.11063"></trkpt>
      <trkpt lat="50.35459" lon="-4.11131"></trkpt>
      <trkpt lat="50.35453" lon="-4.1116"></trkpt>
      <trkpt lat="50.35436" lon="-4.11184"></trkpt>
      <trkpt lat="50.35428" lon="-4.11198"></trkpt>
      <trkpt lat="50.35422" lon="-4.11197"></trkpt>
      <trkpt lat="50.35418" lon="-4.11285"></trkpt>
      <trkpt lat="50.35414" lon="-4.1137"></trkpt>
      <trkpt lat="50.35483" lon="-4.11402"></trkpt>
      <trkpt lat="50.35493" lon="-4.114"></trkpt>
      <trkpt lat="50.35511" lon="-4.11387"></trkpt>
      <trkpt lat="50.35541" lon="-4.11353"></trkpt>
      <trkpt lat="50.35567" lon="-4.11334"></trkpt>
      <trkpt lat="50.35586" lon="-4.11324"></trkpt>
      <trkpt lat="50.35634" lon="-4.11308"></trkpt>
      <trkpt lat="50.35655" lon="-4.11311"></trkpt>
      <trkpt lat="50.35712" lon="-4.11328"></trkpt>
      <trkpt lat="50.358" lon="-4.11327"></trkpt>
      <trkpt lat="50.35814" lon="-4.11327"></trkpt>
      <trkpt lat="50.35839" lon="-4.11334"></trkpt>
      <trkpt lat="50.35838" lon="-4.11384"></trkpt>
      <trkpt lat="50.35839" lon="-4.11414"></trkpt>
      <trkpt lat="50.35849" lon="-4.1147"></trkpt>
      <trkpt lat="50.35849" lon="-4.11481"></trkpt>
      <trkpt lat="50.35845" lon="-4.11497"></trkpt>
      <trkpt lat="50.35845" lon="-4.11508"></trkpt>
      <trkpt lat="50.35853" lon="-4.11523"></trkpt>
      <trkpt lat="50.35854" lon="-4.1153"></trkpt>
      <trkpt lat="50.35857" lon="-4.1161"></trkpt>
      <trkpt lat="50.35858" lon="-4.11628"></trkpt>
      <trkpt lat="50.35886" lon="-4.11672"></trkpt>
      <trkpt lat="50.35859" lon="-4.11723"></trkpt>
      <trkpt lat="50.35803" lon="-4.1182"></trkpt>
      <trkpt lat="50.35798" lon="-4.11813"></trkpt>
      <trkpt lat="50.35792" lon="-4.11811"></trkpt>
      <trkpt lat="50.35777" lon="-4.11819"></trkpt>
      <trkpt lat="50.35762" lon="-4.11827"></trkpt>
      <trkpt lat="50.35758" lon="-4.11833"></trkpt>
      <trkpt lat="50.35752" lon="-4.11897"></trkpt>
      <trkpt lat="50.35747" lon="-4.11926"></trkpt>
      <trkpt lat="50.35741" lon="-4.11946"></trkpt>
      <trkpt lat="50.35733" lon="-4.11956"></trkpt>
      <trkpt lat="50.35722" lon="-4.11962"></trkpt>
      <trkpt lat="50.35725" lon="-4.12002"></trkpt>
      <trkpt lat="50.3573" lon="-4.12027"></trkpt>
      <trkpt lat="50.35737" lon="-4.12043"></trkpt>
      <trkpt lat="50.35724" lon="-4.12081"></trkpt>
      <trkpt lat="50.35721" lon="-4.12073"></trkpt>
      <trkpt lat="50.35727" lon="-4.12095"></trkpt>
      <trkpt lat="50.35728" lon="-4.1211"></trkpt>
      <trkpt lat="50.35727" lon="-4.12127"></trkpt>
      <trkpt lat="50.35723" lon="-4.12144"></trkpt>
      <trkpt lat="50.35703" lon="-4.12193"></trkpt>
      <trkpt lat="50.35702" lon="-4.12218"></trkpt>
      <trkpt lat="50.35705" lon="-4.12247"></trkpt>
      <trkpt lat="50.35705" lon="-4.1227"></trkpt>
      <trkpt lat="50.35694" lon="-4.1234"></trkpt>
      <trkpt lat="50.35695" lon="-4.1237"></trkpt>
      <trkpt lat="50.35703" lon="-4.1241"></trkpt>
      <trkpt lat="50.35708" lon="-4.12423"></trkpt>
      <trkpt lat="50.35741" lon="-4.12483"></trkpt>
      <trkpt lat="50.35748" lon="-4.12508"></trkpt>
      <trkpt lat="50.35751" lon="-4.12508"></trkpt>
      <trkpt lat="50.35756" lon="-4.12512"></trkpt>
      <trkpt lat="50.35758" lon="-4.12521"></trkpt>
      <trkpt lat="50.3577" lon="-4.12519"></trkpt>
      <trkpt lat="50.3578" lon="-4.12513"></trkpt>
      <trkpt lat="50.35789" lon="-4.12493"></trkpt>
      <trkpt lat="50.35797" lon="-4.12503"></trkpt>
      <trkpt lat="50.35824" lon="-4.12571"></trkpt>
      <trkpt lat="50.35829" lon="-4.12576"></trkpt>
      <trkpt lat="50.35832" lon="-4.1257"></trkpt>
      <trkpt lat="50.35901" lon="-4.12634"></trkpt>
      <trkpt lat="50.35951" lon="-4.12622"></trkpt>
      <trkpt lat="50.35965" lon="-4.12667"></trkpt>
      <trkpt lat="50.35997" lon="-4.12701"></trkpt>
      <trkpt lat="50.36023" lon="-4.12664"></trkpt>
      <trkpt lat="50.35995" lon="-4.12705"></trkpt>
      <trkpt lat="50.36023" lon="-4.12664"></trkpt>
      <trkpt lat="50.35997" lon="-4.12701"></trkpt>
      <trkpt lat="50.36011" lon="-4.12717"></trkpt>
      <trkpt lat="50.36046" lon="-4.12781"></trkpt>
      <trkpt lat="50.36062" lon="-4.12801"></trkpt>
      <trkpt lat="50.36065" lon="-4.12811"></trkpt>
      <trkpt lat="50.36067" lon="-4.12849"></trkpt>
      <trkpt lat="50.36065" lon="-4.12921"></trkpt>
      <trkpt lat="50.36069" lon="-4.12929"></trkpt>
      <trkpt lat="50.36074" lon="-4.12932"></trkpt>
      <trkpt lat="50.36066" lon="-4.1297"></trkpt>
      <trkpt lat="50.36067" lon="-4.12979"></trkpt>
      <trkpt lat="50.3607" lon="-4.12982"></trkpt>
      <trkpt lat="50.3607" lon="-4.12995"></trkpt>
      <trkpt lat="50.36066" lon="-4.13"></trkpt>
      <trkpt lat="50.36064" lon="-4.13023"></trkpt>
      <trkpt lat="50.36058" lon="-4.1304"></trkpt>
      <trkpt lat="50.36048" lon="-4.13062"></trkpt>
      <trkpt lat="50.36032" lon="-4.13091"></trkpt>
      <trkpt lat="50.36015" lon="-4.13135"></trkpt>
      <trkpt lat="50.36" lon="-4.13149"></trkpt>
      <trkpt lat="50.35991" lon="-4.13166"></trkpt>
      <trkpt lat="50.35986" lon="-4.1317"></trkpt>
      <trkpt lat="50.35965" lon="-4.13171"></trkpt>
      <trkpt lat="50.35958" lon="-4.13162"></trkpt>
      <trkpt lat="50.35958" lon="-4.13164"></trkpt>
      <trkpt lat="50.35958" lon="-4.13165"></trkpt>
      <trkpt lat="50.35955" lon="-4.13144"></trkpt>
      <trkpt lat="50.35942" lon="-4.13142"></trkpt>
      <trkpt lat="50.35943" lon="-4.13132"></trkpt>
      <trkpt lat="50.35925" lon="-4.13112"></trkpt>
      <trkpt lat="50.35928" lon="-4.13104"></trkpt>
      <trkpt lat="50.35923" lon="-4.13098"></trkpt>
      <trkpt lat="50.35922" lon="-4.131"></trkpt>
      <trkpt lat="50.35918" lon="-4.13093"></trkpt>
      <trkpt lat="50.35917" lon="-4.13085"></trkpt>
      <trkpt lat="50.3592" lon="-4.13084"></trkpt>
      <trkpt lat="50.3592" lon="-4.13079"></trkpt>
      <trkpt lat="50.35923" lon="-4.13077"></trkpt>
      <trkpt lat="50.35927" lon="-4.13045"></trkpt>
      <trkpt lat="50.35933" lon="-4.13031"></trkpt>
      <trkpt lat="50.35925" lon="-4.1302"></trkpt>
      <trkpt lat="50.35921" lon="-4.13011"></trkpt>
      <trkpt lat="50.35916" lon="-4.12987"></trkpt>
      <trkpt lat="50.35915" lon="-4.12975"></trkpt>
      <trkpt lat="50.35916" lon="-4.12931"></trkpt>
      <trkpt lat="50.35914" lon="-4.12901"></trkpt>
      <trkpt lat="50.35913" lon="-4.12899"></trkpt>
      <trkpt lat="50.35907" lon="-4.12898"></trkpt>
      <trkpt lat="50.35902" lon="-4.12891"></trkpt>
      <trkpt lat="50.359" lon="-4.12883"></trkpt>
      <trkpt lat="50.35896" lon="-4.12885"></trkpt>
      <trkpt lat="50.35888" lon="-4.12881"></trkpt>
      <trkpt lat="50.35885" lon="-4.12877"></trkpt>
      <trkpt lat="50.35878" lon="-4.1285"></trkpt>
      <trkpt lat="50.35869" lon="-4.12826"></trkpt>
      <trkpt lat="50.35852" lon="-4.12803"></trkpt>
      <trkpt lat="50.35843" lon="-4.12788"></trkpt>
      <trkpt lat="50.3584" lon="-4.12776"></trkpt>
      <trkpt lat="50.35842" lon="-4.12741"></trkpt>
      <trkpt lat="50.35837" lon="-4.12715"></trkpt>
      <trkpt lat="50.35828" lon="-4.12688"></trkpt>
      <trkpt lat="50.35792" lon="-4.12651"></trkpt>
      <trkpt lat="50.35781" lon="-4.12639"></trkpt>
      <trkpt lat="50.35773" lon="-4.12623"></trkpt>
      <trkpt lat="50.35769" lon="-4.12624"></trkpt>
      <trkpt lat="50.35744" lon="-4.12594"></trkpt>
      <trkpt lat="50.35727" lon="-4.12558"></trkpt>
      <trkpt lat="50.35724" lon="-4.12557"></trkpt>
      <trkpt lat="50.35712" lon="-4.12563"></trkpt>
      <trkpt lat="50.35708" lon="-4.12563"></trkpt>
      <trkpt lat="50.35683" lon="-4.12551"></trkpt>
      <trkpt lat="50.35672" lon="-4.12548"></trkpt>
      <trkpt lat="50.35652" lon="-4.12533"></trkpt>
      <trkpt lat="50.35641" lon="-4.12516"></trkpt>
      <trkpt lat="50.35627" lon="-4.12506"></trkpt>
      <trkpt lat="50.35621" lon="-4.12498"></trkpt>
      <trkpt lat="50.3562" lon="-4.12467"></trkpt>
      <trkpt lat="50.35613" lon="-4.12452"></trkpt>
      <trkpt lat="50.35586" lon="-4.12417"></trkpt>
      <trkpt lat="50.35576" lon="-4.12409"></trkpt>
      <trkpt lat="50.35565" lon="-4.12406"></trkpt>
      <trkpt lat="50.35547" lon="-4.12393"></trkpt>
      <trkpt lat="50.35537" lon="-4.12397"></trkpt>
      <trkpt lat="50.35519" lon="-4.12412"></trkpt>
      <trkpt lat="50.355" lon="-4.12428"></trkpt>
      <trkpt lat="50.35489" lon="-4.12406"></trkpt>
      <trkpt lat="50.3548" lon="-4.12404"></trkpt>
      <trkpt lat="50.35415" lon="-4.12399"></trkpt>
      <trkpt lat="50.35407" lon="-4.12396"></trkpt>
      <trkpt lat="50.35381" lon="-4.12362"></trkpt>
      <trkpt lat="50.3535" lon="-4.12329"></trkpt>
      <trkpt lat="50.35271" lon="-4.12251"></trkpt>
      <trkpt lat="50.35255" lon="-4.12256"></trkpt>
      <trkpt lat="50.35149" lon="-4.12179"></trkpt>
      <trkpt lat="50.35125" lon="-4.12144"></trkpt>
      <trkpt lat="50.35111" lon="-4.12112"></trkpt>
      <trkpt lat="50.35089" lon="-4.12095"></trkpt>
      <trkpt lat="50.35072" lon="-4.1209"></trkpt>
      <trkpt lat="50.35052" lon="-4.12088"></trkpt>
      <trkpt lat="50.35039" lon="-4.12079"></trkpt>
      <trkpt lat="50.3499" lon="-4.1206"></trkpt>
      <trkpt lat="50.34958" lon="-4.12061"></trkpt>
      <trkpt lat="50.34919" lon="-4.12038"></trkpt>
      <trkpt lat="50.34904" lon="-4.12039"></trkpt>
      <trkpt lat="50.34899" lon="-4.12043"></trkpt>
      <trkpt lat="50.34892" lon="-4.12055"></trkpt>
      <trkpt lat="50.3488" lon="-4.12064"></trkpt>
      <trkpt lat="50.34862" lon="-4.12064"></trkpt>
      <trkpt lat="50.34835" lon="-4.12062"></trkpt>
      <trkpt lat="50.34825" lon="-4.12065"></trkpt>
      <trkpt lat="50.34779" lon="-4.12093"></trkpt>
      <trkpt lat="50.34736" lon="-4.12137"></trkpt>
      <trkpt lat="50.34708" lon="-4.1214"></trkpt>
      <trkpt lat="50.34689" lon="-4.12133"></trkpt>
      <trkpt lat="50.34622" lon="-4.12073"></trkpt>
      <trkpt lat="50.34599" lon="-4.12066"></trkpt>
      <trkpt lat="50.34567" lon="-4.12073"></trkpt>
      <trkpt lat="50.34559" lon="-4.1208"></trkpt>
      <trkpt lat="50.34557" lon="-4.12155"></trkpt>
      <trkpt lat="50.34554" lon="-4.12174"></trkpt>
      <trkpt lat="50.34545" lon="-4.122"></trkpt>
      <trkpt lat="50.34535" lon="-4.12213"></trkpt>
      <trkpt lat="50.345" lon="-4.12261"></trkpt>
      <trkpt lat="50.34463" lon="-4.12296"></trkpt>
      <trkpt lat="50.34422" lon="-4.12357"></trkpt>
      <trkpt lat="50.34394" lon="-4.12409"></trkpt>
      <trkpt lat="50.34357" lon="-4.12449"></trkpt>
      <trkpt lat="50.34287" lon="-4.12563"></trkpt>
      <trkpt lat="50.34254" lon="-4.12602"></trkpt>
      <trkpt lat="50.34221" lon="-4.12614"></trkpt>
      <trkpt lat="50.34148" lon="-4.12659"></trkpt>
      <trkpt lat="50.34133" lon="-4.1266"></trkpt>
      <trkpt lat="50.34091" lon="-4.12632"></trkpt>
      <trkpt lat="50.34082" lon="-4.12631"></trkpt>
      <trkpt lat="50.34051" lon="-4.1262"></trkpt>
      <trkpt lat="50.34009" lon="-4.12599"></trkpt>
      <trkpt lat="50.33987" lon="-4.12578"></trkpt>
      <trkpt lat="50.33892" lon="-4.12557"></trkpt>
      <trkpt lat="50.33885" lon="-4.1256"></trkpt>
      <trkpt lat="50.33861" lon="-4.12578"></trkpt>
      <trkpt lat="50.3385" lon="-4.12584"></trkpt>
      <trkpt lat="50.33829" lon="-4.12584"></trkpt>
      <trkpt lat="50.33751" lon="-4.12566"></trkpt>
      <trkpt lat="50.33744" lon="-4.12567"></trkpt>
      <trkpt lat="50.33725" lon="-4.12583"></trkpt>
      <trkpt lat="50.3372" lon="-4.12545"></trkpt>
      <trkpt lat="50.33719" lon="-4.12518"></trkpt>
      <trkpt lat="50.33719" lon="-4.12508"></trkpt>
      <trkpt lat="50.33709" lon="-4.12468"></trkpt>
      <trkpt lat="50.33708" lon="-4.12459"></trkpt>
      <trkpt lat="50.33725" lon="-4.12385"></trkpt>
      <trkpt lat="50.33723" lon="-4.12379"></trkpt>
      <trkpt lat="50.337" lon="-4.1236"></trkpt>
      <trkpt lat="50.33698" lon="-4.12306"></trkpt>
      <trkpt lat="50.33701" lon="-4.12279"></trkpt>
      <trkpt lat="50.337" lon="-4.12259"></trkpt>
      <trkpt lat="50.33695" lon="-4.12219"></trkpt>
      <trkpt lat="50.33691" lon="-4.12154"></trkpt>
      <trkpt lat="50.3369" lon="-4.12087"></trkpt>
      <trkpt lat="50.33684" lon="-4.12034"></trkpt>
      <trkpt lat="50.33679" lon="-4.12007"></trkpt>
      <trkpt lat="50.33669" lon="-4.11976"></trkpt>
      <trkpt lat="50.33664" lon="-4.11972"></trkpt>
      <trkpt lat="50.3366" lon="-4.1196"></trkpt>
      <trkpt lat="50.33653" lon="-4.1195"></trkpt>
      <trkpt lat="50.33645" lon="-4.11918"></trkpt>
      <trkpt lat="50.33627" lon="-4.11909"></trkpt>
      <trkpt lat="50.33622" lon="-4.11916"></trkpt>
      <trkpt lat="50.33607" lon="-4.11914"></trkpt>
      <trkpt lat="50.33598" lon="-4.11906"></trkpt>
      <trkpt lat="50.33567" lon="-4.11887"></trkpt>
      <trkpt lat="50.33552" lon="-4.11891"></trkpt>
      <trkpt lat="50.33526" lon="-4.11905"></trkpt>
      <trkpt lat="50.33486" lon="-4.11961"></trkpt>
      <trkpt lat="50.33483" lon="-4.11972"></trkpt>
      <trkpt lat="50.33474" lon="-4.11988"></trkpt>
      <trkpt lat="50.33467" lon="-4.11997"></trkpt>
      <trkpt lat="50.33462" lon="-4.1201"></trkpt>
      <trkpt lat="50.33445" lon="-4.12026"></trkpt>
      <trkpt lat="50.33441" lon="-4.1202"></trkpt>
      <trkpt lat="50.33432" lon="-4.12022"></trkpt>
      <trkpt lat="50.33424" lon="-4.12017"></trkpt>
      <trkpt lat="50.33339" lon="-4.11925"></trkpt>
      <trkpt lat="50.33342" lon="-4.11917"></trkpt>
      <trkpt lat="50.33342" lon="-4.11912"></trkpt>
      <trkpt lat="50.33333" lon="-4.11895"></trkpt>
      <trkpt lat="50.33324" lon="-4.11887"></trkpt>
      <trkpt lat="50.33307" lon="-4.11878"></trkpt>
      <trkpt lat="50.33299" lon="-4.11868"></trkpt>
      <trkpt lat="50.3325" lon="-4.11821"></trkpt>
      <trkpt lat="50.3324" lon="-4.11816"></trkpt>
      <trkpt lat="50.33206" lon="-4.11818"></trkpt>
      <trkpt lat="50.33138" lon="-4.11858"></trkpt>
      <trkpt lat="50.33113" lon="-4.11854"></trkpt>
      <trkpt lat="50.33065" lon="-4.11841"></trkpt>
      <trkpt lat="50.33031" lon="-4.11835"></trkpt>
      <trkpt lat="50.32984" lon="-4.11833"></trkpt>
      <trkpt lat="50.3295" lon="-4.1185"></trkpt>
      <trkpt lat="50.32902" lon="-4.11865"></trkpt>
      <trkpt lat="50.32862" lon="-4.11881"></trkpt>
      <trkpt lat="50.32855" lon="-4.11912"></trkpt>
      <trkpt lat="50.32849" lon="-4.11984"></trkpt>
      <trkpt lat="50.32849" lon="-4.11985"></trkpt>
      <trkpt lat="50.32846" lon="-4.12009"></trkpt>
      <trkpt lat="50.32831" lon="-4.12051"></trkpt>
      <trkpt lat="50.32826" lon="-4.12079"></trkpt>
      <trkpt lat="50.32821" lon="-4.12128"></trkpt>
      <trkpt lat="50.32817" lon="-4.1214"></trkpt>
      <trkpt lat="50.32808" lon="-4.12149"></trkpt>
      <trkpt lat="50.32799" lon="-4.12146"></trkpt>
      <trkpt lat="50.32738" lon="-4.12111"></trkpt>
      <trkpt lat="50.32718" lon="-4.12106"></trkpt>
      <trkpt lat="50.32699" lon="-4.12093"></trkpt>
      <trkpt lat="50.32687" lon="-4.12092"></trkpt>
      <trkpt lat="50.32656" lon="-4.12077"></trkpt>
      <trkpt lat="50.32643" lon="-4.12048"></trkpt>
      <trkpt lat="50.32639" lon="-4.12047"></trkpt>
      <trkpt lat="50.32631" lon="-4.12053"></trkpt>
      <trkpt lat="50.32616" lon="-4.12086"></trkpt>
      <trkpt lat="50.32602" lon="-4.1211"></trkpt>
      <trkpt lat="50.32601" lon="-4.12123"></trkpt>
      <trkpt lat="50.32583" lon="-4.12153"></trkpt>
      <trkpt lat="50.32569" lon="-4.12176"></trkpt>
      <trkpt lat="50.32563" lon="-4.12179"></trkpt>
      <trkpt lat="50.32552" lon="-4.12178"></trkpt>
      <trkpt lat="50.32542" lon="-4.12172"></trkpt>
      <trkpt lat="50.32518" lon="-4.12134"></trkpt>
      <trkpt lat="50.32515" lon="-4.12123"></trkpt>
      <trkpt lat="50.32513" lon="-4.12099"></trkpt>
      <trkpt lat="50.32509" lon="-4.12084"></trkpt>
      <trkpt lat="50.32506" lon="-4.12077"></trkpt>
      <trkpt lat="50.325" lon="-4.12072"></trkpt>
      <trkpt lat="50.32491" lon="-4.12072"></trkpt>
      <trkpt lat="50.32465" lon="-4.12087"></trkpt>
      <trkpt lat="50.32454" lon="-4.12087"></trkpt>
      <trkpt lat="50.32408" lon="-4.12052"></trkpt>
      <trkpt lat="50.32402" lon="-4.12041"></trkpt>
      <trkpt lat="50.32402" lon="-4.12032"></trkpt>
      <trkpt lat="50.32395" lon="-4.12004"></trkpt>
      <trkpt lat="50.32398" lon="-4.11975"></trkpt>
      <trkpt lat="50.32394" lon="-4.11949"></trkpt>
      <trkpt lat="50.32369" lon="-4.11901"></trkpt>
      <trkpt lat="50.32361" lon="-4.11862"></trkpt>
      <trkpt lat="50.32355" lon="-4.11856"></trkpt>
      <trkpt lat="50.32331" lon="-4.11857"></trkpt>
      <trkpt lat="50.32316" lon="-4.11861"></trkpt>
      <trkpt lat="50.32304" lon="-4.11871"></trkpt>
      <trkpt lat="50.32295" lon="-4.11891"></trkpt>
      <trkpt lat="50.32276" lon="-4.11906"></trkpt>
      <trkpt lat="50.32261" lon="-4.11928"></trkpt>
      <trkpt lat="50.32258" lon="-4.11938"></trkpt>
      <trkpt lat="50.32248" lon="-4.11945"></trkpt>
      <trkpt lat="50.32215" lon="-4.11988"></trkpt>
      <trkpt lat="50.322" lon="-4.12011"></trkpt>
      <trkpt lat="50.32185" lon="-4.12016"></trkpt>
      <trkpt lat="50.3218" lon="-4.12013"></trkpt>
      <trkpt lat="50.32171" lon="-4.12002"></trkpt>
      <trkpt lat="50.32166" lon="-4.12002"></trkpt>
      <trkpt lat="50.32156" lon="-4.11998"></trkpt>
      <trkpt lat="50.32151" lon="-4.11992"></trkpt>
      <trkpt lat="50.3215" lon="-4.11986"></trkpt>
      <trkpt lat="50.32152" lon="-4.11971"></trkpt>
      <trkpt lat="50.32147" lon="-4.11957"></trkpt>
      <trkpt lat="50.32148" lon="-4.11947"></trkpt>
      <trkpt lat="50.32157" lon="-4.11913"></trkpt>
      <trkpt lat="50.32157" lon="-4.11906"></trkpt>
      <trkpt lat="50.32149" lon="-4.11896"></trkpt>
      <trkpt lat="50.32146" lon="-4.11894"></trkpt>
      <trkpt lat="50.32117" lon="-4.11894"></trkpt>
      <trkpt lat="50.32101" lon="-4.1189"></trkpt>
      <trkpt lat="50.32038" lon="-4.11897"></trkpt>
      <trkpt lat="50.32028" lon="-4.11893"></trkpt>
      <trkpt lat="50.32018" lon="-4.11883"></trkpt>
      <trkpt lat="50.32004" lon="-4.11861"></trkpt>
      <trkpt lat="50.31997" lon="-4.11843"></trkpt>
      <trkpt lat="50.31997" lon="-4.11809"></trkpt>
      <trkpt lat="50.31994" lon="-4.11775"></trkpt>
      <trkpt lat="50.31989" lon="-4.11751"></trkpt>
      <trkpt lat="50.31989" lon="-4.11717"></trkpt>
      <trkpt lat="50.31993" lon="-4.11686"></trkpt>
      <trkpt lat="50.31986" lon="-4.11624"></trkpt>
      <trkpt lat="50.3198" lon="-4.11519"></trkpt>
      <trkpt lat="50.3197" lon="-4.11455"></trkpt>
      <trkpt lat="50.31973" lon="-4.11401"></trkpt>
      <trkpt lat="50.31971" lon="-4.11395"></trkpt>
      <trkpt lat="50.31972" lon="-4.11379"></trkpt>
      <trkpt lat="50.31974" lon="-4.11371"></trkpt>
      <trkpt lat="50.31979" lon="-4.11368"></trkpt>
      <trkpt lat="50.31979" lon="-4.11322"></trkpt>
      <trkpt lat="50.31976" lon="-4.11257"></trkpt>
      <trkpt lat="50.31982" lon="-4.11241"></trkpt>
      <trkpt lat="50.3199" lon="-4.11225"></trkpt>
      <trkpt lat="50.32002" lon="-4.11208"></trkpt>
      <trkpt lat="50.32011" lon="-4.11205"></trkpt>
      <trkpt lat="50.32009" lon="-4.11183"></trkpt>
      <trkpt lat="50.32006" lon="-4.11171"></trkpt>
      <trkpt lat="50.31997" lon="-4.11154"></trkpt>
      <trkpt lat="50.31988" lon="-4.11156"></trkpt>
      <trkpt lat="50.31966" lon="-4.11173"></trkpt>
      <trkpt lat="50.3195" lon="-4.11183"></trkpt>
      <trkpt lat="50.31938" lon="-4.11184"></trkpt>
      <trkpt lat="50.31925" lon="-4.11181"></trkpt>
      <trkpt lat="50.3192" lon="-4.11187"></trkpt>
      <trkpt lat="50.31902" lon="-4.11195"></trkpt>
      <trkpt lat="50.3189" lon="-4.112"></trkpt>
      <trkpt lat="50.31883" lon="-4.112"></trkpt>
      <trkpt lat="50.31866" lon="-4.11211"></trkpt>
      <trkpt lat="50.31832" lon="-4.11224"></trkpt>
      <trkpt lat="50.31798" lon="-4.11248"></trkpt>
      <trkpt lat="50.3178" lon="-4.11256"></trkpt>
      <trkpt lat="50.31758" lon="-4.1125"></trkpt>
      <trkpt lat="50.31739" lon="-4.11237"></trkpt>
      <trkpt lat="50.3173" lon="-4.1122"></trkpt>
      <trkpt lat="50.31722" lon="-4.11192"></trkpt>
      <trkpt lat="50.3172" lon="-4.1118"></trkpt>
      <trkpt lat="50.31702" lon="-4.1115"></trkpt>
      <trkpt lat="50.31686" lon="-4.11134"></trkpt>
      <trkpt lat="50.31636" lon="-4.11124"></trkpt>
      <trkpt lat="50.31633" lon="-4.11118"></trkpt>
      <trkpt lat="50.3162" lon="-4.11059"></trkpt>
      <trkpt lat="50.31621" lon="-4.11051"></trkpt>
      <trkpt lat="50.31632" lon="-4.11029"></trkpt>
      <trkpt lat="50.31634" lon="-4.11019"></trkpt>
      <trkpt lat="50.31634" lon="-4.11008"></trkpt>
      <trkpt lat="50.31627" lon="-4.10962"></trkpt>
      <trkpt lat="50.31616" lon="-4.10945"></trkpt>
      <trkpt lat="50.31613" lon="-4.1093"></trkpt>
      <trkpt lat="50.31574" lon="-4.1083"></trkpt>
      <trkpt lat="50.31572" lon="-4.10816"></trkpt>
      <trkpt lat="50.31572" lon="-4.10797"></trkpt>
      <trkpt lat="50.31568" lon="-4.10781"></trkpt>
      <trkpt lat="50.31553" lon="-4.10762"></trkpt>
      <trkpt lat="50.31535" lon="-4.10723"></trkpt>
      <trkpt lat="50.31529" lon="-4.10696"></trkpt>
      <trkpt lat="50.31531" lon="-4.10666"></trkpt>
      <trkpt lat="50.31546" lon="-4.10614"></trkpt>
      <trkpt lat="50.31548" lon="-4.10594"></trkpt>
      <trkpt lat="50.31537" lon="-4.10552"></trkpt>
      <trkpt lat="50.31518" lon="-4.10517"></trkpt>
      <trkpt lat="50.31518" lon="-4.10502"></trkpt>
      <trkpt lat="50.31521" lon="-4.10495"></trkpt>
      <trkpt lat="50.3155" lon="-4.10451"></trkpt>
      <trkpt lat="50.31572" lon="-4.10405"></trkpt>
      <trkpt lat="50.31594" lon="-4.10388"></trkpt>
      <trkpt lat="50.31611" lon="-4.1038"></trkpt>
      <trkpt lat="50.31632" lon="-4.10353"></trkpt>
      <trkpt lat="50.31644" lon="-4.10347"></trkpt>
      <trkpt lat="50.31665" lon="-4.1032"></trkpt>
      <trkpt lat="50.31668" lon="-4.10309"></trkpt>
      <trkpt lat="50.31691" lon="-4.10277"></trkpt>
      <trkpt lat="50.31715" lon="-4.10215"></trkpt>
      <trkpt lat="50.3173" lon="-4.10169"></trkpt>
      <trkpt lat="50.31743" lon="-4.10119"></trkpt>
      <trkpt lat="50.31746" lon="-4.10091"></trkpt>
      <trkpt lat="50.31751" lon="-4.10071"></trkpt>
      <trkpt lat="50.3178" lon="-4.10019"></trkpt>
      <trkpt lat="50.31777" lon="-4.10012"></trkpt>
      <trkpt lat="50.31763" lon="-4.10011"></trkpt>
      <trkpt lat="50.31756" lon="-4.10007"></trkpt>
      <trkpt lat="50.31753" lon="-4.09998"></trkpt>
      <trkpt lat="50.31752" lon="-4.0999"></trkpt>
      <trkpt lat="50.31753" lon="-4.09881"></trkpt>
      <trkpt lat="50.31737" lon="-4.09799"></trkpt>
      <trkpt lat="50.31733" lon="-4.09753"></trkpt>
      <trkpt lat="50.31728" lon="-4.09658"></trkpt>
      <trkpt lat="50.31731" lon="-4.09617"></trkpt>
      <trkpt lat="50.31719" lon="-4.09538"></trkpt>
      <trkpt lat="50.31716" lon="-4.09493"></trkpt>
      <trkpt lat="50.31717" lon="-4.09469"></trkpt>
      <trkpt lat="50.31721" lon="-4.09445"></trkpt>
      <trkpt lat="50.31731" lon="-4.09402"></trkpt>
      <trkpt lat="50.31732" lon="-4.09392"></trkpt>
      <trkpt lat="50.31724" lon="-4.09366"></trkpt>
      <trkpt lat="50.31719" lon="-4.09337"></trkpt>
      <trkpt lat="50.31721" lon="-4.09322"></trkpt>
      <trkpt lat="50.31728" lon="-4.09308"></trkpt>
      <trkpt lat="50.31728" lon="-4.09302"></trkpt>
      <trkpt lat="50.31721" lon="-4.09284"></trkpt>
      <trkpt lat="50.31719" lon="-4.09247"></trkpt>
      <trkpt lat="50.31718" lon="-4.09193"></trkpt>
      <trkpt lat="50.31704" lon="-4.09146"></trkpt>
      <trkpt lat="50.31705" lon="-4.09085"></trkpt>
      <trkpt lat="50.3171" lon="-4.09051"></trkpt>
      <trkpt lat="50.3171" lon="-4.0904"></trkpt>
      <trkpt lat="50.31706" lon="-4.09029"></trkpt>
      <trkpt lat="50.31701" lon="-4.09021"></trkpt>
      <trkpt lat="50.31696" lon="-4.09019"></trkpt>
      <trkpt lat="50.31689" lon="-4.09013"></trkpt>
      <trkpt lat="50.31671" lon="-4.08982"></trkpt>
      <trkpt lat="50.31675" lon="-4.08974"></trkpt>
      <trkpt lat="50.31672" lon="-4.08968"></trkpt>
      <trkpt lat="50.31678" lon="-4.08913"></trkpt>
      <trkpt lat="50.31691" lon="-4.08867"></trkpt>
      <trkpt lat="50.31698" lon="-4.08825"></trkpt>
      <trkpt lat="50.31714" lon="-4.08783"></trkpt>
      <trkpt lat="50.31718" lon="-4.08757"></trkpt>
      <trkpt lat="50.31727" lon="-4.08743"></trkpt>
      <trkpt lat="50.31737" lon="-4.08731"></trkpt>
      <trkpt lat="50.31753" lon="-4.08726"></trkpt>
      <trkpt lat="50.31761" lon="-4.08715"></trkpt>
      <trkpt lat="50.31763" lon="-4.08709"></trkpt>
      <trkpt lat="50.31766" lon="-4.08694"></trkpt>
      <trkpt lat="50.31768" lon="-4.08666"></trkpt>
      <trkpt lat="50.3177" lon="-4.08655"></trkpt>
      <trkpt lat="50.31788" lon="-4.08611"></trkpt>
      <trkpt lat="50.31806" lon="-4.08525"></trkpt>
      <trkpt lat="50.31805" lon="-4.08502"></trkpt>
      <trkpt lat="50.31804" lon="-4.08497"></trkpt>
      <trkpt lat="50.31799" lon="-4.08487"></trkpt>
      <trkpt lat="50.31793" lon="-4.08415"></trkpt>
      <trkpt lat="50.31776" lon="-4.08401"></trkpt>
      <trkpt lat="50.31765" lon="-4.08386"></trkpt>
      <trkpt lat="50.31766" lon="-4.08362"></trkpt>
      <trkpt lat="50.31763" lon="-4.08347"></trkpt>
      <trkpt lat="50.31774" lon="-4.08337"></trkpt>
      <trkpt lat="50.31768" lon="-4.08333"></trkpt>
      <trkpt lat="50.31757" lon="-4.0833"></trkpt>
      <trkpt lat="50.31755" lon="-4.08315"></trkpt>
      <trkpt lat="50.31754" lon="-4.08294"></trkpt>
      <trkpt lat="50.31746" lon="-4.08259"></trkpt>
      <trkpt lat="50.31745" lon="-4.08246"></trkpt>
      <trkpt lat="50.31749" lon="-4.08227"></trkpt>
      <trkpt lat="50.31744" lon="-4.08191"></trkpt>
      <trkpt lat="50.31745" lon="-4.08139"></trkpt>
      <trkpt lat="50.31734" lon="-4.07993"></trkpt>
      <trkpt lat="50.31738" lon="-4.0797"></trkpt>
      <trkpt lat="50.31731" lon="-4.0796"></trkpt>
      <trkpt lat="50.31733" lon="-4.07891"></trkpt>
      <trkpt lat="50.31732" lon="-4.07873"></trkpt>
      <trkpt lat="50.31726" lon="-4.07836"></trkpt>
      <trkpt lat="50.31715" lon="-4.07795"></trkpt>
      <trkpt lat="50.31708" lon="-4.07749"></trkpt>
      <trkpt lat="50.31695" lon="-4.07696"></trkpt>
      <trkpt lat="50.31685" lon="-4.07666"></trkpt>
      <trkpt lat="50.31679" lon="-4.07638"></trkpt>
      <trkpt lat="50.3168" lon="-4.07626"></trkpt>
      <trkpt lat="50.31672" lon="-4.07587"></trkpt>
      <trkpt lat="50.3165" lon="-4.07479"></trkpt>
      <trkpt lat="50.31635" lon="-4.07411"></trkpt>
      <trkpt lat="50.31606" lon="-4.07242"></trkpt>
      <trkpt lat="50.31588" lon="-4.07186"></trkpt>
      <trkpt lat="50.3156" lon="-4.07122"></trkpt>
      <trkpt lat="50.31504" lon="-4.07049"></trkpt>
      <trkpt lat="50.31474" lon="-4.07021"></trkpt>
      <trkpt lat="50.31421" lon="-4.069"></trkpt>
      <trkpt lat="50.31388" lon="-4.06818"></trkpt>
      <trkpt lat="50.31388" lon="-4.06808"></trkpt>
      <trkpt lat="50.31397" lon="-4.06785"></trkpt>
      <trkpt lat="50.31395" lon="-4.06764"></trkpt>
      <trkpt lat="50.31391" lon="-4.06745"></trkpt>
      <trkpt lat="50.31393" lon="-4.06737"></trkpt>
      <trkpt lat="50.31382" lon="-4.06659"></trkpt>
      <trkpt lat="50.31383" lon="-4.06638"></trkpt>
      <trkpt lat="50.31391" lon="-4.06611"></trkpt>
      <trkpt lat="50.31405" lon="-4.06534"></trkpt>
      <trkpt lat="50.31408" lon="-4.06494"></trkpt>
      <trkpt lat="50.31409" lon="-4.06444"></trkpt>
      <trkpt lat="50.31414" lon="-4.06384"></trkpt>
      <trkpt lat="50.31418" lon="-4.06246"></trkpt>
      <trkpt lat="50.31422" lon="-4.06184"></trkpt>
      <trkpt lat="50.31419" lon="-4.06114"></trkpt>
      <trkpt lat="50.31415" lon="-4.0609"></trkpt>
      <trkpt lat="50.31408" lon="-4.06016"></trkpt>
      <trkpt lat="50.31403" lon="-4.05961"></trkpt>
      <trkpt lat="50.31397" lon="-4.05926"></trkpt>
      <trkpt lat="50.31386" lon="-4.05888"></trkpt>
      <trkpt lat="50.31381" lon="-4.05864"></trkpt>
      <trkpt lat="50.31341" lon="-4.05817"></trkpt>
      <trkpt lat="50.3127" lon="-4.05708"></trkpt>
      <trkpt lat="50.31243" lon="-4.05676"></trkpt>
      <trkpt lat="50.31217" lon="-4.05649"></trkpt>
      <trkpt lat="50.31193" lon="-4.05607"></trkpt>
      <trkpt lat="50.31181" lon="-4.05579"></trkpt>
      <trkpt lat="50.31173" lon="-4.05547"></trkpt>
      <trkpt lat="50.31173" lon="-4.05509"></trkpt>
      <trkpt lat="50.31183" lon="-4.05472"></trkpt>
      <trkpt lat="50.31197" lon="-4.05428"></trkpt>
      <trkpt lat="50.3121" lon="-4.05402"></trkpt>
      <trkpt lat="50.31226" lon="-4.05382"></trkpt>
      <trkpt lat="50.31243" lon="-4.05367"></trkpt>
      <trkpt lat="50.31245" lon="-4.0536"></trkpt>
      <trkpt lat="50.31248" lon="-4.05359"></trkpt>
      <trkpt lat="50.31248" lon="-4.05344"></trkpt>
    </trkseg>
  </trk>
</gpx>
