<?xml version="1.0" encoding="UTF-8"?>
<gpx version="1.1" creator="swcp-walk (imported from OS Maps route 33855723)"
     xmlns="http://www.topografix.com/GPX/1/1">
  <metadata>
    <name>SWCP37-RiverYealm-BigburyOnSea</name>
  </metadata>
  <trk>
    <name>SWCP37-RiverYealm-BigburyOnSea</name>
    <trkseg>
      <trkpt lat="50.31230016106551" lon="-4.050736859950433"></trkpt>
      <trkpt lat="50.31228" lon="-4.0507"></trkpt>
      <trkpt lat="50.31205" lon="-4.05085"></trkpt>
      <trkpt lat="50.31129" lon="-4.05123"></trkpt>
      <trkpt lat="50.31067" lon="-4.0515"></trkpt>
      <trkpt lat="50.31041" lon="-4.05169"></trkpt>
      <trkpt lat="50.3101" lon="-4.05208"></trkpt>
      <trkpt lat="50.30947" lon="-4.0531"></trkpt>
      <trkpt lat="50.30946" lon="-4.0532"></trkpt>
      <trkpt lat="50.30953" lon="-4.05354"></trkpt>
      <trkpt lat="50.30952" lon="-4.05392"></trkpt>
      <trkpt lat="50.30933" lon="-4.05466"></trkpt>
      <trkpt lat="50.3093" lon="-4.05513"></trkpt>
      <trkpt lat="50.30926" lon="-4.05543"></trkpt>
      <trkpt lat="50.30923" lon="-4.056"></trkpt>
      <trkpt lat="50.3093" lon="-4.0563"></trkpt>
      <trkpt lat="50.30932" lon="-4.05701"></trkpt>
      <trkpt lat="50.30938" lon="-4.05726"></trkpt>
      <trkpt lat="50.30954" lon="-4.0577"></trkpt>
      <trkpt lat="50.30978" lon="-4.05813"></trkpt>
      <trkpt lat="50.30997" lon="-4.05899"></trkpt>
      <trkpt lat="50.3101" lon="-4.05924"></trkpt>
      <trkpt lat="50.31029" lon="-4.05984"></trkpt>
      <trkpt lat="50.31049" lon="-4.06028"></trkpt>
      <trkpt lat="50.31064" lon="-4.06063"></trkpt>
      <trkpt lat="50.31072" lon="-4.06093"></trkpt>
      <trkpt lat="50.31075" lon="-4.06124"></trkpt>
      <trkpt lat="50.31067" lon="-4.06161"></trkpt>
      <trkpt lat="50.31062" lon="-4.06175"></trkpt>
      <trkpt lat="50.31057" lon="-4.06183"></trkpt>
      <trkpt lat="50.31039" lon="-4.06195"></trkpt>
      <trkpt lat="50.31021" lon="-4.06189"></trkpt>
      <trkpt lat="50.31011" lon="-4.06167"></trkpt>
      <trkpt lat="50.30999" lon="-4.06128"></trkpt>
      <trkpt lat="50.30981" lon="-4.06079"></trkpt>
      <trkpt lat="50.30967" lon="-4.06055"></trkpt>
      <trkpt lat="50.30949" lon="-4.06031"></trkpt>
      <trkpt lat="50.3091" lon="-4.06018"></trkpt>
      <trkpt lat="50.30872" lon="-4.06023"></trkpt>
      <trkpt lat="50.30857" lon="-4.06036"></trkpt>
      <trkpt lat="50.3085" lon="-4.06049"></trkpt>
      <trkpt lat="50.30846" lon="-4.06069"></trkpt>
      <trkpt lat="50.3081" lon="-4.06325"></trkpt>
      <trkpt lat="50.30807" lon="-4.06363"></trkpt>
      <trkpt lat="50.30828" lon="-4.06446"></trkpt>
      <trkpt lat="50.30827" lon="-4.06457"></trkpt>
      <trkpt lat="50.30816" lon="-4.0675"></trkpt>
      <trkpt lat="50.30808" lon="-4.06871"></trkpt>
      <trkpt lat="50.30811" lon="-4.06989"></trkpt>
      <trkpt lat="50.30809" lon="-4.07029"></trkpt>
      <trkpt lat="50.30792" lon="-4.0709"></trkpt>
      <trkpt lat="50.30792" lon="-4.07091"></trkpt>
      <trkpt lat="50.30781" lon="-4.07115"></trkpt>
      <trkpt lat="50.30769" lon="-4.07131"></trkpt>
      <trkpt lat="50.30738" lon="-4.07136"></trkpt>
      <trkpt lat="50.30691" lon="-4.07165"></trkpt>
      <trkpt lat="50.30637" lon="-4.07204"></trkpt>
      <trkpt lat="50.30594" lon="-4.07219"></trkpt>
      <trkpt lat="50.30549" lon="-4.07245"></trkpt>
      <trkpt lat="50.30528" lon="-4.07248"></trkpt>
      <trkpt lat="50.30506" lon="-4.07233"></trkpt>
      <trkpt lat="50.30493" lon="-4.0719"></trkpt>
      <trkpt lat="50.30484" lon="-4.07132"></trkpt>
      <trkpt lat="50.30471" lon="-4.07084"></trkpt>
      <trkpt lat="50.30451" lon="-4.07033"></trkpt>
      <trkpt lat="50.30432" lon="-4.06902"></trkpt>
      <trkpt lat="50.30411" lon="-4.06805"></trkpt>
      <trkpt lat="50.30407" lon="-4.06783"></trkpt>
      <trkpt lat="50.30403" lon="-4.06691"></trkpt>
      <trkpt lat="50.30397" lon="-4.06599"></trkpt>
      <trkpt lat="50.30371" lon="-4.06525"></trkpt>
      <trkpt lat="50.30352" lon="-4.06434"></trkpt>
      <trkpt lat="50.30314" lon="-4.06319"></trkpt>
      <trkpt lat="50.30283" lon="-4.06254"></trkpt>
      <trkpt lat="50.30264" lon="-4.06205"></trkpt>
      <trkpt lat="50.30229" lon="-4.06071"></trkpt>
      <trkpt lat="50.30197" lon="-4.05957"></trkpt>
      <trkpt lat="50.30174" lon="-4.05887"></trkpt>
      <trkpt lat="50.30148" lon="-4.05791"></trkpt>
      <trkpt lat="50.30105" lon="-4.05692"></trkpt>
      <trkpt lat="50.30105" lon="-4.0566"></trkpt>
      <trkpt lat="50.30101" lon="-4.05635"></trkpt>
      <trkpt lat="50.30093" lon="-4.05625"></trkpt>
      <trkpt lat="50.30088" lon="-4.05615"></trkpt>
      <trkpt lat="50.30081" lon="-4.05611"></trkpt>
      <trkpt lat="50.30067" lon="-4.05613"></trkpt>
      <trkpt lat="50.30021" lon="-4.0563"></trkpt>
      <trkpt lat="50.30006" lon="-4.05632"></trkpt>
      <trkpt lat="50.29985" lon="-4.05631"></trkpt>
      <trkpt lat="50.29976" lon="-4.05627"></trkpt>
      <trkpt lat="50.29947" lon="-4.0558"></trkpt>
      <trkpt lat="50.29912" lon="-4.05551"></trkpt>
      <trkpt lat="50.29907" lon="-4.05541"></trkpt>
      <trkpt lat="50.29906" lon="-4.05524"></trkpt>
      <trkpt lat="50.29909" lon="-4.05505"></trkpt>
      <trkpt lat="50.29916" lon="-4.05487"></trkpt>
      <trkpt lat="50.29924" lon="-4.05476"></trkpt>
      <trkpt lat="50.29933" lon="-4.05476"></trkpt>
      <trkpt lat="50.29959" lon="-4.05483"></trkpt>
      <trkpt lat="50.2998" lon="-4.05484"></trkpt>
      <trkpt lat="50.29993" lon="-4.05479"></trkpt>
      <trkpt lat="50.3" lon="-4.05472"></trkpt>
      <trkpt lat="50.30007" lon="-4.05461"></trkpt>
      <trkpt lat="50.30011" lon="-4.05448"></trkpt>
      <trkpt lat="50.30012" lon="-4.05431"></trkpt>
      <trkpt lat="50.30006" lon="-4.05403"></trkpt>
      <trkpt lat="50.29991" lon="-4.05352"></trkpt>
      <trkpt lat="50.29908" lon="-4.0521"></trkpt>
      <trkpt lat="50.29856" lon="-4.05139"></trkpt>
      <trkpt lat="50.29835" lon="-4.05121"></trkpt>
      <trkpt lat="50.2981" lon="-4.05105"></trkpt>
      <trkpt lat="50.29762" lon="-4.05091"></trkpt>
      <trkpt lat="50.29735" lon="-4.0508"></trkpt>
      <trkpt lat="50.29705" lon="-4.05054"></trkpt>
      <trkpt lat="50.29668" lon="-4.04988"></trkpt>
      <trkpt lat="50.29653" lon="-4.04957"></trkpt>
      <trkpt lat="50.29646" lon="-4.04929"></trkpt>
      <trkpt lat="50.29644" lon="-4.04888"></trkpt>
      <trkpt lat="50.29647" lon="-4.04828"></trkpt>
      <trkpt lat="50.29647" lon="-4.0476"></trkpt>
      <trkpt lat="50.29637" lon="-4.04698"></trkpt>
      <trkpt lat="50.29613" lon="-4.04631"></trkpt>
      <trkpt lat="50.29589" lon="-4.04578"></trkpt>
      <trkpt lat="50.2953" lon="-4.04468"></trkpt>
      <trkpt lat="50.29525" lon="-4.0445"></trkpt>
      <trkpt lat="50.29524" lon="-4.04436"></trkpt>
      <trkpt lat="50.29525" lon="-4.04405"></trkpt>
      <trkpt lat="50.29539" lon="-4.04277"></trkpt>
      <trkpt lat="50.29542" lon="-4.04117"></trkpt>
      <trkpt lat="50.2954" lon="-4.04037"></trkpt>
      <trkpt lat="50.29538" lon="-4.04016"></trkpt>
      <trkpt lat="50.29533" lon="-4.03999"></trkpt>
      <trkpt lat="50.29492" lon="-4.03878"></trkpt>
      <trkpt lat="50.29489" lon="-4.03846"></trkpt>
      <trkpt lat="50.29488" lon="-4.03812"></trkpt>
      <trkpt lat="50.29496" lon="-4.0374"></trkpt>
      <trkpt lat="50.29503" lon="-4.03691"></trkpt>
      <trkpt lat="50.29503" lon="-4.0367"></trkpt>
      <trkpt lat="50.2949" lon="-4.03582"></trkpt>
      <trkpt lat="50.29486" lon="-4.03523"></trkpt>
      <trkpt lat="50.29484" lon="-4.03492"></trkpt>
      <trkpt lat="50.2949" lon="-4.0343"></trkpt>
      <trkpt lat="50.29502" lon="-4.03368"></trkpt>
      <trkpt lat="50.29526" lon="-4.03291"></trkpt>
      <trkpt lat="50.29559" lon="-4.03216"></trkpt>
      <trkpt lat="50.29619" lon="-4.03119"></trkpt>
      <trkpt lat="50.29647" lon="-4.0306"></trkpt>
      <trkpt lat="50.29669" lon="-4.03002"></trkpt>
      <trkpt lat="50.29689" lon="-4.02933"></trkpt>
      <trkpt lat="50.2971" lon="-4.02837"></trkpt>
      <trkpt lat="50.29736" lon="-4.02739"></trkpt>
      <trkpt lat="50.29757" lon="-4.02616"></trkpt>
      <trkpt lat="50.29759" lon="-4.02576"></trkpt>
      <trkpt lat="50.29752" lon="-4.02532"></trkpt>
      <trkpt lat="50.2974" lon="-4.02495"></trkpt>
      <trkpt lat="50.29724" lon="-4.0246"></trkpt>
      <trkpt lat="50.29629" lon="-4.02312"></trkpt>
      <trkpt lat="50.29624" lon="-4.02292"></trkpt>
      <trkpt lat="50.29622" lon="-4.02263"></trkpt>
      <trkpt lat="50.29627" lon="-4.02173"></trkpt>
      <trkpt lat="50.29633" lon="-4.02141"></trkpt>
      <trkpt lat="50.29645" lon="-4.02118"></trkpt>
      <trkpt lat="50.29661" lon="-4.02108"></trkpt>
      <trkpt lat="50.29666" lon="-4.0211"></trkpt>
      <trkpt lat="50.29678" lon="-4.02115"></trkpt>
      <trkpt lat="50.29691" lon="-4.02124"></trkpt>
      <trkpt lat="50.29707" lon="-4.02127"></trkpt>
      <trkpt lat="50.29728" lon="-4.02126"></trkpt>
      <trkpt lat="50.29838" lon="-4.02064"></trkpt>
      <trkpt lat="50.29887" lon="-4.02033"></trkpt>
      <trkpt lat="50.29921" lon="-4.02022"></trkpt>
      <trkpt lat="50.29952" lon="-4.02022"></trkpt>
      <trkpt lat="50.2997" lon="-4.02017"></trkpt>
      <trkpt lat="50.29985" lon="-4.02008"></trkpt>
      <trkpt lat="50.30015" lon="-4.01986"></trkpt>
      <trkpt lat="50.30073" lon="-4.01957"></trkpt>
      <trkpt lat="50.30096" lon="-4.0194"></trkpt>
      <trkpt lat="50.3012" lon="-4.01925"></trkpt>
      <trkpt lat="50.30144" lon="-4.01916"></trkpt>
      <trkpt lat="50.30157" lon="-4.01915"></trkpt>
      <trkpt lat="50.30208" lon="-4.01947"></trkpt>
      <trkpt lat="50.30261" lon="-4.01975"></trkpt>
      <trkpt lat="50.30273" lon="-4.01986"></trkpt>
      <trkpt lat="50.30289" lon="-4.02009"></trkpt>
      <trkpt lat="50.30302" lon="-4.02033"></trkpt>
      <trkpt lat="50.30318" lon="-4.02055"></trkpt>
      <trkpt lat="50.30325" lon="-4.02048"></trkpt>
      <trkpt lat="50.30339" lon="-4.01991"></trkpt>
      <trkpt lat="50.30346" lon="-4.01977"></trkpt>
      <trkpt lat="50.30358" lon="-4.01964"></trkpt>
      <trkpt lat="50.30391" lon="-4.01944"></trkpt>
      <trkpt lat="50.30402" lon="-4.01926"></trkpt>
      <trkpt lat="50.30408" lon="-4.01905"></trkpt>
      <trkpt lat="50.3041" lon="-4.01887"></trkpt>
      <trkpt lat="50.30408" lon="-4.01828"></trkpt>
      <trkpt lat="50.3041" lon="-4.01699"></trkpt>
      <trkpt lat="50.30406" lon="-4.0167"></trkpt>
      <trkpt lat="50.30397" lon="-4.01628"></trkpt>
      <trkpt lat="50.30393" lon="-4.01605"></trkpt>
      <trkpt lat="50.30389" lon="-4.01571"></trkpt>
      <trkpt lat="50.30392" lon="-4.01536"></trkpt>
      <trkpt lat="50.3044" lon="-4.01269"></trkpt>
      <trkpt lat="50.30449" lon="-4.01209"></trkpt>
      <trkpt lat="50.3045" lon="-4.01191"></trkpt>
      <trkpt lat="50.30442" lon="-4.01133"></trkpt>
      <trkpt lat="50.30422" lon="-4.01023"></trkpt>
      <trkpt lat="50.30418" lon="-4.00959"></trkpt>
      <trkpt lat="50.30419" lon="-4.00717"></trkpt>
      <trkpt lat="50.30415" lon="-4.00688"></trkpt>
      <trkpt lat="50.30394" lon="-4.00606"></trkpt>
      <trkpt lat="50.30392" lon="-4.0058"></trkpt>
      <trkpt lat="50.30395" lon="-4.00529"></trkpt>
      <trkpt lat="50.30397" lon="-4.00502"></trkpt>
      <trkpt lat="50.30414" lon="-4.00408"></trkpt>
      <trkpt lat="50.30422" lon="-4.00393"></trkpt>
      <trkpt lat="50.30434" lon="-4.00388"></trkpt>
      <trkpt lat="50.30472" lon="-4.00194"></trkpt>
      <trkpt lat="50.3053" lon="-3.99965"></trkpt>
      <trkpt lat="50.30563" lon="-3.99876"></trkpt>
      <trkpt lat="50.30614" lon="-3.99778"></trkpt>
      <trkpt lat="50.30625" lon="-3.99766"></trkpt>
      <trkpt lat="50.30643" lon="-3.99755"></trkpt>
      <trkpt lat="50.3065" lon="-3.99748"></trkpt>
      <trkpt lat="50.30683" lon="-3.99631"></trkpt>
      <trkpt lat="50.30712" lon="-3.99584"></trkpt>
      <trkpt lat="50.30729" lon="-3.99575"></trkpt>
      <trkpt lat="50.30729" lon="-3.99568"></trkpt>
      <trkpt lat="50.30855" lon="-3.99302"></trkpt>
      <trkpt lat="50.30865" lon="-3.99227"></trkpt>
      <trkpt lat="50.30872" lon="-3.99137"></trkpt>
      <trkpt lat="50.30872" lon="-3.99091"></trkpt>
      <trkpt lat="50.30867" lon="-3.98962"></trkpt>
      <trkpt lat="50.30863" lon="-3.98923"></trkpt>
      <trkpt lat="50.3086" lon="-3.98877"></trkpt>
      <trkpt lat="50.30858" lon="-3.98872"></trkpt>
      <trkpt lat="50.30819" lon="-3.98867"></trkpt>
      <trkpt lat="50.30816" lon="-3.98859"></trkpt>
      <trkpt lat="50.30809" lon="-3.9883"></trkpt>
      <trkpt lat="50.308" lon="-3.98769"></trkpt>
      <trkpt lat="50.30799" lon="-3.98715"></trkpt>
      <trkpt lat="50.30802" lon="-3.98662"></trkpt>
      <trkpt lat="50.3081" lon="-3.98617"></trkpt>
      <trkpt lat="50.30819" lon="-3.98599"></trkpt>
      <trkpt lat="50.308" lon="-3.9849"></trkpt>
      <trkpt lat="50.30789" lon="-3.98472"></trkpt>
      <trkpt lat="50.3079" lon="-3.98465"></trkpt>
      <trkpt lat="50.30773" lon="-3.98405"></trkpt>
      <trkpt lat="50.30773" lon="-3.98346"></trkpt>
      <trkpt lat="50.30754" lon="-3.98285"></trkpt>
      <trkpt lat="50.30756" lon="-3.98271"></trkpt>
      <trkpt lat="50.30816" lon="-3.98108"></trkpt>
      <trkpt lat="50.30819" lon="-3.98095"></trkpt>
      <trkpt lat="50.30818" lon="-3.98071"></trkpt>
      <trkpt lat="50.30813" lon="-3.98049"></trkpt>
      <trkpt lat="50.30802" lon="-3.98019"></trkpt>
      <trkpt lat="50.30799" lon="-3.98001"></trkpt>
      <trkpt lat="50.30801" lon="-3.97987"></trkpt>
      <trkpt lat="50.30823" lon="-3.97904"></trkpt>
      <trkpt lat="50.3084" lon="-3.97829"></trkpt>
      <trkpt lat="50.30862" lon="-3.97695"></trkpt>
      <trkpt lat="50.30873" lon="-3.97565"></trkpt>
      <trkpt lat="50.30849" lon="-3.97492"></trkpt>
      <trkpt lat="50.30814" lon="-3.97407"></trkpt>
      <trkpt lat="50.30795" lon="-3.97354"></trkpt>
      <trkpt lat="50.30789" lon="-3.97306"></trkpt>
      <trkpt lat="50.30772" lon="-3.97298"></trkpt>
      <trkpt lat="50.30761" lon="-3.97287"></trkpt>
      <trkpt lat="50.30743" lon="-3.97245"></trkpt>
      <trkpt lat="50.30731" lon="-3.97233"></trkpt>
      <trkpt lat="50.30694" lon="-3.97196"></trkpt>
      <trkpt lat="50.30678" lon="-3.97171"></trkpt>
      <trkpt lat="50.30668" lon="-3.97143"></trkpt>
      <trkpt lat="50.30666" lon="-3.97128"></trkpt>
      <trkpt lat="50.30665" lon="-3.97105"></trkpt>
      <trkpt lat="50.30669" lon="-3.97088"></trkpt>
      <trkpt lat="50.3069" lon="-3.97028"></trkpt>
      <trkpt lat="50.30696" lon="-3.96998"></trkpt>
      <trkpt lat="50.30695" lon="-3.96982"></trkpt>
      <trkpt lat="50.30688" lon="-3.96957"></trkpt>
      <trkpt lat="50.30675" lon="-3.96944"></trkpt>
      <trkpt lat="50.30657" lon="-3.96917"></trkpt>
      <trkpt lat="50.30643" lon="-3.96892"></trkpt>
      <trkpt lat="50.3062" lon="-3.96829"></trkpt>
      <trkpt lat="50.30585" lon="-3.96771"></trkpt>
      <trkpt lat="50.30577" lon="-3.96753"></trkpt>
      <trkpt lat="50.3057" lon="-3.96749"></trkpt>
      <trkpt lat="50.30557" lon="-3.96749"></trkpt>
      <trkpt lat="50.30519" lon="-3.96771"></trkpt>
      <trkpt lat="50.30515" lon="-3.96767"></trkpt>
      <trkpt lat="50.3051" lon="-3.96755"></trkpt>
      <trkpt lat="50.30511" lon="-3.9675"></trkpt>
      <trkpt lat="50.30519" lon="-3.96732"></trkpt>
      <trkpt lat="50.30515" lon="-3.96705"></trkpt>
      <trkpt lat="50.30515" lon="-3.96699"></trkpt>
      <trkpt lat="50.30517" lon="-3.96694"></trkpt>
      <trkpt lat="50.30571" lon="-3.96666"></trkpt>
      <trkpt lat="50.30582" lon="-3.96651"></trkpt>
      <trkpt lat="50.30583" lon="-3.96633"></trkpt>
      <trkpt lat="50.30579" lon="-3.96566"></trkpt>
      <trkpt lat="50.30568" lon="-3.96538"></trkpt>
      <trkpt lat="50.30561" lon="-3.96528"></trkpt>
      <trkpt lat="50.30566" lon="-3.96518"></trkpt>
      <trkpt lat="50.30557" lon="-3.96508"></trkpt>
      <trkpt lat="50.30563" lon="-3.96485"></trkpt>
      <trkpt lat="50.30561" lon="-3.96476"></trkpt>
      <trkpt lat="50.30568" lon="-3.96471"></trkpt>
      <trkpt lat="50.30577" lon="-3.96455"></trkpt>
      <trkpt lat="50.30575" lon="-3.96442"></trkpt>
      <trkpt lat="50.30601" lon="-3.96401"></trkpt>
      <trkpt lat="50.30572" lon="-3.96366"></trkpt>
      <trkpt lat="50.3057" lon="-3.96361"></trkpt>
      <trkpt lat="50.30559" lon="-3.96337"></trkpt>
      <trkpt lat="50.30557" lon="-3.9632"></trkpt>
      <trkpt lat="50.30596" lon="-3.96064"></trkpt>
      <trkpt lat="50.30632" lon="-3.95912"></trkpt>
      <trkpt lat="50.30672" lon="-3.95838"></trkpt>
      <trkpt lat="50.30706" lon="-3.9569"></trkpt>
      <trkpt lat="50.30725" lon="-3.95646"></trkpt>
      <trkpt lat="50.30747" lon="-3.95618"></trkpt>
      <trkpt lat="50.30783" lon="-3.95576"></trkpt>
      <trkpt lat="50.30787" lon="-3.95577"></trkpt>
      <trkpt lat="50.30809" lon="-3.95523"></trkpt>
      <trkpt lat="50.30818" lon="-3.95506"></trkpt>
      <trkpt lat="50.30826" lon="-3.95498"></trkpt>
      <trkpt lat="50.30835" lon="-3.95495"></trkpt>
      <trkpt lat="50.30872" lon="-3.95503"></trkpt>
      <trkpt lat="50.30882" lon="-3.955"></trkpt>
      <trkpt lat="50.30887" lon="-3.95493"></trkpt>
      <trkpt lat="50.30907" lon="-3.95435"></trkpt>
      <trkpt lat="50.30912" lon="-3.95425"></trkpt>
      <trkpt lat="50.30918" lon="-3.95421"></trkpt>
      <trkpt lat="50.30934" lon="-3.95421"></trkpt>
      <trkpt lat="50.30937" lon="-3.95414"></trkpt>
      <trkpt lat="50.30934" lon="-3.95403"></trkpt>
      <trkpt lat="50.30943" lon="-3.95397"></trkpt>
      <trkpt lat="50.30958" lon="-3.95373"></trkpt>
      <trkpt lat="50.30953" lon="-3.95368"></trkpt>
      <trkpt lat="50.30961" lon="-3.95349"></trkpt>
      <trkpt lat="50.30979" lon="-3.95317"></trkpt>
      <trkpt lat="50.30988" lon="-3.95218"></trkpt>
      <trkpt lat="50.31014" lon="-3.95198"></trkpt>
      <trkpt lat="50.31011" lon="-3.95175"></trkpt>
      <trkpt lat="50.30964" lon="-3.95149"></trkpt>
      <trkpt lat="50.30957" lon="-3.95136"></trkpt>
      <trkpt lat="50.30955" lon="-3.95118"></trkpt>
      <trkpt lat="50.3096" lon="-3.95098"></trkpt>
      <trkpt lat="50.30983" lon="-3.95051"></trkpt>
      <trkpt lat="50.30997" lon="-3.95007"></trkpt>
      <trkpt lat="50.31002" lon="-3.9496"></trkpt>
      <trkpt lat="50.31002" lon="-3.94961"></trkpt>
      <trkpt lat="50.31006" lon="-3.94901"></trkpt>
      <trkpt lat="50.31011" lon="-3.94885"></trkpt>
      <trkpt lat="50.31024" lon="-3.94867"></trkpt>
      <trkpt lat="50.31029" lon="-3.94871"></trkpt>
      <trkpt lat="50.31025" lon="-3.9489"></trkpt>
      <trkpt lat="50.31034" lon="-3.94902"></trkpt>
      <trkpt lat="50.31043" lon="-3.94899"></trkpt>
      <trkpt lat="50.31064" lon="-3.94905"></trkpt>
      <trkpt lat="50.31096" lon="-3.94864"></trkpt>
      <trkpt lat="50.31113" lon="-3.94817"></trkpt>
      <trkpt lat="50.31115" lon="-3.94802"></trkpt>
      <trkpt lat="50.31121" lon="-3.9479"></trkpt>
      <trkpt lat="50.31138" lon="-3.94794"></trkpt>
      <trkpt lat="50.31165" lon="-3.94783"></trkpt>
      <trkpt lat="50.31173" lon="-3.94771"></trkpt>
      <trkpt lat="50.31183" lon="-3.94751"></trkpt>
      <trkpt lat="50.31229" lon="-3.94721"></trkpt>
      <trkpt lat="50.31324" lon="-3.94025"></trkpt>
      <trkpt lat="50.3132" lon="-3.93964"></trkpt>
      <trkpt lat="50.31341" lon="-3.93958"></trkpt>
      <trkpt lat="50.31315" lon="-3.93945"></trkpt>
      <trkpt lat="50.31292" lon="-3.93952"></trkpt>
      <trkpt lat="50.31206" lon="-3.94073"></trkpt>
      <trkpt lat="50.31178" lon="-3.94095"></trkpt>
      <trkpt lat="50.31149" lon="-3.94111"></trkpt>
      <trkpt lat="50.31108" lon="-3.94121"></trkpt>
      <trkpt lat="50.31073" lon="-3.94167"></trkpt>
      <trkpt lat="50.3103" lon="-3.9421"></trkpt>
      <trkpt lat="50.30988" lon="-3.9426"></trkpt>
      <trkpt lat="50.30979" lon="-3.94266"></trkpt>
      <trkpt lat="50.30972" lon="-3.94267"></trkpt>
      <trkpt lat="50.30966" lon="-3.94264"></trkpt>
      <trkpt lat="50.30961" lon="-3.94256"></trkpt>
      <trkpt lat="50.30956" lon="-3.94232"></trkpt>
      <trkpt lat="50.30944" lon="-3.94221"></trkpt>
      <trkpt lat="50.30936" lon="-3.94208"></trkpt>
      <trkpt lat="50.3093" lon="-3.94203"></trkpt>
      <trkpt lat="50.30926" lon="-3.94196"></trkpt>
      <trkpt lat="50.30923" lon="-3.94195"></trkpt>
      <trkpt lat="50.30918" lon="-3.94198"></trkpt>
      <trkpt lat="50.30911" lon="-3.94189"></trkpt>
      <trkpt lat="50.30902" lon="-3.94186"></trkpt>
      <trkpt lat="50.30899" lon="-3.94191"></trkpt>
      <trkpt lat="50.30894" lon="-3.94192"></trkpt>
      <trkpt lat="50.30885" lon="-3.94211"></trkpt>
      <trkpt lat="50.30878" lon="-3.94217"></trkpt>
      <trkpt lat="50.30857" lon="-3.9422"></trkpt>
      <trkpt lat="50.30846" lon="-3.94218"></trkpt>
      <trkpt lat="50.30837" lon="-3.94223"></trkpt>
      <trkpt lat="50.30834" lon="-3.94219"></trkpt>
      <trkpt lat="50.30833" lon="-3.94211"></trkpt>
      <trkpt lat="50.30821" lon="-3.94219"></trkpt>
      <trkpt lat="50.30816" lon="-3.94229"></trkpt>
      <trkpt lat="50.3081" lon="-3.94261"></trkpt>
      <trkpt lat="50.30788" lon="-3.94303"></trkpt>
      <trkpt lat="50.3078" lon="-3.94339"></trkpt>
      <trkpt lat="50.30783" lon="-3.94364"></trkpt>
      <trkpt lat="50.30779" lon="-3.94387"></trkpt>
      <trkpt lat="50.30761" lon="-3.9443"></trkpt>
      <trkpt lat="50.30741" lon="-3.94455"></trkpt>
      <trkpt lat="50.30725" lon="-3.94472"></trkpt>
      <trkpt lat="50.30726" lon="-3.94479"></trkpt>
      <trkpt lat="50.30722" lon="-3.94486"></trkpt>
      <trkpt lat="50.30709" lon="-3.945"></trkpt>
      <trkpt lat="50.30692" lon="-3.94522"></trkpt>
      <trkpt lat="50.30674" lon="-3.9457"></trkpt>
      <trkpt lat="50.30667" lon="-3.94601"></trkpt>
      <trkpt lat="50.30663" lon="-3.94625"></trkpt>
      <trkpt lat="50.30657" lon="-3.9464"></trkpt>
      <trkpt lat="50.3065" lon="-3.94645"></trkpt>
      <trkpt lat="50.30625" lon="-3.94642"></trkpt>
      <trkpt lat="50.30618" lon="-3.94647"></trkpt>
      <trkpt lat="50.30613" lon="-3.94648"></trkpt>
      <trkpt lat="50.30595" lon="-3.94647"></trkpt>
      <trkpt lat="50.30582" lon="-3.94649"></trkpt>
      <trkpt lat="50.30538" lon="-3.94647"></trkpt>
      <trkpt lat="50.30525" lon="-3.9465"></trkpt>
      <trkpt lat="50.30516" lon="-3.94647"></trkpt>
      <trkpt lat="50.30499" lon="-3.94648"></trkpt>
      <trkpt lat="50.30459" lon="-3.94679"></trkpt>
      <trkpt lat="50.30438" lon="-3.94684"></trkpt>
      <trkpt lat="50.30407" lon="-3.94678"></trkpt>
      <trkpt lat="50.30398" lon="-3.94673"></trkpt>
      <trkpt lat="50.30387" lon="-3.9467"></trkpt>
      <trkpt lat="50.30365" lon="-3.94678"></trkpt>
      <trkpt lat="50.3033" lon="-3.94681"></trkpt>
      <trkpt lat="50.30315" lon="-3.94675"></trkpt>
      <trkpt lat="50.30294" lon="-3.94663"></trkpt>
      <trkpt lat="50.30266" lon="-3.94654"></trkpt>
      <trkpt lat="50.30223" lon="-3.94656"></trkpt>
      <trkpt lat="50.30208" lon="-3.9465"></trkpt>
      <trkpt lat="50.30201" lon="-3.94644"></trkpt>
      <trkpt lat="50.30196" lon="-3.94637"></trkpt>
      <trkpt lat="50.30189" lon="-3.9462"></trkpt>
      <trkpt lat="50.30189" lon="-3.94608"></trkpt>
      <trkpt lat="50.30188" lon="-3.94599"></trkpt>
      <trkpt lat="50.30192" lon="-3.9458"></trkpt>
      <trkpt lat="50.30214" lon="-3.94528"></trkpt>
      <trkpt lat="50.30245" lon="-3.94474"></trkpt>
      <trkpt lat="50.30245" lon="-3.94456"></trkpt>
      <trkpt lat="50.30234" lon="-3.94431"></trkpt>
      <trkpt lat="50.30213" lon="-3.94402"></trkpt>
      <trkpt lat="50.30198" lon="-3.94372"></trkpt>
      <trkpt lat="50.30176" lon="-3.94346"></trkpt>
      <trkpt lat="50.30166" lon="-3.94327"></trkpt>
      <trkpt lat="50.30136" lon="-3.94306"></trkpt>
      <trkpt lat="50.30063" lon="-3.94276"></trkpt>
      <trkpt lat="50.29975" lon="-3.94293"></trkpt>
      <trkpt lat="50.29918" lon="-3.94284"></trkpt>
      <trkpt lat="50.298" lon="-3.94256"></trkpt>
      <trkpt lat="50.29786" lon="-3.94261"></trkpt>
      <trkpt lat="50.29771" lon="-3.94256"></trkpt>
      <trkpt lat="50.2976" lon="-3.94239"></trkpt>
      <trkpt lat="50.29762" lon="-3.94214"></trkpt>
      <trkpt lat="50.29762" lon="-3.94206"></trkpt>
      <trkpt lat="50.29781" lon="-3.9414"></trkpt>
      <trkpt lat="50.29803" lon="-3.94113"></trkpt>
      <trkpt lat="50.29812" lon="-3.94085"></trkpt>
      <trkpt lat="50.29812" lon="-3.94041"></trkpt>
      <trkpt lat="50.29826" lon="-3.94015"></trkpt>
      <trkpt lat="50.29841" lon="-3.93999"></trkpt>
      <trkpt lat="50.29842" lon="-3.93984"></trkpt>
      <trkpt lat="50.29838" lon="-3.93916"></trkpt>
      <trkpt lat="50.29841" lon="-3.93886"></trkpt>
      <trkpt lat="50.29851" lon="-3.93854"></trkpt>
      <trkpt lat="50.29766" lon="-3.93556"></trkpt>
      <trkpt lat="50.29761" lon="-3.93546"></trkpt>
      <trkpt lat="50.29755" lon="-3.9354"></trkpt>
      <trkpt lat="50.29736" lon="-3.93532"></trkpt>
      <trkpt lat="50.29728" lon="-3.9352"></trkpt>
      <trkpt lat="50.29722" lon="-3.93516"></trkpt>
      <trkpt lat="50.29712" lon="-3.93504"></trkpt>
      <trkpt lat="50.29697" lon="-3.93483"></trkpt>
      <trkpt lat="50.2967" lon="-3.93391"></trkpt>
      <trkpt lat="50.29666" lon="-3.93362"></trkpt>
      <trkpt lat="50.29669" lon="-3.93331"></trkpt>
      <trkpt lat="50.29705" lon="-3.93134"></trkpt>
      <trkpt lat="50.29713" lon="-3.93043"></trkpt>
      <trkpt lat="50.29713" lon="-3.93044"></trkpt>
      <trkpt lat="50.29715" lon="-3.93012"></trkpt>
      <trkpt lat="50.29708" lon="-3.92988"></trkpt>
      <trkpt lat="50.297" lon="-3.92969"></trkpt>
      <trkpt lat="50.29694" lon="-3.92961"></trkpt>
      <trkpt lat="50.29693" lon="-3.92942"></trkpt>
      <trkpt lat="50.29698" lon="-3.9293"></trkpt>
      <trkpt lat="50.29711" lon="-3.92919"></trkpt>
      <trkpt lat="50.29727" lon="-3.92913"></trkpt>
      <trkpt lat="50.29765" lon="-3.92879"></trkpt>
      <trkpt lat="50.29774" lon="-3.92867"></trkpt>
      <trkpt lat="50.29781" lon="-3.92853"></trkpt>
      <trkpt lat="50.29783" lon="-3.92825"></trkpt>
      <trkpt lat="50.29779" lon="-3.92775"></trkpt>
      <trkpt lat="50.29766" lon="-3.9268"></trkpt>
      <trkpt lat="50.29768" lon="-3.92596"></trkpt>
      <trkpt lat="50.29775" lon="-3.9256"></trkpt>
      <trkpt lat="50.29777" lon="-3.92527"></trkpt>
      <trkpt lat="50.29798" lon="-3.92418"></trkpt>
      <trkpt lat="50.29811" lon="-3.9239"></trkpt>
      <trkpt lat="50.29832" lon="-3.92338"></trkpt>
      <trkpt lat="50.29834" lon="-3.9232"></trkpt>
      <trkpt lat="50.29836" lon="-3.92304"></trkpt>
      <trkpt lat="50.29833" lon="-3.92288"></trkpt>
      <trkpt lat="50.29825" lon="-3.92269"></trkpt>
      <trkpt lat="50.29815" lon="-3.92252"></trkpt>
      <trkpt lat="50.29781" lon="-3.92205"></trkpt>
      <trkpt lat="50.2977" lon="-3.92183"></trkpt>
      <trkpt lat="50.29753" lon="-3.92162"></trkpt>
      <trkpt lat="50.29727" lon="-3.92143"></trkpt>
      <trkpt lat="50.29721" lon="-3.92122"></trkpt>
      <trkpt lat="50.29715" lon="-3.92084"></trkpt>
      <trkpt lat="50.29714" lon="-3.92057"></trkpt>
      <trkpt lat="50.2971" lon="-3.92034"></trkpt>
      <trkpt lat="50.29715" lon="-3.91981"></trkpt>
      <trkpt lat="50.29714" lon="-3.91977"></trkpt>
      <trkpt lat="50.29706" lon="-3.91972"></trkpt>
      <trkpt lat="50.29707" lon="-3.91962"></trkpt>
      <trkpt lat="50.29698" lon="-3.91955"></trkpt>
      <trkpt lat="50.29691" lon="-3.91958"></trkpt>
      <trkpt lat="50.29681" lon="-3.91954"></trkpt>
      <trkpt lat="50.2968" lon="-3.91949"></trkpt>
      <trkpt lat="50.29683" lon="-3.91939"></trkpt>
      <trkpt lat="50.29678" lon="-3.91936"></trkpt>
      <trkpt lat="50.29645" lon="-3.91931"></trkpt>
      <trkpt lat="50.29648" lon="-3.91911"></trkpt>
      <trkpt lat="50.29652" lon="-3.91899"></trkpt>
      <trkpt lat="50.2967" lon="-3.9188"></trkpt>
      <trkpt lat="50.29677" lon="-3.9186"></trkpt>
      <trkpt lat="50.29675" lon="-3.91856"></trkpt>
      <trkpt lat="50.29671" lon="-3.91853"></trkpt>
      <trkpt lat="50.29663" lon="-3.91853"></trkpt>
      <trkpt lat="50.29658" lon="-3.91847"></trkpt>
      <trkpt lat="50.29659" lon="-3.9178"></trkpt>
      <trkpt lat="50.29664" lon="-3.91758"></trkpt>
      <trkpt lat="50.29672" lon="-3.91689"></trkpt>
      <trkpt lat="50.29668" lon="-3.9168"></trkpt>
      <trkpt lat="50.29668" lon="-3.91675"></trkpt>
      <trkpt lat="50.29685" lon="-3.91652"></trkpt>
      <trkpt lat="50.29682" lon="-3.91646"></trkpt>
      <trkpt lat="50.29663" lon="-3.91657"></trkpt>
      <trkpt lat="50.29657" lon="-3.91665"></trkpt>
      <trkpt lat="50.29636" lon="-3.91676"></trkpt>
      <trkpt lat="50.29641" lon="-3.91666"></trkpt>
      <trkpt lat="50.29631" lon="-3.91667"></trkpt>
      <trkpt lat="50.29637" lon="-3.91656"></trkpt>
      <trkpt lat="50.29629" lon="-3.91657"></trkpt>
      <trkpt lat="50.29634" lon="-3.91648"></trkpt>
      <trkpt lat="50.29624" lon="-3.91642"></trkpt>
      <trkpt lat="50.29594" lon="-3.9159"></trkpt>
      <trkpt lat="50.29582" lon="-3.91579"></trkpt>
      <trkpt lat="50.29573" lon="-3.91565"></trkpt>
      <trkpt lat="50.29555" lon="-3.91561"></trkpt>
      <trkpt lat="50.29545" lon="-3.91554"></trkpt>
      <trkpt lat="50.29537" lon="-3.91534"></trkpt>
      <trkpt lat="50.29505" lon="-3.91491"></trkpt>
      <trkpt lat="50.29503" lon="-3.91481"></trkpt>
      <trkpt lat="50.29504" lon="-3.91472"></trkpt>
      <trkpt lat="50.29519" lon="-3.91429"></trkpt>
      <trkpt lat="50.2953" lon="-3.91384"></trkpt>
      <trkpt lat="50.29534" lon="-3.91362"></trkpt>
      <trkpt lat="50.29534" lon="-3.91342"></trkpt>
      <trkpt lat="50.29523" lon="-3.913"></trkpt>
      <trkpt lat="50.29511" lon="-3.91268"></trkpt>
      <trkpt lat="50.29507" lon="-3.9126"></trkpt>
      <trkpt lat="50.2949" lon="-3.91246"></trkpt>
      <trkpt lat="50.29484" lon="-3.91233"></trkpt>
      <trkpt lat="50.29478" lon="-3.91209"></trkpt>
      <trkpt lat="50.29471" lon="-3.91165"></trkpt>
      <trkpt lat="50.29472" lon="-3.91152"></trkpt>
      <trkpt lat="50.29498" lon="-3.91089"></trkpt>
      <trkpt lat="50.29499" lon="-3.91083"></trkpt>
      <trkpt lat="50.29437" lon="-3.90877"></trkpt>
      <trkpt lat="50.2942" lon="-3.90869"></trkpt>
      <trkpt lat="50.29411" lon="-3.90854"></trkpt>
      <trkpt lat="50.29402" lon="-3.90849"></trkpt>
      <trkpt lat="50.29395" lon="-3.90846"></trkpt>
      <trkpt lat="50.29384" lon="-3.90848"></trkpt>
      <trkpt lat="50.29363" lon="-3.90859"></trkpt>
      <trkpt lat="50.29345" lon="-3.90883"></trkpt>
      <trkpt lat="50.29327" lon="-3.90915"></trkpt>
      <trkpt lat="50.29308" lon="-3.9089"></trkpt>
      <trkpt lat="50.29291" lon="-3.90871"></trkpt>
      <trkpt lat="50.29289" lon="-3.90864"></trkpt>
      <trkpt lat="50.29292" lon="-3.90802"></trkpt>
      <trkpt lat="50.29287" lon="-3.90747"></trkpt>
      <trkpt lat="50.29277" lon="-3.90706"></trkpt>
      <trkpt lat="50.29259" lon="-3.90658"></trkpt>
      <trkpt lat="50.29252" lon="-3.90649"></trkpt>
      <trkpt lat="50.29201" lon="-3.90623"></trkpt>
      <trkpt lat="50.29168" lon="-3.90624"></trkpt>
      <trkpt lat="50.29137" lon="-3.90615"></trkpt>
      <trkpt lat="50.29129" lon="-3.90605"></trkpt>
      <trkpt lat="50.29123" lon="-3.90588"></trkpt>
      <trkpt lat="50.29116" lon="-3.90549"></trkpt>
      <trkpt lat="50.29116" lon="-3.90506"></trkpt>
      <trkpt lat="50.29094" lon="-3.90386"></trkpt>
      <trkpt lat="50.29064" lon="-3.9032"></trkpt>
      <trkpt lat="50.29049" lon="-3.90281"></trkpt>
      <trkpt lat="50.29008" lon="-3.90228"></trkpt>
      <trkpt lat="50.28938" lon="-3.90168"></trkpt>
      <trkpt lat="50.28907" lon="-3.90146"></trkpt>
      <trkpt lat="50.28862" lon="-3.90115"></trkpt>
      <trkpt lat="50.28857" lon="-3.90113"></trkpt>
      <trkpt lat="50.28852" lon="-3.90098"></trkpt>
      <trkpt lat="50.2885" lon="-3.90079"></trkpt>
      <trkpt lat="50.28904" lon="-3.89987"></trkpt>
      <trkpt lat="50.28911" lon="-3.89964"></trkpt>
      <trkpt lat="50.28912" lon="-3.89954"></trkpt>
      <trkpt lat="50.28919" lon="-3.89943"></trkpt>
      <trkpt lat="50.28933" lon="-3.89929"></trkpt>
      <trkpt lat="50.28937" lon="-3.89918"></trkpt>
      <trkpt lat="50.28922" lon="-3.89926"></trkpt>
      <trkpt lat="50.28918" lon="-3.89926"></trkpt>
      <trkpt lat="50.28913" lon="-3.89913"></trkpt>
      <trkpt lat="50.28901" lon="-3.89859"></trkpt>
      <trkpt lat="50.28897" lon="-3.89852"></trkpt>
      <trkpt lat="50.28879" lon="-3.89838"></trkpt>
      <trkpt lat="50.28864" lon="-3.89832"></trkpt>
      <trkpt lat="50.28853" lon="-3.89821"></trkpt>
      <trkpt lat="50.2884" lon="-3.89803"></trkpt>
      <trkpt lat="50.28819" lon="-3.89746"></trkpt>
      <trkpt lat="50.28788" lon="-3.89695"></trkpt>
      <trkpt lat="50.28767" lon="-3.89672"></trkpt>
      <trkpt lat="50.28751" lon="-3.89644"></trkpt>
      <trkpt lat="50.28713" lon="-3.89604"></trkpt>
      <trkpt lat="50.28691" lon="-3.89585"></trkpt>
      <trkpt lat="50.28675" lon="-3.89578"></trkpt>
      <trkpt lat="50.28644" lon="-3.89578"></trkpt>
      <trkpt lat="50.28626" lon="-3.89585"></trkpt>
      <trkpt lat="50.28607" lon="-3.89595"></trkpt>
      <trkpt lat="50.28585" lon="-3.89615"></trkpt>
      <trkpt lat="50.28558" lon="-3.89647"></trkpt>
      <trkpt lat="50.28541" lon="-3.89662"></trkpt>
      <trkpt lat="50.2851" lon="-3.89673"></trkpt>
      <trkpt lat="50.2846" lon="-3.89682"></trkpt>
      <trkpt lat="50.28446" lon="-3.89678"></trkpt>
      <trkpt lat="50.28444" lon="-3.8968"></trkpt>
      <trkpt lat="50.28436" lon="-3.89677"></trkpt>
      <trkpt lat="50.28431" lon="-3.89675"></trkpt>
      <trkpt lat="50.28404" lon="-3.89644"></trkpt>
      <trkpt lat="50.28386" lon="-3.8962"></trkpt>
      <trkpt lat="50.2834" lon="-3.89571"></trkpt>
      <trkpt lat="50.28315" lon="-3.89519"></trkpt>
      <trkpt lat="50.28312" lon="-3.89508"></trkpt>
      <trkpt lat="50.28295" lon="-3.8949"></trkpt>
      <trkpt lat="50.28281" lon="-3.89468"></trkpt>
    </trkseg>
  </trk>
</gpx>
