<?xml version="1.0" encoding="UTF-8"?>
<gpx version="1.1" creator="swcp-walk (imported from OS Maps route 33855819)"
     xmlns="http://www.topografix.com/GPX/1/1">
  <metadata>
    <name>SWCP38-BigburyOnSea-Salcombe</name>
  </metadata>
  <trk>
    <name>SWCP38-BigburyOnSea-Salcombe</name>
    <trkseg>
      <trkpt lat="50.2827947397945" lon="-3.8946640735150027"></trkpt>
      <trkpt lat="50.2828" lon="-3.89465"></trkpt>
      <trkpt lat="50.28267" lon="-3.89439"></trkpt>
      <trkpt lat="50.28265" lon="-3.89438"></trkpt>
      <trkpt lat="50.28254" lon="-3.89359"></trkpt>
      <trkpt lat="50.28252" lon="-3.89321"></trkpt>
      <trkpt lat="50.28247" lon="-3.89318"></trkpt>
      <trkpt lat="50.28245" lon="-3.89314"></trkpt>
      <trkpt lat="50.28247" lon="-3.89304"></trkpt>
      <trkpt lat="50.28252" lon="-3.89301"></trkpt>
      <trkpt lat="50.28256" lon="-3.89288"></trkpt>
      <trkpt lat="50.2826" lon="-3.89258"></trkpt>
      <trkpt lat="50.28263" lon="-3.89249"></trkpt>
      <trkpt lat="50.28263" lon="-3.8925"></trkpt>
      <trkpt lat="50.28263" lon="-3.8924"></trkpt>
      <trkpt lat="50.2826" lon="-3.89224"></trkpt>
      <trkpt lat="50.28261" lon="-3.89198"></trkpt>
      <trkpt lat="50.2826" lon="-3.89192"></trkpt>
      <trkpt lat="50.28262" lon="-3.89185"></trkpt>
      <trkpt lat="50.28263" lon="-3.89145"></trkpt>
      <trkpt lat="50.28275" lon="-3.89122"></trkpt>
      <trkpt lat="50.28288" lon="-3.8911"></trkpt>
      <trkpt lat="50.28271" lon="-3.89107"></trkpt>
      <trkpt lat="50.28276" lon="-3.89092"></trkpt>
      <trkpt lat="50.2826" lon="-3.8909"></trkpt>
      <trkpt lat="50.28245" lon="-3.89091"></trkpt>
      <trkpt lat="50.28233" lon="-3.89074"></trkpt>
      <trkpt lat="50.28216" lon="-3.88954"></trkpt>
      <trkpt lat="50.28219" lon="-3.88932"></trkpt>
      <trkpt lat="50.28227" lon="-3.88905"></trkpt>
      <trkpt lat="50.2824" lon="-3.88888"></trkpt>
      <trkpt lat="50.28277" lon="-3.8888"></trkpt>
      <trkpt lat="50.28291" lon="-3.88866"></trkpt>
      <trkpt lat="50.28298" lon="-3.88855"></trkpt>
      <trkpt lat="50.28298" lon="-3.88856"></trkpt>
      <trkpt lat="50.28314" lon="-3.88821"></trkpt>
      <trkpt lat="50.28362" lon="-3.88692"></trkpt>
      <trkpt lat="50.28387" lon="-3.88709"></trkpt>
      <trkpt lat="50.2842" lon="-3.88622"></trkpt>
      <trkpt lat="50.28435" lon="-3.88568"></trkpt>
      <trkpt lat="50.28445" lon="-3.88516"></trkpt>
      <trkpt lat="50.28448" lon="-3.88508"></trkpt>
      <trkpt lat="50.28452" lon="-3.88495"></trkpt>
      <trkpt lat="50.28562" lon="-3.88311"></trkpt>
      <trkpt lat="50.28586" lon="-3.88266"></trkpt>
      <trkpt lat="50.28638" lon="-3.88146"></trkpt>
      <trkpt lat="50.28648" lon="-3.88132"></trkpt>
      <trkpt lat="50.28631" lon="-3.8809"></trkpt>
      <trkpt lat="50.2862" lon="-3.88052"></trkpt>
      <trkpt lat="50.28619" lon="-3.8804"></trkpt>
      <trkpt lat="50.28613" lon="-3.88026"></trkpt>
      <trkpt lat="50.28577" lon="-3.87934"></trkpt>
      <trkpt lat="50.28551" lon="-3.87841"></trkpt>
      <trkpt lat="50.28547" lon="-3.87835"></trkpt>
      <trkpt lat="50.28533" lon="-3.87832"></trkpt>
      <trkpt lat="50.28525" lon="-3.87826"></trkpt>
      <trkpt lat="50.28503" lon="-3.87782"></trkpt>
      <trkpt lat="50.28487" lon="-3.87737"></trkpt>
      <trkpt lat="50.2847" lon="-3.87711"></trkpt>
      <trkpt lat="50.28434" lon="-3.87681"></trkpt>
      <trkpt lat="50.28405" lon="-3.87662"></trkpt>
      <trkpt lat="50.28388" lon="-3.87657"></trkpt>
      <trkpt lat="50.28377" lon="-3.87647"></trkpt>
      <trkpt lat="50.2837" lon="-3.87635"></trkpt>
      <trkpt lat="50.28358" lon="-3.87638"></trkpt>
      <trkpt lat="50.28344" lon="-3.8763"></trkpt>
      <trkpt lat="50.28315" lon="-3.87577"></trkpt>
      <trkpt lat="50.28309" lon="-3.87572"></trkpt>
      <trkpt lat="50.28279" lon="-3.87578"></trkpt>
      <trkpt lat="50.28274" lon="-3.87575"></trkpt>
      <trkpt lat="50.28256" lon="-3.8755"></trkpt>
      <trkpt lat="50.28251" lon="-3.87546"></trkpt>
      <trkpt lat="50.28226" lon="-3.87545"></trkpt>
      <trkpt lat="50.28195" lon="-3.87498"></trkpt>
      <trkpt lat="50.28163" lon="-3.87463"></trkpt>
      <trkpt lat="50.28159" lon="-3.87368"></trkpt>
      <trkpt lat="50.28161" lon="-3.87326"></trkpt>
      <trkpt lat="50.28148" lon="-3.8734"></trkpt>
      <trkpt lat="50.28139" lon="-3.87342"></trkpt>
      <trkpt lat="50.2813" lon="-3.87343"></trkpt>
      <trkpt lat="50.28116" lon="-3.87342"></trkpt>
      <trkpt lat="50.28098" lon="-3.87323"></trkpt>
      <trkpt lat="50.28088" lon="-3.87301"></trkpt>
      <trkpt lat="50.27882" lon="-3.87055"></trkpt>
      <trkpt lat="50.27873" lon="-3.87057"></trkpt>
      <trkpt lat="50.27878" lon="-3.87035"></trkpt>
      <trkpt lat="50.27888" lon="-3.87007"></trkpt>
      <trkpt lat="50.2789" lon="-3.86989"></trkpt>
      <trkpt lat="50.27877" lon="-3.87017"></trkpt>
      <trkpt lat="50.27868" lon="-3.87029"></trkpt>
      <trkpt lat="50.27858" lon="-3.87038"></trkpt>
      <trkpt lat="50.27843" lon="-3.87045"></trkpt>
      <trkpt lat="50.27845" lon="-3.87222"></trkpt>
      <trkpt lat="50.27844" lon="-3.87335"></trkpt>
      <trkpt lat="50.27838" lon="-3.8742"></trkpt>
      <trkpt lat="50.27828" lon="-3.87447"></trkpt>
      <trkpt lat="50.27816" lon="-3.87504"></trkpt>
      <trkpt lat="50.27806" lon="-3.87542"></trkpt>
      <trkpt lat="50.27782" lon="-3.87608"></trkpt>
      <trkpt lat="50.27769" lon="-3.87637"></trkpt>
      <trkpt lat="50.27757" lon="-3.87678"></trkpt>
      <trkpt lat="50.27718" lon="-3.87749"></trkpt>
      <trkpt lat="50.27701" lon="-3.87773"></trkpt>
      <trkpt lat="50.27699" lon="-3.87785"></trkpt>
      <trkpt lat="50.27693" lon="-3.87796"></trkpt>
      <trkpt lat="50.27688" lon="-3.87827"></trkpt>
      <trkpt lat="50.27689" lon="-3.8786"></trkpt>
      <trkpt lat="50.27679" lon="-3.87872"></trkpt>
      <trkpt lat="50.27676" lon="-3.87879"></trkpt>
      <trkpt lat="50.27669" lon="-3.87936"></trkpt>
      <trkpt lat="50.27665" lon="-3.87999"></trkpt>
      <trkpt lat="50.27665" lon="-3.88053"></trkpt>
      <trkpt lat="50.27661" lon="-3.88099"></trkpt>
      <trkpt lat="50.27657" lon="-3.88106"></trkpt>
      <trkpt lat="50.27637" lon="-3.88106"></trkpt>
      <trkpt lat="50.27593" lon="-3.88063"></trkpt>
      <trkpt lat="50.27512" lon="-3.87998"></trkpt>
      <trkpt lat="50.27502" lon="-3.87993"></trkpt>
      <trkpt lat="50.27479" lon="-3.87992"></trkpt>
      <trkpt lat="50.2746" lon="-3.87986"></trkpt>
      <trkpt lat="50.27449" lon="-3.87971"></trkpt>
      <trkpt lat="50.2741" lon="-3.87909"></trkpt>
      <trkpt lat="50.27377" lon="-3.87829"></trkpt>
      <trkpt lat="50.27326" lon="-3.87812"></trkpt>
      <trkpt lat="50.27315" lon="-3.87798"></trkpt>
      <trkpt lat="50.27299" lon="-3.87797"></trkpt>
      <trkpt lat="50.27293" lon="-3.87793"></trkpt>
      <trkpt lat="50.27272" lon="-3.8776"></trkpt>
      <trkpt lat="50.27261" lon="-3.87749"></trkpt>
      <trkpt lat="50.27246" lon="-3.87742"></trkpt>
      <trkpt lat="50.27229" lon="-3.8774"></trkpt>
      <trkpt lat="50.27216" lon="-3.87734"></trkpt>
      <trkpt lat="50.27206" lon="-3.87724"></trkpt>
      <trkpt lat="50.27194" lon="-3.87694"></trkpt>
      <trkpt lat="50.2719" lon="-3.87666"></trkpt>
      <trkpt lat="50.27166" lon="-3.87624"></trkpt>
      <trkpt lat="50.27147" lon="-3.87607"></trkpt>
      <trkpt lat="50.27141" lon="-3.87597"></trkpt>
      <trkpt lat="50.27125" lon="-3.8756"></trkpt>
      <trkpt lat="50.271" lon="-3.87517"></trkpt>
      <trkpt lat="50.27084" lon="-3.87476"></trkpt>
      <trkpt lat="50.27069" lon="-3.87464"></trkpt>
      <trkpt lat="50.27042" lon="-3.87449"></trkpt>
      <trkpt lat="50.27003" lon="-3.8739"></trkpt>
      <trkpt lat="50.26984" lon="-3.87369"></trkpt>
      <trkpt lat="50.26951" lon="-3.8735"></trkpt>
      <trkpt lat="50.26909" lon="-3.87295"></trkpt>
      <trkpt lat="50.26903" lon="-3.87281"></trkpt>
      <trkpt lat="50.26901" lon="-3.87245"></trkpt>
      <trkpt lat="50.26897" lon="-3.8723"></trkpt>
      <trkpt lat="50.26883" lon="-3.87198"></trkpt>
      <trkpt lat="50.26879" lon="-3.87182"></trkpt>
      <trkpt lat="50.26874" lon="-3.87157"></trkpt>
      <trkpt lat="50.26869" lon="-3.87113"></trkpt>
      <trkpt lat="50.2687" lon="-3.87094"></trkpt>
      <trkpt lat="50.26867" lon="-3.87074"></trkpt>
      <trkpt lat="50.2686" lon="-3.87057"></trkpt>
      <trkpt lat="50.26856" lon="-3.87029"></trkpt>
      <trkpt lat="50.26838" lon="-3.86971"></trkpt>
      <trkpt lat="50.26829" lon="-3.86948"></trkpt>
      <trkpt lat="50.26812" lon="-3.86923"></trkpt>
      <trkpt lat="50.26783" lon="-3.8689"></trkpt>
      <trkpt lat="50.26758" lon="-3.86839"></trkpt>
      <trkpt lat="50.26745" lon="-3.86827"></trkpt>
      <trkpt lat="50.26742" lon="-3.86821"></trkpt>
      <trkpt lat="50.26736" lon="-3.86801"></trkpt>
      <trkpt lat="50.26732" lon="-3.8678"></trkpt>
      <trkpt lat="50.267" lon="-3.86741"></trkpt>
      <trkpt lat="50.26682" lon="-3.8671"></trkpt>
      <trkpt lat="50.26667" lon="-3.86703"></trkpt>
      <trkpt lat="50.26662" lon="-3.86706"></trkpt>
      <trkpt lat="50.26643" lon="-3.86699"></trkpt>
      <trkpt lat="50.26607" lon="-3.86718"></trkpt>
      <trkpt lat="50.2659" lon="-3.86707"></trkpt>
      <trkpt lat="50.26562" lon="-3.86725"></trkpt>
      <trkpt lat="50.26548" lon="-3.86719"></trkpt>
      <trkpt lat="50.26533" lon="-3.86727"></trkpt>
      <trkpt lat="50.26496" lon="-3.86713"></trkpt>
      <trkpt lat="50.26486" lon="-3.86717"></trkpt>
      <trkpt lat="50.2648" lon="-3.86727"></trkpt>
      <trkpt lat="50.26458" lon="-3.86784"></trkpt>
      <trkpt lat="50.26454" lon="-3.86788"></trkpt>
      <trkpt lat="50.26448" lon="-3.86789"></trkpt>
      <trkpt lat="50.26436" lon="-3.86784"></trkpt>
      <trkpt lat="50.26428" lon="-3.86777"></trkpt>
      <trkpt lat="50.26414" lon="-3.86773"></trkpt>
      <trkpt lat="50.26393" lon="-3.86761"></trkpt>
      <trkpt lat="50.26391" lon="-3.86755"></trkpt>
      <trkpt lat="50.26391" lon="-3.86747"></trkpt>
      <trkpt lat="50.26391" lon="-3.86738"></trkpt>
      <trkpt lat="50.26407" lon="-3.86708"></trkpt>
      <trkpt lat="50.26408" lon="-3.86679"></trkpt>
      <trkpt lat="50.2641" lon="-3.86672"></trkpt>
      <trkpt lat="50.26429" lon="-3.86638"></trkpt>
      <trkpt lat="50.26431" lon="-3.86631"></trkpt>
      <trkpt lat="50.2643" lon="-3.86559"></trkpt>
      <trkpt lat="50.26438" lon="-3.86494"></trkpt>
      <trkpt lat="50.2646" lon="-3.86445"></trkpt>
      <trkpt lat="50.26463" lon="-3.86432"></trkpt>
      <trkpt lat="50.26458" lon="-3.86406"></trkpt>
      <trkpt lat="50.26457" lon="-3.86389"></trkpt>
      <trkpt lat="50.26461" lon="-3.86365"></trkpt>
      <trkpt lat="50.26471" lon="-3.86341"></trkpt>
      <trkpt lat="50.26473" lon="-3.86323"></trkpt>
      <trkpt lat="50.26468" lon="-3.86302"></trkpt>
      <trkpt lat="50.26467" lon="-3.86288"></trkpt>
      <trkpt lat="50.2647" lon="-3.86276"></trkpt>
      <trkpt lat="50.26485" lon="-3.86253"></trkpt>
      <trkpt lat="50.26484" lon="-3.86245"></trkpt>
      <trkpt lat="50.26486" lon="-3.8622"></trkpt>
      <trkpt lat="50.26485" lon="-3.86193"></trkpt>
      <trkpt lat="50.26478" lon="-3.86174"></trkpt>
      <trkpt lat="50.26475" lon="-3.86159"></trkpt>
      <trkpt lat="50.26466" lon="-3.86152"></trkpt>
      <trkpt lat="50.26454" lon="-3.86113"></trkpt>
      <trkpt lat="50.26436" lon="-3.86091"></trkpt>
      <trkpt lat="50.26428" lon="-3.86075"></trkpt>
      <trkpt lat="50.26414" lon="-3.86058"></trkpt>
      <trkpt lat="50.26376" lon="-3.86063"></trkpt>
      <trkpt lat="50.26349" lon="-3.86057"></trkpt>
      <trkpt lat="50.26339" lon="-3.86047"></trkpt>
      <trkpt lat="50.2633" lon="-3.86033"></trkpt>
      <trkpt lat="50.26302" lon="-3.8598"></trkpt>
      <trkpt lat="50.26286" lon="-3.8593"></trkpt>
      <trkpt lat="50.26278" lon="-3.85924"></trkpt>
      <trkpt lat="50.26254" lon="-3.85893"></trkpt>
      <trkpt lat="50.26243" lon="-3.85872"></trkpt>
      <trkpt lat="50.26186" lon="-3.85809"></trkpt>
      <trkpt lat="50.26166" lon="-3.85767"></trkpt>
      <trkpt lat="50.2615" lon="-3.85745"></trkpt>
      <trkpt lat="50.26137" lon="-3.8572"></trkpt>
      <trkpt lat="50.26108" lon="-3.85685"></trkpt>
      <trkpt lat="50.26076" lon="-3.85617"></trkpt>
      <trkpt lat="50.26052" lon="-3.8563"></trkpt>
      <trkpt lat="50.26019" lon="-3.85664"></trkpt>
      <trkpt lat="50.25999" lon="-3.85678"></trkpt>
      <trkpt lat="50.2597" lon="-3.85688"></trkpt>
      <trkpt lat="50.25957" lon="-3.85687"></trkpt>
      <trkpt lat="50.25941" lon="-3.85679"></trkpt>
      <trkpt lat="50.25933" lon="-3.85698"></trkpt>
      <trkpt lat="50.25924" lon="-3.85708"></trkpt>
      <trkpt lat="50.25879" lon="-3.85736"></trkpt>
      <trkpt lat="50.25872" lon="-3.85736"></trkpt>
      <trkpt lat="50.25844" lon="-3.85727"></trkpt>
      <trkpt lat="50.25834" lon="-3.85724"></trkpt>
      <trkpt lat="50.25816" lon="-3.85723"></trkpt>
      <trkpt lat="50.25798" lon="-3.85716"></trkpt>
      <trkpt lat="50.25773" lon="-3.85713"></trkpt>
      <trkpt lat="50.25747" lon="-3.85714"></trkpt>
      <trkpt lat="50.25725" lon="-3.85709"></trkpt>
      <trkpt lat="50.25715" lon="-3.85709"></trkpt>
      <trkpt lat="50.25706" lon="-3.85714"></trkpt>
      <trkpt lat="50.2569" lon="-3.85727"></trkpt>
      <trkpt lat="50.25678" lon="-3.85722"></trkpt>
      <trkpt lat="50.25659" lon="-3.85704"></trkpt>
      <trkpt lat="50.25618" lon="-3.85675"></trkpt>
      <trkpt lat="50.25595" lon="-3.85663"></trkpt>
      <trkpt lat="50.25542" lon="-3.85645"></trkpt>
      <trkpt lat="50.25532" lon="-3.85636"></trkpt>
      <trkpt lat="50.25529" lon="-3.85631"></trkpt>
      <trkpt lat="50.25523" lon="-3.85647"></trkpt>
      <trkpt lat="50.25515" lon="-3.85835"></trkpt>
      <trkpt lat="50.25506" lon="-3.85836"></trkpt>
      <trkpt lat="50.25457" lon="-3.85864"></trkpt>
      <trkpt lat="50.25447" lon="-3.85876"></trkpt>
      <trkpt lat="50.25433" lon="-3.85909"></trkpt>
      <trkpt lat="50.25425" lon="-3.85921"></trkpt>
      <trkpt lat="50.25406" lon="-3.85942"></trkpt>
      <trkpt lat="50.25391" lon="-3.85962"></trkpt>
      <trkpt lat="50.25383" lon="-3.85982"></trkpt>
      <trkpt lat="50.25376" lon="-3.85988"></trkpt>
      <trkpt lat="50.2535" lon="-3.85984"></trkpt>
      <trkpt lat="50.25299" lon="-3.85961"></trkpt>
      <trkpt lat="50.25263" lon="-3.85937"></trkpt>
      <trkpt lat="50.25224" lon="-3.85924"></trkpt>
      <trkpt lat="50.25194" lon="-3.85903"></trkpt>
      <trkpt lat="50.25178" lon="-3.85898"></trkpt>
      <trkpt lat="50.25154" lon="-3.85905"></trkpt>
      <trkpt lat="50.25112" lon="-3.85919"></trkpt>
      <trkpt lat="50.2509" lon="-3.85912"></trkpt>
      <trkpt lat="50.25035" lon="-3.85889"></trkpt>
      <trkpt lat="50.25005" lon="-3.8588"></trkpt>
      <trkpt lat="50.24971" lon="-3.85882"></trkpt>
      <trkpt lat="50.24928" lon="-3.85867"></trkpt>
      <trkpt lat="50.24859" lon="-3.85867"></trkpt>
      <trkpt lat="50.24821" lon="-3.85875"></trkpt>
      <trkpt lat="50.24812" lon="-3.85881"></trkpt>
      <trkpt lat="50.24809" lon="-3.85875"></trkpt>
      <trkpt lat="50.24803" lon="-3.85885"></trkpt>
      <trkpt lat="50.24778" lon="-3.85885"></trkpt>
      <trkpt lat="50.24768" lon="-3.85882"></trkpt>
      <trkpt lat="50.24751" lon="-3.85871"></trkpt>
      <trkpt lat="50.2475" lon="-3.85839"></trkpt>
      <trkpt lat="50.24729" lon="-3.85816"></trkpt>
      <trkpt lat="50.24723" lon="-3.85816"></trkpt>
      <trkpt lat="50.24717" lon="-3.8582"></trkpt>
      <trkpt lat="50.24705" lon="-3.85835"></trkpt>
      <trkpt lat="50.24682" lon="-3.85872"></trkpt>
      <trkpt lat="50.24668" lon="-3.85888"></trkpt>
      <trkpt lat="50.24656" lon="-3.85887"></trkpt>
      <trkpt lat="50.24644" lon="-3.8588"></trkpt>
      <trkpt lat="50.24625" lon="-3.85862"></trkpt>
      <trkpt lat="50.24625" lon="-3.85858"></trkpt>
      <trkpt lat="50.24613" lon="-3.85858"></trkpt>
      <trkpt lat="50.24601" lon="-3.85854"></trkpt>
      <trkpt lat="50.24594" lon="-3.85857"></trkpt>
      <trkpt lat="50.24577" lon="-3.85889"></trkpt>
      <trkpt lat="50.24557" lon="-3.8591"></trkpt>
      <trkpt lat="50.24544" lon="-3.8592"></trkpt>
      <trkpt lat="50.24533" lon="-3.85918"></trkpt>
      <trkpt lat="50.24523" lon="-3.85921"></trkpt>
      <trkpt lat="50.24504" lon="-3.85911"></trkpt>
      <trkpt lat="50.24479" lon="-3.85922"></trkpt>
      <trkpt lat="50.24478" lon="-3.85918"></trkpt>
      <trkpt lat="50.24474" lon="-3.85919"></trkpt>
      <trkpt lat="50.24443" lon="-3.85885"></trkpt>
      <trkpt lat="50.24382" lon="-3.85885"></trkpt>
      <trkpt lat="50.24366" lon="-3.85891"></trkpt>
      <trkpt lat="50.24351" lon="-3.85887"></trkpt>
      <trkpt lat="50.24331" lon="-3.85871"></trkpt>
      <trkpt lat="50.24313" lon="-3.85869"></trkpt>
      <trkpt lat="50.24301" lon="-3.85875"></trkpt>
      <trkpt lat="50.24297" lon="-3.85882"></trkpt>
      <trkpt lat="50.24285" lon="-3.85892"></trkpt>
      <trkpt lat="50.2426" lon="-3.859"></trkpt>
      <trkpt lat="50.24224" lon="-3.85924"></trkpt>
      <trkpt lat="50.24218" lon="-3.85926"></trkpt>
      <trkpt lat="50.24215" lon="-3.85942"></trkpt>
      <trkpt lat="50.24228" lon="-3.85961"></trkpt>
      <trkpt lat="50.24215" lon="-3.85942"></trkpt>
      <trkpt lat="50.24218" lon="-3.85926"></trkpt>
      <trkpt lat="50.24204" lon="-3.85946"></trkpt>
      <trkpt lat="50.24206" lon="-3.8595"></trkpt>
      <trkpt lat="50.24202" lon="-3.8596"></trkpt>
      <trkpt lat="50.24211" lon="-3.86007"></trkpt>
      <trkpt lat="50.24219" lon="-3.86073"></trkpt>
      <trkpt lat="50.2423" lon="-3.86128"></trkpt>
      <trkpt lat="50.24235" lon="-3.86199"></trkpt>
      <trkpt lat="50.24235" lon="-3.86221"></trkpt>
      <trkpt lat="50.24225" lon="-3.86284"></trkpt>
      <trkpt lat="50.24212" lon="-3.86323"></trkpt>
      <trkpt lat="50.24203" lon="-3.86336"></trkpt>
      <trkpt lat="50.24192" lon="-3.86345"></trkpt>
      <trkpt lat="50.24182" lon="-3.86359"></trkpt>
      <trkpt lat="50.24162" lon="-3.86431"></trkpt>
      <trkpt lat="50.24156" lon="-3.86463"></trkpt>
      <trkpt lat="50.24156" lon="-3.86464"></trkpt>
      <trkpt lat="50.2414" lon="-3.86532"></trkpt>
      <trkpt lat="50.24127" lon="-3.86626"></trkpt>
      <trkpt lat="50.24146" lon="-3.8664"></trkpt>
      <trkpt lat="50.24151" lon="-3.86685"></trkpt>
      <trkpt lat="50.24171" lon="-3.86798"></trkpt>
      <trkpt lat="50.24169" lon="-3.86859"></trkpt>
      <trkpt lat="50.24178" lon="-3.86899"></trkpt>
      <trkpt lat="50.24179" lon="-3.86917"></trkpt>
      <trkpt lat="50.24176" lon="-3.86932"></trkpt>
      <trkpt lat="50.24171" lon="-3.8694"></trkpt>
      <trkpt lat="50.24177" lon="-3.86946"></trkpt>
      <trkpt lat="50.24177" lon="-3.86952"></trkpt>
      <trkpt lat="50.24187" lon="-3.86964"></trkpt>
      <trkpt lat="50.24187" lon="-3.86969"></trkpt>
      <trkpt lat="50.24187" lon="-3.8697"></trkpt>
      <trkpt lat="50.24187" lon="-3.86964"></trkpt>
      <trkpt lat="50.24177" lon="-3.86952"></trkpt>
      <trkpt lat="50.24177" lon="-3.86946"></trkpt>
      <trkpt lat="50.24171" lon="-3.8694"></trkpt>
      <trkpt lat="50.24157" lon="-3.86901"></trkpt>
      <trkpt lat="50.24149" lon="-3.86883"></trkpt>
      <trkpt lat="50.24153" lon="-3.86879"></trkpt>
      <trkpt lat="50.24142" lon="-3.86853"></trkpt>
      <trkpt lat="50.24136" lon="-3.86832"></trkpt>
      <trkpt lat="50.24119" lon="-3.86797"></trkpt>
      <trkpt lat="50.24112" lon="-3.8677"></trkpt>
      <trkpt lat="50.24113" lon="-3.86763"></trkpt>
      <trkpt lat="50.24097" lon="-3.86715"></trkpt>
      <trkpt lat="50.24083" lon="-3.86693"></trkpt>
      <trkpt lat="50.24074" lon="-3.86691"></trkpt>
      <trkpt lat="50.24047" lon="-3.86632"></trkpt>
      <trkpt lat="50.24031" lon="-3.86613"></trkpt>
      <trkpt lat="50.24018" lon="-3.86601"></trkpt>
      <trkpt lat="50.23992" lon="-3.86598"></trkpt>
      <trkpt lat="50.23963" lon="-3.86588"></trkpt>
      <trkpt lat="50.23937" lon="-3.86562"></trkpt>
      <trkpt lat="50.23908" lon="-3.86529"></trkpt>
      <trkpt lat="50.23891" lon="-3.86476"></trkpt>
      <trkpt lat="50.2388" lon="-3.8646"></trkpt>
      <trkpt lat="50.23846" lon="-3.86417"></trkpt>
      <trkpt lat="50.23816" lon="-3.86347"></trkpt>
      <trkpt lat="50.23812" lon="-3.86338"></trkpt>
      <trkpt lat="50.23807" lon="-3.86276"></trkpt>
      <trkpt lat="50.23764" lon="-3.86219"></trkpt>
      <trkpt lat="50.23764" lon="-3.86165"></trkpt>
      <trkpt lat="50.23734" lon="-3.86142"></trkpt>
      <trkpt lat="50.23695" lon="-3.86104"></trkpt>
      <trkpt lat="50.23665" lon="-3.86082"></trkpt>
      <trkpt lat="50.23644" lon="-3.8606"></trkpt>
      <trkpt lat="50.2359" lon="-3.85981"></trkpt>
      <trkpt lat="50.23544" lon="-3.85888"></trkpt>
      <trkpt lat="50.23516" lon="-3.85747"></trkpt>
      <trkpt lat="50.23512" lon="-3.85709"></trkpt>
      <trkpt lat="50.23513" lon="-3.85699"></trkpt>
      <trkpt lat="50.23514" lon="-3.85683"></trkpt>
      <trkpt lat="50.23528" lon="-3.85614"></trkpt>
      <trkpt lat="50.23533" lon="-3.85576"></trkpt>
      <trkpt lat="50.23545" lon="-3.85528"></trkpt>
      <trkpt lat="50.23554" lon="-3.8546"></trkpt>
      <trkpt lat="50.23552" lon="-3.85424"></trkpt>
      <trkpt lat="50.23541" lon="-3.85373"></trkpt>
      <trkpt lat="50.23539" lon="-3.85344"></trkpt>
      <trkpt lat="50.23533" lon="-3.85299"></trkpt>
      <trkpt lat="50.23494" lon="-3.85182"></trkpt>
      <trkpt lat="50.23454" lon="-3.85107"></trkpt>
      <trkpt lat="50.23432" lon="-3.85079"></trkpt>
      <trkpt lat="50.23414" lon="-3.85059"></trkpt>
      <trkpt lat="50.23408" lon="-3.85057"></trkpt>
      <trkpt lat="50.23402" lon="-3.85049"></trkpt>
      <trkpt lat="50.23393" lon="-3.8499"></trkpt>
      <trkpt lat="50.23369" lon="-3.84931"></trkpt>
      <trkpt lat="50.23364" lon="-3.84923"></trkpt>
      <trkpt lat="50.23368" lon="-3.84912"></trkpt>
      <trkpt lat="50.23343" lon="-3.84868"></trkpt>
      <trkpt lat="50.233" lon="-3.84799"></trkpt>
      <trkpt lat="50.23294" lon="-3.84781"></trkpt>
      <trkpt lat="50.23265" lon="-3.84784"></trkpt>
      <trkpt lat="50.23256" lon="-3.84764"></trkpt>
      <trkpt lat="50.23231" lon="-3.84721"></trkpt>
      <trkpt lat="50.23221" lon="-3.84697"></trkpt>
      <trkpt lat="50.23211" lon="-3.84685"></trkpt>
      <trkpt lat="50.232" lon="-3.84657"></trkpt>
      <trkpt lat="50.23197" lon="-3.84646"></trkpt>
      <trkpt lat="50.23198" lon="-3.84637"></trkpt>
      <trkpt lat="50.23198" lon="-3.84632"></trkpt>
      <trkpt lat="50.23192" lon="-3.84613"></trkpt>
      <trkpt lat="50.23183" lon="-3.84593"></trkpt>
      <trkpt lat="50.23178" lon="-3.84567"></trkpt>
      <trkpt lat="50.2318" lon="-3.84546"></trkpt>
      <trkpt lat="50.23188" lon="-3.84508"></trkpt>
      <trkpt lat="50.23189" lon="-3.84451"></trkpt>
      <trkpt lat="50.23179" lon="-3.84399"></trkpt>
      <trkpt lat="50.23177" lon="-3.84382"></trkpt>
      <trkpt lat="50.23166" lon="-3.84348"></trkpt>
      <trkpt lat="50.23156" lon="-3.84302"></trkpt>
      <trkpt lat="50.23157" lon="-3.84272"></trkpt>
      <trkpt lat="50.23161" lon="-3.84265"></trkpt>
      <trkpt lat="50.23164" lon="-3.84263"></trkpt>
      <trkpt lat="50.23156" lon="-3.84248"></trkpt>
      <trkpt lat="50.2318" lon="-3.84204"></trkpt>
      <trkpt lat="50.2319" lon="-3.84166"></trkpt>
      <trkpt lat="50.23193" lon="-3.84124"></trkpt>
      <trkpt lat="50.23191" lon="-3.84098"></trkpt>
      <trkpt lat="50.23172" lon="-3.84025"></trkpt>
      <trkpt lat="50.23154" lon="-3.83998"></trkpt>
      <trkpt lat="50.2313" lon="-3.83978"></trkpt>
      <trkpt lat="50.23121" lon="-3.83965"></trkpt>
      <trkpt lat="50.23097" lon="-3.83869"></trkpt>
      <trkpt lat="50.23085" lon="-3.83827"></trkpt>
      <trkpt lat="50.23068" lon="-3.83815"></trkpt>
      <trkpt lat="50.23053" lon="-3.83799"></trkpt>
      <trkpt lat="50.23041" lon="-3.83791"></trkpt>
      <trkpt lat="50.23032" lon="-3.83778"></trkpt>
      <trkpt lat="50.23024" lon="-3.83753"></trkpt>
      <trkpt lat="50.23016" lon="-3.83735"></trkpt>
      <trkpt lat="50.22994" lon="-3.83693"></trkpt>
      <trkpt lat="50.22971" lon="-3.83643"></trkpt>
      <trkpt lat="50.22938" lon="-3.83595"></trkpt>
      <trkpt lat="50.22928" lon="-3.83574"></trkpt>
      <trkpt lat="50.22874" lon="-3.83484"></trkpt>
      <trkpt lat="50.22764" lon="-3.83325"></trkpt>
      <trkpt lat="50.22729" lon="-3.83265"></trkpt>
      <trkpt lat="50.22697" lon="-3.83226"></trkpt>
      <trkpt lat="50.2268" lon="-3.83187"></trkpt>
      <trkpt lat="50.22678" lon="-3.83169"></trkpt>
      <trkpt lat="50.22664" lon="-3.83151"></trkpt>
      <trkpt lat="50.22645" lon="-3.83156"></trkpt>
      <trkpt lat="50.22641" lon="-3.83154"></trkpt>
      <trkpt lat="50.22638" lon="-3.8315"></trkpt>
      <trkpt lat="50.22618" lon="-3.83148"></trkpt>
      <trkpt lat="50.22604" lon="-3.83133"></trkpt>
      <trkpt lat="50.22545" lon="-3.83091"></trkpt>
      <trkpt lat="50.22499" lon="-3.83071"></trkpt>
      <trkpt lat="50.22485" lon="-3.83041"></trkpt>
      <trkpt lat="50.22444" lon="-3.82981"></trkpt>
      <trkpt lat="50.22429" lon="-3.82951"></trkpt>
      <trkpt lat="50.22429" lon="-3.82947"></trkpt>
      <trkpt lat="50.22444" lon="-3.82949"></trkpt>
      <trkpt lat="50.22445" lon="-3.82945"></trkpt>
      <trkpt lat="50.22429" lon="-3.82894"></trkpt>
      <trkpt lat="50.22431" lon="-3.82889"></trkpt>
      <trkpt lat="50.22434" lon="-3.82888"></trkpt>
      <trkpt lat="50.22441" lon="-3.8289"></trkpt>
      <trkpt lat="50.22443" lon="-3.82886"></trkpt>
      <trkpt lat="50.2244" lon="-3.82873"></trkpt>
      <trkpt lat="50.22442" lon="-3.82869"></trkpt>
      <trkpt lat="50.22444" lon="-3.82869"></trkpt>
      <trkpt lat="50.22465" lon="-3.82866"></trkpt>
      <trkpt lat="50.22469" lon="-3.82861"></trkpt>
      <trkpt lat="50.22478" lon="-3.82828"></trkpt>
      <trkpt lat="50.22474" lon="-3.82816"></trkpt>
      <trkpt lat="50.22476" lon="-3.82809"></trkpt>
      <trkpt lat="50.22473" lon="-3.82801"></trkpt>
      <trkpt lat="50.22473" lon="-3.82792"></trkpt>
      <trkpt lat="50.22471" lon="-3.82786"></trkpt>
      <trkpt lat="50.22418" lon="-3.82712"></trkpt>
      <trkpt lat="50.22407" lon="-3.82657"></trkpt>
      <trkpt lat="50.22402" lon="-3.82659"></trkpt>
      <trkpt lat="50.22401" lon="-3.82646"></trkpt>
      <trkpt lat="50.22398" lon="-3.82641"></trkpt>
      <trkpt lat="50.22374" lon="-3.82652"></trkpt>
      <trkpt lat="50.22341" lon="-3.82657"></trkpt>
      <trkpt lat="50.22323" lon="-3.82653"></trkpt>
      <trkpt lat="50.22263" lon="-3.82622"></trkpt>
      <trkpt lat="50.22234" lon="-3.82611"></trkpt>
      <trkpt lat="50.2218" lon="-3.82608"></trkpt>
      <trkpt lat="50.22171" lon="-3.82601"></trkpt>
      <trkpt lat="50.22162" lon="-3.82578"></trkpt>
      <trkpt lat="50.22156" lon="-3.82538"></trkpt>
      <trkpt lat="50.22148" lon="-3.82532"></trkpt>
      <trkpt lat="50.22138" lon="-3.82531"></trkpt>
      <trkpt lat="50.22119" lon="-3.82509"></trkpt>
      <trkpt lat="50.22105" lon="-3.82511"></trkpt>
      <trkpt lat="50.22072" lon="-3.8248"></trkpt>
      <trkpt lat="50.22062" lon="-3.82465"></trkpt>
      <trkpt lat="50.22048" lon="-3.82451"></trkpt>
      <trkpt lat="50.22037" lon="-3.82435"></trkpt>
      <trkpt lat="50.22015" lon="-3.824"></trkpt>
      <trkpt lat="50.21983" lon="-3.82363"></trkpt>
      <trkpt lat="50.21964" lon="-3.82335"></trkpt>
      <trkpt lat="50.21952" lon="-3.82293"></trkpt>
      <trkpt lat="50.21927" lon="-3.82241"></trkpt>
      <trkpt lat="50.21921" lon="-3.82232"></trkpt>
      <trkpt lat="50.21916" lon="-3.8223"></trkpt>
      <trkpt lat="50.21901" lon="-3.82235"></trkpt>
      <trkpt lat="50.21896" lon="-3.82233"></trkpt>
      <trkpt lat="50.21891" lon="-3.82228"></trkpt>
      <trkpt lat="50.21885" lon="-3.82214"></trkpt>
      <trkpt lat="50.21879" lon="-3.82211"></trkpt>
      <trkpt lat="50.21872" lon="-3.82212"></trkpt>
      <trkpt lat="50.21865" lon="-3.82203"></trkpt>
      <trkpt lat="50.21859" lon="-3.82191"></trkpt>
      <trkpt lat="50.21854" lon="-3.82159"></trkpt>
      <trkpt lat="50.21854" lon="-3.82124"></trkpt>
      <trkpt lat="50.21861" lon="-3.82033"></trkpt>
      <trkpt lat="50.21873" lon="-3.81994"></trkpt>
      <trkpt lat="50.21883" lon="-3.81977"></trkpt>
      <trkpt lat="50.21887" lon="-3.81958"></trkpt>
      <trkpt lat="50.21886" lon="-3.81926"></trkpt>
      <trkpt lat="50.21882" lon="-3.81891"></trkpt>
      <trkpt lat="50.2188" lon="-3.81863"></trkpt>
      <trkpt lat="50.21865" lon="-3.81817"></trkpt>
      <trkpt lat="50.21853" lon="-3.81758"></trkpt>
      <trkpt lat="50.21853" lon="-3.81727"></trkpt>
      <trkpt lat="50.21848" lon="-3.81668"></trkpt>
      <trkpt lat="50.21838" lon="-3.81623"></trkpt>
      <trkpt lat="50.21831" lon="-3.81569"></trkpt>
      <trkpt lat="50.21827" lon="-3.81494"></trkpt>
      <trkpt lat="50.21821" lon="-3.8147"></trkpt>
      <trkpt lat="50.21814" lon="-3.81452"></trkpt>
      <trkpt lat="50.21803" lon="-3.81435"></trkpt>
      <trkpt lat="50.21782" lon="-3.81411"></trkpt>
      <trkpt lat="50.21759" lon="-3.81393"></trkpt>
      <trkpt lat="50.21742" lon="-3.81366"></trkpt>
      <trkpt lat="50.21719" lon="-3.81313"></trkpt>
      <trkpt lat="50.21706" lon="-3.81297"></trkpt>
      <trkpt lat="50.21692" lon="-3.81286"></trkpt>
      <trkpt lat="50.21663" lon="-3.81235"></trkpt>
      <trkpt lat="50.21657" lon="-3.81217"></trkpt>
      <trkpt lat="50.21654" lon="-3.81198"></trkpt>
      <trkpt lat="50.21654" lon="-3.81068"></trkpt>
      <trkpt lat="50.21651" lon="-3.81041"></trkpt>
      <trkpt lat="50.21639" lon="-3.80994"></trkpt>
      <trkpt lat="50.21639" lon="-3.80966"></trkpt>
      <trkpt lat="50.21657" lon="-3.80862"></trkpt>
      <trkpt lat="50.21657" lon="-3.80802"></trkpt>
      <trkpt lat="50.21657" lon="-3.80783"></trkpt>
      <trkpt lat="50.21655" lon="-3.80758"></trkpt>
      <trkpt lat="50.21644" lon="-3.80725"></trkpt>
      <trkpt lat="50.21634" lon="-3.8069"></trkpt>
      <trkpt lat="50.21627" lon="-3.80602"></trkpt>
      <trkpt lat="50.21641" lon="-3.80517"></trkpt>
      <trkpt lat="50.21651" lon="-3.80477"></trkpt>
      <trkpt lat="50.21655" lon="-3.80452"></trkpt>
      <trkpt lat="50.21654" lon="-3.80419"></trkpt>
      <trkpt lat="50.21644" lon="-3.80371"></trkpt>
      <trkpt lat="50.21645" lon="-3.80349"></trkpt>
      <trkpt lat="50.21658" lon="-3.80276"></trkpt>
      <trkpt lat="50.21659" lon="-3.80245"></trkpt>
      <trkpt lat="50.21652" lon="-3.80176"></trkpt>
      <trkpt lat="50.21654" lon="-3.80144"></trkpt>
      <trkpt lat="50.21664" lon="-3.80066"></trkpt>
      <trkpt lat="50.21673" lon="-3.8003"></trkpt>
      <trkpt lat="50.21653" lon="-3.79891"></trkpt>
      <trkpt lat="50.21644" lon="-3.79866"></trkpt>
      <trkpt lat="50.21633" lon="-3.79851"></trkpt>
      <trkpt lat="50.21597" lon="-3.7978"></trkpt>
      <trkpt lat="50.2158" lon="-3.79736"></trkpt>
      <trkpt lat="50.21551" lon="-3.79688"></trkpt>
      <trkpt lat="50.21547" lon="-3.79677"></trkpt>
      <trkpt lat="50.21523" lon="-3.79613"></trkpt>
      <trkpt lat="50.21517" lon="-3.79605"></trkpt>
      <trkpt lat="50.21474" lon="-3.79595"></trkpt>
      <trkpt lat="50.21459" lon="-3.79586"></trkpt>
      <trkpt lat="50.21433" lon="-3.79563"></trkpt>
      <trkpt lat="50.21377" lon="-3.79551"></trkpt>
      <trkpt lat="50.21363" lon="-3.79545"></trkpt>
      <trkpt lat="50.21345" lon="-3.79531"></trkpt>
      <trkpt lat="50.21325" lon="-3.79508"></trkpt>
      <trkpt lat="50.21321" lon="-3.79495"></trkpt>
      <trkpt lat="50.21317" lon="-3.79359"></trkpt>
      <trkpt lat="50.21317" lon="-3.79345"></trkpt>
      <trkpt lat="50.21294" lon="-3.79202"></trkpt>
      <trkpt lat="50.21293" lon="-3.79152"></trkpt>
      <trkpt lat="50.21295" lon="-3.79125"></trkpt>
      <trkpt lat="50.21293" lon="-3.79118"></trkpt>
      <trkpt lat="50.21271" lon="-3.791"></trkpt>
      <trkpt lat="50.21258" lon="-3.79079"></trkpt>
      <trkpt lat="50.21244" lon="-3.79051"></trkpt>
      <trkpt lat="50.21238" lon="-3.79019"></trkpt>
      <trkpt lat="50.21218" lon="-3.78962"></trkpt>
      <trkpt lat="50.21201" lon="-3.78924"></trkpt>
      <trkpt lat="50.21164" lon="-3.78871"></trkpt>
      <trkpt lat="50.21141" lon="-3.78847"></trkpt>
      <trkpt lat="50.21143" lon="-3.78848"></trkpt>
      <trkpt lat="50.21139" lon="-3.78839"></trkpt>
      <trkpt lat="50.21138" lon="-3.78831"></trkpt>
      <trkpt lat="50.21139" lon="-3.78818"></trkpt>
      <trkpt lat="50.21145" lon="-3.78795"></trkpt>
      <trkpt lat="50.21149" lon="-3.78795"></trkpt>
      <trkpt lat="50.21179" lon="-3.7877"></trkpt>
      <trkpt lat="50.21217" lon="-3.78789"></trkpt>
      <trkpt lat="50.21228" lon="-3.7879"></trkpt>
      <trkpt lat="50.21238" lon="-3.78796"></trkpt>
      <trkpt lat="50.21265" lon="-3.78798"></trkpt>
      <trkpt lat="50.21274" lon="-3.7879"></trkpt>
      <trkpt lat="50.21281" lon="-3.788"></trkpt>
      <trkpt lat="50.21289" lon="-3.78806"></trkpt>
      <trkpt lat="50.21346" lon="-3.78802"></trkpt>
      <trkpt lat="50.21394" lon="-3.78789"></trkpt>
      <trkpt lat="50.21415" lon="-3.78789"></trkpt>
      <trkpt lat="50.2143" lon="-3.7878"></trkpt>
      <trkpt lat="50.21453" lon="-3.78796"></trkpt>
      <trkpt lat="50.21465" lon="-3.78802"></trkpt>
      <trkpt lat="50.21483" lon="-3.78803"></trkpt>
      <trkpt lat="50.21504" lon="-3.7879"></trkpt>
      <trkpt lat="50.21514" lon="-3.78789"></trkpt>
      <trkpt lat="50.2152" lon="-3.78792"></trkpt>
      <trkpt lat="50.21562" lon="-3.78769"></trkpt>
      <trkpt lat="50.21567" lon="-3.78757"></trkpt>
      <trkpt lat="50.2157" lon="-3.78734"></trkpt>
      <trkpt lat="50.21575" lon="-3.78716"></trkpt>
      <trkpt lat="50.21576" lon="-3.78705"></trkpt>
      <trkpt lat="50.21576" lon="-3.78687"></trkpt>
      <trkpt lat="50.21572" lon="-3.78649"></trkpt>
      <trkpt lat="50.21579" lon="-3.78584"></trkpt>
      <trkpt lat="50.21579" lon="-3.78543"></trkpt>
      <trkpt lat="50.21581" lon="-3.78502"></trkpt>
      <trkpt lat="50.21588" lon="-3.78477"></trkpt>
      <trkpt lat="50.21591" lon="-3.78441"></trkpt>
      <trkpt lat="50.2159" lon="-3.78393"></trkpt>
      <trkpt lat="50.21591" lon="-3.78377"></trkpt>
      <trkpt lat="50.2159" lon="-3.78365"></trkpt>
      <trkpt lat="50.21582" lon="-3.78346"></trkpt>
      <trkpt lat="50.21579" lon="-3.78326"></trkpt>
      <trkpt lat="50.21584" lon="-3.7829"></trkpt>
      <trkpt lat="50.21585" lon="-3.78265"></trkpt>
      <trkpt lat="50.21584" lon="-3.78246"></trkpt>
      <trkpt lat="50.21585" lon="-3.78238"></trkpt>
      <trkpt lat="50.2159" lon="-3.78229"></trkpt>
      <trkpt lat="50.21596" lon="-3.78229"></trkpt>
      <trkpt lat="50.21637" lon="-3.78202"></trkpt>
      <trkpt lat="50.21651" lon="-3.78204"></trkpt>
      <trkpt lat="50.21663" lon="-3.78193"></trkpt>
      <trkpt lat="50.21703" lon="-3.78201"></trkpt>
      <trkpt lat="50.21762" lon="-3.78185"></trkpt>
      <trkpt lat="50.21776" lon="-3.78172"></trkpt>
      <trkpt lat="50.21812" lon="-3.78173"></trkpt>
      <trkpt lat="50.21832" lon="-3.78178"></trkpt>
      <trkpt lat="50.21863" lon="-3.78177"></trkpt>
      <trkpt lat="50.21868" lon="-3.78181"></trkpt>
      <trkpt lat="50.21879" lon="-3.78182"></trkpt>
      <trkpt lat="50.2191" lon="-3.78157"></trkpt>
      <trkpt lat="50.21921" lon="-3.78155"></trkpt>
      <trkpt lat="50.21936" lon="-3.78166"></trkpt>
      <trkpt lat="50.21955" lon="-3.78173"></trkpt>
      <trkpt lat="50.22068" lon="-3.78264"></trkpt>
      <trkpt lat="50.22091" lon="-3.78279"></trkpt>
      <trkpt lat="50.22112" lon="-3.78287"></trkpt>
      <trkpt lat="50.22128" lon="-3.78287"></trkpt>
      <trkpt lat="50.22161" lon="-3.78279"></trkpt>
      <trkpt lat="50.22189" lon="-3.78257"></trkpt>
      <trkpt lat="50.22307" lon="-3.78247"></trkpt>
      <trkpt lat="50.22324" lon="-3.78252"></trkpt>
      <trkpt lat="50.22344" lon="-3.78244"></trkpt>
      <trkpt lat="50.22374" lon="-3.78232"></trkpt>
      <trkpt lat="50.224" lon="-3.78234"></trkpt>
      <trkpt lat="50.22444" lon="-3.78224"></trkpt>
      <trkpt lat="50.22455" lon="-3.7824"></trkpt>
      <trkpt lat="50.2246" lon="-3.78253"></trkpt>
      <trkpt lat="50.22468" lon="-3.78291"></trkpt>
      <trkpt lat="50.22468" lon="-3.78315"></trkpt>
      <trkpt lat="50.22443" lon="-3.78436"></trkpt>
      <trkpt lat="50.22444" lon="-3.7847"></trkpt>
      <trkpt lat="50.22448" lon="-3.78476"></trkpt>
      <trkpt lat="50.22468" lon="-3.78458"></trkpt>
      <trkpt lat="50.22481" lon="-3.78456"></trkpt>
      <trkpt lat="50.22535" lon="-3.78461"></trkpt>
      <trkpt lat="50.22568" lon="-3.78468"></trkpt>
      <trkpt lat="50.22571" lon="-3.78453"></trkpt>
      <trkpt lat="50.22585" lon="-3.78449"></trkpt>
      <trkpt lat="50.22596" lon="-3.78451"></trkpt>
      <trkpt lat="50.22614" lon="-3.78438"></trkpt>
      <trkpt lat="50.22636" lon="-3.78428"></trkpt>
      <trkpt lat="50.22647" lon="-3.78419"></trkpt>
      <trkpt lat="50.22798" lon="-3.78246"></trkpt>
      <trkpt lat="50.22836" lon="-3.78199"></trkpt>
      <trkpt lat="50.22865" lon="-3.78183"></trkpt>
      <trkpt lat="50.22864" lon="-3.78183"></trkpt>
      <trkpt lat="50.22882" lon="-3.78183"></trkpt>
      <trkpt lat="50.22889" lon="-3.78186"></trkpt>
      <trkpt lat="50.22933" lon="-3.78223"></trkpt>
      <trkpt lat="50.22942" lon="-3.78237"></trkpt>
      <trkpt lat="50.22952" lon="-3.78258"></trkpt>
      <trkpt lat="50.22965" lon="-3.78269"></trkpt>
      <trkpt lat="50.2297" lon="-3.78268"></trkpt>
      <trkpt lat="50.22974" lon="-3.78263"></trkpt>
      <trkpt lat="50.22974" lon="-3.78257"></trkpt>
      <trkpt lat="50.22971" lon="-3.78242"></trkpt>
      <trkpt lat="50.22964" lon="-3.78229"></trkpt>
      <trkpt lat="50.22961" lon="-3.78213"></trkpt>
      <trkpt lat="50.22965" lon="-3.78205"></trkpt>
      <trkpt lat="50.23004" lon="-3.78152"></trkpt>
      <trkpt lat="50.23019" lon="-3.78122"></trkpt>
      <trkpt lat="50.23023" lon="-3.78107"></trkpt>
      <trkpt lat="50.23032" lon="-3.7805"></trkpt>
      <trkpt lat="50.23029" lon="-3.78034"></trkpt>
      <trkpt lat="50.23008" lon="-3.77973"></trkpt>
      <trkpt lat="50.23005" lon="-3.77958"></trkpt>
      <trkpt lat="50.23004" lon="-3.77939"></trkpt>
      <trkpt lat="50.22999" lon="-3.77914"></trkpt>
      <trkpt lat="50.22995" lon="-3.77902"></trkpt>
      <trkpt lat="50.22989" lon="-3.77897"></trkpt>
      <trkpt lat="50.22982" lon="-3.77898"></trkpt>
      <trkpt lat="50.22974" lon="-3.77892"></trkpt>
      <trkpt lat="50.22962" lon="-3.77869"></trkpt>
      <trkpt lat="50.22942" lon="-3.77825"></trkpt>
      <trkpt lat="50.22938" lon="-3.77801"></trkpt>
      <trkpt lat="50.22935" lon="-3.7777"></trkpt>
      <trkpt lat="50.22936" lon="-3.77745"></trkpt>
      <trkpt lat="50.22938" lon="-3.77723"></trkpt>
      <trkpt lat="50.22948" lon="-3.77673"></trkpt>
      <trkpt lat="50.22958" lon="-3.77643"></trkpt>
      <trkpt lat="50.22964" lon="-3.77632"></trkpt>
      <trkpt lat="50.22972" lon="-3.77623"></trkpt>
      <trkpt lat="50.2301" lon="-3.7759"></trkpt>
      <trkpt lat="50.23084" lon="-3.77525"></trkpt>
      <trkpt lat="50.23133" lon="-3.77472"></trkpt>
      <trkpt lat="50.23168" lon="-3.77411"></trkpt>
      <trkpt lat="50.23238" lon="-3.77267"></trkpt>
      <trkpt lat="50.23269" lon="-3.77228"></trkpt>
      <trkpt lat="50.2329" lon="-3.77221"></trkpt>
      <trkpt lat="50.23316" lon="-3.77184"></trkpt>
      <trkpt lat="50.23363" lon="-3.77086"></trkpt>
      <trkpt lat="50.23382" lon="-3.77064"></trkpt>
      <trkpt lat="50.23406" lon="-3.7703"></trkpt>
      <trkpt lat="50.23429" lon="-3.76982"></trkpt>
      <trkpt lat="50.23525" lon="-3.76872"></trkpt>
      <trkpt lat="50.2356" lon="-3.76808"></trkpt>
      <trkpt lat="50.23602" lon="-3.76716"></trkpt>
      <trkpt lat="50.2362" lon="-3.76683"></trkpt>
    </trkseg>
  </trk>
</gpx>
