<?xml version="1.0" encoding="UTF-8"?>
<gpx version="1.1" creator="swcp-walk (imported from OS Maps route 33855875)"
     xmlns="http://www.topografix.com/GPX/1/1">
  <metadata>
    <name>SWCP38-Salcombe-Torcross</name>
  </metadata>
  <trk>
    <name>SWCP38-Salcombe-Torcross</name>
    <trkseg>
      <trkpt lat="50.23463781217444" lon="-3.7636404011233537"></trkpt>
      <trkpt lat="50.23464" lon="-3.76366"></trkpt>
      <trkpt lat="50.23396" lon="-3.76426"></trkpt>
      <trkpt lat="50.23376" lon="-3.76439"></trkpt>
      <trkpt lat="50.23364" lon="-3.76438"></trkpt>
      <trkpt lat="50.23355" lon="-3.76433"></trkpt>
      <trkpt lat="50.23347" lon="-3.76422"></trkpt>
      <trkpt lat="50.23339" lon="-3.76384"></trkpt>
      <trkpt lat="50.23331" lon="-3.76375"></trkpt>
      <trkpt lat="50.23323" lon="-3.76375"></trkpt>
      <trkpt lat="50.23293" lon="-3.76395"></trkpt>
      <trkpt lat="50.23286" lon="-3.7641"></trkpt>
      <trkpt lat="50.23272" lon="-3.76465"></trkpt>
      <trkpt lat="50.23264" lon="-3.76484"></trkpt>
      <trkpt lat="50.23226" lon="-3.76539"></trkpt>
      <trkpt lat="50.23205" lon="-3.76564"></trkpt>
      <trkpt lat="50.2316" lon="-3.76592"></trkpt>
      <trkpt lat="50.23122" lon="-3.76623"></trkpt>
      <trkpt lat="50.23113" lon="-3.76627"></trkpt>
      <trkpt lat="50.23099" lon="-3.76625"></trkpt>
      <trkpt lat="50.23054" lon="-3.76584"></trkpt>
      <trkpt lat="50.23006" lon="-3.76541"></trkpt>
      <trkpt lat="50.22994" lon="-3.76535"></trkpt>
      <trkpt lat="50.22981" lon="-3.76535"></trkpt>
      <trkpt lat="50.22941" lon="-3.7656"></trkpt>
      <trkpt lat="50.22929" lon="-3.76578"></trkpt>
      <trkpt lat="50.22925" lon="-3.7659"></trkpt>
      <trkpt lat="50.22923" lon="-3.76608"></trkpt>
      <trkpt lat="50.22932" lon="-3.76624"></trkpt>
      <trkpt lat="50.2293" lon="-3.76643"></trkpt>
      <trkpt lat="50.22931" lon="-3.76688"></trkpt>
      <trkpt lat="50.22948" lon="-3.76762"></trkpt>
      <trkpt lat="50.22954" lon="-3.76778"></trkpt>
      <trkpt lat="50.22951" lon="-3.76823"></trkpt>
      <trkpt lat="50.22932" lon="-3.76923"></trkpt>
      <trkpt lat="50.2292" lon="-3.76952"></trkpt>
      <trkpt lat="50.22894" lon="-3.7698"></trkpt>
      <trkpt lat="50.22884" lon="-3.76967"></trkpt>
      <trkpt lat="50.22863" lon="-3.76966"></trkpt>
      <trkpt lat="50.22847" lon="-3.7697"></trkpt>
      <trkpt lat="50.22804" lon="-3.76972"></trkpt>
      <trkpt lat="50.22754" lon="-3.76984"></trkpt>
      <trkpt lat="50.22688" lon="-3.7702"></trkpt>
      <trkpt lat="50.22662" lon="-3.77049"></trkpt>
      <trkpt lat="50.22638" lon="-3.77052"></trkpt>
      <trkpt lat="50.22629" lon="-3.77063"></trkpt>
      <trkpt lat="50.22625" lon="-3.77072"></trkpt>
      <trkpt lat="50.22624" lon="-3.77085"></trkpt>
      <trkpt lat="50.22629" lon="-3.77106"></trkpt>
      <trkpt lat="50.22629" lon="-3.77127"></trkpt>
      <trkpt lat="50.22626" lon="-3.77163"></trkpt>
      <trkpt lat="50.22621" lon="-3.77189"></trkpt>
      <trkpt lat="50.22626" lon="-3.772"></trkpt>
      <trkpt lat="50.22614" lon="-3.77218"></trkpt>
      <trkpt lat="50.22601" lon="-3.77232"></trkpt>
      <trkpt lat="50.22587" lon="-3.77241"></trkpt>
      <trkpt lat="50.2256" lon="-3.77224"></trkpt>
      <trkpt lat="50.22544" lon="-3.77221"></trkpt>
      <trkpt lat="50.22518" lon="-3.77226"></trkpt>
      <trkpt lat="50.22512" lon="-3.77225"></trkpt>
      <trkpt lat="50.22483" lon="-3.77207"></trkpt>
      <trkpt lat="50.22467" lon="-3.77218"></trkpt>
      <trkpt lat="50.22451" lon="-3.77224"></trkpt>
      <trkpt lat="50.22443" lon="-3.77217"></trkpt>
      <trkpt lat="50.22428" lon="-3.77184"></trkpt>
      <trkpt lat="50.22429" lon="-3.77158"></trkpt>
      <trkpt lat="50.22423" lon="-3.77122"></trkpt>
      <trkpt lat="50.22422" lon="-3.77087"></trkpt>
      <trkpt lat="50.2241" lon="-3.7708"></trkpt>
      <trkpt lat="50.22379" lon="-3.77077"></trkpt>
      <trkpt lat="50.22358" lon="-3.7707"></trkpt>
      <trkpt lat="50.22331" lon="-3.77066"></trkpt>
      <trkpt lat="50.22322" lon="-3.7706"></trkpt>
      <trkpt lat="50.22313" lon="-3.77048"></trkpt>
      <trkpt lat="50.22306" lon="-3.77038"></trkpt>
      <trkpt lat="50.22265" lon="-3.77009"></trkpt>
      <trkpt lat="50.22251" lon="-3.76995"></trkpt>
      <trkpt lat="50.22244" lon="-3.76983"></trkpt>
      <trkpt lat="50.22231" lon="-3.76968"></trkpt>
      <trkpt lat="50.22217" lon="-3.76922"></trkpt>
      <trkpt lat="50.22202" lon="-3.76892"></trkpt>
      <trkpt lat="50.22188" lon="-3.7682"></trkpt>
      <trkpt lat="50.22178" lon="-3.76799"></trkpt>
      <trkpt lat="50.22172" lon="-3.7679"></trkpt>
      <trkpt lat="50.22162" lon="-3.76766"></trkpt>
      <trkpt lat="50.22158" lon="-3.76752"></trkpt>
      <trkpt lat="50.22151" lon="-3.76739"></trkpt>
      <trkpt lat="50.22137" lon="-3.76686"></trkpt>
      <trkpt lat="50.22136" lon="-3.76665"></trkpt>
      <trkpt lat="50.22133" lon="-3.7665"></trkpt>
      <trkpt lat="50.22115" lon="-3.76592"></trkpt>
      <trkpt lat="50.22108" lon="-3.76552"></trkpt>
      <trkpt lat="50.22107" lon="-3.76545"></trkpt>
      <trkpt lat="50.22126" lon="-3.7652"></trkpt>
      <trkpt lat="50.22132" lon="-3.76505"></trkpt>
      <trkpt lat="50.22127" lon="-3.76484"></trkpt>
      <trkpt lat="50.22117" lon="-3.76474"></trkpt>
      <trkpt lat="50.22107" lon="-3.76446"></trkpt>
      <trkpt lat="50.22103" lon="-3.76415"></trkpt>
      <trkpt lat="50.22096" lon="-3.76383"></trkpt>
      <trkpt lat="50.22072" lon="-3.76319"></trkpt>
      <trkpt lat="50.22067" lon="-3.76279"></trkpt>
      <trkpt lat="50.22065" lon="-3.76242"></trkpt>
      <trkpt lat="50.22066" lon="-3.76203"></trkpt>
      <trkpt lat="50.22074" lon="-3.76163"></trkpt>
      <trkpt lat="50.2208" lon="-3.76141"></trkpt>
      <trkpt lat="50.22105" lon="-3.76124"></trkpt>
      <trkpt lat="50.22109" lon="-3.76116"></trkpt>
      <trkpt lat="50.22109" lon="-3.76105"></trkpt>
      <trkpt lat="50.22113" lon="-3.76086"></trkpt>
      <trkpt lat="50.22111" lon="-3.76072"></trkpt>
      <trkpt lat="50.22094" lon="-3.76036"></trkpt>
      <trkpt lat="50.22084" lon="-3.75989"></trkpt>
      <trkpt lat="50.22064" lon="-3.75901"></trkpt>
      <trkpt lat="50.22051" lon="-3.75885"></trkpt>
      <trkpt lat="50.22004" lon="-3.75861"></trkpt>
      <trkpt lat="50.21996" lon="-3.75851"></trkpt>
      <trkpt lat="50.21984" lon="-3.75793"></trkpt>
      <trkpt lat="50.21975" lon="-3.75662"></trkpt>
      <trkpt lat="50.21964" lon="-3.75582"></trkpt>
      <trkpt lat="50.21952" lon="-3.75455"></trkpt>
      <trkpt lat="50.21953" lon="-3.75425"></trkpt>
      <trkpt lat="50.21953" lon="-3.75392"></trkpt>
      <trkpt lat="50.21952" lon="-3.75367"></trkpt>
      <trkpt lat="50.21953" lon="-3.75354"></trkpt>
      <trkpt lat="50.21951" lon="-3.75341"></trkpt>
      <trkpt lat="50.21956" lon="-3.75306"></trkpt>
      <trkpt lat="50.21955" lon="-3.75279"></trkpt>
      <trkpt lat="50.21965" lon="-3.75271"></trkpt>
      <trkpt lat="50.21975" lon="-3.75256"></trkpt>
      <trkpt lat="50.21984" lon="-3.75247"></trkpt>
      <trkpt lat="50.2199" lon="-3.75249"></trkpt>
      <trkpt lat="50.22001" lon="-3.75245"></trkpt>
      <trkpt lat="50.22009" lon="-3.75218"></trkpt>
      <trkpt lat="50.22008" lon="-3.75203"></trkpt>
      <trkpt lat="50.21994" lon="-3.75159"></trkpt>
      <trkpt lat="50.21988" lon="-3.75132"></trkpt>
      <trkpt lat="50.21974" lon="-3.75092"></trkpt>
      <trkpt lat="50.21971" lon="-3.75067"></trkpt>
      <trkpt lat="50.21973" lon="-3.75034"></trkpt>
      <trkpt lat="50.21972" lon="-3.75019"></trkpt>
      <trkpt lat="50.21959" lon="-3.7497"></trkpt>
      <trkpt lat="50.21948" lon="-3.74946"></trkpt>
      <trkpt lat="50.2193" lon="-3.74894"></trkpt>
      <trkpt lat="50.21897" lon="-3.74827"></trkpt>
      <trkpt lat="50.21891" lon="-3.74809"></trkpt>
      <trkpt lat="50.2187" lon="-3.74751"></trkpt>
      <trkpt lat="50.21862" lon="-3.7472"></trkpt>
      <trkpt lat="50.2185" lon="-3.74661"></trkpt>
      <trkpt lat="50.21846" lon="-3.74652"></trkpt>
      <trkpt lat="50.21832" lon="-3.74643"></trkpt>
      <trkpt lat="50.21829" lon="-3.74627"></trkpt>
      <trkpt lat="50.21831" lon="-3.74621"></trkpt>
      <trkpt lat="50.2183" lon="-3.74616"></trkpt>
      <trkpt lat="50.21827" lon="-3.74613"></trkpt>
      <trkpt lat="50.21824" lon="-3.74616"></trkpt>
      <trkpt lat="50.21808" lon="-3.7462"></trkpt>
      <trkpt lat="50.21798" lon="-3.74618"></trkpt>
      <trkpt lat="50.2179" lon="-3.74604"></trkpt>
      <trkpt lat="50.21785" lon="-3.74598"></trkpt>
      <trkpt lat="50.21778" lon="-3.74596"></trkpt>
      <trkpt lat="50.21736" lon="-3.74597"></trkpt>
      <trkpt lat="50.21728" lon="-3.74595"></trkpt>
      <trkpt lat="50.21721" lon="-3.7459"></trkpt>
      <trkpt lat="50.21712" lon="-3.74563"></trkpt>
      <trkpt lat="50.21698" lon="-3.74546"></trkpt>
      <trkpt lat="50.21688" lon="-3.74512"></trkpt>
      <trkpt lat="50.21678" lon="-3.74501"></trkpt>
      <trkpt lat="50.21676" lon="-3.74488"></trkpt>
      <trkpt lat="50.21672" lon="-3.74477"></trkpt>
      <trkpt lat="50.21646" lon="-3.74445"></trkpt>
      <trkpt lat="50.21634" lon="-3.74417"></trkpt>
      <trkpt lat="50.21602" lon="-3.74356"></trkpt>
      <trkpt lat="50.21592" lon="-3.74334"></trkpt>
      <trkpt lat="50.21584" lon="-3.74301"></trkpt>
      <trkpt lat="50.21571" lon="-3.74287"></trkpt>
      <trkpt lat="50.21567" lon="-3.74275"></trkpt>
      <trkpt lat="50.21565" lon="-3.74258"></trkpt>
      <trkpt lat="50.21566" lon="-3.74233"></trkpt>
      <trkpt lat="50.21571" lon="-3.74211"></trkpt>
      <trkpt lat="50.21575" lon="-3.7418"></trkpt>
      <trkpt lat="50.21574" lon="-3.74165"></trkpt>
      <trkpt lat="50.21575" lon="-3.7414"></trkpt>
      <trkpt lat="50.21568" lon="-3.74114"></trkpt>
      <trkpt lat="50.21565" lon="-3.74087"></trkpt>
      <trkpt lat="50.21563" lon="-3.74061"></trkpt>
      <trkpt lat="50.21564" lon="-3.74003"></trkpt>
      <trkpt lat="50.2157" lon="-3.73963"></trkpt>
      <trkpt lat="50.21575" lon="-3.73947"></trkpt>
      <trkpt lat="50.21575" lon="-3.73919"></trkpt>
      <trkpt lat="50.21586" lon="-3.7385"></trkpt>
      <trkpt lat="50.21586" lon="-3.73839"></trkpt>
      <trkpt lat="50.21586" lon="-3.7383"></trkpt>
      <trkpt lat="50.2158" lon="-3.73801"></trkpt>
      <trkpt lat="50.21582" lon="-3.73787"></trkpt>
      <trkpt lat="50.21565" lon="-3.73722"></trkpt>
      <trkpt lat="50.21541" lon="-3.73651"></trkpt>
      <trkpt lat="50.21497" lon="-3.73565"></trkpt>
      <trkpt lat="50.21474" lon="-3.73529"></trkpt>
      <trkpt lat="50.21452" lon="-3.73501"></trkpt>
      <trkpt lat="50.21406" lon="-3.73454"></trkpt>
      <trkpt lat="50.2139" lon="-3.73454"></trkpt>
      <trkpt lat="50.21369" lon="-3.73446"></trkpt>
      <trkpt lat="50.21359" lon="-3.73449"></trkpt>
      <trkpt lat="50.21344" lon="-3.73459"></trkpt>
      <trkpt lat="50.21337" lon="-3.73467"></trkpt>
      <trkpt lat="50.21326" lon="-3.73489"></trkpt>
      <trkpt lat="50.21315" lon="-3.73498"></trkpt>
      <trkpt lat="50.21296" lon="-3.73497"></trkpt>
      <trkpt lat="50.21292" lon="-3.73489"></trkpt>
      <trkpt lat="50.21287" lon="-3.73484"></trkpt>
      <trkpt lat="50.21283" lon="-3.73474"></trkpt>
      <trkpt lat="50.21263" lon="-3.73454"></trkpt>
      <trkpt lat="50.21241" lon="-3.73442"></trkpt>
      <trkpt lat="50.21232" lon="-3.7343"></trkpt>
      <trkpt lat="50.21202" lon="-3.7344"></trkpt>
      <trkpt lat="50.21187" lon="-3.73439"></trkpt>
      <trkpt lat="50.21167" lon="-3.73434"></trkpt>
      <trkpt lat="50.21137" lon="-3.73418"></trkpt>
      <trkpt lat="50.21097" lon="-3.73373"></trkpt>
      <trkpt lat="50.2109" lon="-3.73371"></trkpt>
      <trkpt lat="50.21084" lon="-3.73366"></trkpt>
      <trkpt lat="50.2108" lon="-3.73348"></trkpt>
      <trkpt lat="50.21082" lon="-3.73316"></trkpt>
      <trkpt lat="50.2108" lon="-3.7331"></trkpt>
      <trkpt lat="50.2108" lon="-3.73295"></trkpt>
      <trkpt lat="50.21075" lon="-3.73282"></trkpt>
      <trkpt lat="50.21068" lon="-3.73251"></trkpt>
      <trkpt lat="50.21062" lon="-3.73236"></trkpt>
      <trkpt lat="50.21051" lon="-3.73215"></trkpt>
      <trkpt lat="50.21041" lon="-3.73186"></trkpt>
      <trkpt lat="50.21032" lon="-3.73168"></trkpt>
      <trkpt lat="50.21024" lon="-3.73148"></trkpt>
      <trkpt lat="50.21017" lon="-3.7314"></trkpt>
      <trkpt lat="50.2101" lon="-3.73119"></trkpt>
      <trkpt lat="50.20994" lon="-3.73091"></trkpt>
      <trkpt lat="50.20988" lon="-3.73084"></trkpt>
      <trkpt lat="50.20976" lon="-3.73084"></trkpt>
      <trkpt lat="50.20967" lon="-3.73081"></trkpt>
      <trkpt lat="50.20953" lon="-3.73071"></trkpt>
      <trkpt lat="50.20947" lon="-3.73063"></trkpt>
      <trkpt lat="50.20928" lon="-3.73056"></trkpt>
      <trkpt lat="50.20926" lon="-3.73048"></trkpt>
      <trkpt lat="50.20928" lon="-3.73045"></trkpt>
      <trkpt lat="50.20939" lon="-3.73039"></trkpt>
      <trkpt lat="50.20938" lon="-3.73037"></trkpt>
      <trkpt lat="50.20931" lon="-3.73033"></trkpt>
      <trkpt lat="50.20916" lon="-3.73033"></trkpt>
      <trkpt lat="50.20914" lon="-3.73031"></trkpt>
      <trkpt lat="50.20908" lon="-3.73035"></trkpt>
      <trkpt lat="50.20905" lon="-3.73024"></trkpt>
      <trkpt lat="50.20912" lon="-3.73008"></trkpt>
      <trkpt lat="50.2093" lon="-3.7299"></trkpt>
      <trkpt lat="50.20939" lon="-3.72966"></trkpt>
      <trkpt lat="50.20939" lon="-3.72956"></trkpt>
      <trkpt lat="50.20937" lon="-3.72946"></trkpt>
      <trkpt lat="50.20934" lon="-3.72943"></trkpt>
      <trkpt lat="50.20907" lon="-3.72926"></trkpt>
      <trkpt lat="50.20891" lon="-3.72919"></trkpt>
      <trkpt lat="50.20876" lon="-3.7289"></trkpt>
      <trkpt lat="50.20866" lon="-3.72881"></trkpt>
      <trkpt lat="50.20861" lon="-3.72869"></trkpt>
      <trkpt lat="50.20862" lon="-3.72859"></trkpt>
      <trkpt lat="50.20852" lon="-3.72845"></trkpt>
      <trkpt lat="50.20851" lon="-3.72837"></trkpt>
      <trkpt lat="50.20853" lon="-3.72826"></trkpt>
      <trkpt lat="50.20858" lon="-3.72775"></trkpt>
      <trkpt lat="50.2086" lon="-3.72732"></trkpt>
      <trkpt lat="50.20859" lon="-3.72671"></trkpt>
      <trkpt lat="50.2086" lon="-3.72637"></trkpt>
      <trkpt lat="50.2085" lon="-3.72594"></trkpt>
      <trkpt lat="50.20849" lon="-3.7258"></trkpt>
      <trkpt lat="50.20847" lon="-3.72575"></trkpt>
      <trkpt lat="50.20837" lon="-3.7257"></trkpt>
      <trkpt lat="50.20828" lon="-3.72557"></trkpt>
      <trkpt lat="50.20821" lon="-3.72558"></trkpt>
      <trkpt lat="50.20816" lon="-3.72548"></trkpt>
      <trkpt lat="50.20798" lon="-3.72538"></trkpt>
      <trkpt lat="50.20785" lon="-3.72542"></trkpt>
      <trkpt lat="50.20769" lon="-3.72529"></trkpt>
      <trkpt lat="50.20746" lon="-3.72546"></trkpt>
      <trkpt lat="50.20715" lon="-3.72582"></trkpt>
      <trkpt lat="50.20692" lon="-3.72601"></trkpt>
      <trkpt lat="50.20678" lon="-3.72601"></trkpt>
      <trkpt lat="50.20671" lon="-3.72605"></trkpt>
      <trkpt lat="50.2067" lon="-3.726"></trkpt>
      <trkpt lat="50.20663" lon="-3.72594"></trkpt>
      <trkpt lat="50.20644" lon="-3.72588"></trkpt>
      <trkpt lat="50.20609" lon="-3.72557"></trkpt>
      <trkpt lat="50.20601" lon="-3.72554"></trkpt>
      <trkpt lat="50.20587" lon="-3.72536"></trkpt>
      <trkpt lat="50.20573" lon="-3.72507"></trkpt>
      <trkpt lat="50.20576" lon="-3.72498"></trkpt>
      <trkpt lat="50.20583" lon="-3.72498"></trkpt>
      <trkpt lat="50.20576" lon="-3.72486"></trkpt>
      <trkpt lat="50.2057" lon="-3.72475"></trkpt>
      <trkpt lat="50.20545" lon="-3.72458"></trkpt>
      <trkpt lat="50.20524" lon="-3.72452"></trkpt>
      <trkpt lat="50.20514" lon="-3.72452"></trkpt>
      <trkpt lat="50.20505" lon="-3.72458"></trkpt>
      <trkpt lat="50.20502" lon="-3.72464"></trkpt>
      <trkpt lat="50.20482" lon="-3.72458"></trkpt>
      <trkpt lat="50.20482" lon="-3.72452"></trkpt>
      <trkpt lat="50.20488" lon="-3.72445"></trkpt>
      <trkpt lat="50.20488" lon="-3.72439"></trkpt>
      <trkpt lat="50.20481" lon="-3.72421"></trkpt>
      <trkpt lat="50.20477" lon="-3.72397"></trkpt>
      <trkpt lat="50.20477" lon="-3.72385"></trkpt>
      <trkpt lat="50.20463" lon="-3.7235"></trkpt>
      <trkpt lat="50.20453" lon="-3.72338"></trkpt>
      <trkpt lat="50.20436" lon="-3.72337"></trkpt>
      <trkpt lat="50.20435" lon="-3.72326"></trkpt>
      <trkpt lat="50.20431" lon="-3.72318"></trkpt>
      <trkpt lat="50.20424" lon="-3.72297"></trkpt>
      <trkpt lat="50.20415" lon="-3.72287"></trkpt>
      <trkpt lat="50.20415" lon="-3.72281"></trkpt>
      <trkpt lat="50.20391" lon="-3.72228"></trkpt>
      <trkpt lat="50.20386" lon="-3.72221"></trkpt>
      <trkpt lat="50.20363" lon="-3.72152"></trkpt>
      <trkpt lat="50.20346" lon="-3.72116"></trkpt>
      <trkpt lat="50.2034" lon="-3.72108"></trkpt>
      <trkpt lat="50.20335" lon="-3.72092"></trkpt>
      <trkpt lat="50.20337" lon="-3.72066"></trkpt>
      <trkpt lat="50.20332" lon="-3.72059"></trkpt>
      <trkpt lat="50.20332" lon="-3.72058"></trkpt>
      <trkpt lat="50.20337" lon="-3.72066"></trkpt>
      <trkpt lat="50.20379" lon="-3.72082"></trkpt>
      <trkpt lat="50.20408" lon="-3.72077"></trkpt>
      <trkpt lat="50.20449" lon="-3.72057"></trkpt>
      <trkpt lat="50.20454" lon="-3.7205"></trkpt>
      <trkpt lat="50.2053" lon="-3.71875"></trkpt>
      <trkpt lat="50.20542" lon="-3.71831"></trkpt>
      <trkpt lat="50.20563" lon="-3.71799"></trkpt>
      <trkpt lat="50.20594" lon="-3.7172"></trkpt>
      <trkpt lat="50.20591" lon="-3.71668"></trkpt>
      <trkpt lat="50.20593" lon="-3.71625"></trkpt>
      <trkpt lat="50.20599" lon="-3.7156"></trkpt>
      <trkpt lat="50.20597" lon="-3.71546"></trkpt>
      <trkpt lat="50.20587" lon="-3.71527"></trkpt>
      <trkpt lat="50.20588" lon="-3.71508"></trkpt>
      <trkpt lat="50.20591" lon="-3.71498"></trkpt>
      <trkpt lat="50.20598" lon="-3.71488"></trkpt>
      <trkpt lat="50.20606" lon="-3.71483"></trkpt>
      <trkpt lat="50.20614" lon="-3.71469"></trkpt>
      <trkpt lat="50.20616" lon="-3.71461"></trkpt>
      <trkpt lat="50.20615" lon="-3.71445"></trkpt>
      <trkpt lat="50.20619" lon="-3.71431"></trkpt>
      <trkpt lat="50.20627" lon="-3.71425"></trkpt>
      <trkpt lat="50.20634" lon="-3.71424"></trkpt>
      <trkpt lat="50.20638" lon="-3.71426"></trkpt>
      <trkpt lat="50.20649" lon="-3.71442"></trkpt>
      <trkpt lat="50.20656" lon="-3.71447"></trkpt>
      <trkpt lat="50.20663" lon="-3.71427"></trkpt>
      <trkpt lat="50.20663" lon="-3.7141"></trkpt>
      <trkpt lat="50.20666" lon="-3.71399"></trkpt>
      <trkpt lat="50.20664" lon="-3.71394"></trkpt>
      <trkpt lat="50.20648" lon="-3.71386"></trkpt>
      <trkpt lat="50.20642" lon="-3.71377"></trkpt>
      <trkpt lat="50.20632" lon="-3.71324"></trkpt>
      <trkpt lat="50.20632" lon="-3.71308"></trkpt>
      <trkpt lat="50.20635" lon="-3.71289"></trkpt>
      <trkpt lat="50.20634" lon="-3.71217"></trkpt>
      <trkpt lat="50.20635" lon="-3.7119"></trkpt>
      <trkpt lat="50.20639" lon="-3.71172"></trkpt>
      <trkpt lat="50.20647" lon="-3.71153"></trkpt>
      <trkpt lat="50.20655" lon="-3.71108"></trkpt>
      <trkpt lat="50.20661" lon="-3.71013"></trkpt>
      <trkpt lat="50.20661" lon="-3.71014"></trkpt>
      <trkpt lat="50.20658" lon="-3.70978"></trkpt>
      <trkpt lat="50.2065" lon="-3.70935"></trkpt>
      <trkpt lat="50.20635" lon="-3.7089"></trkpt>
      <trkpt lat="50.20626" lon="-3.70872"></trkpt>
      <trkpt lat="50.20604" lon="-3.70844"></trkpt>
      <trkpt lat="50.20597" lon="-3.70832"></trkpt>
      <trkpt lat="50.20594" lon="-3.70819"></trkpt>
      <trkpt lat="50.20592" lon="-3.70798"></trkpt>
      <trkpt lat="50.20593" lon="-3.70779"></trkpt>
      <trkpt lat="50.20601" lon="-3.70752"></trkpt>
      <trkpt lat="50.20614" lon="-3.70745"></trkpt>
      <trkpt lat="50.20626" lon="-3.70748"></trkpt>
      <trkpt lat="50.20636" lon="-3.70742"></trkpt>
      <trkpt lat="50.20676" lon="-3.70699"></trkpt>
      <trkpt lat="50.20706" lon="-3.70679"></trkpt>
      <trkpt lat="50.20724" lon="-3.70657"></trkpt>
      <trkpt lat="50.20743" lon="-3.70617"></trkpt>
      <trkpt lat="50.20753" lon="-3.70589"></trkpt>
      <trkpt lat="50.20763" lon="-3.70568"></trkpt>
      <trkpt lat="50.20783" lon="-3.70542"></trkpt>
      <trkpt lat="50.20831" lon="-3.70453"></trkpt>
      <trkpt lat="50.20873" lon="-3.70408"></trkpt>
      <trkpt lat="50.20902" lon="-3.70395"></trkpt>
      <trkpt lat="50.20926" lon="-3.70381"></trkpt>
      <trkpt lat="50.20939" lon="-3.7038"></trkpt>
      <trkpt lat="50.20959" lon="-3.70377"></trkpt>
      <trkpt lat="50.20998" lon="-3.70366"></trkpt>
      <trkpt lat="50.21019" lon="-3.70368"></trkpt>
      <trkpt lat="50.21093" lon="-3.70395"></trkpt>
      <trkpt lat="50.21106" lon="-3.70397"></trkpt>
      <trkpt lat="50.2112" lon="-3.70392"></trkpt>
      <trkpt lat="50.21124" lon="-3.70388"></trkpt>
      <trkpt lat="50.21133" lon="-3.70392"></trkpt>
      <trkpt lat="50.21154" lon="-3.70357"></trkpt>
      <trkpt lat="50.21168" lon="-3.70327"></trkpt>
      <trkpt lat="50.21176" lon="-3.70298"></trkpt>
      <trkpt lat="50.21178" lon="-3.70268"></trkpt>
      <trkpt lat="50.21188" lon="-3.70224"></trkpt>
      <trkpt lat="50.21197" lon="-3.70204"></trkpt>
      <trkpt lat="50.21206" lon="-3.70193"></trkpt>
      <trkpt lat="50.21211" lon="-3.70193"></trkpt>
      <trkpt lat="50.21218" lon="-3.70199"></trkpt>
      <trkpt lat="50.21231" lon="-3.70266"></trkpt>
      <trkpt lat="50.21235" lon="-3.70265"></trkpt>
      <trkpt lat="50.21236" lon="-3.7026"></trkpt>
      <trkpt lat="50.21234" lon="-3.70246"></trkpt>
      <trkpt lat="50.21234" lon="-3.70209"></trkpt>
      <trkpt lat="50.21238" lon="-3.70185"></trkpt>
      <trkpt lat="50.21237" lon="-3.70173"></trkpt>
      <trkpt lat="50.2122" lon="-3.7015"></trkpt>
      <trkpt lat="50.2122" lon="-3.7014"></trkpt>
      <trkpt lat="50.21258" lon="-3.70025"></trkpt>
      <trkpt lat="50.21274" lon="-3.6999"></trkpt>
      <trkpt lat="50.21295" lon="-3.69953"></trkpt>
      <trkpt lat="50.21329" lon="-3.69831"></trkpt>
      <trkpt lat="50.21338" lon="-3.69807"></trkpt>
      <trkpt lat="50.21349" lon="-3.69769"></trkpt>
      <trkpt lat="50.21363" lon="-3.69707"></trkpt>
      <trkpt lat="50.21367" lon="-3.69698"></trkpt>
      <trkpt lat="50.21412" lon="-3.69631"></trkpt>
      <trkpt lat="50.21425" lon="-3.69605"></trkpt>
      <trkpt lat="50.21437" lon="-3.69569"></trkpt>
      <trkpt lat="50.21437" lon="-3.69555"></trkpt>
      <trkpt lat="50.21439" lon="-3.69508"></trkpt>
      <trkpt lat="50.21457" lon="-3.69464"></trkpt>
      <trkpt lat="50.2148" lon="-3.69434"></trkpt>
      <trkpt lat="50.21511" lon="-3.6938"></trkpt>
      <trkpt lat="50.21522" lon="-3.69378"></trkpt>
      <trkpt lat="50.21527" lon="-3.69369"></trkpt>
      <trkpt lat="50.21543" lon="-3.69355"></trkpt>
      <trkpt lat="50.21546" lon="-3.69348"></trkpt>
      <trkpt lat="50.21552" lon="-3.69344"></trkpt>
      <trkpt lat="50.21556" lon="-3.69334"></trkpt>
      <trkpt lat="50.21573" lon="-3.69313"></trkpt>
      <trkpt lat="50.21575" lon="-3.69303"></trkpt>
      <trkpt lat="50.21579" lon="-3.693"></trkpt>
      <trkpt lat="50.2158" lon="-3.69287"></trkpt>
      <trkpt lat="50.21574" lon="-3.69267"></trkpt>
      <trkpt lat="50.21575" lon="-3.6926"></trkpt>
      <trkpt lat="50.21581" lon="-3.69245"></trkpt>
      <trkpt lat="50.21597" lon="-3.69217"></trkpt>
      <trkpt lat="50.21607" lon="-3.69206"></trkpt>
      <trkpt lat="50.21609" lon="-3.69207"></trkpt>
      <trkpt lat="50.2162" lon="-3.69196"></trkpt>
      <trkpt lat="50.21625" lon="-3.69196"></trkpt>
      <trkpt lat="50.2163" lon="-3.69188"></trkpt>
      <trkpt lat="50.21637" lon="-3.69187"></trkpt>
      <trkpt lat="50.21651" lon="-3.69165"></trkpt>
      <trkpt lat="50.21653" lon="-3.69159"></trkpt>
      <trkpt lat="50.21657" lon="-3.69156"></trkpt>
      <trkpt lat="50.21658" lon="-3.69137"></trkpt>
      <trkpt lat="50.21657" lon="-3.69109"></trkpt>
      <trkpt lat="50.21651" lon="-3.69102"></trkpt>
      <trkpt lat="50.21647" lon="-3.69101"></trkpt>
      <trkpt lat="50.21642" lon="-3.69087"></trkpt>
      <trkpt lat="50.21638" lon="-3.69081"></trkpt>
      <trkpt lat="50.21637" lon="-3.69075"></trkpt>
      <trkpt lat="50.21631" lon="-3.69071"></trkpt>
      <trkpt lat="50.21628" lon="-3.69065"></trkpt>
      <trkpt lat="50.21621" lon="-3.69057"></trkpt>
      <trkpt lat="50.21619" lon="-3.69052"></trkpt>
      <trkpt lat="50.21618" lon="-3.6904"></trkpt>
      <trkpt lat="50.2162" lon="-3.69035"></trkpt>
      <trkpt lat="50.21627" lon="-3.6903"></trkpt>
      <trkpt lat="50.21635" lon="-3.69003"></trkpt>
      <trkpt lat="50.21639" lon="-3.69003"></trkpt>
      <trkpt lat="50.21644" lon="-3.68993"></trkpt>
      <trkpt lat="50.21642" lon="-3.68967"></trkpt>
      <trkpt lat="50.21646" lon="-3.68952"></trkpt>
      <trkpt lat="50.21651" lon="-3.68951"></trkpt>
      <trkpt lat="50.21663" lon="-3.68936"></trkpt>
      <trkpt lat="50.21671" lon="-3.6893"></trkpt>
      <trkpt lat="50.21676" lon="-3.68937"></trkpt>
      <trkpt lat="50.21683" lon="-3.68937"></trkpt>
      <trkpt lat="50.21692" lon="-3.68927"></trkpt>
      <trkpt lat="50.21697" lon="-3.6893"></trkpt>
      <trkpt lat="50.217" lon="-3.68929"></trkpt>
      <trkpt lat="50.2171" lon="-3.68944"></trkpt>
      <trkpt lat="50.21714" lon="-3.68953"></trkpt>
      <trkpt lat="50.21735" lon="-3.68969"></trkpt>
      <trkpt lat="50.2174" lon="-3.68982"></trkpt>
      <trkpt lat="50.21747" lon="-3.68975"></trkpt>
      <trkpt lat="50.21751" lon="-3.68974"></trkpt>
      <trkpt lat="50.21759" lon="-3.68979"></trkpt>
      <trkpt lat="50.21773" lon="-3.68984"></trkpt>
      <trkpt lat="50.21777" lon="-3.68988"></trkpt>
      <trkpt lat="50.21801" lon="-3.68989"></trkpt>
      <trkpt lat="50.21805" lon="-3.68992"></trkpt>
      <trkpt lat="50.21811" lon="-3.68991"></trkpt>
      <trkpt lat="50.21816" lon="-3.68997"></trkpt>
      <trkpt lat="50.21826" lon="-3.68999"></trkpt>
      <trkpt lat="50.21834" lon="-3.69006"></trkpt>
      <trkpt lat="50.21838" lon="-3.69005"></trkpt>
      <trkpt lat="50.21859" lon="-3.69021"></trkpt>
      <trkpt lat="50.2187" lon="-3.69024"></trkpt>
      <trkpt lat="50.21906" lon="-3.69041"></trkpt>
      <trkpt lat="50.21925" lon="-3.69052"></trkpt>
      <trkpt lat="50.21933" lon="-3.69059"></trkpt>
      <trkpt lat="50.21969" lon="-3.69077"></trkpt>
      <trkpt lat="50.21974" lon="-3.69077"></trkpt>
      <trkpt lat="50.21985" lon="-3.69082"></trkpt>
      <trkpt lat="50.21989" lon="-3.69088"></trkpt>
      <trkpt lat="50.21996" lon="-3.69074"></trkpt>
      <trkpt lat="50.21993" lon="-3.69067"></trkpt>
      <trkpt lat="50.2199" lon="-3.69041"></trkpt>
      <trkpt lat="50.21992" lon="-3.69009"></trkpt>
      <trkpt lat="50.21984" lon="-3.68965"></trkpt>
      <trkpt lat="50.21977" lon="-3.68882"></trkpt>
      <trkpt lat="50.21976" lon="-3.68877"></trkpt>
      <trkpt lat="50.21971" lon="-3.68872"></trkpt>
      <trkpt lat="50.21969" lon="-3.68853"></trkpt>
      <trkpt lat="50.2197" lon="-3.68846"></trkpt>
      <trkpt lat="50.21965" lon="-3.68824"></trkpt>
      <trkpt lat="50.21965" lon="-3.68801"></trkpt>
      <trkpt lat="50.21971" lon="-3.68767"></trkpt>
      <trkpt lat="50.21977" lon="-3.6875"></trkpt>
      <trkpt lat="50.21989" lon="-3.68727"></trkpt>
      <trkpt lat="50.21993" lon="-3.68714"></trkpt>
      <trkpt lat="50.21995" lon="-3.68694"></trkpt>
      <trkpt lat="50.21999" lon="-3.68684"></trkpt>
      <trkpt lat="50.22008" lon="-3.68678"></trkpt>
      <trkpt lat="50.22014" lon="-3.6868"></trkpt>
      <trkpt lat="50.22038" lon="-3.6867"></trkpt>
      <trkpt lat="50.22042" lon="-3.68683"></trkpt>
      <trkpt lat="50.22049" lon="-3.68685"></trkpt>
      <trkpt lat="50.22061" lon="-3.6867"></trkpt>
      <trkpt lat="50.22066" lon="-3.68659"></trkpt>
      <trkpt lat="50.22066" lon="-3.68633"></trkpt>
      <trkpt lat="50.22069" lon="-3.68626"></trkpt>
      <trkpt lat="50.221" lon="-3.68596"></trkpt>
      <trkpt lat="50.22107" lon="-3.68585"></trkpt>
      <trkpt lat="50.22111" lon="-3.68554"></trkpt>
      <trkpt lat="50.22108" lon="-3.68533"></trkpt>
      <trkpt lat="50.22105" lon="-3.68525"></trkpt>
      <trkpt lat="50.221" lon="-3.68512"></trkpt>
      <trkpt lat="50.22093" lon="-3.68484"></trkpt>
      <trkpt lat="50.22094" lon="-3.68475"></trkpt>
      <trkpt lat="50.22089" lon="-3.68465"></trkpt>
      <trkpt lat="50.22095" lon="-3.68454"></trkpt>
      <trkpt lat="50.22094" lon="-3.68439"></trkpt>
      <trkpt lat="50.22107" lon="-3.68398"></trkpt>
      <trkpt lat="50.22124" lon="-3.68368"></trkpt>
      <trkpt lat="50.2216" lon="-3.68323"></trkpt>
      <trkpt lat="50.22175" lon="-3.68278"></trkpt>
      <trkpt lat="50.22188" lon="-3.6825"></trkpt>
      <trkpt lat="50.22201" lon="-3.68232"></trkpt>
      <trkpt lat="50.22229" lon="-3.68177"></trkpt>
      <trkpt lat="50.2224" lon="-3.68168"></trkpt>
      <trkpt lat="50.2224" lon="-3.68163"></trkpt>
      <trkpt lat="50.22243" lon="-3.68153"></trkpt>
      <trkpt lat="50.22264" lon="-3.68126"></trkpt>
      <trkpt lat="50.22266" lon="-3.68116"></trkpt>
      <trkpt lat="50.22267" lon="-3.68067"></trkpt>
      <trkpt lat="50.22254" lon="-3.6805"></trkpt>
      <trkpt lat="50.22242" lon="-3.6805"></trkpt>
      <trkpt lat="50.22234" lon="-3.68036"></trkpt>
      <trkpt lat="50.22229" lon="-3.6802"></trkpt>
      <trkpt lat="50.22231" lon="-3.67984"></trkpt>
      <trkpt lat="50.22228" lon="-3.67969"></trkpt>
      <trkpt lat="50.22214" lon="-3.67937"></trkpt>
      <trkpt lat="50.22199" lon="-3.67848"></trkpt>
      <trkpt lat="50.22198" lon="-3.67803"></trkpt>
      <trkpt lat="50.222" lon="-3.67742"></trkpt>
      <trkpt lat="50.22164" lon="-3.67569"></trkpt>
      <trkpt lat="50.22158" lon="-3.67498"></trkpt>
      <trkpt lat="50.22151" lon="-3.67471"></trkpt>
      <trkpt lat="50.22152" lon="-3.67457"></trkpt>
      <trkpt lat="50.22152" lon="-3.67439"></trkpt>
      <trkpt lat="50.22157" lon="-3.67409"></trkpt>
      <trkpt lat="50.22161" lon="-3.67364"></trkpt>
      <trkpt lat="50.22161" lon="-3.67342"></trkpt>
      <trkpt lat="50.22153" lon="-3.67288"></trkpt>
      <trkpt lat="50.2215" lon="-3.67247"></trkpt>
      <trkpt lat="50.22148" lon="-3.67233"></trkpt>
      <trkpt lat="50.22124" lon="-3.67132"></trkpt>
      <trkpt lat="50.22108" lon="-3.67096"></trkpt>
      <trkpt lat="50.22103" lon="-3.67072"></trkpt>
      <trkpt lat="50.22097" lon="-3.66987"></trkpt>
      <trkpt lat="50.22093" lon="-3.6695"></trkpt>
      <trkpt lat="50.22091" lon="-3.66897"></trkpt>
      <trkpt lat="50.22086" lon="-3.66869"></trkpt>
      <trkpt lat="50.22088" lon="-3.66839"></trkpt>
      <trkpt lat="50.22094" lon="-3.66818"></trkpt>
      <trkpt lat="50.22107" lon="-3.66805"></trkpt>
      <trkpt lat="50.22116" lon="-3.66789"></trkpt>
      <trkpt lat="50.22123" lon="-3.66767"></trkpt>
      <trkpt lat="50.22136" lon="-3.66679"></trkpt>
      <trkpt lat="50.22134" lon="-3.66649"></trkpt>
      <trkpt lat="50.2213" lon="-3.66626"></trkpt>
      <trkpt lat="50.22104" lon="-3.66581"></trkpt>
      <trkpt lat="50.221" lon="-3.66569"></trkpt>
      <trkpt lat="50.22096" lon="-3.66526"></trkpt>
      <trkpt lat="50.22077" lon="-3.66453"></trkpt>
      <trkpt lat="50.22074" lon="-3.6643"></trkpt>
      <trkpt lat="50.22076" lon="-3.66382"></trkpt>
      <trkpt lat="50.22075" lon="-3.6636"></trkpt>
      <trkpt lat="50.22072" lon="-3.6634"></trkpt>
      <trkpt lat="50.22067" lon="-3.66324"></trkpt>
      <trkpt lat="50.22068" lon="-3.66319"></trkpt>
      <trkpt lat="50.22083" lon="-3.66318"></trkpt>
      <trkpt lat="50.22086" lon="-3.66314"></trkpt>
      <trkpt lat="50.22088" lon="-3.66299"></trkpt>
      <trkpt lat="50.22105" lon="-3.66253"></trkpt>
      <trkpt lat="50.22112" lon="-3.6624"></trkpt>
      <trkpt lat="50.22119" lon="-3.66221"></trkpt>
      <trkpt lat="50.22116" lon="-3.66191"></trkpt>
      <trkpt lat="50.22115" lon="-3.6616"></trkpt>
      <trkpt lat="50.2211" lon="-3.66123"></trkpt>
      <trkpt lat="50.22108" lon="-3.66115"></trkpt>
      <trkpt lat="50.22109" lon="-3.66074"></trkpt>
      <trkpt lat="50.22104" lon="-3.66048"></trkpt>
      <trkpt lat="50.22103" lon="-3.6603"></trkpt>
      <trkpt lat="50.22095" lon="-3.65999"></trkpt>
      <trkpt lat="50.22092" lon="-3.65974"></trkpt>
      <trkpt lat="50.22092" lon="-3.65956"></trkpt>
      <trkpt lat="50.2209" lon="-3.65937"></trkpt>
      <trkpt lat="50.22095" lon="-3.65887"></trkpt>
      <trkpt lat="50.22094" lon="-3.65859"></trkpt>
      <trkpt lat="50.22082" lon="-3.65839"></trkpt>
      <trkpt lat="50.22073" lon="-3.65831"></trkpt>
      <trkpt lat="50.2206" lon="-3.65827"></trkpt>
      <trkpt lat="50.22047" lon="-3.65826"></trkpt>
      <trkpt lat="50.22015" lon="-3.65858"></trkpt>
      <trkpt lat="50.22011" lon="-3.65859"></trkpt>
      <trkpt lat="50.21969" lon="-3.65844"></trkpt>
      <trkpt lat="50.21951" lon="-3.65817"></trkpt>
      <trkpt lat="50.21944" lon="-3.65797"></trkpt>
      <trkpt lat="50.21934" lon="-3.65753"></trkpt>
      <trkpt lat="50.21935" lon="-3.65722"></trkpt>
      <trkpt lat="50.21934" lon="-3.65718"></trkpt>
      <trkpt lat="50.21904" lon="-3.65695"></trkpt>
      <trkpt lat="50.21898" lon="-3.65695"></trkpt>
      <trkpt lat="50.21897" lon="-3.65699"></trkpt>
      <trkpt lat="50.21881" lon="-3.65711"></trkpt>
      <trkpt lat="50.21875" lon="-3.6571"></trkpt>
      <trkpt lat="50.21866" lon="-3.65713"></trkpt>
      <trkpt lat="50.21847" lon="-3.657"></trkpt>
      <trkpt lat="50.21829" lon="-3.6567"></trkpt>
      <trkpt lat="50.21828" lon="-3.65654"></trkpt>
      <trkpt lat="50.21821" lon="-3.65622"></trkpt>
      <trkpt lat="50.21822" lon="-3.65605"></trkpt>
      <trkpt lat="50.21829" lon="-3.65589"></trkpt>
      <trkpt lat="50.21829" lon="-3.6559"></trkpt>
      <trkpt lat="50.21835" lon="-3.65573"></trkpt>
      <trkpt lat="50.21838" lon="-3.65556"></trkpt>
      <trkpt lat="50.21858" lon="-3.65529"></trkpt>
      <trkpt lat="50.21862" lon="-3.65519"></trkpt>
      <trkpt lat="50.21888" lon="-3.65489"></trkpt>
      <trkpt lat="50.21895" lon="-3.65478"></trkpt>
      <trkpt lat="50.21901" lon="-3.65471"></trkpt>
      <trkpt lat="50.2191" lon="-3.65466"></trkpt>
      <trkpt lat="50.21919" lon="-3.65451"></trkpt>
      <trkpt lat="50.21926" lon="-3.65446"></trkpt>
      <trkpt lat="50.21934" lon="-3.65433"></trkpt>
      <trkpt lat="50.21938" lon="-3.65432"></trkpt>
      <trkpt lat="50.21946" lon="-3.65422"></trkpt>
      <trkpt lat="50.21954" lon="-3.65406"></trkpt>
      <trkpt lat="50.21957" lon="-3.65391"></trkpt>
      <trkpt lat="50.2196" lon="-3.65385"></trkpt>
      <trkpt lat="50.21996" lon="-3.65367"></trkpt>
      <trkpt lat="50.22002" lon="-3.65366"></trkpt>
      <trkpt lat="50.22027" lon="-3.65331"></trkpt>
      <trkpt lat="50.22045" lon="-3.653"></trkpt>
      <trkpt lat="50.2206" lon="-3.65271"></trkpt>
      <trkpt lat="50.22068" lon="-3.65259"></trkpt>
      <trkpt lat="50.22102" lon="-3.65222"></trkpt>
      <trkpt lat="50.2213" lon="-3.65186"></trkpt>
      <trkpt lat="50.22155" lon="-3.6516"></trkpt>
      <trkpt lat="50.22163" lon="-3.65157"></trkpt>
      <trkpt lat="50.22173" lon="-3.65149"></trkpt>
      <trkpt lat="50.22184" lon="-3.6513"></trkpt>
      <trkpt lat="50.22197" lon="-3.65112"></trkpt>
      <trkpt lat="50.2222" lon="-3.65086"></trkpt>
      <trkpt lat="50.22225" lon="-3.65072"></trkpt>
      <trkpt lat="50.22233" lon="-3.65035"></trkpt>
      <trkpt lat="50.22241" lon="-3.64972"></trkpt>
      <trkpt lat="50.22248" lon="-3.64955"></trkpt>
      <trkpt lat="50.22252" lon="-3.64936"></trkpt>
      <trkpt lat="50.22256" lon="-3.649"></trkpt>
      <trkpt lat="50.22262" lon="-3.64905"></trkpt>
      <trkpt lat="50.2227" lon="-3.64907"></trkpt>
      <trkpt lat="50.2228" lon="-3.64914"></trkpt>
      <trkpt lat="50.223" lon="-3.6491"></trkpt>
      <trkpt lat="50.22319" lon="-3.64918"></trkpt>
      <trkpt lat="50.22326" lon="-3.64925"></trkpt>
      <trkpt lat="50.22346" lon="-3.64963"></trkpt>
      <trkpt lat="50.22346" lon="-3.64972"></trkpt>
      <trkpt lat="50.22348" lon="-3.65001"></trkpt>
      <trkpt lat="50.22352" lon="-3.6502"></trkpt>
      <trkpt lat="50.22359" lon="-3.65046"></trkpt>
      <trkpt lat="50.22386" lon="-3.65126"></trkpt>
      <trkpt lat="50.22399" lon="-3.65155"></trkpt>
      <trkpt lat="50.2242" lon="-3.65193"></trkpt>
      <trkpt lat="50.22451" lon="-3.65256"></trkpt>
      <trkpt lat="50.22479" lon="-3.653"></trkpt>
      <trkpt lat="50.22494" lon="-3.65318"></trkpt>
      <trkpt lat="50.22568" lon="-3.65388"></trkpt>
      <trkpt lat="50.22594" lon="-3.65433"></trkpt>
      <trkpt lat="50.22662" lon="-3.65568"></trkpt>
      <trkpt lat="50.22692" lon="-3.65603"></trkpt>
      <trkpt lat="50.22707" lon="-3.65614"></trkpt>
      <trkpt lat="50.22715" lon="-3.65627"></trkpt>
      <trkpt lat="50.22722" lon="-3.65634"></trkpt>
      <trkpt lat="50.22751" lon="-3.65677"></trkpt>
      <trkpt lat="50.22764" lon="-3.6569"></trkpt>
      <trkpt lat="50.22795" lon="-3.65714"></trkpt>
      <trkpt lat="50.22806" lon="-3.65727"></trkpt>
      <trkpt lat="50.22816" lon="-3.65734"></trkpt>
      <trkpt lat="50.2285" lon="-3.65742"></trkpt>
      <trkpt lat="50.22875" lon="-3.65756"></trkpt>
      <trkpt lat="50.22884" lon="-3.65755"></trkpt>
      <trkpt lat="50.2289" lon="-3.65747"></trkpt>
      <trkpt lat="50.22909" lon="-3.65747"></trkpt>
      <trkpt lat="50.22916" lon="-3.6575"></trkpt>
      <trkpt lat="50.2296" lon="-3.65789"></trkpt>
      <trkpt lat="50.22977" lon="-3.65795"></trkpt>
      <trkpt lat="50.22997" lon="-3.65786"></trkpt>
      <trkpt lat="50.23002" lon="-3.65789"></trkpt>
      <trkpt lat="50.23022" lon="-3.65788"></trkpt>
      <trkpt lat="50.23045" lon="-3.658"></trkpt>
      <trkpt lat="50.23076" lon="-3.65822"></trkpt>
      <trkpt lat="50.23086" lon="-3.65827"></trkpt>
      <trkpt lat="50.23114" lon="-3.65831"></trkpt>
      <trkpt lat="50.23136" lon="-3.65828"></trkpt>
      <trkpt lat="50.23155" lon="-3.65828"></trkpt>
      <trkpt lat="50.23175" lon="-3.65833"></trkpt>
      <trkpt lat="50.23262" lon="-3.65871"></trkpt>
      <trkpt lat="50.23279" lon="-3.65889"></trkpt>
      <trkpt lat="50.23296" lon="-3.65895"></trkpt>
      <trkpt lat="50.23311" lon="-3.65906"></trkpt>
      <trkpt lat="50.23401" lon="-3.65945"></trkpt>
      <trkpt lat="50.23411" lon="-3.65948"></trkpt>
      <trkpt lat="50.23416" lon="-3.65946"></trkpt>
      <trkpt lat="50.23429" lon="-3.6595"></trkpt>
      <trkpt lat="50.23487" lon="-3.65945"></trkpt>
      <trkpt lat="50.23497" lon="-3.65951"></trkpt>
      <trkpt lat="50.23504" lon="-3.65961"></trkpt>
      <trkpt lat="50.23512" lon="-3.6596"></trkpt>
      <trkpt lat="50.23537" lon="-3.65947"></trkpt>
      <trkpt lat="50.23546" lon="-3.65945"></trkpt>
      <trkpt lat="50.23567" lon="-3.6593"></trkpt>
      <trkpt lat="50.23603" lon="-3.65918"></trkpt>
      <trkpt lat="50.23604" lon="-3.65931"></trkpt>
      <trkpt lat="50.2362" lon="-3.65932"></trkpt>
      <trkpt lat="50.23641" lon="-3.6595"></trkpt>
      <trkpt lat="50.23648" lon="-3.65962"></trkpt>
      <trkpt lat="50.23677" lon="-3.65958"></trkpt>
      <trkpt lat="50.23682" lon="-3.6596"></trkpt>
      <trkpt lat="50.23692" lon="-3.6595"></trkpt>
      <trkpt lat="50.237" lon="-3.65927"></trkpt>
      <trkpt lat="50.23708" lon="-3.65929"></trkpt>
      <trkpt lat="50.23749" lon="-3.65973"></trkpt>
      <trkpt lat="50.23804" lon="-3.6598"></trkpt>
      <trkpt lat="50.2381" lon="-3.65985"></trkpt>
      <trkpt lat="50.23857" lon="-3.65978"></trkpt>
      <trkpt lat="50.23909" lon="-3.65984"></trkpt>
      <trkpt lat="50.23959" lon="-3.65983"></trkpt>
      <trkpt lat="50.24043" lon="-3.6599"></trkpt>
      <trkpt lat="50.24125" lon="-3.65991"></trkpt>
      <trkpt lat="50.24157" lon="-3.65954"></trkpt>
      <trkpt lat="50.24166" lon="-3.65949"></trkpt>
      <trkpt lat="50.24176" lon="-3.65947"></trkpt>
      <trkpt lat="50.2422" lon="-3.65984"></trkpt>
      <trkpt lat="50.24237" lon="-3.65982"></trkpt>
      <trkpt lat="50.24256" lon="-3.65963"></trkpt>
      <trkpt lat="50.24272" lon="-3.6594"></trkpt>
      <trkpt lat="50.24298" lon="-3.65951"></trkpt>
      <trkpt lat="50.24388" lon="-3.65911"></trkpt>
      <trkpt lat="50.24407" lon="-3.659"></trkpt>
      <trkpt lat="50.24423" lon="-3.65865"></trkpt>
      <trkpt lat="50.24458" lon="-3.65844"></trkpt>
      <trkpt lat="50.24499" lon="-3.65822"></trkpt>
      <trkpt lat="50.24505" lon="-3.65821"></trkpt>
      <trkpt lat="50.24539" lon="-3.65814"></trkpt>
      <trkpt lat="50.24557" lon="-3.65819"></trkpt>
      <trkpt lat="50.24574" lon="-3.65832"></trkpt>
      <trkpt lat="50.24587" lon="-3.65837"></trkpt>
      <trkpt lat="50.24599" lon="-3.65847"></trkpt>
      <trkpt lat="50.24644" lon="-3.65858"></trkpt>
      <trkpt lat="50.24651" lon="-3.65863"></trkpt>
      <trkpt lat="50.24668" lon="-3.6587"></trkpt>
      <trkpt lat="50.24693" lon="-3.65869"></trkpt>
      <trkpt lat="50.24747" lon="-3.65843"></trkpt>
      <trkpt lat="50.24786" lon="-3.65811"></trkpt>
      <trkpt lat="50.24889" lon="-3.65765"></trkpt>
      <trkpt lat="50.24978" lon="-3.65769"></trkpt>
      <trkpt lat="50.2499" lon="-3.65762"></trkpt>
      <trkpt lat="50.25006" lon="-3.65746"></trkpt>
      <trkpt lat="50.25034" lon="-3.65737"></trkpt>
      <trkpt lat="50.25134" lon="-3.6572"></trkpt>
      <trkpt lat="50.25195" lon="-3.65705"></trkpt>
      <trkpt lat="50.25228" lon="-3.65703"></trkpt>
      <trkpt lat="50.25252" lon="-3.65708"></trkpt>
      <trkpt lat="50.25314" lon="-3.65699"></trkpt>
      <trkpt lat="50.25313" lon="-3.65668"></trkpt>
      <trkpt lat="50.25318" lon="-3.65661"></trkpt>
      <trkpt lat="50.25323" lon="-3.65659"></trkpt>
      <trkpt lat="50.2537" lon="-3.65664"></trkpt>
      <trkpt lat="50.25458" lon="-3.65644"></trkpt>
      <trkpt lat="50.25518" lon="-3.6564"></trkpt>
      <trkpt lat="50.25522" lon="-3.65627"></trkpt>
      <trkpt lat="50.25645" lon="-3.65578"></trkpt>
      <trkpt lat="50.25644" lon="-3.65578"></trkpt>
      <trkpt lat="50.25849" lon="-3.65517"></trkpt>
      <trkpt lat="50.25964" lon="-3.65489"></trkpt>
      <trkpt lat="50.25966" lon="-3.6549"></trkpt>
      <trkpt lat="50.25994" lon="-3.65547"></trkpt>
      <trkpt lat="50.26" lon="-3.65554"></trkpt>
      <trkpt lat="50.26051" lon="-3.65563"></trkpt>
      <trkpt lat="50.26056" lon="-3.65564"></trkpt>
      <trkpt lat="50.26121" lon="-3.65505"></trkpt>
      <trkpt lat="50.26136" lon="-3.65498"></trkpt>
      <trkpt lat="50.26141" lon="-3.65499"></trkpt>
      <trkpt lat="50.26147" lon="-3.65506"></trkpt>
      <trkpt lat="50.26148" lon="-3.6552"></trkpt>
      <trkpt lat="50.26147" lon="-3.65534"></trkpt>
      <trkpt lat="50.26139" lon="-3.65578"></trkpt>
      <trkpt lat="50.26142" lon="-3.656"></trkpt>
      <trkpt lat="50.2616" lon="-3.65655"></trkpt>
      <trkpt lat="50.26173" lon="-3.65662"></trkpt>
      <trkpt lat="50.26185" lon="-3.65658"></trkpt>
      <trkpt lat="50.26273" lon="-3.65589"></trkpt>
      <trkpt lat="50.2628" lon="-3.65576"></trkpt>
      <trkpt lat="50.26292" lon="-3.6551"></trkpt>
      <trkpt lat="50.26304" lon="-3.65478"></trkpt>
      <trkpt lat="50.26338" lon="-3.654"></trkpt>
      <trkpt lat="50.26374" lon="-3.65362"></trkpt>
      <trkpt lat="50.26418" lon="-3.65347"></trkpt>
      <trkpt lat="50.26503" lon="-3.65327"></trkpt>
      <trkpt lat="50.26521" lon="-3.65344"></trkpt>
      <trkpt lat="50.26531" lon="-3.65364"></trkpt>
      <trkpt lat="50.26536" lon="-3.65386"></trkpt>
      <trkpt lat="50.26541" lon="-3.65378"></trkpt>
      <trkpt lat="50.26544" lon="-3.65337"></trkpt>
      <trkpt lat="50.26547" lon="-3.65335"></trkpt>
      <trkpt lat="50.26553" lon="-3.65336"></trkpt>
      <trkpt lat="50.26559" lon="-3.65358"></trkpt>
      <trkpt lat="50.26563" lon="-3.65345"></trkpt>
      <trkpt lat="50.26567" lon="-3.65312"></trkpt>
      <trkpt lat="50.26571" lon="-3.65298"></trkpt>
      <trkpt lat="50.2658" lon="-3.65282"></trkpt>
      <trkpt lat="50.26575" lon="-3.65278"></trkpt>
    </trkseg>
  </trk>
</gpx>
