<?xml version="1.0" encoding="UTF-8"?>
<gpx version="1.1" creator="swcp-walk (imported from OS Maps route 33855925)"
     xmlns="http://www.topografix.com/GPX/1/1">
  <metadata>
    <name>SWCP40-Torcross-Dartmouth</name>
  </metadata>
  <trk>
    <name>SWCP40-Torcross-Dartmouth</name>
    <trkseg>
      <trkpt lat="50.26570599364467" lon="-3.6528033483123465"></trkpt>
      <trkpt lat="50.26572" lon="-3.65275"></trkpt>
      <trkpt lat="50.26595" lon="-3.65296"></trkpt>
      <trkpt lat="50.26599" lon="-3.65291"></trkpt>
      <trkpt lat="50.26632" lon="-3.65281"></trkpt>
      <trkpt lat="50.26637" lon="-3.6529"></trkpt>
      <trkpt lat="50.26655" lon="-3.65292"></trkpt>
      <trkpt lat="50.26657" lon="-3.65298"></trkpt>
      <trkpt lat="50.26664" lon="-3.65294"></trkpt>
      <trkpt lat="50.26743" lon="-3.65271"></trkpt>
      <trkpt lat="50.26825" lon="-3.65244"></trkpt>
      <trkpt lat="50.26845" lon="-3.65233"></trkpt>
      <trkpt lat="50.26875" lon="-3.6521"></trkpt>
      <trkpt lat="50.26882" lon="-3.65229"></trkpt>
      <trkpt lat="50.26909" lon="-3.65205"></trkpt>
      <trkpt lat="50.26964" lon="-3.6519"></trkpt>
      <trkpt lat="50.26965" lon="-3.65203"></trkpt>
      <trkpt lat="50.26995" lon="-3.65188"></trkpt>
      <trkpt lat="50.27135" lon="-3.6515"></trkpt>
      <trkpt lat="50.27222" lon="-3.65119"></trkpt>
      <trkpt lat="50.27317" lon="-3.65088"></trkpt>
      <trkpt lat="50.277" lon="-3.64969"></trkpt>
      <trkpt lat="50.27955" lon="-3.64878"></trkpt>
      <trkpt lat="50.2804" lon="-3.64842"></trkpt>
      <trkpt lat="50.2809" lon="-3.64824"></trkpt>
      <trkpt lat="50.2832" lon="-3.64723"></trkpt>
      <trkpt lat="50.28376" lon="-3.64703"></trkpt>
      <trkpt lat="50.28415" lon="-3.64701"></trkpt>
      <trkpt lat="50.28429" lon="-3.64686"></trkpt>
      <trkpt lat="50.2845" lon="-3.64674"></trkpt>
      <trkpt lat="50.2847" lon="-3.64667"></trkpt>
      <trkpt lat="50.28489" lon="-3.64666"></trkpt>
      <trkpt lat="50.28501" lon="-3.64658"></trkpt>
      <trkpt lat="50.28516" lon="-3.64653"></trkpt>
      <trkpt lat="50.28538" lon="-3.6464"></trkpt>
      <trkpt lat="50.28561" lon="-3.64633"></trkpt>
      <trkpt lat="50.28703" lon="-3.64566"></trkpt>
      <trkpt lat="50.28708" lon="-3.64552"></trkpt>
      <trkpt lat="50.28749" lon="-3.64531"></trkpt>
      <trkpt lat="50.28757" lon="-3.64533"></trkpt>
      <trkpt lat="50.28862" lon="-3.64467"></trkpt>
      <trkpt lat="50.28956" lon="-3.64423"></trkpt>
      <trkpt lat="50.2898" lon="-3.64401"></trkpt>
      <trkpt lat="50.28991" lon="-3.64383"></trkpt>
      <trkpt lat="50.29038" lon="-3.64355"></trkpt>
      <trkpt lat="50.29063" lon="-3.64335"></trkpt>
      <trkpt lat="50.29109" lon="-3.64312"></trkpt>
      <trkpt lat="50.29136" lon="-3.64294"></trkpt>
      <trkpt lat="50.29178" lon="-3.6425"></trkpt>
      <trkpt lat="50.29205" lon="-3.64252"></trkpt>
      <trkpt lat="50.29325" lon="-3.64139"></trkpt>
      <trkpt lat="50.29365" lon="-3.64109"></trkpt>
      <trkpt lat="50.29392" lon="-3.64084"></trkpt>
      <trkpt lat="50.29502" lon="-3.64006"></trkpt>
      <trkpt lat="50.29545" lon="-3.63971"></trkpt>
      <trkpt lat="50.29571" lon="-3.63957"></trkpt>
      <trkpt lat="50.2963" lon="-3.63909"></trkpt>
      <trkpt lat="50.2966" lon="-3.63892"></trkpt>
      <trkpt lat="50.29683" lon="-3.63869"></trkpt>
      <trkpt lat="50.2975" lon="-3.63833"></trkpt>
      <trkpt lat="50.29783" lon="-3.63802"></trkpt>
      <trkpt lat="50.29788" lon="-3.6379"></trkpt>
      <trkpt lat="50.29789" lon="-3.63782"></trkpt>
      <trkpt lat="50.29793" lon="-3.63774"></trkpt>
      <trkpt lat="50.29792" lon="-3.63768"></trkpt>
      <trkpt lat="50.29795" lon="-3.6376"></trkpt>
      <trkpt lat="50.29818" lon="-3.63747"></trkpt>
      <trkpt lat="50.29838" lon="-3.63745"></trkpt>
      <trkpt lat="50.29857" lon="-3.63725"></trkpt>
      <trkpt lat="50.29914" lon="-3.63686"></trkpt>
      <trkpt lat="50.3001" lon="-3.63632"></trkpt>
      <trkpt lat="50.30135" lon="-3.63554"></trkpt>
      <trkpt lat="50.30177" lon="-3.63525"></trkpt>
      <trkpt lat="50.30181" lon="-3.63513"></trkpt>
      <trkpt lat="50.30221" lon="-3.63489"></trkpt>
      <trkpt lat="50.30267" lon="-3.63473"></trkpt>
      <trkpt lat="50.30377" lon="-3.63384"></trkpt>
      <trkpt lat="50.30425" lon="-3.63349"></trkpt>
      <trkpt lat="50.3044" lon="-3.63321"></trkpt>
      <trkpt lat="50.30436" lon="-3.63308"></trkpt>
      <trkpt lat="50.30449" lon="-3.63258"></trkpt>
      <trkpt lat="50.30461" lon="-3.63251"></trkpt>
      <trkpt lat="50.30472" lon="-3.63244"></trkpt>
      <trkpt lat="50.30485" lon="-3.63213"></trkpt>
      <trkpt lat="50.30508" lon="-3.63195"></trkpt>
      <trkpt lat="50.30544" lon="-3.63136"></trkpt>
      <trkpt lat="50.30567" lon="-3.63094"></trkpt>
      <trkpt lat="50.30594" lon="-3.63067"></trkpt>
      <trkpt lat="50.30605" lon="-3.6305"></trkpt>
      <trkpt lat="50.30609" lon="-3.6305"></trkpt>
      <trkpt lat="50.30613" lon="-3.63045"></trkpt>
      <trkpt lat="50.30618" lon="-3.6306"></trkpt>
      <trkpt lat="50.30626" lon="-3.63065"></trkpt>
      <trkpt lat="50.30625" lon="-3.63074"></trkpt>
      <trkpt lat="50.30628" lon="-3.63095"></trkpt>
      <trkpt lat="50.30644" lon="-3.63079"></trkpt>
      <trkpt lat="50.30645" lon="-3.63099"></trkpt>
      <trkpt lat="50.30657" lon="-3.63091"></trkpt>
      <trkpt lat="50.30677" lon="-3.63088"></trkpt>
      <trkpt lat="50.30701" lon="-3.63092"></trkpt>
      <trkpt lat="50.30761" lon="-3.6312"></trkpt>
      <trkpt lat="50.30771" lon="-3.63131"></trkpt>
      <trkpt lat="50.30778" lon="-3.6316"></trkpt>
      <trkpt lat="50.30791" lon="-3.63142"></trkpt>
      <trkpt lat="50.30802" lon="-3.63123"></trkpt>
      <trkpt lat="50.30843" lon="-3.63016"></trkpt>
      <trkpt lat="50.30845" lon="-3.63014"></trkpt>
      <trkpt lat="50.30848" lon="-3.63017"></trkpt>
      <trkpt lat="50.30867" lon="-3.62982"></trkpt>
      <trkpt lat="50.30903" lon="-3.62941"></trkpt>
      <trkpt lat="50.3091" lon="-3.62938"></trkpt>
      <trkpt lat="50.30917" lon="-3.62938"></trkpt>
      <trkpt lat="50.30934" lon="-3.62944"></trkpt>
      <trkpt lat="50.30941" lon="-3.62944"></trkpt>
      <trkpt lat="50.30991" lon="-3.62935"></trkpt>
      <trkpt lat="50.31034" lon="-3.62944"></trkpt>
      <trkpt lat="50.31067" lon="-3.62911"></trkpt>
      <trkpt lat="50.31077" lon="-3.62897"></trkpt>
      <trkpt lat="50.31095" lon="-3.62854"></trkpt>
      <trkpt lat="50.31091" lon="-3.62848"></trkpt>
      <trkpt lat="50.31094" lon="-3.62841"></trkpt>
      <trkpt lat="50.31094" lon="-3.62831"></trkpt>
      <trkpt lat="50.311" lon="-3.62816"></trkpt>
      <trkpt lat="50.31104" lon="-3.62813"></trkpt>
      <trkpt lat="50.31107" lon="-3.62807"></trkpt>
      <trkpt lat="50.31107" lon="-3.62799"></trkpt>
      <trkpt lat="50.31116" lon="-3.62775"></trkpt>
      <trkpt lat="50.31119" lon="-3.62749"></trkpt>
      <trkpt lat="50.31108" lon="-3.62733"></trkpt>
      <trkpt lat="50.31107" lon="-3.62721"></trkpt>
      <trkpt lat="50.31125" lon="-3.62654"></trkpt>
      <trkpt lat="50.31125" lon="-3.62634"></trkpt>
      <trkpt lat="50.31135" lon="-3.62616"></trkpt>
      <trkpt lat="50.31143" lon="-3.6261"></trkpt>
      <trkpt lat="50.31157" lon="-3.62612"></trkpt>
      <trkpt lat="50.3117" lon="-3.62619"></trkpt>
      <trkpt lat="50.31185" lon="-3.62619"></trkpt>
      <trkpt lat="50.31192" lon="-3.62613"></trkpt>
      <trkpt lat="50.31196" lon="-3.62602"></trkpt>
      <trkpt lat="50.31199" lon="-3.62586"></trkpt>
      <trkpt lat="50.31199" lon="-3.62575"></trkpt>
      <trkpt lat="50.31191" lon="-3.62547"></trkpt>
      <trkpt lat="50.3117" lon="-3.62498"></trkpt>
      <trkpt lat="50.31163" lon="-3.62471"></trkpt>
      <trkpt lat="50.31155" lon="-3.62453"></trkpt>
      <trkpt lat="50.3114" lon="-3.62426"></trkpt>
      <trkpt lat="50.31136" lon="-3.62409"></trkpt>
      <trkpt lat="50.31126" lon="-3.62397"></trkpt>
      <trkpt lat="50.31125" lon="-3.62363"></trkpt>
      <trkpt lat="50.31133" lon="-3.62315"></trkpt>
      <trkpt lat="50.3115" lon="-3.62272"></trkpt>
      <trkpt lat="50.31164" lon="-3.62244"></trkpt>
      <trkpt lat="50.3119" lon="-3.62192"></trkpt>
      <trkpt lat="50.31198" lon="-3.62171"></trkpt>
      <trkpt lat="50.31214" lon="-3.62137"></trkpt>
      <trkpt lat="50.31245" lon="-3.62096"></trkpt>
      <trkpt lat="50.31258" lon="-3.62082"></trkpt>
      <trkpt lat="50.31284" lon="-3.62017"></trkpt>
      <trkpt lat="50.31292" lon="-3.62003"></trkpt>
      <trkpt lat="50.31323" lon="-3.61932"></trkpt>
      <trkpt lat="50.31327" lon="-3.61916"></trkpt>
      <trkpt lat="50.31332" lon="-3.61909"></trkpt>
      <trkpt lat="50.31343" lon="-3.61925"></trkpt>
      <trkpt lat="50.31368" lon="-3.61941"></trkpt>
      <trkpt lat="50.31379" lon="-3.61945"></trkpt>
      <trkpt lat="50.31397" lon="-3.61946"></trkpt>
      <trkpt lat="50.31409" lon="-3.61955"></trkpt>
      <trkpt lat="50.31415" lon="-3.61955"></trkpt>
      <trkpt lat="50.31425" lon="-3.61964"></trkpt>
      <trkpt lat="50.31445" lon="-3.61971"></trkpt>
      <trkpt lat="50.3146" lon="-3.61961"></trkpt>
      <trkpt lat="50.31462" lon="-3.61957"></trkpt>
      <trkpt lat="50.3147" lon="-3.61953"></trkpt>
      <trkpt lat="50.31486" lon="-3.61937"></trkpt>
      <trkpt lat="50.31492" lon="-3.61934"></trkpt>
      <trkpt lat="50.31504" lon="-3.61918"></trkpt>
      <trkpt lat="50.3151" lon="-3.61905"></trkpt>
      <trkpt lat="50.31514" lon="-3.61903"></trkpt>
      <trkpt lat="50.31519" lon="-3.61894"></trkpt>
      <trkpt lat="50.31521" lon="-3.61886"></trkpt>
      <trkpt lat="50.31523" lon="-3.61885"></trkpt>
      <trkpt lat="50.31526" lon="-3.619"></trkpt>
      <trkpt lat="50.31529" lon="-3.61907"></trkpt>
      <trkpt lat="50.3153" lon="-3.61736"></trkpt>
      <trkpt lat="50.31529" lon="-3.61907"></trkpt>
      <trkpt lat="50.31532" lon="-3.61906"></trkpt>
      <trkpt lat="50.31538" lon="-3.61853"></trkpt>
      <trkpt lat="50.31536" lon="-3.61827"></trkpt>
      <trkpt lat="50.31537" lon="-3.6179"></trkpt>
      <trkpt lat="50.31546" lon="-3.61739"></trkpt>
      <trkpt lat="50.3154" lon="-3.61732"></trkpt>
      <trkpt lat="50.3155" lon="-3.61686"></trkpt>
      <trkpt lat="50.3156" lon="-3.6167"></trkpt>
      <trkpt lat="50.31585" lon="-3.61711"></trkpt>
      <trkpt lat="50.31599" lon="-3.61728"></trkpt>
      <trkpt lat="50.31611" lon="-3.61734"></trkpt>
      <trkpt lat="50.31663" lon="-3.61738"></trkpt>
      <trkpt lat="50.31717" lon="-3.61715"></trkpt>
      <trkpt lat="50.31723" lon="-3.6173"></trkpt>
      <trkpt lat="50.31753" lon="-3.61683"></trkpt>
      <trkpt lat="50.31803" lon="-3.61644"></trkpt>
      <trkpt lat="50.31823" lon="-3.61623"></trkpt>
      <trkpt lat="50.31841" lon="-3.61604"></trkpt>
      <trkpt lat="50.3184" lon="-3.61601"></trkpt>
      <trkpt lat="50.3186" lon="-3.61579"></trkpt>
      <trkpt lat="50.3188" lon="-3.61567"></trkpt>
      <trkpt lat="50.31906" lon="-3.61464"></trkpt>
      <trkpt lat="50.31909" lon="-3.61435"></trkpt>
      <trkpt lat="50.31917" lon="-3.61415"></trkpt>
      <trkpt lat="50.31928" lon="-3.61406"></trkpt>
      <trkpt lat="50.31927" lon="-3.61395"></trkpt>
      <trkpt lat="50.31959" lon="-3.61359"></trkpt>
      <trkpt lat="50.31964" lon="-3.61358"></trkpt>
      <trkpt lat="50.31969" lon="-3.61351"></trkpt>
      <trkpt lat="50.31977" lon="-3.61304"></trkpt>
      <trkpt lat="50.31991" lon="-3.61263"></trkpt>
      <trkpt lat="50.31998" lon="-3.61234"></trkpt>
      <trkpt lat="50.31997" lon="-3.61227"></trkpt>
      <trkpt lat="50.31992" lon="-3.6122"></trkpt>
      <trkpt lat="50.31992" lon="-3.6121"></trkpt>
      <trkpt lat="50.32001" lon="-3.61137"></trkpt>
      <trkpt lat="50.32002" lon="-3.61102"></trkpt>
      <trkpt lat="50.31998" lon="-3.61095"></trkpt>
      <trkpt lat="50.31998" lon="-3.61086"></trkpt>
      <trkpt lat="50.32" lon="-3.61079"></trkpt>
      <trkpt lat="50.32007" lon="-3.61071"></trkpt>
      <trkpt lat="50.32016" lon="-3.61052"></trkpt>
      <trkpt lat="50.32025" lon="-3.60997"></trkpt>
      <trkpt lat="50.32053" lon="-3.60796"></trkpt>
      <trkpt lat="50.32058" lon="-3.60743"></trkpt>
      <trkpt lat="50.32062" lon="-3.6067"></trkpt>
      <trkpt lat="50.32073" lon="-3.60645"></trkpt>
      <trkpt lat="50.32073" lon="-3.60635"></trkpt>
      <trkpt lat="50.32069" lon="-3.60617"></trkpt>
      <trkpt lat="50.32071" lon="-3.60595"></trkpt>
      <trkpt lat="50.3208" lon="-3.60569"></trkpt>
      <trkpt lat="50.3208" lon="-3.6053"></trkpt>
      <trkpt lat="50.32075" lon="-3.60499"></trkpt>
      <trkpt lat="50.32054" lon="-3.6044"></trkpt>
      <trkpt lat="50.32047" lon="-3.60409"></trkpt>
      <trkpt lat="50.32046" lon="-3.60379"></trkpt>
      <trkpt lat="50.32056" lon="-3.60324"></trkpt>
      <trkpt lat="50.32062" lon="-3.603"></trkpt>
      <trkpt lat="50.32087" lon="-3.60242"></trkpt>
      <trkpt lat="50.32122" lon="-3.6018"></trkpt>
      <trkpt lat="50.32121" lon="-3.6018"></trkpt>
      <trkpt lat="50.3214" lon="-3.60148"></trkpt>
      <trkpt lat="50.32158" lon="-3.60122"></trkpt>
      <trkpt lat="50.32187" lon="-3.60094"></trkpt>
      <trkpt lat="50.32248" lon="-3.60059"></trkpt>
      <trkpt lat="50.32261" lon="-3.60054"></trkpt>
      <trkpt lat="50.32305" lon="-3.60055"></trkpt>
      <trkpt lat="50.32358" lon="-3.60043"></trkpt>
      <trkpt lat="50.32408" lon="-3.60042"></trkpt>
      <trkpt lat="50.32482" lon="-3.60078"></trkpt>
      <trkpt lat="50.32541" lon="-3.60097"></trkpt>
      <trkpt lat="50.32603" lon="-3.60068"></trkpt>
      <trkpt lat="50.3265" lon="-3.60036"></trkpt>
      <trkpt lat="50.32665" lon="-3.60021"></trkpt>
      <trkpt lat="50.32665" lon="-3.60022"></trkpt>
      <trkpt lat="50.32671" lon="-3.60015"></trkpt>
      <trkpt lat="50.32675" lon="-3.59991"></trkpt>
      <trkpt lat="50.32644" lon="-3.5997"></trkpt>
      <trkpt lat="50.32683" lon="-3.59769"></trkpt>
      <trkpt lat="50.3269" lon="-3.59763"></trkpt>
      <trkpt lat="50.32711" lon="-3.59751"></trkpt>
      <trkpt lat="50.32712" lon="-3.59736"></trkpt>
      <trkpt lat="50.32716" lon="-3.59723"></trkpt>
      <trkpt lat="50.32738" lon="-3.59699"></trkpt>
      <trkpt lat="50.32756" lon="-3.59674"></trkpt>
      <trkpt lat="50.3281" lon="-3.59571"></trkpt>
      <trkpt lat="50.32848" lon="-3.59468"></trkpt>
      <trkpt lat="50.32916" lon="-3.59317"></trkpt>
      <trkpt lat="50.32941" lon="-3.59267"></trkpt>
      <trkpt lat="50.32955" lon="-3.59239"></trkpt>
      <trkpt lat="50.32965" lon="-3.59229"></trkpt>
      <trkpt lat="50.32987" lon="-3.59219"></trkpt>
      <trkpt lat="50.33021" lon="-3.59211"></trkpt>
      <trkpt lat="50.3305" lon="-3.59215"></trkpt>
      <trkpt lat="50.33065" lon="-3.59224"></trkpt>
      <trkpt lat="50.33073" lon="-3.59223"></trkpt>
      <trkpt lat="50.33077" lon="-3.59216"></trkpt>
      <trkpt lat="50.33077" lon="-3.59203"></trkpt>
      <trkpt lat="50.33062" lon="-3.59148"></trkpt>
      <trkpt lat="50.33022" lon="-3.5905"></trkpt>
      <trkpt lat="50.3302" lon="-3.59033"></trkpt>
      <trkpt lat="50.33022" lon="-3.59011"></trkpt>
      <trkpt lat="50.33067" lon="-3.58815"></trkpt>
      <trkpt lat="50.33115" lon="-3.58548"></trkpt>
      <trkpt lat="50.33127" lon="-3.58396"></trkpt>
      <trkpt lat="50.33128" lon="-3.58345"></trkpt>
      <trkpt lat="50.33131" lon="-3.58334"></trkpt>
      <trkpt lat="50.33129" lon="-3.58325"></trkpt>
      <trkpt lat="50.33131" lon="-3.58308"></trkpt>
      <trkpt lat="50.33086" lon="-3.58286"></trkpt>
      <trkpt lat="50.33081" lon="-3.58285"></trkpt>
      <trkpt lat="50.33062" lon="-3.58268"></trkpt>
      <trkpt lat="50.3304" lon="-3.58239"></trkpt>
      <trkpt lat="50.32998" lon="-3.58178"></trkpt>
      <trkpt lat="50.3297" lon="-3.58142"></trkpt>
      <trkpt lat="50.32955" lon="-3.58117"></trkpt>
      <trkpt lat="50.32931" lon="-3.58095"></trkpt>
      <trkpt lat="50.32922" lon="-3.5809"></trkpt>
      <trkpt lat="50.32831" lon="-3.58025"></trkpt>
      <trkpt lat="50.32737" lon="-3.57948"></trkpt>
      <trkpt lat="50.32733" lon="-3.57942"></trkpt>
      <trkpt lat="50.32709" lon="-3.57925"></trkpt>
      <trkpt lat="50.32685" lon="-3.57911"></trkpt>
      <trkpt lat="50.32682" lon="-3.57875"></trkpt>
      <trkpt lat="50.3268" lon="-3.57744"></trkpt>
      <trkpt lat="50.32683" lon="-3.57713"></trkpt>
      <trkpt lat="50.32686" lon="-3.57671"></trkpt>
      <trkpt lat="50.32664" lon="-3.57628"></trkpt>
      <trkpt lat="50.32659" lon="-3.5762"></trkpt>
      <trkpt lat="50.32648" lon="-3.57609"></trkpt>
      <trkpt lat="50.32646" lon="-3.576"></trkpt>
      <trkpt lat="50.32656" lon="-3.5757"></trkpt>
      <trkpt lat="50.32662" lon="-3.57566"></trkpt>
      <trkpt lat="50.32702" lon="-3.57436"></trkpt>
      <trkpt lat="50.32713" lon="-3.57418"></trkpt>
      <trkpt lat="50.3274" lon="-3.57321"></trkpt>
      <trkpt lat="50.32743" lon="-3.57318"></trkpt>
      <trkpt lat="50.32784" lon="-3.57332"></trkpt>
      <trkpt lat="50.32822" lon="-3.57351"></trkpt>
      <trkpt lat="50.32837" lon="-3.57355"></trkpt>
      <trkpt lat="50.32841" lon="-3.57359"></trkpt>
      <trkpt lat="50.32855" lon="-3.57364"></trkpt>
      <trkpt lat="50.32884" lon="-3.57369"></trkpt>
      <trkpt lat="50.32899" lon="-3.57365"></trkpt>
      <trkpt lat="50.32921" lon="-3.57363"></trkpt>
      <trkpt lat="50.32937" lon="-3.57369"></trkpt>
      <trkpt lat="50.32952" lon="-3.57381"></trkpt>
      <trkpt lat="50.3297" lon="-3.57386"></trkpt>
      <trkpt lat="50.32983" lon="-3.57384"></trkpt>
      <trkpt lat="50.32993" lon="-3.57391"></trkpt>
      <trkpt lat="50.33031" lon="-3.574"></trkpt>
      <trkpt lat="50.33044" lon="-3.57391"></trkpt>
      <trkpt lat="50.33063" lon="-3.57335"></trkpt>
      <trkpt lat="50.33096" lon="-3.57256"></trkpt>
      <trkpt lat="50.33129" lon="-3.57152"></trkpt>
      <trkpt lat="50.33146" lon="-3.57107"></trkpt>
      <trkpt lat="50.33171" lon="-3.57062"></trkpt>
      <trkpt lat="50.33231" lon="-3.57016"></trkpt>
      <trkpt lat="50.33246" lon="-3.56995"></trkpt>
      <trkpt lat="50.33251" lon="-3.56992"></trkpt>
      <trkpt lat="50.33274" lon="-3.56991"></trkpt>
      <trkpt lat="50.33281" lon="-3.56993"></trkpt>
      <trkpt lat="50.33288" lon="-3.57002"></trkpt>
      <trkpt lat="50.33294" lon="-3.57009"></trkpt>
      <trkpt lat="50.33437" lon="-3.57025"></trkpt>
      <trkpt lat="50.33466" lon="-3.57017"></trkpt>
      <trkpt lat="50.33507" lon="-3.56999"></trkpt>
      <trkpt lat="50.33525" lon="-3.56994"></trkpt>
      <trkpt lat="50.33534" lon="-3.56971"></trkpt>
      <trkpt lat="50.33528" lon="-3.56916"></trkpt>
      <trkpt lat="50.33503" lon="-3.56877"></trkpt>
      <trkpt lat="50.33486" lon="-3.56844"></trkpt>
      <trkpt lat="50.33453" lon="-3.56801"></trkpt>
      <trkpt lat="50.3345" lon="-3.5675"></trkpt>
      <trkpt lat="50.33453" lon="-3.56696"></trkpt>
      <trkpt lat="50.33471" lon="-3.56623"></trkpt>
      <trkpt lat="50.33484" lon="-3.56585"></trkpt>
      <trkpt lat="50.33493" lon="-3.56559"></trkpt>
      <trkpt lat="50.33508" lon="-3.56506"></trkpt>
      <trkpt lat="50.33516" lon="-3.56439"></trkpt>
      <trkpt lat="50.33523" lon="-3.56428"></trkpt>
      <trkpt lat="50.33556" lon="-3.56413"></trkpt>
      <trkpt lat="50.33567" lon="-3.56415"></trkpt>
      <trkpt lat="50.3358" lon="-3.56429"></trkpt>
      <trkpt lat="50.33584" lon="-3.56442"></trkpt>
      <trkpt lat="50.33578" lon="-3.56475"></trkpt>
      <trkpt lat="50.3358" lon="-3.56491"></trkpt>
      <trkpt lat="50.3358" lon="-3.56507"></trkpt>
      <trkpt lat="50.33588" lon="-3.56531"></trkpt>
      <trkpt lat="50.33606" lon="-3.56609"></trkpt>
      <trkpt lat="50.33617" lon="-3.56636"></trkpt>
      <trkpt lat="50.33636" lon="-3.56657"></trkpt>
      <trkpt lat="50.33663" lon="-3.56668"></trkpt>
      <trkpt lat="50.33693" lon="-3.56678"></trkpt>
      <trkpt lat="50.33711" lon="-3.56663"></trkpt>
      <trkpt lat="50.33758" lon="-3.56644"></trkpt>
      <trkpt lat="50.33791" lon="-3.56639"></trkpt>
      <trkpt lat="50.33815" lon="-3.56645"></trkpt>
      <trkpt lat="50.33836" lon="-3.56659"></trkpt>
      <trkpt lat="50.33854" lon="-3.56688"></trkpt>
      <trkpt lat="50.33879" lon="-3.56734"></trkpt>
      <trkpt lat="50.33896" lon="-3.56757"></trkpt>
      <trkpt lat="50.33913" lon="-3.56772"></trkpt>
      <trkpt lat="50.33971" lon="-3.5681"></trkpt>
      <trkpt lat="50.34011" lon="-3.56829"></trkpt>
      <trkpt lat="50.34018" lon="-3.56829"></trkpt>
      <trkpt lat="50.34037" lon="-3.56814"></trkpt>
      <trkpt lat="50.34081" lon="-3.56746"></trkpt>
      <trkpt lat="50.34093" lon="-3.56698"></trkpt>
      <trkpt lat="50.34101" lon="-3.56679"></trkpt>
      <trkpt lat="50.34103" lon="-3.56674"></trkpt>
      <trkpt lat="50.3412" lon="-3.56661"></trkpt>
      <trkpt lat="50.34139" lon="-3.56661"></trkpt>
      <trkpt lat="50.34149" lon="-3.56647"></trkpt>
      <trkpt lat="50.34164" lon="-3.56633"></trkpt>
      <trkpt lat="50.34171" lon="-3.56608"></trkpt>
      <trkpt lat="50.34176" lon="-3.56606"></trkpt>
      <trkpt lat="50.34181" lon="-3.56597"></trkpt>
      <trkpt lat="50.34203" lon="-3.56657"></trkpt>
      <trkpt lat="50.34211" lon="-3.56661"></trkpt>
      <trkpt lat="50.34231" lon="-3.56712"></trkpt>
      <trkpt lat="50.34242" lon="-3.56718"></trkpt>
      <trkpt lat="50.34244" lon="-3.56723"></trkpt>
      <trkpt lat="50.34262" lon="-3.56773"></trkpt>
      <trkpt lat="50.34317" lon="-3.56895"></trkpt>
      <trkpt lat="50.34317" lon="-3.56911"></trkpt>
      <trkpt lat="50.34319" lon="-3.56924"></trkpt>
      <trkpt lat="50.34319" lon="-3.56941"></trkpt>
      <trkpt lat="50.34299" lon="-3.57055"></trkpt>
      <trkpt lat="50.34291" lon="-3.57076"></trkpt>
      <trkpt lat="50.34277" lon="-3.57101"></trkpt>
      <trkpt lat="50.34271" lon="-3.57116"></trkpt>
      <trkpt lat="50.34257" lon="-3.57161"></trkpt>
      <trkpt lat="50.34255" lon="-3.57176"></trkpt>
      <trkpt lat="50.34253" lon="-3.57229"></trkpt>
      <trkpt lat="50.34258" lon="-3.57237"></trkpt>
      <trkpt lat="50.34254" lon="-3.57275"></trkpt>
      <trkpt lat="50.34245" lon="-3.57318"></trkpt>
      <trkpt lat="50.34243" lon="-3.57339"></trkpt>
      <trkpt lat="50.34244" lon="-3.5735"></trkpt>
      <trkpt lat="50.34247" lon="-3.57356"></trkpt>
      <trkpt lat="50.3424" lon="-3.57373"></trkpt>
      <trkpt lat="50.34249" lon="-3.57383"></trkpt>
      <trkpt lat="50.34252" lon="-3.57379"></trkpt>
      <trkpt lat="50.34269" lon="-3.5739"></trkpt>
      <trkpt lat="50.34273" lon="-3.57398"></trkpt>
      <trkpt lat="50.34332" lon="-3.57354"></trkpt>
      <trkpt lat="50.34345" lon="-3.57352"></trkpt>
      <trkpt lat="50.34353" lon="-3.57354"></trkpt>
      <trkpt lat="50.34363" lon="-3.57366"></trkpt>
      <trkpt lat="50.34375" lon="-3.57388"></trkpt>
      <trkpt lat="50.34382" lon="-3.5742"></trkpt>
      <trkpt lat="50.34403" lon="-3.57488"></trkpt>
      <trkpt lat="50.3443" lon="-3.57546"></trkpt>
      <trkpt lat="50.34468" lon="-3.57604"></trkpt>
      <trkpt lat="50.34491" lon="-3.57627"></trkpt>
      <trkpt lat="50.34508" lon="-3.57654"></trkpt>
      <trkpt lat="50.34543" lon="-3.57697"></trkpt>
      <trkpt lat="50.34576" lon="-3.57722"></trkpt>
      <trkpt lat="50.34664" lon="-3.57772"></trkpt>
      <trkpt lat="50.34687" lon="-3.5778"></trkpt>
      <trkpt lat="50.34776" lon="-3.57782"></trkpt>
      <trkpt lat="50.34786" lon="-3.57785"></trkpt>
      <trkpt lat="50.34787" lon="-3.57779"></trkpt>
      <trkpt lat="50.34795" lon="-3.57781"></trkpt>
      <trkpt lat="50.348" lon="-3.5775"></trkpt>
      <trkpt lat="50.34824" lon="-3.57761"></trkpt>
      <trkpt lat="50.34826" lon="-3.57765"></trkpt>
      <trkpt lat="50.34872" lon="-3.57795"></trkpt>
      <trkpt lat="50.34897" lon="-3.57796"></trkpt>
      <trkpt lat="50.34893" lon="-3.57786"></trkpt>
    </trkseg>
  </trk>
</gpx>
