<?xml version="1.0" encoding="UTF-8"?>
<gpx version="1.1" creator="swcp-walk (imported from OS Maps route 33857868)"
     xmlns="http://www.topografix.com/GPX/1/1">
  <metadata>
    <name>SWCP41-Dartmouth-Brixham</name>
  </metadata>
  <trk>
    <name>SWCP41-Dartmouth-Brixham</name>
    <trkseg>
      <trkpt lat="50.34834822203442" lon="-3.5731162861968926"></trkpt>
      <trkpt lat="50.34834" lon="-3.57312"></trkpt>
      <trkpt lat="50.34835" lon="-3.57304"></trkpt>
      <trkpt lat="50.34821" lon="-3.57303"></trkpt>
      <trkpt lat="50.34821" lon="-3.57288"></trkpt>
      <trkpt lat="50.34809" lon="-3.57284"></trkpt>
      <trkpt lat="50.34802" lon="-3.57284"></trkpt>
      <trkpt lat="50.34802" lon="-3.5726"></trkpt>
      <trkpt lat="50.34814" lon="-3.5726"></trkpt>
      <trkpt lat="50.34818" lon="-3.57256"></trkpt>
      <trkpt lat="50.3481" lon="-3.57246"></trkpt>
      <trkpt lat="50.3479" lon="-3.57244"></trkpt>
      <trkpt lat="50.34783" lon="-3.57229"></trkpt>
      <trkpt lat="50.34783" lon="-3.57193"></trkpt>
      <trkpt lat="50.34778" lon="-3.57158"></trkpt>
      <trkpt lat="50.34772" lon="-3.5707"></trkpt>
      <trkpt lat="50.34764" lon="-3.57015"></trkpt>
      <trkpt lat="50.34771" lon="-3.57013"></trkpt>
      <trkpt lat="50.34749" lon="-3.56867"></trkpt>
      <trkpt lat="50.34739" lon="-3.56753"></trkpt>
      <trkpt lat="50.34736" lon="-3.56735"></trkpt>
      <trkpt lat="50.3473" lon="-3.56715"></trkpt>
      <trkpt lat="50.34711" lon="-3.56674"></trkpt>
      <trkpt lat="50.347" lon="-3.56654"></trkpt>
      <trkpt lat="50.34692" lon="-3.56621"></trkpt>
      <trkpt lat="50.34694" lon="-3.56585"></trkpt>
      <trkpt lat="50.34691" lon="-3.56574"></trkpt>
      <trkpt lat="50.34652" lon="-3.56517"></trkpt>
      <trkpt lat="50.34634" lon="-3.56479"></trkpt>
      <trkpt lat="50.34619" lon="-3.56429"></trkpt>
      <trkpt lat="50.34606" lon="-3.563"></trkpt>
      <trkpt lat="50.34602" lon="-3.56281"></trkpt>
      <trkpt lat="50.34596" lon="-3.5628"></trkpt>
      <trkpt lat="50.34583" lon="-3.56281"></trkpt>
      <trkpt lat="50.34543" lon="-3.5629"></trkpt>
      <trkpt lat="50.34511" lon="-3.56286"></trkpt>
      <trkpt lat="50.3446" lon="-3.56253"></trkpt>
      <trkpt lat="50.34425" lon="-3.56202"></trkpt>
      <trkpt lat="50.34366" lon="-3.56124"></trkpt>
      <trkpt lat="50.3436" lon="-3.56103"></trkpt>
      <trkpt lat="50.34356" lon="-3.5606"></trkpt>
      <trkpt lat="50.34345" lon="-3.56019"></trkpt>
      <trkpt lat="50.34331" lon="-3.55989"></trkpt>
      <trkpt lat="50.34316" lon="-3.55961"></trkpt>
      <trkpt lat="50.3431" lon="-3.55926"></trkpt>
      <trkpt lat="50.34307" lon="-3.55889"></trkpt>
      <trkpt lat="50.34311" lon="-3.55854"></trkpt>
      <trkpt lat="50.34313" lon="-3.55845"></trkpt>
      <trkpt lat="50.34318" lon="-3.55836"></trkpt>
      <trkpt lat="50.34326" lon="-3.55828"></trkpt>
      <trkpt lat="50.34356" lon="-3.5581"></trkpt>
      <trkpt lat="50.34351" lon="-3.55807"></trkpt>
      <trkpt lat="50.34352" lon="-3.55791"></trkpt>
      <trkpt lat="50.34347" lon="-3.55777"></trkpt>
      <trkpt lat="50.3435" lon="-3.5576"></trkpt>
      <trkpt lat="50.34344" lon="-3.55752"></trkpt>
      <trkpt lat="50.34342" lon="-3.55742"></trkpt>
      <trkpt lat="50.34345" lon="-3.55725"></trkpt>
      <trkpt lat="50.34343" lon="-3.55709"></trkpt>
      <trkpt lat="50.34355" lon="-3.55671"></trkpt>
      <trkpt lat="50.34358" lon="-3.55644"></trkpt>
      <trkpt lat="50.34354" lon="-3.55618"></trkpt>
      <trkpt lat="50.34321" lon="-3.55617"></trkpt>
      <trkpt lat="50.34321" lon="-3.55574"></trkpt>
      <trkpt lat="50.34324" lon="-3.55527"></trkpt>
      <trkpt lat="50.34311" lon="-3.55507"></trkpt>
      <trkpt lat="50.3431" lon="-3.55499"></trkpt>
      <trkpt lat="50.34304" lon="-3.55491"></trkpt>
      <trkpt lat="50.3429" lon="-3.55486"></trkpt>
      <trkpt lat="50.34282" lon="-3.55467"></trkpt>
      <trkpt lat="50.3427" lon="-3.55453"></trkpt>
      <trkpt lat="50.34254" lon="-3.55435"></trkpt>
      <trkpt lat="50.34248" lon="-3.55436"></trkpt>
      <trkpt lat="50.3423" lon="-3.55449"></trkpt>
      <trkpt lat="50.34225" lon="-3.55451"></trkpt>
      <trkpt lat="50.34216" lon="-3.55441"></trkpt>
      <trkpt lat="50.34212" lon="-3.55424"></trkpt>
      <trkpt lat="50.34204" lon="-3.55359"></trkpt>
      <trkpt lat="50.34197" lon="-3.5535"></trkpt>
      <trkpt lat="50.34166" lon="-3.55347"></trkpt>
      <trkpt lat="50.34152" lon="-3.55342"></trkpt>
      <trkpt lat="50.34132" lon="-3.55326"></trkpt>
      <trkpt lat="50.34108" lon="-3.55301"></trkpt>
      <trkpt lat="50.34073" lon="-3.55296"></trkpt>
      <trkpt lat="50.34038" lon="-3.55286"></trkpt>
      <trkpt lat="50.33966" lon="-3.55214"></trkpt>
      <trkpt lat="50.33929" lon="-3.55167"></trkpt>
      <trkpt lat="50.3391" lon="-3.55147"></trkpt>
      <trkpt lat="50.33898" lon="-3.55124"></trkpt>
      <trkpt lat="50.33895" lon="-3.55095"></trkpt>
      <trkpt lat="50.33898" lon="-3.55059"></trkpt>
      <trkpt lat="50.33897" lon="-3.54982"></trkpt>
      <trkpt lat="50.33912" lon="-3.54937"></trkpt>
      <trkpt lat="50.33931" lon="-3.54906"></trkpt>
      <trkpt lat="50.33936" lon="-3.54884"></trkpt>
      <trkpt lat="50.33945" lon="-3.54873"></trkpt>
      <trkpt lat="50.33953" lon="-3.54846"></trkpt>
      <trkpt lat="50.3398" lon="-3.54812"></trkpt>
      <trkpt lat="50.33984" lon="-3.54802"></trkpt>
      <trkpt lat="50.3399" lon="-3.54762"></trkpt>
      <trkpt lat="50.33993" lon="-3.54724"></trkpt>
      <trkpt lat="50.33986" lon="-3.5469"></trkpt>
      <trkpt lat="50.33974" lon="-3.5468"></trkpt>
      <trkpt lat="50.33966" lon="-3.54667"></trkpt>
      <trkpt lat="50.33965" lon="-3.54654"></trkpt>
      <trkpt lat="50.3395" lon="-3.5464"></trkpt>
      <trkpt lat="50.33935" lon="-3.54611"></trkpt>
      <trkpt lat="50.33921" lon="-3.5459"></trkpt>
      <trkpt lat="50.33868" lon="-3.54575"></trkpt>
      <trkpt lat="50.33841" lon="-3.54561"></trkpt>
      <trkpt lat="50.3383" lon="-3.5455"></trkpt>
      <trkpt lat="50.33799" lon="-3.5452"></trkpt>
      <trkpt lat="50.33787" lon="-3.5449"></trkpt>
      <trkpt lat="50.33783" lon="-3.54473"></trkpt>
      <trkpt lat="50.33784" lon="-3.54465"></trkpt>
      <trkpt lat="50.33783" lon="-3.5446"></trkpt>
      <trkpt lat="50.33773" lon="-3.54439"></trkpt>
      <trkpt lat="50.33748" lon="-3.54412"></trkpt>
      <trkpt lat="50.33742" lon="-3.54396"></trkpt>
      <trkpt lat="50.33731" lon="-3.54388"></trkpt>
      <trkpt lat="50.33703" lon="-3.54353"></trkpt>
      <trkpt lat="50.33702" lon="-3.54338"></trkpt>
      <trkpt lat="50.33696" lon="-3.54327"></trkpt>
      <trkpt lat="50.33693" lon="-3.54309"></trkpt>
      <trkpt lat="50.33678" lon="-3.5431"></trkpt>
      <trkpt lat="50.33673" lon="-3.54331"></trkpt>
      <trkpt lat="50.33667" lon="-3.54387"></trkpt>
      <trkpt lat="50.33662" lon="-3.54405"></trkpt>
      <trkpt lat="50.33635" lon="-3.54405"></trkpt>
      <trkpt lat="50.33623" lon="-3.54405"></trkpt>
      <trkpt lat="50.33618" lon="-3.54408"></trkpt>
      <trkpt lat="50.33613" lon="-3.54436"></trkpt>
      <trkpt lat="50.336" lon="-3.54446"></trkpt>
      <trkpt lat="50.33598" lon="-3.5445"></trkpt>
      <trkpt lat="50.3359" lon="-3.54451"></trkpt>
      <trkpt lat="50.33586" lon="-3.54445"></trkpt>
      <trkpt lat="50.33584" lon="-3.5438"></trkpt>
      <trkpt lat="50.33592" lon="-3.54342"></trkpt>
      <trkpt lat="50.33596" lon="-3.54333"></trkpt>
      <trkpt lat="50.336" lon="-3.5433"></trkpt>
      <trkpt lat="50.33603" lon="-3.5433"></trkpt>
      <trkpt lat="50.3361" lon="-3.54324"></trkpt>
      <trkpt lat="50.33615" lon="-3.54313"></trkpt>
      <trkpt lat="50.3363" lon="-3.54268"></trkpt>
      <trkpt lat="50.33633" lon="-3.54195"></trkpt>
      <trkpt lat="50.33632" lon="-3.54185"></trkpt>
      <trkpt lat="50.3365" lon="-3.54151"></trkpt>
      <trkpt lat="50.33657" lon="-3.54127"></trkpt>
      <trkpt lat="50.33662" lon="-3.54085"></trkpt>
      <trkpt lat="50.33673" lon="-3.54054"></trkpt>
      <trkpt lat="50.33677" lon="-3.54048"></trkpt>
      <trkpt lat="50.3368" lon="-3.54051"></trkpt>
      <trkpt lat="50.33691" lon="-3.54099"></trkpt>
      <trkpt lat="50.33692" lon="-3.54121"></trkpt>
      <trkpt lat="50.33691" lon="-3.54131"></trkpt>
      <trkpt lat="50.33694" lon="-3.54135"></trkpt>
      <trkpt lat="50.33711" lon="-3.54102"></trkpt>
      <trkpt lat="50.3373" lon="-3.54057"></trkpt>
      <trkpt lat="50.33737" lon="-3.54014"></trkpt>
      <trkpt lat="50.33748" lon="-3.53996"></trkpt>
      <trkpt lat="50.33752" lon="-3.5398"></trkpt>
      <trkpt lat="50.33764" lon="-3.53948"></trkpt>
      <trkpt lat="50.33771" lon="-3.53905"></trkpt>
      <trkpt lat="50.3378" lon="-3.53885"></trkpt>
      <trkpt lat="50.3379" lon="-3.53853"></trkpt>
      <trkpt lat="50.33811" lon="-3.53833"></trkpt>
      <trkpt lat="50.33819" lon="-3.53819"></trkpt>
      <trkpt lat="50.3382" lon="-3.53812"></trkpt>
      <trkpt lat="50.33817" lon="-3.53804"></trkpt>
      <trkpt lat="50.33812" lon="-3.53796"></trkpt>
      <trkpt lat="50.33796" lon="-3.5379"></trkpt>
      <trkpt lat="50.3378" lon="-3.53777"></trkpt>
      <trkpt lat="50.33776" lon="-3.53776"></trkpt>
      <trkpt lat="50.33768" lon="-3.53775"></trkpt>
      <trkpt lat="50.33753" lon="-3.53755"></trkpt>
      <trkpt lat="50.33737" lon="-3.53716"></trkpt>
      <trkpt lat="50.33717" lon="-3.53678"></trkpt>
      <trkpt lat="50.33715" lon="-3.53658"></trkpt>
      <trkpt lat="50.33718" lon="-3.53643"></trkpt>
      <trkpt lat="50.3372" lon="-3.53633"></trkpt>
      <trkpt lat="50.33742" lon="-3.5357"></trkpt>
      <trkpt lat="50.3376" lon="-3.53572"></trkpt>
      <trkpt lat="50.33759" lon="-3.53563"></trkpt>
      <trkpt lat="50.33751" lon="-3.53554"></trkpt>
      <trkpt lat="50.3376" lon="-3.53551"></trkpt>
      <trkpt lat="50.33759" lon="-3.53544"></trkpt>
      <trkpt lat="50.33767" lon="-3.53538"></trkpt>
      <trkpt lat="50.33786" lon="-3.53536"></trkpt>
      <trkpt lat="50.33794" lon="-3.53539"></trkpt>
      <trkpt lat="50.33798" lon="-3.53547"></trkpt>
      <trkpt lat="50.33813" lon="-3.5355"></trkpt>
      <trkpt lat="50.33861" lon="-3.53552"></trkpt>
      <trkpt lat="50.3388" lon="-3.53557"></trkpt>
      <trkpt lat="50.339" lon="-3.53534"></trkpt>
      <trkpt lat="50.33889" lon="-3.5351"></trkpt>
      <trkpt lat="50.33878" lon="-3.535"></trkpt>
      <trkpt lat="50.33874" lon="-3.5349"></trkpt>
      <trkpt lat="50.33868" lon="-3.53443"></trkpt>
      <trkpt lat="50.33871" lon="-3.53424"></trkpt>
      <trkpt lat="50.33874" lon="-3.53417"></trkpt>
      <trkpt lat="50.33879" lon="-3.53411"></trkpt>
      <trkpt lat="50.33887" lon="-3.53409"></trkpt>
      <trkpt lat="50.33898" lon="-3.53405"></trkpt>
      <trkpt lat="50.33952" lon="-3.53432"></trkpt>
      <trkpt lat="50.33968" lon="-3.53443"></trkpt>
      <trkpt lat="50.34035" lon="-3.53415"></trkpt>
      <trkpt lat="50.34066" lon="-3.53394"></trkpt>
      <trkpt lat="50.34094" lon="-3.53369"></trkpt>
      <trkpt lat="50.34106" lon="-3.53362"></trkpt>
      <trkpt lat="50.34126" lon="-3.5334"></trkpt>
      <trkpt lat="50.34133" lon="-3.53339"></trkpt>
      <trkpt lat="50.34142" lon="-3.53332"></trkpt>
      <trkpt lat="50.34151" lon="-3.53324"></trkpt>
      <trkpt lat="50.34159" lon="-3.53312"></trkpt>
      <trkpt lat="50.34168" lon="-3.53305"></trkpt>
      <trkpt lat="50.34244" lon="-3.53269"></trkpt>
      <trkpt lat="50.3426" lon="-3.53265"></trkpt>
      <trkpt lat="50.34264" lon="-3.53268"></trkpt>
      <trkpt lat="50.34264" lon="-3.53291"></trkpt>
      <trkpt lat="50.34268" lon="-3.53297"></trkpt>
      <trkpt lat="50.3428" lon="-3.53289"></trkpt>
      <trkpt lat="50.34295" lon="-3.53274"></trkpt>
      <trkpt lat="50.34298" lon="-3.53276"></trkpt>
      <trkpt lat="50.34296" lon="-3.53299"></trkpt>
      <trkpt lat="50.34293" lon="-3.53307"></trkpt>
      <trkpt lat="50.34298" lon="-3.53308"></trkpt>
      <trkpt lat="50.34336" lon="-3.53281"></trkpt>
      <trkpt lat="50.34343" lon="-3.53272"></trkpt>
      <trkpt lat="50.34351" lon="-3.53251"></trkpt>
      <trkpt lat="50.3436" lon="-3.53237"></trkpt>
      <trkpt lat="50.34387" lon="-3.53234"></trkpt>
      <trkpt lat="50.34394" lon="-3.5324"></trkpt>
      <trkpt lat="50.34402" lon="-3.53241"></trkpt>
      <trkpt lat="50.34416" lon="-3.53254"></trkpt>
      <trkpt lat="50.34423" lon="-3.53265"></trkpt>
      <trkpt lat="50.34441" lon="-3.53274"></trkpt>
      <trkpt lat="50.34451" lon="-3.53276"></trkpt>
      <trkpt lat="50.34477" lon="-3.53292"></trkpt>
      <trkpt lat="50.34481" lon="-3.53288"></trkpt>
      <trkpt lat="50.34481" lon="-3.53281"></trkpt>
      <trkpt lat="50.34472" lon="-3.53259"></trkpt>
      <trkpt lat="50.34471" lon="-3.53253"></trkpt>
      <trkpt lat="50.34488" lon="-3.5323"></trkpt>
      <trkpt lat="50.34504" lon="-3.53197"></trkpt>
      <trkpt lat="50.34511" lon="-3.53176"></trkpt>
      <trkpt lat="50.34511" lon="-3.53168"></trkpt>
      <trkpt lat="50.34509" lon="-3.53164"></trkpt>
      <trkpt lat="50.3449" lon="-3.53164"></trkpt>
      <trkpt lat="50.34484" lon="-3.53159"></trkpt>
      <trkpt lat="50.34481" lon="-3.53153"></trkpt>
      <trkpt lat="50.3448" lon="-3.53144"></trkpt>
      <trkpt lat="50.34489" lon="-3.53139"></trkpt>
      <trkpt lat="50.34492" lon="-3.53134"></trkpt>
      <trkpt lat="50.34492" lon="-3.53123"></trkpt>
      <trkpt lat="50.34495" lon="-3.53111"></trkpt>
      <trkpt lat="50.345" lon="-3.53103"></trkpt>
      <trkpt lat="50.34517" lon="-3.53095"></trkpt>
      <trkpt lat="50.34526" lon="-3.531"></trkpt>
      <trkpt lat="50.34528" lon="-3.53082"></trkpt>
      <trkpt lat="50.34509" lon="-3.53033"></trkpt>
      <trkpt lat="50.34513" lon="-3.53027"></trkpt>
      <trkpt lat="50.34512" lon="-3.53003"></trkpt>
      <trkpt lat="50.34508" lon="-3.52994"></trkpt>
      <trkpt lat="50.34487" lon="-3.52977"></trkpt>
      <trkpt lat="50.3448" lon="-3.52956"></trkpt>
      <trkpt lat="50.34474" lon="-3.52945"></trkpt>
      <trkpt lat="50.34466" lon="-3.52901"></trkpt>
      <trkpt lat="50.34466" lon="-3.52829"></trkpt>
      <trkpt lat="50.34465" lon="-3.52813"></trkpt>
      <trkpt lat="50.34461" lon="-3.52791"></trkpt>
      <trkpt lat="50.34454" lon="-3.52765"></trkpt>
      <trkpt lat="50.34455" lon="-3.5276"></trkpt>
      <trkpt lat="50.34467" lon="-3.52741"></trkpt>
      <trkpt lat="50.34478" lon="-3.52723"></trkpt>
      <trkpt lat="50.34493" lon="-3.52705"></trkpt>
      <trkpt lat="50.34507" lon="-3.52648"></trkpt>
      <trkpt lat="50.34512" lon="-3.52641"></trkpt>
      <trkpt lat="50.34524" lon="-3.52613"></trkpt>
      <trkpt lat="50.34527" lon="-3.52601"></trkpt>
      <trkpt lat="50.34534" lon="-3.52592"></trkpt>
      <trkpt lat="50.34547" lon="-3.52563"></trkpt>
      <trkpt lat="50.34552" lon="-3.52557"></trkpt>
      <trkpt lat="50.34572" lon="-3.52503"></trkpt>
      <trkpt lat="50.34584" lon="-3.52482"></trkpt>
      <trkpt lat="50.34608" lon="-3.52419"></trkpt>
      <trkpt lat="50.34618" lon="-3.52384"></trkpt>
      <trkpt lat="50.34627" lon="-3.52361"></trkpt>
      <trkpt lat="50.3464" lon="-3.52317"></trkpt>
      <trkpt lat="50.34654" lon="-3.5229"></trkpt>
      <trkpt lat="50.34665" lon="-3.52261"></trkpt>
      <trkpt lat="50.34676" lon="-3.52237"></trkpt>
      <trkpt lat="50.34691" lon="-3.52217"></trkpt>
      <trkpt lat="50.34704" lon="-3.52203"></trkpt>
      <trkpt lat="50.34713" lon="-3.52197"></trkpt>
      <trkpt lat="50.34733" lon="-3.52189"></trkpt>
      <trkpt lat="50.34748" lon="-3.52177"></trkpt>
      <trkpt lat="50.34757" lon="-3.52165"></trkpt>
      <trkpt lat="50.34759" lon="-3.52149"></trkpt>
      <trkpt lat="50.34757" lon="-3.52104"></trkpt>
      <trkpt lat="50.34755" lon="-3.52099"></trkpt>
      <trkpt lat="50.34757" lon="-3.52086"></trkpt>
      <trkpt lat="50.34754" lon="-3.52074"></trkpt>
      <trkpt lat="50.34755" lon="-3.52052"></trkpt>
      <trkpt lat="50.34748" lon="-3.52027"></trkpt>
      <trkpt lat="50.34742" lon="-3.52019"></trkpt>
      <trkpt lat="50.34736" lon="-3.52002"></trkpt>
      <trkpt lat="50.34728" lon="-3.51989"></trkpt>
      <trkpt lat="50.34721" lon="-3.51968"></trkpt>
      <trkpt lat="50.34724" lon="-3.51948"></trkpt>
      <trkpt lat="50.3473" lon="-3.51943"></trkpt>
      <trkpt lat="50.34729" lon="-3.51937"></trkpt>
      <trkpt lat="50.34733" lon="-3.51925"></trkpt>
      <trkpt lat="50.34733" lon="-3.5192"></trkpt>
      <trkpt lat="50.3474" lon="-3.51903"></trkpt>
      <trkpt lat="50.34749" lon="-3.51893"></trkpt>
      <trkpt lat="50.34766" lon="-3.51875"></trkpt>
      <trkpt lat="50.34773" lon="-3.5187"></trkpt>
      <trkpt lat="50.34786" lon="-3.51842"></trkpt>
      <trkpt lat="50.34794" lon="-3.51828"></trkpt>
      <trkpt lat="50.34804" lon="-3.51817"></trkpt>
      <trkpt lat="50.34816" lon="-3.51812"></trkpt>
      <trkpt lat="50.34822" lon="-3.51806"></trkpt>
      <trkpt lat="50.34834" lon="-3.51798"></trkpt>
      <trkpt lat="50.3485" lon="-3.51824"></trkpt>
      <trkpt lat="50.34863" lon="-3.51852"></trkpt>
      <trkpt lat="50.3487" lon="-3.51872"></trkpt>
      <trkpt lat="50.34901" lon="-3.51896"></trkpt>
      <trkpt lat="50.34906" lon="-3.51896"></trkpt>
      <trkpt lat="50.34921" lon="-3.51886"></trkpt>
      <trkpt lat="50.34924" lon="-3.51876"></trkpt>
      <trkpt lat="50.34932" lon="-3.51861"></trkpt>
      <trkpt lat="50.34945" lon="-3.51828"></trkpt>
      <trkpt lat="50.34953" lon="-3.51826"></trkpt>
      <trkpt lat="50.3497" lon="-3.51812"></trkpt>
      <trkpt lat="50.34978" lon="-3.5181"></trkpt>
      <trkpt lat="50.34989" lon="-3.518"></trkpt>
      <trkpt lat="50.35001" lon="-3.51799"></trkpt>
      <trkpt lat="50.35021" lon="-3.5181"></trkpt>
      <trkpt lat="50.35037" lon="-3.51821"></trkpt>
      <trkpt lat="50.35046" lon="-3.5182"></trkpt>
      <trkpt lat="50.35054" lon="-3.51816"></trkpt>
      <trkpt lat="50.3506" lon="-3.51804"></trkpt>
      <trkpt lat="50.35062" lon="-3.51793"></trkpt>
      <trkpt lat="50.35062" lon="-3.51784"></trkpt>
      <trkpt lat="50.35064" lon="-3.51778"></trkpt>
      <trkpt lat="50.35068" lon="-3.51783"></trkpt>
      <trkpt lat="50.35072" lon="-3.51783"></trkpt>
      <trkpt lat="50.35085" lon="-3.51776"></trkpt>
      <trkpt lat="50.35092" lon="-3.51769"></trkpt>
      <trkpt lat="50.35131" lon="-3.51749"></trkpt>
      <trkpt lat="50.35148" lon="-3.51748"></trkpt>
      <trkpt lat="50.35162" lon="-3.5173"></trkpt>
      <trkpt lat="50.35159" lon="-3.51702"></trkpt>
      <trkpt lat="50.35178" lon="-3.51665"></trkpt>
      <trkpt lat="50.35199" lon="-3.51633"></trkpt>
      <trkpt lat="50.35198" lon="-3.51633"></trkpt>
      <trkpt lat="50.35201" lon="-3.51629"></trkpt>
      <trkpt lat="50.35208" lon="-3.51627"></trkpt>
      <trkpt lat="50.3522" lon="-3.51609"></trkpt>
      <trkpt lat="50.35219" lon="-3.51606"></trkpt>
      <trkpt lat="50.35202" lon="-3.516"></trkpt>
      <trkpt lat="50.35216" lon="-3.51583"></trkpt>
      <trkpt lat="50.35214" lon="-3.51581"></trkpt>
      <trkpt lat="50.352" lon="-3.51582"></trkpt>
      <trkpt lat="50.352" lon="-3.51579"></trkpt>
      <trkpt lat="50.35214" lon="-3.51562"></trkpt>
      <trkpt lat="50.35213" lon="-3.5156"></trkpt>
      <trkpt lat="50.35201" lon="-3.51562"></trkpt>
      <trkpt lat="50.3519" lon="-3.51558"></trkpt>
      <trkpt lat="50.3519" lon="-3.51552"></trkpt>
      <trkpt lat="50.35192" lon="-3.51546"></trkpt>
      <trkpt lat="50.35208" lon="-3.51533"></trkpt>
      <trkpt lat="50.35236" lon="-3.5152"></trkpt>
      <trkpt lat="50.35251" lon="-3.51515"></trkpt>
      <trkpt lat="50.3526" lon="-3.51514"></trkpt>
      <trkpt lat="50.35276" lon="-3.5152"></trkpt>
      <trkpt lat="50.35295" lon="-3.51524"></trkpt>
      <trkpt lat="50.35305" lon="-3.51539"></trkpt>
      <trkpt lat="50.35312" lon="-3.51544"></trkpt>
      <trkpt lat="50.35325" lon="-3.51548"></trkpt>
      <trkpt lat="50.3533" lon="-3.51552"></trkpt>
      <trkpt lat="50.3534" lon="-3.51565"></trkpt>
      <trkpt lat="50.35376" lon="-3.51577"></trkpt>
      <trkpt lat="50.35394" lon="-3.51592"></trkpt>
      <trkpt lat="50.35403" lon="-3.51594"></trkpt>
      <trkpt lat="50.35433" lon="-3.51622"></trkpt>
      <trkpt lat="50.35442" lon="-3.51624"></trkpt>
      <trkpt lat="50.35444" lon="-3.51627"></trkpt>
      <trkpt lat="50.35452" lon="-3.51624"></trkpt>
      <trkpt lat="50.35478" lon="-3.51626"></trkpt>
      <trkpt lat="50.35492" lon="-3.51624"></trkpt>
      <trkpt lat="50.35496" lon="-3.51625"></trkpt>
      <trkpt lat="50.35506" lon="-3.51641"></trkpt>
      <trkpt lat="50.35509" lon="-3.51654"></trkpt>
      <trkpt lat="50.35512" lon="-3.51667"></trkpt>
      <trkpt lat="50.35535" lon="-3.51718"></trkpt>
      <trkpt lat="50.3558" lon="-3.51827"></trkpt>
      <trkpt lat="50.35587" lon="-3.51851"></trkpt>
      <trkpt lat="50.35597" lon="-3.51911"></trkpt>
      <trkpt lat="50.35628" lon="-3.51965"></trkpt>
      <trkpt lat="50.35633" lon="-3.51981"></trkpt>
      <trkpt lat="50.35632" lon="-3.51991"></trkpt>
      <trkpt lat="50.35635" lon="-3.52"></trkpt>
      <trkpt lat="50.35635" lon="-3.52016"></trkpt>
      <trkpt lat="50.3563" lon="-3.52042"></trkpt>
      <trkpt lat="50.35631" lon="-3.52045"></trkpt>
      <trkpt lat="50.3563" lon="-3.5205"></trkpt>
      <trkpt lat="50.35633" lon="-3.52072"></trkpt>
      <trkpt lat="50.35633" lon="-3.52091"></trkpt>
      <trkpt lat="50.35636" lon="-3.52105"></trkpt>
      <trkpt lat="50.35672" lon="-3.52173"></trkpt>
      <trkpt lat="50.35675" lon="-3.52175"></trkpt>
      <trkpt lat="50.35679" lon="-3.52173"></trkpt>
      <trkpt lat="50.3568" lon="-3.52167"></trkpt>
      <trkpt lat="50.35683" lon="-3.52163"></trkpt>
      <trkpt lat="50.35687" lon="-3.52162"></trkpt>
      <trkpt lat="50.35697" lon="-3.52175"></trkpt>
      <trkpt lat="50.35708" lon="-3.52181"></trkpt>
      <trkpt lat="50.35708" lon="-3.52185"></trkpt>
      <trkpt lat="50.35727" lon="-3.52202"></trkpt>
      <trkpt lat="50.35738" lon="-3.52202"></trkpt>
      <trkpt lat="50.35756" lon="-3.52183"></trkpt>
      <trkpt lat="50.35805" lon="-3.52185"></trkpt>
      <trkpt lat="50.35866" lon="-3.52177"></trkpt>
      <trkpt lat="50.35881" lon="-3.52171"></trkpt>
      <trkpt lat="50.35882" lon="-3.52172"></trkpt>
      <trkpt lat="50.35888" lon="-3.52166"></trkpt>
      <trkpt lat="50.35892" lon="-3.52159"></trkpt>
      <trkpt lat="50.35909" lon="-3.52148"></trkpt>
      <trkpt lat="50.35912" lon="-3.52148"></trkpt>
      <trkpt lat="50.35925" lon="-3.52151"></trkpt>
      <trkpt lat="50.35927" lon="-3.52149"></trkpt>
      <trkpt lat="50.35933" lon="-3.5215"></trkpt>
      <trkpt lat="50.35934" lon="-3.52148"></trkpt>
      <trkpt lat="50.3595" lon="-3.5215"></trkpt>
      <trkpt lat="50.35957" lon="-3.52146"></trkpt>
      <trkpt lat="50.35974" lon="-3.52146"></trkpt>
      <trkpt lat="50.35984" lon="-3.52159"></trkpt>
      <trkpt lat="50.35994" lon="-3.52176"></trkpt>
      <trkpt lat="50.35995" lon="-3.5218"></trkpt>
      <trkpt lat="50.36007" lon="-3.52192"></trkpt>
      <trkpt lat="50.36011" lon="-3.52193"></trkpt>
      <trkpt lat="50.36017" lon="-3.52204"></trkpt>
      <trkpt lat="50.36031" lon="-3.5221"></trkpt>
      <trkpt lat="50.36033" lon="-3.52208"></trkpt>
      <trkpt lat="50.36047" lon="-3.52221"></trkpt>
      <trkpt lat="50.36062" lon="-3.52239"></trkpt>
      <trkpt lat="50.36095" lon="-3.52267"></trkpt>
      <trkpt lat="50.36116" lon="-3.52291"></trkpt>
      <trkpt lat="50.36134" lon="-3.52291"></trkpt>
      <trkpt lat="50.36161" lon="-3.5227"></trkpt>
      <trkpt lat="50.36188" lon="-3.52253"></trkpt>
      <trkpt lat="50.36216" lon="-3.52239"></trkpt>
      <trkpt lat="50.36228" lon="-3.52236"></trkpt>
      <trkpt lat="50.36236" lon="-3.52238"></trkpt>
      <trkpt lat="50.36248" lon="-3.52247"></trkpt>
      <trkpt lat="50.36257" lon="-3.52259"></trkpt>
      <trkpt lat="50.36263" lon="-3.5226"></trkpt>
      <trkpt lat="50.36274" lon="-3.52258"></trkpt>
      <trkpt lat="50.36286" lon="-3.52251"></trkpt>
      <trkpt lat="50.36316" lon="-3.52217"></trkpt>
      <trkpt lat="50.36332" lon="-3.52202"></trkpt>
      <trkpt lat="50.36371" lon="-3.52176"></trkpt>
      <trkpt lat="50.36389" lon="-3.52173"></trkpt>
      <trkpt lat="50.36402" lon="-3.52174"></trkpt>
      <trkpt lat="50.36409" lon="-3.52168"></trkpt>
      <trkpt lat="50.36416" lon="-3.52152"></trkpt>
      <trkpt lat="50.36465" lon="-3.52086"></trkpt>
      <trkpt lat="50.36494" lon="-3.52051"></trkpt>
      <trkpt lat="50.36515" lon="-3.52018"></trkpt>
      <trkpt lat="50.36526" lon="-3.51995"></trkpt>
      <trkpt lat="50.36549" lon="-3.51932"></trkpt>
      <trkpt lat="50.36553" lon="-3.51901"></trkpt>
      <trkpt lat="50.36559" lon="-3.5187"></trkpt>
      <trkpt lat="50.36565" lon="-3.51854"></trkpt>
      <trkpt lat="50.36577" lon="-3.5183"></trkpt>
      <trkpt lat="50.36593" lon="-3.51783"></trkpt>
      <trkpt lat="50.36602" lon="-3.51773"></trkpt>
      <trkpt lat="50.36634" lon="-3.51753"></trkpt>
      <trkpt lat="50.36692" lon="-3.51721"></trkpt>
      <trkpt lat="50.36698" lon="-3.51715"></trkpt>
      <trkpt lat="50.36703" lon="-3.51707"></trkpt>
      <trkpt lat="50.36708" lon="-3.51703"></trkpt>
      <trkpt lat="50.36722" lon="-3.51704"></trkpt>
      <trkpt lat="50.36756" lon="-3.5171"></trkpt>
      <trkpt lat="50.36774" lon="-3.51707"></trkpt>
      <trkpt lat="50.36786" lon="-3.51696"></trkpt>
      <trkpt lat="50.36795" lon="-3.51692"></trkpt>
      <trkpt lat="50.368" lon="-3.51694"></trkpt>
      <trkpt lat="50.36815" lon="-3.51711"></trkpt>
      <trkpt lat="50.36842" lon="-3.51714"></trkpt>
      <trkpt lat="50.36858" lon="-3.51709"></trkpt>
      <trkpt lat="50.36891" lon="-3.51711"></trkpt>
      <trkpt lat="50.36903" lon="-3.51716"></trkpt>
      <trkpt lat="50.36927" lon="-3.51708"></trkpt>
      <trkpt lat="50.36952" lon="-3.51691"></trkpt>
      <trkpt lat="50.36997" lon="-3.51685"></trkpt>
      <trkpt lat="50.37016" lon="-3.5168"></trkpt>
      <trkpt lat="50.37035" lon="-3.5167"></trkpt>
      <trkpt lat="50.37038" lon="-3.51687"></trkpt>
      <trkpt lat="50.37046" lon="-3.51682"></trkpt>
      <trkpt lat="50.37053" lon="-3.51683"></trkpt>
      <trkpt lat="50.37069" lon="-3.51668"></trkpt>
      <trkpt lat="50.37083" lon="-3.51668"></trkpt>
      <trkpt lat="50.37087" lon="-3.51673"></trkpt>
      <trkpt lat="50.37125" lon="-3.5167"></trkpt>
      <trkpt lat="50.37128" lon="-3.51666"></trkpt>
      <trkpt lat="50.37155" lon="-3.51656"></trkpt>
      <trkpt lat="50.37165" lon="-3.51657"></trkpt>
      <trkpt lat="50.37182" lon="-3.51667"></trkpt>
      <trkpt lat="50.37184" lon="-3.51663"></trkpt>
      <trkpt lat="50.37187" lon="-3.51661"></trkpt>
      <trkpt lat="50.37218" lon="-3.51664"></trkpt>
      <trkpt lat="50.37231" lon="-3.51665"></trkpt>
      <trkpt lat="50.37238" lon="-3.5168"></trkpt>
      <trkpt lat="50.37245" lon="-3.51681"></trkpt>
      <trkpt lat="50.37256" lon="-3.51692"></trkpt>
      <trkpt lat="50.37297" lon="-3.51706"></trkpt>
      <trkpt lat="50.37308" lon="-3.51704"></trkpt>
      <trkpt lat="50.37336" lon="-3.51716"></trkpt>
      <trkpt lat="50.37355" lon="-3.51719"></trkpt>
      <trkpt lat="50.37386" lon="-3.51714"></trkpt>
      <trkpt lat="50.37392" lon="-3.51706"></trkpt>
      <trkpt lat="50.37405" lon="-3.51706"></trkpt>
      <trkpt lat="50.37429" lon="-3.517"></trkpt>
      <trkpt lat="50.37468" lon="-3.51674"></trkpt>
      <trkpt lat="50.37485" lon="-3.51665"></trkpt>
      <trkpt lat="50.37489" lon="-3.51657"></trkpt>
      <trkpt lat="50.37501" lon="-3.51618"></trkpt>
      <trkpt lat="50.37506" lon="-3.51608"></trkpt>
      <trkpt lat="50.37536" lon="-3.51581"></trkpt>
      <trkpt lat="50.37546" lon="-3.5157"></trkpt>
      <trkpt lat="50.37558" lon="-3.51537"></trkpt>
      <trkpt lat="50.37564" lon="-3.51526"></trkpt>
      <trkpt lat="50.37573" lon="-3.51521"></trkpt>
      <trkpt lat="50.37599" lon="-3.51524"></trkpt>
      <trkpt lat="50.37609" lon="-3.51522"></trkpt>
      <trkpt lat="50.37618" lon="-3.51508"></trkpt>
      <trkpt lat="50.37649" lon="-3.5144"></trkpt>
      <trkpt lat="50.37661" lon="-3.51418"></trkpt>
      <trkpt lat="50.37682" lon="-3.51394"></trkpt>
      <trkpt lat="50.37698" lon="-3.51383"></trkpt>
      <trkpt lat="50.37724" lon="-3.51352"></trkpt>
      <trkpt lat="50.37729" lon="-3.5134"></trkpt>
      <trkpt lat="50.37733" lon="-3.5132"></trkpt>
      <trkpt lat="50.37758" lon="-3.51232"></trkpt>
      <trkpt lat="50.37758" lon="-3.51216"></trkpt>
      <trkpt lat="50.37761" lon="-3.51204"></trkpt>
      <trkpt lat="50.3778" lon="-3.51165"></trkpt>
      <trkpt lat="50.37787" lon="-3.51159"></trkpt>
      <trkpt lat="50.37798" lon="-3.51142"></trkpt>
      <trkpt lat="50.3781" lon="-3.51105"></trkpt>
      <trkpt lat="50.37811" lon="-3.5108"></trkpt>
      <trkpt lat="50.37823" lon="-3.51055"></trkpt>
      <trkpt lat="50.37828" lon="-3.51039"></trkpt>
      <trkpt lat="50.37839" lon="-3.5102"></trkpt>
      <trkpt lat="50.37846" lon="-3.51013"></trkpt>
      <trkpt lat="50.37851" lon="-3.51001"></trkpt>
      <trkpt lat="50.37859" lon="-3.50993"></trkpt>
      <trkpt lat="50.37863" lon="-3.50993"></trkpt>
      <trkpt lat="50.37871" lon="-3.51007"></trkpt>
      <trkpt lat="50.37873" lon="-3.51008"></trkpt>
      <trkpt lat="50.37877" lon="-3.50986"></trkpt>
      <trkpt lat="50.37882" lon="-3.50995"></trkpt>
      <trkpt lat="50.37884" lon="-3.50994"></trkpt>
      <trkpt lat="50.37883" lon="-3.50986"></trkpt>
      <trkpt lat="50.37885" lon="-3.50984"></trkpt>
      <trkpt lat="50.3789" lon="-3.50998"></trkpt>
      <trkpt lat="50.37894" lon="-3.50999"></trkpt>
      <trkpt lat="50.37895" lon="-3.50993"></trkpt>
      <trkpt lat="50.37894" lon="-3.50981"></trkpt>
      <trkpt lat="50.37895" lon="-3.50977"></trkpt>
      <trkpt lat="50.37898" lon="-3.50974"></trkpt>
      <trkpt lat="50.37901" lon="-3.50976"></trkpt>
      <trkpt lat="50.37903" lon="-3.50987"></trkpt>
      <trkpt lat="50.37906" lon="-3.50985"></trkpt>
      <trkpt lat="50.37907" lon="-3.50977"></trkpt>
      <trkpt lat="50.37911" lon="-3.50983"></trkpt>
      <trkpt lat="50.37913" lon="-3.50992"></trkpt>
      <trkpt lat="50.37915" lon="-3.50988"></trkpt>
      <trkpt lat="50.3792" lon="-3.50995"></trkpt>
      <trkpt lat="50.37929" lon="-3.50967"></trkpt>
      <trkpt lat="50.37931" lon="-3.50948"></trkpt>
      <trkpt lat="50.37934" lon="-3.50942"></trkpt>
      <trkpt lat="50.37949" lon="-3.5093"></trkpt>
      <trkpt lat="50.37957" lon="-3.5092"></trkpt>
      <trkpt lat="50.37964" lon="-3.50899"></trkpt>
      <trkpt lat="50.37964" lon="-3.509"></trkpt>
      <trkpt lat="50.37969" lon="-3.50876"></trkpt>
      <trkpt lat="50.3798" lon="-3.50858"></trkpt>
      <trkpt lat="50.38" lon="-3.508"></trkpt>
      <trkpt lat="50.38019" lon="-3.5075"></trkpt>
      <trkpt lat="50.3802" lon="-3.50741"></trkpt>
      <trkpt lat="50.38025" lon="-3.50729"></trkpt>
      <trkpt lat="50.3804" lon="-3.50706"></trkpt>
      <trkpt lat="50.3806" lon="-3.5068"></trkpt>
      <trkpt lat="50.38066" lon="-3.50664"></trkpt>
      <trkpt lat="50.38067" lon="-3.5057"></trkpt>
      <trkpt lat="50.38074" lon="-3.5047"></trkpt>
      <trkpt lat="50.38081" lon="-3.50441"></trkpt>
      <trkpt lat="50.38085" lon="-3.50433"></trkpt>
      <trkpt lat="50.38089" lon="-3.50407"></trkpt>
      <trkpt lat="50.38102" lon="-3.50352"></trkpt>
      <trkpt lat="50.38111" lon="-3.50287"></trkpt>
      <trkpt lat="50.38118" lon="-3.50248"></trkpt>
      <trkpt lat="50.38129" lon="-3.50223"></trkpt>
      <trkpt lat="50.38141" lon="-3.50213"></trkpt>
      <trkpt lat="50.38151" lon="-3.50202"></trkpt>
      <trkpt lat="50.38159" lon="-3.50155"></trkpt>
      <trkpt lat="50.38151" lon="-3.50125"></trkpt>
      <trkpt lat="50.38146" lon="-3.50052"></trkpt>
      <trkpt lat="50.38151" lon="-3.49979"></trkpt>
      <trkpt lat="50.38159" lon="-3.49953"></trkpt>
      <trkpt lat="50.38162" lon="-3.49892"></trkpt>
      <trkpt lat="50.38164" lon="-3.49881"></trkpt>
      <trkpt lat="50.38168" lon="-3.49873"></trkpt>
      <trkpt lat="50.38177" lon="-3.49867"></trkpt>
      <trkpt lat="50.38184" lon="-3.49863"></trkpt>
      <trkpt lat="50.3819" lon="-3.49863"></trkpt>
      <trkpt lat="50.38195" lon="-3.49866"></trkpt>
      <trkpt lat="50.38213" lon="-3.49895"></trkpt>
      <trkpt lat="50.38223" lon="-3.49919"></trkpt>
      <trkpt lat="50.38237" lon="-3.49912"></trkpt>
      <trkpt lat="50.38246" lon="-3.49911"></trkpt>
      <trkpt lat="50.38255" lon="-3.49912"></trkpt>
      <trkpt lat="50.38259" lon="-3.49925"></trkpt>
      <trkpt lat="50.38261" lon="-3.4994"></trkpt>
      <trkpt lat="50.38264" lon="-3.49946"></trkpt>
      <trkpt lat="50.38273" lon="-3.49957"></trkpt>
      <trkpt lat="50.3828" lon="-3.49961"></trkpt>
      <trkpt lat="50.38287" lon="-3.4997"></trkpt>
      <trkpt lat="50.3832" lon="-3.5004"></trkpt>
      <trkpt lat="50.3832" lon="-3.50059"></trkpt>
      <trkpt lat="50.38327" lon="-3.5008"></trkpt>
      <trkpt lat="50.38328" lon="-3.50088"></trkpt>
      <trkpt lat="50.38346" lon="-3.50122"></trkpt>
      <trkpt lat="50.38364" lon="-3.50149"></trkpt>
      <trkpt lat="50.38379" lon="-3.5019"></trkpt>
      <trkpt lat="50.38388" lon="-3.50208"></trkpt>
      <trkpt lat="50.38401" lon="-3.50254"></trkpt>
      <trkpt lat="50.38419" lon="-3.50338"></trkpt>
      <trkpt lat="50.38426" lon="-3.50381"></trkpt>
      <trkpt lat="50.38431" lon="-3.50394"></trkpt>
      <trkpt lat="50.38431" lon="-3.50399"></trkpt>
      <trkpt lat="50.3847" lon="-3.50399"></trkpt>
      <trkpt lat="50.38479" lon="-3.50402"></trkpt>
      <trkpt lat="50.3849" lon="-3.50412"></trkpt>
      <trkpt lat="50.38507" lon="-3.50438"></trkpt>
      <trkpt lat="50.38512" lon="-3.5049"></trkpt>
      <trkpt lat="50.38528" lon="-3.50517"></trkpt>
      <trkpt lat="50.38553" lon="-3.50541"></trkpt>
      <trkpt lat="50.38592" lon="-3.50559"></trkpt>
      <trkpt lat="50.38612" lon="-3.50553"></trkpt>
      <trkpt lat="50.38627" lon="-3.50545"></trkpt>
      <trkpt lat="50.38633" lon="-3.50533"></trkpt>
      <trkpt lat="50.38654" lon="-3.50528"></trkpt>
      <trkpt lat="50.38674" lon="-3.50532"></trkpt>
      <trkpt lat="50.38684" lon="-3.50527"></trkpt>
      <trkpt lat="50.38719" lon="-3.50537"></trkpt>
      <trkpt lat="50.38738" lon="-3.50536"></trkpt>
      <trkpt lat="50.38759" lon="-3.50541"></trkpt>
      <trkpt lat="50.38791" lon="-3.50552"></trkpt>
      <trkpt lat="50.38794" lon="-3.50515"></trkpt>
      <trkpt lat="50.38794" lon="-3.50488"></trkpt>
      <trkpt lat="50.38797" lon="-3.5047"></trkpt>
      <trkpt lat="50.38805" lon="-3.50453"></trkpt>
      <trkpt lat="50.38819" lon="-3.50441"></trkpt>
      <trkpt lat="50.38828" lon="-3.50438"></trkpt>
      <trkpt lat="50.38843" lon="-3.50439"></trkpt>
      <trkpt lat="50.38864" lon="-3.50445"></trkpt>
      <trkpt lat="50.3887" lon="-3.50443"></trkpt>
      <trkpt lat="50.38874" lon="-3.50436"></trkpt>
      <trkpt lat="50.38882" lon="-3.5039"></trkpt>
      <trkpt lat="50.38893" lon="-3.50369"></trkpt>
      <trkpt lat="50.38901" lon="-3.50313"></trkpt>
      <trkpt lat="50.38909" lon="-3.50291"></trkpt>
      <trkpt lat="50.3892" lon="-3.50279"></trkpt>
      <trkpt lat="50.38946" lon="-3.50263"></trkpt>
      <trkpt lat="50.38956" lon="-3.50244"></trkpt>
      <trkpt lat="50.38974" lon="-3.50201"></trkpt>
      <trkpt lat="50.38979" lon="-3.50177"></trkpt>
      <trkpt lat="50.38984" lon="-3.50161"></trkpt>
      <trkpt lat="50.38994" lon="-3.50144"></trkpt>
      <trkpt lat="50.38995" lon="-3.50122"></trkpt>
      <trkpt lat="50.38999" lon="-3.50113"></trkpt>
      <trkpt lat="50.39003" lon="-3.50109"></trkpt>
      <trkpt lat="50.39004" lon="-3.50096"></trkpt>
      <trkpt lat="50.39011" lon="-3.5008"></trkpt>
      <trkpt lat="50.39024" lon="-3.50065"></trkpt>
      <trkpt lat="50.39041" lon="-3.50038"></trkpt>
      <trkpt lat="50.39042" lon="-3.50029"></trkpt>
      <trkpt lat="50.39049" lon="-3.50023"></trkpt>
      <trkpt lat="50.39061" lon="-3.50023"></trkpt>
      <trkpt lat="50.39069" lon="-3.50011"></trkpt>
      <trkpt lat="50.39077" lon="-3.50002"></trkpt>
      <trkpt lat="50.39129" lon="-3.49888"></trkpt>
      <trkpt lat="50.39163" lon="-3.49823"></trkpt>
      <trkpt lat="50.39175" lon="-3.49803"></trkpt>
      <trkpt lat="50.3919" lon="-3.49788"></trkpt>
      <trkpt lat="50.39203" lon="-3.4977"></trkpt>
      <trkpt lat="50.39207" lon="-3.49744"></trkpt>
      <trkpt lat="50.39203" lon="-3.49706"></trkpt>
      <trkpt lat="50.39202" lon="-3.49666"></trkpt>
      <trkpt lat="50.39199" lon="-3.49644"></trkpt>
      <trkpt lat="50.39207" lon="-3.49577"></trkpt>
      <trkpt lat="50.39208" lon="-3.4952"></trkpt>
      <trkpt lat="50.39204" lon="-3.495"></trkpt>
      <trkpt lat="50.39205" lon="-3.49485"></trkpt>
      <trkpt lat="50.39198" lon="-3.4945"></trkpt>
      <trkpt lat="50.39209" lon="-3.49428"></trkpt>
      <trkpt lat="50.39216" lon="-3.49404"></trkpt>
      <trkpt lat="50.39222" lon="-3.49367"></trkpt>
      <trkpt lat="50.3923" lon="-3.49361"></trkpt>
      <trkpt lat="50.39229" lon="-3.49361"></trkpt>
      <trkpt lat="50.39263" lon="-3.49346"></trkpt>
      <trkpt lat="50.3929" lon="-3.49319"></trkpt>
      <trkpt lat="50.39292" lon="-3.49311"></trkpt>
      <trkpt lat="50.39297" lon="-3.49302"></trkpt>
      <trkpt lat="50.39306" lon="-3.49297"></trkpt>
      <trkpt lat="50.39321" lon="-3.49295"></trkpt>
      <trkpt lat="50.39329" lon="-3.49291"></trkpt>
      <trkpt lat="50.39338" lon="-3.49276"></trkpt>
      <trkpt lat="50.39349" lon="-3.49278"></trkpt>
      <trkpt lat="50.39385" lon="-3.49268"></trkpt>
      <trkpt lat="50.39396" lon="-3.49262"></trkpt>
      <trkpt lat="50.39396" lon="-3.49255"></trkpt>
      <trkpt lat="50.39411" lon="-3.49231"></trkpt>
      <trkpt lat="50.39414" lon="-3.49219"></trkpt>
      <trkpt lat="50.39416" lon="-3.49216"></trkpt>
      <trkpt lat="50.39425" lon="-3.49215"></trkpt>
      <trkpt lat="50.39431" lon="-3.49218"></trkpt>
      <trkpt lat="50.39437" lon="-3.49224"></trkpt>
      <trkpt lat="50.3944" lon="-3.49238"></trkpt>
      <trkpt lat="50.39457" lon="-3.49255"></trkpt>
      <trkpt lat="50.39478" lon="-3.49263"></trkpt>
      <trkpt lat="50.395" lon="-3.49284"></trkpt>
      <trkpt lat="50.39513" lon="-3.49288"></trkpt>
      <trkpt lat="50.39529" lon="-3.49284"></trkpt>
      <trkpt lat="50.39534" lon="-3.49281"></trkpt>
      <trkpt lat="50.39547" lon="-3.49256"></trkpt>
      <trkpt lat="50.39556" lon="-3.49244"></trkpt>
      <trkpt lat="50.39562" lon="-3.4924"></trkpt>
      <trkpt lat="50.39567" lon="-3.49245"></trkpt>
      <trkpt lat="50.3957" lon="-3.4923"></trkpt>
      <trkpt lat="50.39575" lon="-3.49223"></trkpt>
      <trkpt lat="50.39659" lon="-3.49123"></trkpt>
      <trkpt lat="50.39683" lon="-3.49104"></trkpt>
      <trkpt lat="50.39682" lon="-3.49104"></trkpt>
      <trkpt lat="50.39696" lon="-3.49094"></trkpt>
      <trkpt lat="50.39727" lon="-3.49076"></trkpt>
      <trkpt lat="50.39771" lon="-3.49036"></trkpt>
      <trkpt lat="50.39801" lon="-3.49016"></trkpt>
      <trkpt lat="50.3981" lon="-3.49012"></trkpt>
      <trkpt lat="50.39821" lon="-3.49011"></trkpt>
      <trkpt lat="50.39861" lon="-3.49015"></trkpt>
      <trkpt lat="50.39874" lon="-3.4901"></trkpt>
      <trkpt lat="50.39892" lon="-3.49029"></trkpt>
      <trkpt lat="50.39895" lon="-3.49035"></trkpt>
      <trkpt lat="50.39901" lon="-3.49051"></trkpt>
      <trkpt lat="50.39912" lon="-3.49088"></trkpt>
      <trkpt lat="50.39942" lon="-3.49166"></trkpt>
      <trkpt lat="50.39959" lon="-3.49194"></trkpt>
      <trkpt lat="50.39967" lon="-3.49205"></trkpt>
      <trkpt lat="50.39981" lon="-3.49215"></trkpt>
      <trkpt lat="50.39993" lon="-3.49216"></trkpt>
      <trkpt lat="50.40011" lon="-3.4921"></trkpt>
      <trkpt lat="50.40015" lon="-3.49212"></trkpt>
      <trkpt lat="50.40022" lon="-3.49219"></trkpt>
      <trkpt lat="50.40031" lon="-3.49237"></trkpt>
      <trkpt lat="50.40042" lon="-3.49269"></trkpt>
      <trkpt lat="50.40043" lon="-3.49286"></trkpt>
      <trkpt lat="50.40035" lon="-3.49329"></trkpt>
      <trkpt lat="50.40021" lon="-3.49359"></trkpt>
      <trkpt lat="50.40007" lon="-3.49383"></trkpt>
      <trkpt lat="50.39995" lon="-3.49421"></trkpt>
      <trkpt lat="50.39992" lon="-3.49441"></trkpt>
      <trkpt lat="50.39992" lon="-3.49448"></trkpt>
      <trkpt lat="50.39993" lon="-3.49463"></trkpt>
      <trkpt lat="50.39985" lon="-3.49512"></trkpt>
      <trkpt lat="50.39991" lon="-3.4954"></trkpt>
      <trkpt lat="50.39993" lon="-3.49558"></trkpt>
      <trkpt lat="50.39997" lon="-3.49567"></trkpt>
      <trkpt lat="50.39999" lon="-3.49595"></trkpt>
      <trkpt lat="50.40002" lon="-3.496"></trkpt>
      <trkpt lat="50.40015" lon="-3.49593"></trkpt>
      <trkpt lat="50.40029" lon="-3.49575"></trkpt>
      <trkpt lat="50.40036" lon="-3.49571"></trkpt>
      <trkpt lat="50.40042" lon="-3.49571"></trkpt>
      <trkpt lat="50.40052" lon="-3.49577"></trkpt>
      <trkpt lat="50.4006" lon="-3.49588"></trkpt>
      <trkpt lat="50.4007" lon="-3.49611"></trkpt>
      <trkpt lat="50.40077" lon="-3.49643"></trkpt>
      <trkpt lat="50.4008" lon="-3.49668"></trkpt>
      <trkpt lat="50.40079" lon="-3.49696"></trkpt>
      <trkpt lat="50.40074" lon="-3.49723"></trkpt>
      <trkpt lat="50.40073" lon="-3.49741"></trkpt>
      <trkpt lat="50.40095" lon="-3.49749"></trkpt>
      <trkpt lat="50.40103" lon="-3.49763"></trkpt>
      <trkpt lat="50.401" lon="-3.49783"></trkpt>
      <trkpt lat="50.40123" lon="-3.49786"></trkpt>
      <trkpt lat="50.40125" lon="-3.49796"></trkpt>
      <trkpt lat="50.40127" lon="-3.49797"></trkpt>
      <trkpt lat="50.40123" lon="-3.49829"></trkpt>
      <trkpt lat="50.40117" lon="-3.49865"></trkpt>
      <trkpt lat="50.40106" lon="-3.49928"></trkpt>
      <trkpt lat="50.40103" lon="-3.49958"></trkpt>
      <trkpt lat="50.40097" lon="-3.49984"></trkpt>
      <trkpt lat="50.40095" lon="-3.50016"></trkpt>
      <trkpt lat="50.40082" lon="-3.50044"></trkpt>
      <trkpt lat="50.4007" lon="-3.50046"></trkpt>
      <trkpt lat="50.40062" lon="-3.50059"></trkpt>
      <trkpt lat="50.40049" lon="-3.50072"></trkpt>
      <trkpt lat="50.40028" lon="-3.50114"></trkpt>
      <trkpt lat="50.40012" lon="-3.50118"></trkpt>
      <trkpt lat="50.40007" lon="-3.50158"></trkpt>
      <trkpt lat="50.39992" lon="-3.50245"></trkpt>
      <trkpt lat="50.3997" lon="-3.50343"></trkpt>
      <trkpt lat="50.39956" lon="-3.50395"></trkpt>
      <trkpt lat="50.39942" lon="-3.50439"></trkpt>
      <trkpt lat="50.39935" lon="-3.50459"></trkpt>
      <trkpt lat="50.39938" lon="-3.50462"></trkpt>
      <trkpt lat="50.39931" lon="-3.50482"></trkpt>
      <trkpt lat="50.39935" lon="-3.50485"></trkpt>
      <trkpt lat="50.39946" lon="-3.50461"></trkpt>
      <trkpt lat="50.39952" lon="-3.50455"></trkpt>
      <trkpt lat="50.39956" lon="-3.50455"></trkpt>
      <trkpt lat="50.39965" lon="-3.50468"></trkpt>
      <trkpt lat="50.3995" lon="-3.5049"></trkpt>
      <trkpt lat="50.39924" lon="-3.50556"></trkpt>
      <trkpt lat="50.39918" lon="-3.50567"></trkpt>
      <trkpt lat="50.39911" lon="-3.50605"></trkpt>
      <trkpt lat="50.39889" lon="-3.50659"></trkpt>
      <trkpt lat="50.39855" lon="-3.50729"></trkpt>
      <trkpt lat="50.39833" lon="-3.50798"></trkpt>
      <trkpt lat="50.39826" lon="-3.50809"></trkpt>
      <trkpt lat="50.39794" lon="-3.50842"></trkpt>
      <trkpt lat="50.39775" lon="-3.50852"></trkpt>
      <trkpt lat="50.39766" lon="-3.5086"></trkpt>
      <trkpt lat="50.39748" lon="-3.50898"></trkpt>
      <trkpt lat="50.39736" lon="-3.50937"></trkpt>
      <trkpt lat="50.39731" lon="-3.50962"></trkpt>
      <trkpt lat="50.39724" lon="-3.51054"></trkpt>
      <trkpt lat="50.3971" lon="-3.51074"></trkpt>
      <trkpt lat="50.39678" lon="-3.51085"></trkpt>
      <trkpt lat="50.39673" lon="-3.51083"></trkpt>
      <trkpt lat="50.39665" lon="-3.51084"></trkpt>
      <trkpt lat="50.39615" lon="-3.51136"></trkpt>
      <trkpt lat="50.39589" lon="-3.51176"></trkpt>
      <trkpt lat="50.39586" lon="-3.5119"></trkpt>
      <trkpt lat="50.39594" lon="-3.51234"></trkpt>
      <trkpt lat="50.39595" lon="-3.51246"></trkpt>
      <trkpt lat="50.396" lon="-3.51261"></trkpt>
      <trkpt lat="50.39613" lon="-3.51286"></trkpt>
    </trkseg>
  </trk>
</gpx>
