<?xml version="1.0" encoding="UTF-8"?>
<gpx version="1.1" creator="swcp-walk (imported from OS Maps route 33857942)"
     xmlns="http://www.topografix.com/GPX/1/1">
  <metadata>
    <name>SWCP42-Brixham-Babbacombe</name>
  </metadata>
  <trk>
    <name>SWCP42-Brixham-Babbacombe</name>
    <trkseg>
      <trkpt lat="50.39607112195466" lon="-3.512723223951525"></trkpt>
      <trkpt lat="50.39606" lon="-3.51273"></trkpt>
      <trkpt lat="50.39616" lon="-3.51291"></trkpt>
      <trkpt lat="50.39627" lon="-3.51296"></trkpt>
      <trkpt lat="50.39642" lon="-3.5131"></trkpt>
      <trkpt lat="50.39654" lon="-3.51325"></trkpt>
      <trkpt lat="50.39742" lon="-3.51258"></trkpt>
      <trkpt lat="50.39768" lon="-3.5124"></trkpt>
      <trkpt lat="50.39774" lon="-3.51243"></trkpt>
      <trkpt lat="50.39767" lon="-3.51249"></trkpt>
      <trkpt lat="50.39759" lon="-3.51251"></trkpt>
      <trkpt lat="50.39769" lon="-3.51255"></trkpt>
      <trkpt lat="50.39759" lon="-3.51251"></trkpt>
      <trkpt lat="50.39767" lon="-3.51249"></trkpt>
      <trkpt lat="50.39774" lon="-3.51243"></trkpt>
      <trkpt lat="50.39809" lon="-3.51286"></trkpt>
      <trkpt lat="50.39826" lon="-3.51293"></trkpt>
      <trkpt lat="50.39875" lon="-3.51353"></trkpt>
      <trkpt lat="50.39879" lon="-3.51374"></trkpt>
      <trkpt lat="50.39887" lon="-3.51374"></trkpt>
      <trkpt lat="50.39892" lon="-3.51379"></trkpt>
      <trkpt lat="50.39896" lon="-3.51392"></trkpt>
      <trkpt lat="50.39961" lon="-3.51469"></trkpt>
      <trkpt lat="50.40019" lon="-3.51533"></trkpt>
      <trkpt lat="50.40063" lon="-3.51581"></trkpt>
      <trkpt lat="50.40056" lon="-3.51602"></trkpt>
      <trkpt lat="50.40108" lon="-3.51663"></trkpt>
      <trkpt lat="50.40114" lon="-3.51667"></trkpt>
      <trkpt lat="50.40132" lon="-3.51699"></trkpt>
      <trkpt lat="50.40139" lon="-3.51703"></trkpt>
      <trkpt lat="50.40138" lon="-3.51711"></trkpt>
      <trkpt lat="50.40189" lon="-3.51797"></trkpt>
      <trkpt lat="50.40189" lon="-3.51809"></trkpt>
      <trkpt lat="50.40211" lon="-3.51829"></trkpt>
      <trkpt lat="50.40221" lon="-3.51844"></trkpt>
      <trkpt lat="50.40256" lon="-3.51885"></trkpt>
      <trkpt lat="50.40265" lon="-3.51902"></trkpt>
      <trkpt lat="50.40267" lon="-3.51927"></trkpt>
      <trkpt lat="50.40292" lon="-3.51954"></trkpt>
      <trkpt lat="50.40295" lon="-3.51966"></trkpt>
      <trkpt lat="50.40296" lon="-3.51981"></trkpt>
      <trkpt lat="50.40293" lon="-3.51991"></trkpt>
      <trkpt lat="50.40291" lon="-3.51993"></trkpt>
      <trkpt lat="50.40283" lon="-3.51999"></trkpt>
      <trkpt lat="50.40282" lon="-3.52022"></trkpt>
      <trkpt lat="50.40292" lon="-3.5203"></trkpt>
      <trkpt lat="50.40292" lon="-3.52039"></trkpt>
      <trkpt lat="50.40286" lon="-3.52052"></trkpt>
      <trkpt lat="50.40278" lon="-3.52057"></trkpt>
      <trkpt lat="50.4027" lon="-3.52092"></trkpt>
      <trkpt lat="50.40266" lon="-3.52099"></trkpt>
      <trkpt lat="50.40238" lon="-3.52122"></trkpt>
      <trkpt lat="50.4023" lon="-3.52125"></trkpt>
      <trkpt lat="50.40217" lon="-3.52126"></trkpt>
      <trkpt lat="50.40217" lon="-3.5213"></trkpt>
      <trkpt lat="50.40212" lon="-3.52133"></trkpt>
      <trkpt lat="50.40204" lon="-3.52157"></trkpt>
      <trkpt lat="50.40202" lon="-3.52159"></trkpt>
      <trkpt lat="50.40192" lon="-3.52156"></trkpt>
      <trkpt lat="50.40122" lon="-3.52165"></trkpt>
      <trkpt lat="50.40096" lon="-3.52171"></trkpt>
      <trkpt lat="50.40099" lon="-3.5218"></trkpt>
      <trkpt lat="50.40145" lon="-3.52306"></trkpt>
      <trkpt lat="50.40151" lon="-3.52312"></trkpt>
      <trkpt lat="50.40175" lon="-3.52321"></trkpt>
      <trkpt lat="50.40187" lon="-3.52314"></trkpt>
      <trkpt lat="50.40193" lon="-3.52308"></trkpt>
      <trkpt lat="50.40202" lon="-3.52309"></trkpt>
      <trkpt lat="50.40216" lon="-3.52305"></trkpt>
      <trkpt lat="50.40224" lon="-3.52309"></trkpt>
      <trkpt lat="50.40228" lon="-3.52316"></trkpt>
      <trkpt lat="50.40233" lon="-3.52315"></trkpt>
      <trkpt lat="50.40246" lon="-3.52323"></trkpt>
      <trkpt lat="50.40252" lon="-3.52342"></trkpt>
      <trkpt lat="50.40255" lon="-3.52364"></trkpt>
      <trkpt lat="50.40258" lon="-3.52373"></trkpt>
      <trkpt lat="50.40264" lon="-3.5238"></trkpt>
      <trkpt lat="50.4027" lon="-3.52402"></trkpt>
      <trkpt lat="50.4027" lon="-3.52417"></trkpt>
      <trkpt lat="50.40275" lon="-3.52443"></trkpt>
      <trkpt lat="50.40307" lon="-3.52437"></trkpt>
      <trkpt lat="50.40308" lon="-3.52441"></trkpt>
      <trkpt lat="50.40307" lon="-3.52449"></trkpt>
      <trkpt lat="50.40308" lon="-3.52458"></trkpt>
      <trkpt lat="50.40314" lon="-3.52468"></trkpt>
      <trkpt lat="50.40319" lon="-3.52457"></trkpt>
      <trkpt lat="50.4033" lon="-3.52453"></trkpt>
      <trkpt lat="50.40326" lon="-3.52475"></trkpt>
      <trkpt lat="50.40328" lon="-3.52502"></trkpt>
      <trkpt lat="50.40331" lon="-3.52551"></trkpt>
      <trkpt lat="50.40325" lon="-3.52615"></trkpt>
      <trkpt lat="50.40326" lon="-3.52645"></trkpt>
      <trkpt lat="50.40324" lon="-3.52668"></trkpt>
      <trkpt lat="50.4035" lon="-3.52728"></trkpt>
      <trkpt lat="50.40372" lon="-3.52842"></trkpt>
      <trkpt lat="50.40378" lon="-3.52868"></trkpt>
      <trkpt lat="50.40396" lon="-3.52898"></trkpt>
      <trkpt lat="50.40406" lon="-3.5297"></trkpt>
      <trkpt lat="50.40408" lon="-3.52995"></trkpt>
      <trkpt lat="50.40406" lon="-3.5314"></trkpt>
      <trkpt lat="50.40402" lon="-3.53215"></trkpt>
      <trkpt lat="50.40398" lon="-3.5323"></trkpt>
      <trkpt lat="50.40393" lon="-3.53281"></trkpt>
      <trkpt lat="50.40386" lon="-3.53325"></trkpt>
      <trkpt lat="50.40388" lon="-3.53346"></trkpt>
      <trkpt lat="50.40388" lon="-3.53375"></trkpt>
      <trkpt lat="50.40386" lon="-3.53407"></trkpt>
      <trkpt lat="50.40382" lon="-3.53432"></trkpt>
      <trkpt lat="50.40376" lon="-3.53455"></trkpt>
      <trkpt lat="50.40368" lon="-3.53476"></trkpt>
      <trkpt lat="50.40363" lon="-3.5353"></trkpt>
      <trkpt lat="50.40348" lon="-3.53592"></trkpt>
      <trkpt lat="50.40318" lon="-3.537"></trkpt>
      <trkpt lat="50.40306" lon="-3.5375"></trkpt>
      <trkpt lat="50.4027" lon="-3.53957"></trkpt>
      <trkpt lat="50.40261" lon="-3.53998"></trkpt>
      <trkpt lat="50.40231" lon="-3.54103"></trkpt>
      <trkpt lat="50.40223" lon="-3.54135"></trkpt>
      <trkpt lat="50.40205" lon="-3.54193"></trkpt>
      <trkpt lat="50.402" lon="-3.54217"></trkpt>
      <trkpt lat="50.40198" lon="-3.54254"></trkpt>
      <trkpt lat="50.4019" lon="-3.54309"></trkpt>
      <trkpt lat="50.4018" lon="-3.54357"></trkpt>
      <trkpt lat="50.40169" lon="-3.5441"></trkpt>
      <trkpt lat="50.40164" lon="-3.54455"></trkpt>
      <trkpt lat="50.40167" lon="-3.54479"></trkpt>
      <trkpt lat="50.4017" lon="-3.54485"></trkpt>
      <trkpt lat="50.40174" lon="-3.5447"></trkpt>
      <trkpt lat="50.40181" lon="-3.54459"></trkpt>
      <trkpt lat="50.40186" lon="-3.54456"></trkpt>
      <trkpt lat="50.4019" lon="-3.54457"></trkpt>
      <trkpt lat="50.40191" lon="-3.54463"></trkpt>
      <trkpt lat="50.40187" lon="-3.54477"></trkpt>
      <trkpt lat="50.40186" lon="-3.54485"></trkpt>
      <trkpt lat="50.40198" lon="-3.54496"></trkpt>
      <trkpt lat="50.40235" lon="-3.54574"></trkpt>
      <trkpt lat="50.40272" lon="-3.54646"></trkpt>
      <trkpt lat="50.40281" lon="-3.54657"></trkpt>
      <trkpt lat="50.403" lon="-3.54663"></trkpt>
      <trkpt lat="50.40317" lon="-3.54652"></trkpt>
      <trkpt lat="50.40329" lon="-3.54638"></trkpt>
      <trkpt lat="50.40343" lon="-3.54638"></trkpt>
      <trkpt lat="50.40368" lon="-3.5463"></trkpt>
      <trkpt lat="50.40378" lon="-3.54642"></trkpt>
      <trkpt lat="50.40398" lon="-3.54695"></trkpt>
      <trkpt lat="50.40414" lon="-3.5473"></trkpt>
      <trkpt lat="50.4042" lon="-3.5473"></trkpt>
      <trkpt lat="50.40439" lon="-3.54714"></trkpt>
      <trkpt lat="50.40462" lon="-3.54717"></trkpt>
      <trkpt lat="50.40472" lon="-3.54724"></trkpt>
      <trkpt lat="50.40485" lon="-3.54746"></trkpt>
      <trkpt lat="50.40495" lon="-3.54771"></trkpt>
      <trkpt lat="50.405" lon="-3.54779"></trkpt>
      <trkpt lat="50.40539" lon="-3.54796"></trkpt>
      <trkpt lat="50.40567" lon="-3.54816"></trkpt>
      <trkpt lat="50.4058" lon="-3.54831"></trkpt>
      <trkpt lat="50.40591" lon="-3.5485"></trkpt>
      <trkpt lat="50.40609" lon="-3.54886"></trkpt>
      <trkpt lat="50.40618" lon="-3.54914"></trkpt>
      <trkpt lat="50.40623" lon="-3.54946"></trkpt>
      <trkpt lat="50.40624" lon="-3.54971"></trkpt>
      <trkpt lat="50.40623" lon="-3.54994"></trkpt>
      <trkpt lat="50.40618" lon="-3.5505"></trkpt>
      <trkpt lat="50.40618" lon="-3.5508"></trkpt>
      <trkpt lat="50.4062" lon="-3.55088"></trkpt>
      <trkpt lat="50.4062" lon="-3.55103"></trkpt>
      <trkpt lat="50.40617" lon="-3.55112"></trkpt>
      <trkpt lat="50.40617" lon="-3.55113"></trkpt>
      <trkpt lat="50.40605" lon="-3.55138"></trkpt>
      <trkpt lat="50.40598" lon="-3.55146"></trkpt>
      <trkpt lat="50.40585" lon="-3.5515"></trkpt>
      <trkpt lat="50.40573" lon="-3.55159"></trkpt>
      <trkpt lat="50.40551" lon="-3.55187"></trkpt>
      <trkpt lat="50.40541" lon="-3.55209"></trkpt>
      <trkpt lat="50.40536" lon="-3.55228"></trkpt>
      <trkpt lat="50.40534" lon="-3.55251"></trkpt>
      <trkpt lat="50.40545" lon="-3.55325"></trkpt>
      <trkpt lat="50.40558" lon="-3.5537"></trkpt>
      <trkpt lat="50.40578" lon="-3.55418"></trkpt>
      <trkpt lat="50.406" lon="-3.55459"></trkpt>
      <trkpt lat="50.40616" lon="-3.5548"></trkpt>
      <trkpt lat="50.40659" lon="-3.55525"></trkpt>
      <trkpt lat="50.40707" lon="-3.55561"></trkpt>
      <trkpt lat="50.40751" lon="-3.55587"></trkpt>
      <trkpt lat="50.40781" lon="-3.55607"></trkpt>
      <trkpt lat="50.40767" lon="-3.55687"></trkpt>
      <trkpt lat="50.40764" lon="-3.55721"></trkpt>
      <trkpt lat="50.40763" lon="-3.55757"></trkpt>
      <trkpt lat="50.40765" lon="-3.558"></trkpt>
      <trkpt lat="50.40771" lon="-3.55845"></trkpt>
      <trkpt lat="50.4079" lon="-3.55912"></trkpt>
      <trkpt lat="50.40826" lon="-3.55854"></trkpt>
      <trkpt lat="50.40836" lon="-3.55844"></trkpt>
      <trkpt lat="50.40835" lon="-3.55837"></trkpt>
      <trkpt lat="50.40837" lon="-3.5583"></trkpt>
      <trkpt lat="50.40856" lon="-3.55805"></trkpt>
      <trkpt lat="50.40863" lon="-3.55805"></trkpt>
      <trkpt lat="50.40863" lon="-3.55795"></trkpt>
      <trkpt lat="50.40867" lon="-3.55785"></trkpt>
      <trkpt lat="50.40875" lon="-3.55775"></trkpt>
      <trkpt lat="50.40956" lon="-3.55703"></trkpt>
      <trkpt lat="50.4105" lon="-3.55634"></trkpt>
      <trkpt lat="50.41145" lon="-3.55587"></trkpt>
      <trkpt lat="50.41168" lon="-3.55579"></trkpt>
      <trkpt lat="50.41217" lon="-3.55567"></trkpt>
      <trkpt lat="50.41245" lon="-3.55557"></trkpt>
      <trkpt lat="50.41256" lon="-3.55556"></trkpt>
      <trkpt lat="50.41298" lon="-3.55569"></trkpt>
      <trkpt lat="50.41317" lon="-3.5558"></trkpt>
      <trkpt lat="50.41341" lon="-3.55598"></trkpt>
      <trkpt lat="50.41385" lon="-3.5564"></trkpt>
      <trkpt lat="50.4139" lon="-3.55649"></trkpt>
      <trkpt lat="50.41391" lon="-3.55659"></trkpt>
      <trkpt lat="50.41405" lon="-3.5568"></trkpt>
      <trkpt lat="50.41448" lon="-3.55712"></trkpt>
      <trkpt lat="50.41461" lon="-3.55718"></trkpt>
      <trkpt lat="50.41508" lon="-3.55728"></trkpt>
      <trkpt lat="50.41519" lon="-3.55734"></trkpt>
      <trkpt lat="50.41541" lon="-3.55768"></trkpt>
      <trkpt lat="50.41556" lon="-3.55778"></trkpt>
      <trkpt lat="50.4157" lon="-3.55781"></trkpt>
      <trkpt lat="50.41591" lon="-3.55779"></trkpt>
      <trkpt lat="50.41622" lon="-3.55767"></trkpt>
      <trkpt lat="50.41711" lon="-3.55756"></trkpt>
      <trkpt lat="50.4173" lon="-3.5575"></trkpt>
      <trkpt lat="50.41753" lon="-3.5575"></trkpt>
      <trkpt lat="50.41769" lon="-3.55753"></trkpt>
      <trkpt lat="50.41778" lon="-3.55758"></trkpt>
      <trkpt lat="50.41799" lon="-3.55778"></trkpt>
      <trkpt lat="50.418" lon="-3.55771"></trkpt>
      <trkpt lat="50.41799" lon="-3.55778"></trkpt>
      <trkpt lat="50.41836" lon="-3.55805"></trkpt>
      <trkpt lat="50.41875" lon="-3.55837"></trkpt>
      <trkpt lat="50.41918" lon="-3.55869"></trkpt>
      <trkpt lat="50.4202" lon="-3.55937"></trkpt>
      <trkpt lat="50.42093" lon="-3.55973"></trkpt>
      <trkpt lat="50.42108" lon="-3.55952"></trkpt>
      <trkpt lat="50.42111" lon="-3.55953"></trkpt>
      <trkpt lat="50.42116" lon="-3.55946"></trkpt>
      <trkpt lat="50.42122" lon="-3.55952"></trkpt>
      <trkpt lat="50.4216" lon="-3.55967"></trkpt>
      <trkpt lat="50.42245" lon="-3.56007"></trkpt>
      <trkpt lat="50.42275" lon="-3.56011"></trkpt>
      <trkpt lat="50.42319" lon="-3.56013"></trkpt>
      <trkpt lat="50.42325" lon="-3.56028"></trkpt>
      <trkpt lat="50.42388" lon="-3.56016"></trkpt>
      <trkpt lat="50.42417" lon="-3.56013"></trkpt>
      <trkpt lat="50.42424" lon="-3.56017"></trkpt>
      <trkpt lat="50.42422" lon="-3.56005"></trkpt>
      <trkpt lat="50.42429" lon="-3.55998"></trkpt>
      <trkpt lat="50.42445" lon="-3.55995"></trkpt>
      <trkpt lat="50.42445" lon="-3.55982"></trkpt>
      <trkpt lat="50.4245" lon="-3.55977"></trkpt>
      <trkpt lat="50.42455" lon="-3.5596"></trkpt>
      <trkpt lat="50.42486" lon="-3.5594"></trkpt>
      <trkpt lat="50.42504" lon="-3.55938"></trkpt>
      <trkpt lat="50.4251" lon="-3.55932"></trkpt>
      <trkpt lat="50.42528" lon="-3.55941"></trkpt>
      <trkpt lat="50.42548" lon="-3.55948"></trkpt>
      <trkpt lat="50.42551" lon="-3.55953"></trkpt>
      <trkpt lat="50.42593" lon="-3.5596"></trkpt>
      <trkpt lat="50.42635" lon="-3.55958"></trkpt>
      <trkpt lat="50.42638" lon="-3.5597"></trkpt>
      <trkpt lat="50.42666" lon="-3.55964"></trkpt>
      <trkpt lat="50.42759" lon="-3.55936"></trkpt>
      <trkpt lat="50.42764" lon="-3.55923"></trkpt>
      <trkpt lat="50.42772" lon="-3.55923"></trkpt>
      <trkpt lat="50.42774" lon="-3.55926"></trkpt>
      <trkpt lat="50.42809" lon="-3.559"></trkpt>
      <trkpt lat="50.42836" lon="-3.55873"></trkpt>
      <trkpt lat="50.42849" lon="-3.55827"></trkpt>
      <trkpt lat="50.42846" lon="-3.55792"></trkpt>
      <trkpt lat="50.42854" lon="-3.55787"></trkpt>
      <trkpt lat="50.42858" lon="-3.55789"></trkpt>
      <trkpt lat="50.42857" lon="-3.55766"></trkpt>
      <trkpt lat="50.42859" lon="-3.55739"></trkpt>
      <trkpt lat="50.4286" lon="-3.55671"></trkpt>
      <trkpt lat="50.42856" lon="-3.55647"></trkpt>
      <trkpt lat="50.42855" lon="-3.55632"></trkpt>
      <trkpt lat="50.42858" lon="-3.55604"></trkpt>
      <trkpt lat="50.4285" lon="-3.55575"></trkpt>
      <trkpt lat="50.42848" lon="-3.55555"></trkpt>
      <trkpt lat="50.42849" lon="-3.55499"></trkpt>
      <trkpt lat="50.42844" lon="-3.55488"></trkpt>
      <trkpt lat="50.42842" lon="-3.5548"></trkpt>
      <trkpt lat="50.42842" lon="-3.55454"></trkpt>
      <trkpt lat="50.42844" lon="-3.55445"></trkpt>
      <trkpt lat="50.42853" lon="-3.5542"></trkpt>
      <trkpt lat="50.42855" lon="-3.55405"></trkpt>
      <trkpt lat="50.42858" lon="-3.55397"></trkpt>
      <trkpt lat="50.42884" lon="-3.55371"></trkpt>
      <trkpt lat="50.42895" lon="-3.55372"></trkpt>
      <trkpt lat="50.42918" lon="-3.55351"></trkpt>
      <trkpt lat="50.42938" lon="-3.55352"></trkpt>
      <trkpt lat="50.42949" lon="-3.5536"></trkpt>
      <trkpt lat="50.42964" lon="-3.55377"></trkpt>
      <trkpt lat="50.42979" lon="-3.55384"></trkpt>
      <trkpt lat="50.4299" lon="-3.55381"></trkpt>
      <trkpt lat="50.43002" lon="-3.55371"></trkpt>
      <trkpt lat="50.43009" lon="-3.55368"></trkpt>
      <trkpt lat="50.43014" lon="-3.5537"></trkpt>
      <trkpt lat="50.43038" lon="-3.55393"></trkpt>
      <trkpt lat="50.43048" lon="-3.55406"></trkpt>
      <trkpt lat="50.43056" lon="-3.55431"></trkpt>
      <trkpt lat="50.43058" lon="-3.55442"></trkpt>
      <trkpt lat="50.43057" lon="-3.55447"></trkpt>
      <trkpt lat="50.43068" lon="-3.55453"></trkpt>
      <trkpt lat="50.43082" lon="-3.55464"></trkpt>
      <trkpt lat="50.43087" lon="-3.55474"></trkpt>
      <trkpt lat="50.4309" lon="-3.55496"></trkpt>
      <trkpt lat="50.43107" lon="-3.55683"></trkpt>
      <trkpt lat="50.4311" lon="-3.5569"></trkpt>
      <trkpt lat="50.43123" lon="-3.5569"></trkpt>
      <trkpt lat="50.43129" lon="-3.55699"></trkpt>
      <trkpt lat="50.43132" lon="-3.5575"></trkpt>
      <trkpt lat="50.43149" lon="-3.55752"></trkpt>
      <trkpt lat="50.43243" lon="-3.5583"></trkpt>
      <trkpt lat="50.43254" lon="-3.55812"></trkpt>
      <trkpt lat="50.43269" lon="-3.558"></trkpt>
      <trkpt lat="50.4328" lon="-3.55832"></trkpt>
      <trkpt lat="50.43292" lon="-3.55893"></trkpt>
      <trkpt lat="50.43303" lon="-3.55912"></trkpt>
      <trkpt lat="50.43312" lon="-3.55919"></trkpt>
      <trkpt lat="50.43317" lon="-3.55936"></trkpt>
      <trkpt lat="50.43407" lon="-3.55936"></trkpt>
      <trkpt lat="50.43595" lon="-3.55929"></trkpt>
      <trkpt lat="50.43678" lon="-3.5591"></trkpt>
      <trkpt lat="50.43741" lon="-3.55892"></trkpt>
      <trkpt lat="50.43739" lon="-3.5588"></trkpt>
      <trkpt lat="50.43763" lon="-3.55872"></trkpt>
      <trkpt lat="50.43771" lon="-3.5587"></trkpt>
      <trkpt lat="50.43774" lon="-3.55882"></trkpt>
      <trkpt lat="50.43985" lon="-3.5582"></trkpt>
      <trkpt lat="50.44005" lon="-3.55849"></trkpt>
      <trkpt lat="50.44007" lon="-3.55845"></trkpt>
      <trkpt lat="50.44015" lon="-3.55839"></trkpt>
      <trkpt lat="50.44023" lon="-3.5584"></trkpt>
      <trkpt lat="50.44088" lon="-3.55877"></trkpt>
      <trkpt lat="50.44107" lon="-3.55882"></trkpt>
      <trkpt lat="50.44123" lon="-3.55883"></trkpt>
      <trkpt lat="50.44143" lon="-3.5588"></trkpt>
      <trkpt lat="50.44162" lon="-3.55871"></trkpt>
      <trkpt lat="50.44188" lon="-3.55853"></trkpt>
      <trkpt lat="50.44198" lon="-3.55844"></trkpt>
      <trkpt lat="50.44196" lon="-3.55832"></trkpt>
      <trkpt lat="50.442" lon="-3.55828"></trkpt>
      <trkpt lat="50.44229" lon="-3.55811"></trkpt>
      <trkpt lat="50.44268" lon="-3.55794"></trkpt>
      <trkpt lat="50.44257" lon="-3.55727"></trkpt>
      <trkpt lat="50.44265" lon="-3.55724"></trkpt>
      <trkpt lat="50.44264" lon="-3.55711"></trkpt>
      <trkpt lat="50.44298" lon="-3.55699"></trkpt>
      <trkpt lat="50.44394" lon="-3.55656"></trkpt>
      <trkpt lat="50.44459" lon="-3.55621"></trkpt>
      <trkpt lat="50.44519" lon="-3.55583"></trkpt>
      <trkpt lat="50.44527" lon="-3.55587"></trkpt>
      <trkpt lat="50.44529" lon="-3.55593"></trkpt>
      <trkpt lat="50.44584" lon="-3.55559"></trkpt>
      <trkpt lat="50.44674" lon="-3.55491"></trkpt>
      <trkpt lat="50.44679" lon="-3.55503"></trkpt>
      <trkpt lat="50.44691" lon="-3.55508"></trkpt>
      <trkpt lat="50.44695" lon="-3.55506"></trkpt>
      <trkpt lat="50.44817" lon="-3.55414"></trkpt>
      <trkpt lat="50.4487" lon="-3.55384"></trkpt>
      <trkpt lat="50.44879" lon="-3.55413"></trkpt>
      <trkpt lat="50.44883" lon="-3.55421"></trkpt>
      <trkpt lat="50.44913" lon="-3.55399"></trkpt>
      <trkpt lat="50.44931" lon="-3.55392"></trkpt>
      <trkpt lat="50.4494" lon="-3.55384"></trkpt>
      <trkpt lat="50.44958" lon="-3.55376"></trkpt>
      <trkpt lat="50.44972" lon="-3.55379"></trkpt>
      <trkpt lat="50.44979" lon="-3.55385"></trkpt>
      <trkpt lat="50.45005" lon="-3.55422"></trkpt>
      <trkpt lat="50.45041" lon="-3.55408"></trkpt>
      <trkpt lat="50.4504" lon="-3.55408"></trkpt>
      <trkpt lat="50.45051" lon="-3.55406"></trkpt>
      <trkpt lat="50.45061" lon="-3.55409"></trkpt>
      <trkpt lat="50.45077" lon="-3.55431"></trkpt>
      <trkpt lat="50.45088" lon="-3.55426"></trkpt>
      <trkpt lat="50.45094" lon="-3.55417"></trkpt>
      <trkpt lat="50.45098" lon="-3.55422"></trkpt>
      <trkpt lat="50.45113" lon="-3.55395"></trkpt>
      <trkpt lat="50.45121" lon="-3.55371"></trkpt>
      <trkpt lat="50.45129" lon="-3.55356"></trkpt>
      <trkpt lat="50.45138" lon="-3.55303"></trkpt>
      <trkpt lat="50.45148" lon="-3.55264"></trkpt>
      <trkpt lat="50.45157" lon="-3.55243"></trkpt>
      <trkpt lat="50.45196" lon="-3.55175"></trkpt>
      <trkpt lat="50.45199" lon="-3.55154"></trkpt>
      <trkpt lat="50.45214" lon="-3.55131"></trkpt>
      <trkpt lat="50.45264" lon="-3.5502"></trkpt>
      <trkpt lat="50.45291" lon="-3.5495"></trkpt>
      <trkpt lat="50.45294" lon="-3.54939"></trkpt>
      <trkpt lat="50.45297" lon="-3.54919"></trkpt>
      <trkpt lat="50.45301" lon="-3.54868"></trkpt>
      <trkpt lat="50.45302" lon="-3.54864"></trkpt>
      <trkpt lat="50.45306" lon="-3.54861"></trkpt>
      <trkpt lat="50.45309" lon="-3.54847"></trkpt>
      <trkpt lat="50.4532" lon="-3.54823"></trkpt>
      <trkpt lat="50.45394" lon="-3.54696"></trkpt>
      <trkpt lat="50.45437" lon="-3.54626"></trkpt>
      <trkpt lat="50.45452" lon="-3.54614"></trkpt>
      <trkpt lat="50.45569" lon="-3.54542"></trkpt>
      <trkpt lat="50.45568" lon="-3.54542"></trkpt>
      <trkpt lat="50.45622" lon="-3.54501"></trkpt>
      <trkpt lat="50.4566" lon="-3.54464"></trkpt>
      <trkpt lat="50.45686" lon="-3.54433"></trkpt>
      <trkpt lat="50.45715" lon="-3.5439"></trkpt>
      <trkpt lat="50.45757" lon="-3.54321"></trkpt>
      <trkpt lat="50.45788" lon="-3.54257"></trkpt>
      <trkpt lat="50.45808" lon="-3.54232"></trkpt>
      <trkpt lat="50.45833" lon="-3.54208"></trkpt>
      <trkpt lat="50.45859" lon="-3.54193"></trkpt>
      <trkpt lat="50.45957" lon="-3.54151"></trkpt>
      <trkpt lat="50.45978" lon="-3.54133"></trkpt>
      <trkpt lat="50.46014" lon="-3.54108"></trkpt>
      <trkpt lat="50.46057" lon="-3.54056"></trkpt>
      <trkpt lat="50.46106" lon="-3.54046"></trkpt>
      <trkpt lat="50.46104" lon="-3.54033"></trkpt>
      <trkpt lat="50.46105" lon="-3.54026"></trkpt>
      <trkpt lat="50.46115" lon="-3.54004"></trkpt>
      <trkpt lat="50.46122" lon="-3.5398"></trkpt>
      <trkpt lat="50.46154" lon="-3.53919"></trkpt>
      <trkpt lat="50.46179" lon="-3.53865"></trkpt>
      <trkpt lat="50.46224" lon="-3.53757"></trkpt>
      <trkpt lat="50.46224" lon="-3.53748"></trkpt>
      <trkpt lat="50.46245" lon="-3.53693"></trkpt>
      <trkpt lat="50.46238" lon="-3.53686"></trkpt>
      <trkpt lat="50.46243" lon="-3.53671"></trkpt>
      <trkpt lat="50.46238" lon="-3.53667"></trkpt>
      <trkpt lat="50.46282" lon="-3.53556"></trkpt>
      <trkpt lat="50.46294" lon="-3.53515"></trkpt>
      <trkpt lat="50.46306" lon="-3.53468"></trkpt>
      <trkpt lat="50.46301" lon="-3.53462"></trkpt>
      <trkpt lat="50.46301" lon="-3.53448"></trkpt>
      <trkpt lat="50.46299" lon="-3.53447"></trkpt>
      <trkpt lat="50.46296" lon="-3.5345"></trkpt>
      <trkpt lat="50.46299" lon="-3.53447"></trkpt>
      <trkpt lat="50.46301" lon="-3.53448"></trkpt>
      <trkpt lat="50.46302" lon="-3.53453"></trkpt>
      <trkpt lat="50.46308" lon="-3.53429"></trkpt>
      <trkpt lat="50.46313" lon="-3.53389"></trkpt>
      <trkpt lat="50.46314" lon="-3.53352"></trkpt>
      <trkpt lat="50.46313" lon="-3.53341"></trkpt>
      <trkpt lat="50.46305" lon="-3.53315"></trkpt>
      <trkpt lat="50.46296" lon="-3.533"></trkpt>
      <trkpt lat="50.46271" lon="-3.53272"></trkpt>
      <trkpt lat="50.4628" lon="-3.53248"></trkpt>
      <trkpt lat="50.4625" lon="-3.53218"></trkpt>
      <trkpt lat="50.46232" lon="-3.53194"></trkpt>
      <trkpt lat="50.46206" lon="-3.5315"></trkpt>
      <trkpt lat="50.46195" lon="-3.53128"></trkpt>
      <trkpt lat="50.46175" lon="-3.53078"></trkpt>
      <trkpt lat="50.46158" lon="-3.53021"></trkpt>
      <trkpt lat="50.46149" lon="-3.52963"></trkpt>
      <trkpt lat="50.46142" lon="-3.52965"></trkpt>
      <trkpt lat="50.4613" lon="-3.52955"></trkpt>
      <trkpt lat="50.46126" lon="-3.52948"></trkpt>
      <trkpt lat="50.46111" lon="-3.5289"></trkpt>
      <trkpt lat="50.46099" lon="-3.52876"></trkpt>
      <trkpt lat="50.46102" lon="-3.52859"></trkpt>
      <trkpt lat="50.46102" lon="-3.52845"></trkpt>
      <trkpt lat="50.46098" lon="-3.52833"></trkpt>
      <trkpt lat="50.46092" lon="-3.52838"></trkpt>
      <trkpt lat="50.46086" lon="-3.5282"></trkpt>
      <trkpt lat="50.46081" lon="-3.52813"></trkpt>
      <trkpt lat="50.46076" lon="-3.5281"></trkpt>
      <trkpt lat="50.46065" lon="-3.5281"></trkpt>
      <trkpt lat="50.46034" lon="-3.52685"></trkpt>
      <trkpt lat="50.46029" lon="-3.52672"></trkpt>
      <trkpt lat="50.46013" lon="-3.52614"></trkpt>
      <trkpt lat="50.45983" lon="-3.52619"></trkpt>
      <trkpt lat="50.45934" lon="-3.52615"></trkpt>
      <trkpt lat="50.45909" lon="-3.52504"></trkpt>
      <trkpt lat="50.45838" lon="-3.52456"></trkpt>
      <trkpt lat="50.45833" lon="-3.5245"></trkpt>
      <trkpt lat="50.45828" lon="-3.52435"></trkpt>
      <trkpt lat="50.45822" lon="-3.52438"></trkpt>
      <trkpt lat="50.45819" lon="-3.52436"></trkpt>
      <trkpt lat="50.45811" lon="-3.52412"></trkpt>
      <trkpt lat="50.45811" lon="-3.52403"></trkpt>
      <trkpt lat="50.45793" lon="-3.52361"></trkpt>
      <trkpt lat="50.45791" lon="-3.52353"></trkpt>
      <trkpt lat="50.45786" lon="-3.52349"></trkpt>
      <trkpt lat="50.45784" lon="-3.52344"></trkpt>
      <trkpt lat="50.45783" lon="-3.52338"></trkpt>
      <trkpt lat="50.45786" lon="-3.52321"></trkpt>
      <trkpt lat="50.45779" lon="-3.52313"></trkpt>
      <trkpt lat="50.45773" lon="-3.52302"></trkpt>
      <trkpt lat="50.4577" lon="-3.52303"></trkpt>
      <trkpt lat="50.45773" lon="-3.52302"></trkpt>
      <trkpt lat="50.45779" lon="-3.52313"></trkpt>
      <trkpt lat="50.45786" lon="-3.52321"></trkpt>
      <trkpt lat="50.45783" lon="-3.52338"></trkpt>
      <trkpt lat="50.45784" lon="-3.52344"></trkpt>
      <trkpt lat="50.45786" lon="-3.52349"></trkpt>
      <trkpt lat="50.45791" lon="-3.52353"></trkpt>
      <trkpt lat="50.45793" lon="-3.52361"></trkpt>
      <trkpt lat="50.45811" lon="-3.52403"></trkpt>
      <trkpt lat="50.45811" lon="-3.52412"></trkpt>
      <trkpt lat="50.45819" lon="-3.52436"></trkpt>
      <trkpt lat="50.45822" lon="-3.52438"></trkpt>
      <trkpt lat="50.45828" lon="-3.52435"></trkpt>
      <trkpt lat="50.4581" lon="-3.5238"></trkpt>
      <trkpt lat="50.45804" lon="-3.52353"></trkpt>
      <trkpt lat="50.45798" lon="-3.5229"></trkpt>
      <trkpt lat="50.45789" lon="-3.52288"></trkpt>
      <trkpt lat="50.45771" lon="-3.52246"></trkpt>
      <trkpt lat="50.45758" lon="-3.52191"></trkpt>
      <trkpt lat="50.45746" lon="-3.52153"></trkpt>
      <trkpt lat="50.45718" lon="-3.52102"></trkpt>
      <trkpt lat="50.45717" lon="-3.52088"></trkpt>
      <trkpt lat="50.45698" lon="-3.52074"></trkpt>
      <trkpt lat="50.45682" lon="-3.52069"></trkpt>
      <trkpt lat="50.45656" lon="-3.52068"></trkpt>
      <trkpt lat="50.45642" lon="-3.5206"></trkpt>
      <trkpt lat="50.45629" lon="-3.52048"></trkpt>
      <trkpt lat="50.45615" lon="-3.52026"></trkpt>
      <trkpt lat="50.45605" lon="-3.52004"></trkpt>
      <trkpt lat="50.45603" lon="-3.52006"></trkpt>
      <trkpt lat="50.45595" lon="-3.52"></trkpt>
      <trkpt lat="50.4559" lon="-3.52003"></trkpt>
      <trkpt lat="50.45587" lon="-3.51996"></trkpt>
      <trkpt lat="50.45571" lon="-3.52015"></trkpt>
      <trkpt lat="50.4556" lon="-3.52024"></trkpt>
      <trkpt lat="50.45549" lon="-3.52029"></trkpt>
      <trkpt lat="50.4555" lon="-3.52022"></trkpt>
      <trkpt lat="50.45553" lon="-3.52016"></trkpt>
      <trkpt lat="50.45557" lon="-3.51998"></trkpt>
      <trkpt lat="50.45554" lon="-3.51994"></trkpt>
      <trkpt lat="50.45554" lon="-3.51987"></trkpt>
      <trkpt lat="50.45543" lon="-3.51947"></trkpt>
      <trkpt lat="50.45535" lon="-3.51938"></trkpt>
      <trkpt lat="50.45531" lon="-3.51937"></trkpt>
      <trkpt lat="50.45529" lon="-3.51943"></trkpt>
      <trkpt lat="50.45525" lon="-3.51942"></trkpt>
      <trkpt lat="50.45521" lon="-3.51917"></trkpt>
      <trkpt lat="50.45509" lon="-3.51881"></trkpt>
      <trkpt lat="50.45492" lon="-3.51854"></trkpt>
      <trkpt lat="50.45479" lon="-3.51829"></trkpt>
      <trkpt lat="50.45472" lon="-3.51806"></trkpt>
      <trkpt lat="50.45474" lon="-3.51758"></trkpt>
      <trkpt lat="50.45482" lon="-3.51773"></trkpt>
      <trkpt lat="50.45481" lon="-3.51759"></trkpt>
      <trkpt lat="50.45483" lon="-3.5176"></trkpt>
      <trkpt lat="50.45484" lon="-3.51766"></trkpt>
      <trkpt lat="50.45488" lon="-3.51765"></trkpt>
      <trkpt lat="50.45485" lon="-3.51751"></trkpt>
      <trkpt lat="50.45487" lon="-3.51743"></trkpt>
      <trkpt lat="50.45496" lon="-3.5177"></trkpt>
      <trkpt lat="50.45506" lon="-3.51764"></trkpt>
      <trkpt lat="50.45492" lon="-3.51703"></trkpt>
      <trkpt lat="50.45488" lon="-3.51691"></trkpt>
      <trkpt lat="50.45485" lon="-3.51692"></trkpt>
      <trkpt lat="50.45483" lon="-3.51688"></trkpt>
      <trkpt lat="50.45485" lon="-3.51627"></trkpt>
      <trkpt lat="50.45484" lon="-3.5161"></trkpt>
      <trkpt lat="50.45481" lon="-3.5161"></trkpt>
      <trkpt lat="50.45478" lon="-3.51601"></trkpt>
      <trkpt lat="50.45459" lon="-3.51508"></trkpt>
      <trkpt lat="50.45457" lon="-3.51485"></trkpt>
      <trkpt lat="50.45462" lon="-3.51483"></trkpt>
      <trkpt lat="50.45475" lon="-3.51472"></trkpt>
      <trkpt lat="50.45486" lon="-3.51464"></trkpt>
      <trkpt lat="50.45527" lon="-3.51442"></trkpt>
      <trkpt lat="50.4556" lon="-3.51427"></trkpt>
      <trkpt lat="50.4558" lon="-3.51409"></trkpt>
      <trkpt lat="50.45584" lon="-3.51391"></trkpt>
      <trkpt lat="50.45594" lon="-3.5138"></trkpt>
      <trkpt lat="50.45598" lon="-3.51381"></trkpt>
      <trkpt lat="50.45597" lon="-3.51364"></trkpt>
      <trkpt lat="50.45602" lon="-3.51348"></trkpt>
      <trkpt lat="50.45606" lon="-3.51347"></trkpt>
      <trkpt lat="50.45608" lon="-3.51333"></trkpt>
      <trkpt lat="50.45613" lon="-3.51327"></trkpt>
      <trkpt lat="50.45628" lon="-3.51295"></trkpt>
      <trkpt lat="50.45632" lon="-3.5128"></trkpt>
      <trkpt lat="50.45637" lon="-3.51275"></trkpt>
      <trkpt lat="50.45638" lon="-3.5119"></trkpt>
      <trkpt lat="50.4564" lon="-3.51171"></trkpt>
      <trkpt lat="50.45644" lon="-3.51158"></trkpt>
      <trkpt lat="50.45694" lon="-3.51098"></trkpt>
      <trkpt lat="50.45702" lon="-3.5107"></trkpt>
      <trkpt lat="50.45711" lon="-3.51057"></trkpt>
      <trkpt lat="50.45709" lon="-3.51041"></trkpt>
      <trkpt lat="50.45713" lon="-3.51025"></trkpt>
      <trkpt lat="50.45723" lon="-3.51012"></trkpt>
      <trkpt lat="50.45725" lon="-3.51007"></trkpt>
      <trkpt lat="50.4573" lon="-3.50966"></trkpt>
      <trkpt lat="50.45736" lon="-3.50967"></trkpt>
      <trkpt lat="50.45737" lon="-3.50939"></trkpt>
      <trkpt lat="50.45741" lon="-3.50918"></trkpt>
      <trkpt lat="50.45753" lon="-3.50922"></trkpt>
      <trkpt lat="50.45758" lon="-3.509"></trkpt>
      <trkpt lat="50.45763" lon="-3.50887"></trkpt>
      <trkpt lat="50.4578" lon="-3.50853"></trkpt>
      <trkpt lat="50.45791" lon="-3.50842"></trkpt>
      <trkpt lat="50.45802" lon="-3.50825"></trkpt>
      <trkpt lat="50.4582" lon="-3.50783"></trkpt>
      <trkpt lat="50.45827" lon="-3.50752"></trkpt>
      <trkpt lat="50.45825" lon="-3.50725"></trkpt>
      <trkpt lat="50.45852" lon="-3.50637"></trkpt>
      <trkpt lat="50.45873" lon="-3.50581"></trkpt>
      <trkpt lat="50.45912" lon="-3.50538"></trkpt>
      <trkpt lat="50.45925" lon="-3.50518"></trkpt>
      <trkpt lat="50.45946" lon="-3.50477"></trkpt>
      <trkpt lat="50.45958" lon="-3.50446"></trkpt>
      <trkpt lat="50.45967" lon="-3.50413"></trkpt>
      <trkpt lat="50.45979" lon="-3.50323"></trkpt>
      <trkpt lat="50.45988" lon="-3.50175"></trkpt>
      <trkpt lat="50.45997" lon="-3.50129"></trkpt>
      <trkpt lat="50.45995" lon="-3.50114"></trkpt>
      <trkpt lat="50.45999" lon="-3.50099"></trkpt>
      <trkpt lat="50.46003" lon="-3.50065"></trkpt>
      <trkpt lat="50.46007" lon="-3.5006"></trkpt>
      <trkpt lat="50.46008" lon="-3.50049"></trkpt>
      <trkpt lat="50.46002" lon="-3.50031"></trkpt>
      <trkpt lat="50.46003" lon="-3.50027"></trkpt>
      <trkpt lat="50.46009" lon="-3.50026"></trkpt>
      <trkpt lat="50.46014" lon="-3.50015"></trkpt>
      <trkpt lat="50.45984" lon="-3.49996"></trkpt>
      <trkpt lat="50.4597" lon="-3.49978"></trkpt>
      <trkpt lat="50.45959" lon="-3.49952"></trkpt>
      <trkpt lat="50.45956" lon="-3.4994"></trkpt>
      <trkpt lat="50.45954" lon="-3.49927"></trkpt>
      <trkpt lat="50.45952" lon="-3.49856"></trkpt>
      <trkpt lat="50.45959" lon="-3.49822"></trkpt>
      <trkpt lat="50.45958" lon="-3.49817"></trkpt>
      <trkpt lat="50.45961" lon="-3.49794"></trkpt>
      <trkpt lat="50.45964" lon="-3.4979"></trkpt>
      <trkpt lat="50.45958" lon="-3.49746"></trkpt>
      <trkpt lat="50.45946" lon="-3.49696"></trkpt>
      <trkpt lat="50.45943" lon="-3.49677"></trkpt>
      <trkpt lat="50.45945" lon="-3.49658"></trkpt>
      <trkpt lat="50.45978" lon="-3.49525"></trkpt>
      <trkpt lat="50.45983" lon="-3.49496"></trkpt>
      <trkpt lat="50.45975" lon="-3.49388"></trkpt>
      <trkpt lat="50.45965" lon="-3.49382"></trkpt>
      <trkpt lat="50.45959" lon="-3.49367"></trkpt>
      <trkpt lat="50.45938" lon="-3.49354"></trkpt>
      <trkpt lat="50.45921" lon="-3.49333"></trkpt>
      <trkpt lat="50.45909" lon="-3.49307"></trkpt>
      <trkpt lat="50.45882" lon="-3.49264"></trkpt>
      <trkpt lat="50.45873" lon="-3.49235"></trkpt>
      <trkpt lat="50.45867" lon="-3.49206"></trkpt>
      <trkpt lat="50.45866" lon="-3.49186"></trkpt>
      <trkpt lat="50.45867" lon="-3.49164"></trkpt>
      <trkpt lat="50.45872" lon="-3.49157"></trkpt>
      <trkpt lat="50.45877" lon="-3.49156"></trkpt>
      <trkpt lat="50.4588" lon="-3.49155"></trkpt>
      <trkpt lat="50.45895" lon="-3.49142"></trkpt>
      <trkpt lat="50.459" lon="-3.49135"></trkpt>
      <trkpt lat="50.45905" lon="-3.49114"></trkpt>
      <trkpt lat="50.45904" lon="-3.49105"></trkpt>
      <trkpt lat="50.45901" lon="-3.491"></trkpt>
      <trkpt lat="50.459" lon="-3.49088"></trkpt>
      <trkpt lat="50.45904" lon="-3.49083"></trkpt>
      <trkpt lat="50.45905" lon="-3.49054"></trkpt>
      <trkpt lat="50.45911" lon="-3.49044"></trkpt>
      <trkpt lat="50.45912" lon="-3.49035"></trkpt>
      <trkpt lat="50.45909" lon="-3.49025"></trkpt>
      <trkpt lat="50.45901" lon="-3.49018"></trkpt>
      <trkpt lat="50.45899" lon="-3.49008"></trkpt>
      <trkpt lat="50.45915" lon="-3.48963"></trkpt>
      <trkpt lat="50.45938" lon="-3.48946"></trkpt>
      <trkpt lat="50.45948" lon="-3.48936"></trkpt>
      <trkpt lat="50.4596" lon="-3.48906"></trkpt>
      <trkpt lat="50.45974" lon="-3.48891"></trkpt>
      <trkpt lat="50.45979" lon="-3.4889"></trkpt>
      <trkpt lat="50.45989" lon="-3.48884"></trkpt>
      <trkpt lat="50.45999" lon="-3.48874"></trkpt>
      <trkpt lat="50.46014" lon="-3.48865"></trkpt>
      <trkpt lat="50.46024" lon="-3.48861"></trkpt>
      <trkpt lat="50.46033" lon="-3.48868"></trkpt>
      <trkpt lat="50.46052" lon="-3.48872"></trkpt>
      <trkpt lat="50.46068" lon="-3.48878"></trkpt>
      <trkpt lat="50.46104" lon="-3.4888"></trkpt>
      <trkpt lat="50.46138" lon="-3.48818"></trkpt>
      <trkpt lat="50.46156" lon="-3.48803"></trkpt>
      <trkpt lat="50.46155" lon="-3.48803"></trkpt>
      <trkpt lat="50.46169" lon="-3.48799"></trkpt>
      <trkpt lat="50.46193" lon="-3.48799"></trkpt>
      <trkpt lat="50.46218" lon="-3.48803"></trkpt>
      <trkpt lat="50.46237" lon="-3.48815"></trkpt>
      <trkpt lat="50.46243" lon="-3.48847"></trkpt>
      <trkpt lat="50.46259" lon="-3.48887"></trkpt>
      <trkpt lat="50.4628" lon="-3.48951"></trkpt>
      <trkpt lat="50.46298" lon="-3.4899"></trkpt>
      <trkpt lat="50.4633" lon="-3.49029"></trkpt>
      <trkpt lat="50.46348" lon="-3.49061"></trkpt>
      <trkpt lat="50.4638" lon="-3.49106"></trkpt>
      <trkpt lat="50.46401" lon="-3.49126"></trkpt>
      <trkpt lat="50.46426" lon="-3.49145"></trkpt>
      <trkpt lat="50.4649" lon="-3.49187"></trkpt>
      <trkpt lat="50.46493" lon="-3.49202"></trkpt>
      <trkpt lat="50.46497" lon="-3.49257"></trkpt>
      <trkpt lat="50.46503" lon="-3.49301"></trkpt>
      <trkpt lat="50.46515" lon="-3.49356"></trkpt>
      <trkpt lat="50.46526" lon="-3.49358"></trkpt>
      <trkpt lat="50.46532" lon="-3.4935"></trkpt>
      <trkpt lat="50.46535" lon="-3.49302"></trkpt>
      <trkpt lat="50.46544" lon="-3.49291"></trkpt>
      <trkpt lat="50.46579" lon="-3.49278"></trkpt>
      <trkpt lat="50.46586" lon="-3.49278"></trkpt>
      <trkpt lat="50.46591" lon="-3.49273"></trkpt>
      <trkpt lat="50.46617" lon="-3.49229"></trkpt>
      <trkpt lat="50.46625" lon="-3.49218"></trkpt>
      <trkpt lat="50.46644" lon="-3.49204"></trkpt>
      <trkpt lat="50.46663" lon="-3.49183"></trkpt>
      <trkpt lat="50.46674" lon="-3.49174"></trkpt>
      <trkpt lat="50.46719" lon="-3.49128"></trkpt>
      <trkpt lat="50.46737" lon="-3.49127"></trkpt>
      <trkpt lat="50.4675" lon="-3.49139"></trkpt>
      <trkpt lat="50.46788" lon="-3.49128"></trkpt>
      <trkpt lat="50.46793" lon="-3.49132"></trkpt>
      <trkpt lat="50.46809" lon="-3.49134"></trkpt>
      <trkpt lat="50.46837" lon="-3.49128"></trkpt>
      <trkpt lat="50.46841" lon="-3.49135"></trkpt>
      <trkpt lat="50.4685" lon="-3.49137"></trkpt>
      <trkpt lat="50.46857" lon="-3.49133"></trkpt>
      <trkpt lat="50.46868" lon="-3.49119"></trkpt>
      <trkpt lat="50.46872" lon="-3.49118"></trkpt>
      <trkpt lat="50.46884" lon="-3.49122"></trkpt>
      <trkpt lat="50.46893" lon="-3.4913"></trkpt>
      <trkpt lat="50.46901" lon="-3.49131"></trkpt>
      <trkpt lat="50.46915" lon="-3.49155"></trkpt>
      <trkpt lat="50.4692" lon="-3.49184"></trkpt>
      <trkpt lat="50.46924" lon="-3.49194"></trkpt>
      <trkpt lat="50.46932" lon="-3.49206"></trkpt>
      <trkpt lat="50.4694" lon="-3.49211"></trkpt>
      <trkpt lat="50.46954" lon="-3.49236"></trkpt>
      <trkpt lat="50.46952" lon="-3.49264"></trkpt>
      <trkpt lat="50.46947" lon="-3.49286"></trkpt>
      <trkpt lat="50.4695" lon="-3.49358"></trkpt>
      <trkpt lat="50.46947" lon="-3.49382"></trkpt>
      <trkpt lat="50.46954" lon="-3.4939"></trkpt>
      <trkpt lat="50.4696" lon="-3.49393"></trkpt>
      <trkpt lat="50.46968" lon="-3.49416"></trkpt>
      <trkpt lat="50.46971" lon="-3.4946"></trkpt>
      <trkpt lat="50.46978" lon="-3.49506"></trkpt>
      <trkpt lat="50.47" lon="-3.49549"></trkpt>
      <trkpt lat="50.47022" lon="-3.49602"></trkpt>
      <trkpt lat="50.47049" lon="-3.49634"></trkpt>
      <trkpt lat="50.47068" lon="-3.49638"></trkpt>
      <trkpt lat="50.47086" lon="-3.49669"></trkpt>
      <trkpt lat="50.47078" lon="-3.497"></trkpt>
      <trkpt lat="50.47082" lon="-3.49723"></trkpt>
      <trkpt lat="50.47065" lon="-3.49779"></trkpt>
      <trkpt lat="50.47054" lon="-3.49827"></trkpt>
      <trkpt lat="50.47054" lon="-3.49852"></trkpt>
      <trkpt lat="50.4707" lon="-3.49872"></trkpt>
      <trkpt lat="50.47077" lon="-3.49896"></trkpt>
      <trkpt lat="50.47056" lon="-3.4992"></trkpt>
      <trkpt lat="50.47062" lon="-3.49955"></trkpt>
      <trkpt lat="50.47068" lon="-3.49974"></trkpt>
      <trkpt lat="50.47074" lon="-3.50002"></trkpt>
      <trkpt lat="50.4709" lon="-3.50033"></trkpt>
      <trkpt lat="50.47096" lon="-3.5007"></trkpt>
      <trkpt lat="50.47106" lon="-3.50097"></trkpt>
      <trkpt lat="50.47108" lon="-3.50112"></trkpt>
      <trkpt lat="50.47104" lon="-3.50131"></trkpt>
      <trkpt lat="50.47074" lon="-3.50179"></trkpt>
      <trkpt lat="50.47089" lon="-3.50217"></trkpt>
      <trkpt lat="50.47095" lon="-3.50219"></trkpt>
      <trkpt lat="50.47093" lon="-3.50235"></trkpt>
      <trkpt lat="50.47106" lon="-3.50262"></trkpt>
      <trkpt lat="50.47103" lon="-3.50278"></trkpt>
      <trkpt lat="50.4714" lon="-3.5033"></trkpt>
      <trkpt lat="50.47156" lon="-3.50314"></trkpt>
      <trkpt lat="50.4716" lon="-3.50307"></trkpt>
      <trkpt lat="50.47171" lon="-3.50298"></trkpt>
      <trkpt lat="50.47188" lon="-3.50303"></trkpt>
      <trkpt lat="50.47202" lon="-3.50296"></trkpt>
      <trkpt lat="50.4721" lon="-3.50295"></trkpt>
      <trkpt lat="50.47237" lon="-3.50304"></trkpt>
      <trkpt lat="50.47265" lon="-3.50333"></trkpt>
      <trkpt lat="50.47301" lon="-3.50352"></trkpt>
      <trkpt lat="50.47342" lon="-3.50351"></trkpt>
      <trkpt lat="50.47362" lon="-3.50354"></trkpt>
      <trkpt lat="50.47373" lon="-3.50356"></trkpt>
      <trkpt lat="50.47398" lon="-3.50368"></trkpt>
      <trkpt lat="50.47405" lon="-3.50357"></trkpt>
      <trkpt lat="50.47409" lon="-3.50369"></trkpt>
      <trkpt lat="50.47422" lon="-3.50363"></trkpt>
      <trkpt lat="50.47433" lon="-3.50371"></trkpt>
      <trkpt lat="50.47451" lon="-3.5036"></trkpt>
      <trkpt lat="50.47471" lon="-3.50343"></trkpt>
      <trkpt lat="50.47495" lon="-3.50327"></trkpt>
      <trkpt lat="50.47521" lon="-3.50315"></trkpt>
      <trkpt lat="50.47521" lon="-3.50265"></trkpt>
      <trkpt lat="50.47513" lon="-3.50261"></trkpt>
      <trkpt lat="50.47503" lon="-3.50251"></trkpt>
      <trkpt lat="50.47504" lon="-3.50242"></trkpt>
      <trkpt lat="50.47502" lon="-3.50226"></trkpt>
      <trkpt lat="50.47506" lon="-3.50219"></trkpt>
      <trkpt lat="50.47523" lon="-3.5021"></trkpt>
      <trkpt lat="50.47535" lon="-3.50184"></trkpt>
      <trkpt lat="50.47537" lon="-3.50164"></trkpt>
      <trkpt lat="50.47551" lon="-3.50132"></trkpt>
      <trkpt lat="50.47556" lon="-3.50129"></trkpt>
      <trkpt lat="50.4758" lon="-3.50149"></trkpt>
      <trkpt lat="50.47598" lon="-3.50156"></trkpt>
      <trkpt lat="50.47597" lon="-3.50156"></trkpt>
      <trkpt lat="50.4762" lon="-3.50153"></trkpt>
      <trkpt lat="50.47627" lon="-3.5018"></trkpt>
      <trkpt lat="50.47631" lon="-3.50191"></trkpt>
      <trkpt lat="50.47633" lon="-3.50206"></trkpt>
      <trkpt lat="50.47642" lon="-3.50227"></trkpt>
      <trkpt lat="50.47651" lon="-3.50241"></trkpt>
      <trkpt lat="50.47665" lon="-3.50248"></trkpt>
      <trkpt lat="50.47671" lon="-3.50276"></trkpt>
      <trkpt lat="50.47668" lon="-3.50305"></trkpt>
      <trkpt lat="50.47681" lon="-3.50352"></trkpt>
      <trkpt lat="50.47684" lon="-3.50397"></trkpt>
      <trkpt lat="50.47692" lon="-3.50424"></trkpt>
      <trkpt lat="50.47711" lon="-3.50455"></trkpt>
      <trkpt lat="50.47717" lon="-3.50473"></trkpt>
      <trkpt lat="50.47725" lon="-3.50508"></trkpt>
      <trkpt lat="50.47747" lon="-3.50549"></trkpt>
      <trkpt lat="50.47763" lon="-3.50565"></trkpt>
      <trkpt lat="50.4777" lon="-3.50578"></trkpt>
      <trkpt lat="50.47777" lon="-3.5061"></trkpt>
      <trkpt lat="50.4778" lon="-3.50611"></trkpt>
      <trkpt lat="50.47787" lon="-3.50598"></trkpt>
      <trkpt lat="50.47788" lon="-3.50598"></trkpt>
      <trkpt lat="50.47794" lon="-3.5062"></trkpt>
      <trkpt lat="50.47799" lon="-3.50625"></trkpt>
      <trkpt lat="50.47799" lon="-3.50631"></trkpt>
      <trkpt lat="50.4781" lon="-3.50634"></trkpt>
      <trkpt lat="50.47822" lon="-3.50643"></trkpt>
      <trkpt lat="50.47836" lon="-3.50664"></trkpt>
      <trkpt lat="50.47839" lon="-3.50672"></trkpt>
      <trkpt lat="50.47842" lon="-3.50681"></trkpt>
      <trkpt lat="50.47844" lon="-3.50682"></trkpt>
      <trkpt lat="50.47841" lon="-3.50768"></trkpt>
      <trkpt lat="50.47834" lon="-3.50811"></trkpt>
      <trkpt lat="50.47824" lon="-3.50852"></trkpt>
      <trkpt lat="50.47809" lon="-3.50878"></trkpt>
      <trkpt lat="50.47802" lon="-3.5092"></trkpt>
      <trkpt lat="50.47793" lon="-3.50943"></trkpt>
      <trkpt lat="50.47793" lon="-3.5095"></trkpt>
      <trkpt lat="50.47792" lon="-3.50978"></trkpt>
      <trkpt lat="50.47806" lon="-3.51008"></trkpt>
      <trkpt lat="50.47807" lon="-3.51018"></trkpt>
      <trkpt lat="50.47805" lon="-3.51033"></trkpt>
      <trkpt lat="50.47817" lon="-3.51056"></trkpt>
      <trkpt lat="50.47826" lon="-3.51059"></trkpt>
      <trkpt lat="50.47835" lon="-3.5105"></trkpt>
      <trkpt lat="50.4784" lon="-3.51025"></trkpt>
      <trkpt lat="50.47846" lon="-3.50963"></trkpt>
      <trkpt lat="50.47853" lon="-3.50942"></trkpt>
      <trkpt lat="50.47858" lon="-3.50934"></trkpt>
      <trkpt lat="50.47874" lon="-3.50897"></trkpt>
      <trkpt lat="50.47882" lon="-3.50889"></trkpt>
      <trkpt lat="50.47888" lon="-3.50888"></trkpt>
      <trkpt lat="50.47891" lon="-3.50891"></trkpt>
      <trkpt lat="50.47891" lon="-3.50904"></trkpt>
      <trkpt lat="50.4789" lon="-3.50912"></trkpt>
      <trkpt lat="50.47896" lon="-3.50922"></trkpt>
      <trkpt lat="50.47902" lon="-3.50987"></trkpt>
      <trkpt lat="50.47914" lon="-3.5103"></trkpt>
      <trkpt lat="50.47949" lon="-3.51098"></trkpt>
      <trkpt lat="50.47955" lon="-3.51106"></trkpt>
      <trkpt lat="50.47964" lon="-3.51107"></trkpt>
      <trkpt lat="50.47972" lon="-3.51125"></trkpt>
      <trkpt lat="50.4797" lon="-3.5114"></trkpt>
      <trkpt lat="50.47972" lon="-3.51153"></trkpt>
      <trkpt lat="50.47972" lon="-3.51161"></trkpt>
      <trkpt lat="50.47965" lon="-3.51166"></trkpt>
      <trkpt lat="50.47962" lon="-3.51179"></trkpt>
      <trkpt lat="50.47963" lon="-3.51197"></trkpt>
      <trkpt lat="50.47966" lon="-3.51209"></trkpt>
      <trkpt lat="50.47966" lon="-3.51221"></trkpt>
      <trkpt lat="50.47971" lon="-3.51246"></trkpt>
      <trkpt lat="50.4798" lon="-3.51258"></trkpt>
      <trkpt lat="50.47985" lon="-3.51241"></trkpt>
      <trkpt lat="50.47997" lon="-3.51252"></trkpt>
      <trkpt lat="50.48059" lon="-3.5133"></trkpt>
      <trkpt lat="50.48098" lon="-3.51389"></trkpt>
      <trkpt lat="50.48126" lon="-3.51484"></trkpt>
      <trkpt lat="50.48129" lon="-3.51486"></trkpt>
      <trkpt lat="50.48126" lon="-3.51484"></trkpt>
      <trkpt lat="50.48125" lon="-3.51487"></trkpt>
      <trkpt lat="50.48124" lon="-3.51502"></trkpt>
      <trkpt lat="50.48146" lon="-3.51556"></trkpt>
      <trkpt lat="50.4815" lon="-3.51571"></trkpt>
      <trkpt lat="50.48154" lon="-3.51573"></trkpt>
      <trkpt lat="50.48157" lon="-3.5158"></trkpt>
      <trkpt lat="50.48148" lon="-3.51602"></trkpt>
      <trkpt lat="50.48142" lon="-3.51635"></trkpt>
      <trkpt lat="50.48149" lon="-3.51639"></trkpt>
      <trkpt lat="50.48158" lon="-3.5165"></trkpt>
      <trkpt lat="50.48157" lon="-3.51663"></trkpt>
      <trkpt lat="50.48159" lon="-3.5167"></trkpt>
      <trkpt lat="50.48166" lon="-3.51671"></trkpt>
      <trkpt lat="50.48167" lon="-3.51642"></trkpt>
      <trkpt lat="50.48178" lon="-3.51628"></trkpt>
      <trkpt lat="50.48183" lon="-3.51615"></trkpt>
      <trkpt lat="50.48193" lon="-3.51598"></trkpt>
      <trkpt lat="50.48196" lon="-3.51585"></trkpt>
      <trkpt lat="50.48199" lon="-3.51585"></trkpt>
      <trkpt lat="50.48202" lon="-3.51591"></trkpt>
      <trkpt lat="50.48213" lon="-3.51596"></trkpt>
      <trkpt lat="50.48233" lon="-3.51598"></trkpt>
      <trkpt lat="50.48241" lon="-3.51605"></trkpt>
      <trkpt lat="50.48257" lon="-3.51614"></trkpt>
      <trkpt lat="50.48281" lon="-3.5162"></trkpt>
      <trkpt lat="50.48294" lon="-3.51627"></trkpt>
      <trkpt lat="50.48301" lon="-3.51635"></trkpt>
      <trkpt lat="50.48318" lon="-3.51672"></trkpt>
      <trkpt lat="50.48327" lon="-3.51688"></trkpt>
      <trkpt lat="50.48346" lon="-3.51704"></trkpt>
      <trkpt lat="50.48358" lon="-3.51723"></trkpt>
      <trkpt lat="50.48368" lon="-3.51747"></trkpt>
      <trkpt lat="50.4839" lon="-3.51786"></trkpt>
      <trkpt lat="50.48405" lon="-3.51819"></trkpt>
      <trkpt lat="50.48428" lon="-3.51864"></trkpt>
      <trkpt lat="50.48446" lon="-3.51876"></trkpt>
      <trkpt lat="50.48469" lon="-3.51919"></trkpt>
      <trkpt lat="50.48473" lon="-3.51938"></trkpt>
      <trkpt lat="50.48472" lon="-3.51953"></trkpt>
      <trkpt lat="50.48463" lon="-3.51992"></trkpt>
      <trkpt lat="50.48449" lon="-3.52017"></trkpt>
      <trkpt lat="50.48424" lon="-3.5207"></trkpt>
      <trkpt lat="50.4841" lon="-3.52125"></trkpt>
      <trkpt lat="50.48404" lon="-3.52162"></trkpt>
      <trkpt lat="50.48437" lon="-3.52183"></trkpt>
      <trkpt lat="50.48451" lon="-3.52194"></trkpt>
    </trkseg>
  </trk>
</gpx>
