<?xml version="1.0" encoding="UTF-8"?>
<gpx version="1.1" creator="swcp-walk (imported from OS Maps route 33858097)"
     xmlns="http://www.topografix.com/GPX/1/1">
  <metadata>
    <name>SWCP43-Babbacombe-Exmouth</name>
  </metadata>
  <trk>
    <name>SWCP43-Babbacombe-Exmouth</name>
    <trkseg>
      <trkpt lat="50.484509294011474" lon="-3.521809174479955"></trkpt>
      <trkpt lat="50.48447" lon="-3.52191"></trkpt>
      <trkpt lat="50.48484" lon="-3.5222"></trkpt>
      <trkpt lat="50.48491" lon="-3.52217"></trkpt>
      <trkpt lat="50.48505" lon="-3.52165"></trkpt>
      <trkpt lat="50.48528" lon="-3.52096"></trkpt>
      <trkpt lat="50.48548" lon="-3.52044"></trkpt>
      <trkpt lat="50.48587" lon="-3.51968"></trkpt>
      <trkpt lat="50.4862" lon="-3.51872"></trkpt>
      <trkpt lat="50.48632" lon="-3.51822"></trkpt>
      <trkpt lat="50.4865" lon="-3.5177"></trkpt>
      <trkpt lat="50.48657" lon="-3.51762"></trkpt>
      <trkpt lat="50.48661" lon="-3.51759"></trkpt>
      <trkpt lat="50.48665" lon="-3.5176"></trkpt>
      <trkpt lat="50.48687" lon="-3.51791"></trkpt>
      <trkpt lat="50.48695" lon="-3.51774"></trkpt>
      <trkpt lat="50.48687" lon="-3.51791"></trkpt>
      <trkpt lat="50.48695" lon="-3.51803"></trkpt>
      <trkpt lat="50.48717" lon="-3.51821"></trkpt>
      <trkpt lat="50.48736" lon="-3.51833"></trkpt>
      <trkpt lat="50.48752" lon="-3.51833"></trkpt>
      <trkpt lat="50.48759" lon="-3.51827"></trkpt>
      <trkpt lat="50.48765" lon="-3.51818"></trkpt>
      <trkpt lat="50.48769" lon="-3.51803"></trkpt>
      <trkpt lat="50.48769" lon="-3.51772"></trkpt>
      <trkpt lat="50.48786" lon="-3.51788"></trkpt>
      <trkpt lat="50.48796" lon="-3.51791"></trkpt>
      <trkpt lat="50.4881" lon="-3.51788"></trkpt>
      <trkpt lat="50.48818" lon="-3.5179"></trkpt>
      <trkpt lat="50.48836" lon="-3.51786"></trkpt>
      <trkpt lat="50.48859" lon="-3.51784"></trkpt>
      <trkpt lat="50.48873" lon="-3.51791"></trkpt>
      <trkpt lat="50.48883" lon="-3.51803"></trkpt>
      <trkpt lat="50.48895" lon="-3.51823"></trkpt>
      <trkpt lat="50.48897" lon="-3.5182"></trkpt>
      <trkpt lat="50.48901" lon="-3.5179"></trkpt>
      <trkpt lat="50.48912" lon="-3.51746"></trkpt>
      <trkpt lat="50.48922" lon="-3.51728"></trkpt>
      <trkpt lat="50.48931" lon="-3.51723"></trkpt>
      <trkpt lat="50.48934" lon="-3.51715"></trkpt>
      <trkpt lat="50.48933" lon="-3.51697"></trkpt>
      <trkpt lat="50.48949" lon="-3.5167"></trkpt>
      <trkpt lat="50.4896" lon="-3.51659"></trkpt>
      <trkpt lat="50.48984" lon="-3.51649"></trkpt>
      <trkpt lat="50.49003" lon="-3.51648"></trkpt>
      <trkpt lat="50.49026" lon="-3.51646"></trkpt>
      <trkpt lat="50.49032" lon="-3.51643"></trkpt>
      <trkpt lat="50.49051" lon="-3.51622"></trkpt>
      <trkpt lat="50.49063" lon="-3.51597"></trkpt>
      <trkpt lat="50.49074" lon="-3.51585"></trkpt>
      <trkpt lat="50.49073" lon="-3.51579"></trkpt>
      <trkpt lat="50.49069" lon="-3.51576"></trkpt>
      <trkpt lat="50.49062" lon="-3.51577"></trkpt>
      <trkpt lat="50.49048" lon="-3.51591"></trkpt>
      <trkpt lat="50.49043" lon="-3.51594"></trkpt>
      <trkpt lat="50.49028" lon="-3.51595"></trkpt>
      <trkpt lat="50.49016" lon="-3.5159"></trkpt>
      <trkpt lat="50.49007" lon="-3.51582"></trkpt>
      <trkpt lat="50.49023" lon="-3.5157"></trkpt>
      <trkpt lat="50.49025" lon="-3.51566"></trkpt>
      <trkpt lat="50.4901" lon="-3.51557"></trkpt>
      <trkpt lat="50.49023" lon="-3.51543"></trkpt>
      <trkpt lat="50.49045" lon="-3.51489"></trkpt>
      <trkpt lat="50.49066" lon="-3.51461"></trkpt>
      <trkpt lat="50.49071" lon="-3.51457"></trkpt>
      <trkpt lat="50.4907" lon="-3.51457"></trkpt>
      <trkpt lat="50.49121" lon="-3.51429"></trkpt>
      <trkpt lat="50.49132" lon="-3.51428"></trkpt>
      <trkpt lat="50.49152" lon="-3.51418"></trkpt>
      <trkpt lat="50.49179" lon="-3.51419"></trkpt>
      <trkpt lat="50.49193" lon="-3.51414"></trkpt>
      <trkpt lat="50.49211" lon="-3.51415"></trkpt>
      <trkpt lat="50.49232" lon="-3.51405"></trkpt>
      <trkpt lat="50.49275" lon="-3.514"></trkpt>
      <trkpt lat="50.49282" lon="-3.51402"></trkpt>
      <trkpt lat="50.49317" lon="-3.51432"></trkpt>
      <trkpt lat="50.49336" lon="-3.51459"></trkpt>
      <trkpt lat="50.49344" lon="-3.51474"></trkpt>
      <trkpt lat="50.49348" lon="-3.51479"></trkpt>
      <trkpt lat="50.49357" lon="-3.51484"></trkpt>
      <trkpt lat="50.49363" lon="-3.51479"></trkpt>
      <trkpt lat="50.49369" lon="-3.51466"></trkpt>
      <trkpt lat="50.4938" lon="-3.51404"></trkpt>
      <trkpt lat="50.49384" lon="-3.51399"></trkpt>
      <trkpt lat="50.4939" lon="-3.51396"></trkpt>
      <trkpt lat="50.49414" lon="-3.514"></trkpt>
      <trkpt lat="50.49434" lon="-3.51408"></trkpt>
      <trkpt lat="50.49465" lon="-3.51437"></trkpt>
      <trkpt lat="50.4948" lon="-3.5146"></trkpt>
      <trkpt lat="50.49488" lon="-3.5148"></trkpt>
      <trkpt lat="50.49504" lon="-3.51565"></trkpt>
      <trkpt lat="50.49511" lon="-3.51652"></trkpt>
      <trkpt lat="50.49509" lon="-3.51682"></trkpt>
      <trkpt lat="50.49511" lon="-3.51696"></trkpt>
      <trkpt lat="50.49513" lon="-3.51705"></trkpt>
      <trkpt lat="50.49511" lon="-3.51731"></trkpt>
      <trkpt lat="50.49539" lon="-3.51787"></trkpt>
      <trkpt lat="50.49541" lon="-3.51789"></trkpt>
      <trkpt lat="50.4955" lon="-3.51774"></trkpt>
      <trkpt lat="50.49554" lon="-3.51777"></trkpt>
      <trkpt lat="50.49561" lon="-3.51764"></trkpt>
      <trkpt lat="50.49568" lon="-3.51764"></trkpt>
      <trkpt lat="50.49569" lon="-3.5178"></trkpt>
      <trkpt lat="50.49619" lon="-3.51775"></trkpt>
      <trkpt lat="50.49649" lon="-3.5176"></trkpt>
      <trkpt lat="50.49664" lon="-3.51759"></trkpt>
      <trkpt lat="50.49683" lon="-3.51766"></trkpt>
      <trkpt lat="50.49715" lon="-3.51786"></trkpt>
      <trkpt lat="50.49728" lon="-3.51791"></trkpt>
      <trkpt lat="50.49736" lon="-3.518"></trkpt>
      <trkpt lat="50.49741" lon="-3.51776"></trkpt>
      <trkpt lat="50.49754" lon="-3.51757"></trkpt>
      <trkpt lat="50.49766" lon="-3.51749"></trkpt>
      <trkpt lat="50.49771" lon="-3.51741"></trkpt>
      <trkpt lat="50.49779" lon="-3.51734"></trkpt>
      <trkpt lat="50.49812" lon="-3.51683"></trkpt>
      <trkpt lat="50.49822" lon="-3.51659"></trkpt>
      <trkpt lat="50.49822" lon="-3.5166"></trkpt>
      <trkpt lat="50.49839" lon="-3.51589"></trkpt>
      <trkpt lat="50.49846" lon="-3.51582"></trkpt>
      <trkpt lat="50.49848" lon="-3.51569"></trkpt>
      <trkpt lat="50.49846" lon="-3.51539"></trkpt>
      <trkpt lat="50.49848" lon="-3.51512"></trkpt>
      <trkpt lat="50.49848" lon="-3.51483"></trkpt>
      <trkpt lat="50.49844" lon="-3.51472"></trkpt>
      <trkpt lat="50.49846" lon="-3.51438"></trkpt>
      <trkpt lat="50.4985" lon="-3.51421"></trkpt>
      <trkpt lat="50.49854" lon="-3.51409"></trkpt>
      <trkpt lat="50.49859" lon="-3.51392"></trkpt>
      <trkpt lat="50.49864" lon="-3.51384"></trkpt>
      <trkpt lat="50.49874" lon="-3.51379"></trkpt>
      <trkpt lat="50.49892" lon="-3.51365"></trkpt>
      <trkpt lat="50.49901" lon="-3.51362"></trkpt>
      <trkpt lat="50.49928" lon="-3.51331"></trkpt>
      <trkpt lat="50.49934" lon="-3.51326"></trkpt>
      <trkpt lat="50.49939" lon="-3.51325"></trkpt>
      <trkpt lat="50.49971" lon="-3.51347"></trkpt>
      <trkpt lat="50.4998" lon="-3.51357"></trkpt>
      <trkpt lat="50.4999" lon="-3.51381"></trkpt>
      <trkpt lat="50.5001" lon="-3.51386"></trkpt>
      <trkpt lat="50.50023" lon="-3.51392"></trkpt>
      <trkpt lat="50.50046" lon="-3.5141"></trkpt>
      <trkpt lat="50.50057" lon="-3.51423"></trkpt>
      <trkpt lat="50.50058" lon="-3.51434"></trkpt>
      <trkpt lat="50.50062" lon="-3.51441"></trkpt>
      <trkpt lat="50.50067" lon="-3.51444"></trkpt>
      <trkpt lat="50.50084" lon="-3.51444"></trkpt>
      <trkpt lat="50.5008" lon="-3.51388"></trkpt>
      <trkpt lat="50.50076" lon="-3.51373"></trkpt>
      <trkpt lat="50.50105" lon="-3.51379"></trkpt>
      <trkpt lat="50.50122" lon="-3.51395"></trkpt>
      <trkpt lat="50.50136" lon="-3.51401"></trkpt>
      <trkpt lat="50.50144" lon="-3.51399"></trkpt>
      <trkpt lat="50.50152" lon="-3.51394"></trkpt>
      <trkpt lat="50.50151" lon="-3.51394"></trkpt>
      <trkpt lat="50.50169" lon="-3.51391"></trkpt>
      <trkpt lat="50.50222" lon="-3.51366"></trkpt>
      <trkpt lat="50.50257" lon="-3.51366"></trkpt>
      <trkpt lat="50.50268" lon="-3.51362"></trkpt>
      <trkpt lat="50.50284" lon="-3.51345"></trkpt>
      <trkpt lat="50.50295" lon="-3.51352"></trkpt>
      <trkpt lat="50.50307" lon="-3.51353"></trkpt>
      <trkpt lat="50.50312" lon="-3.51358"></trkpt>
      <trkpt lat="50.50319" lon="-3.51374"></trkpt>
      <trkpt lat="50.50329" lon="-3.5139"></trkpt>
      <trkpt lat="50.50349" lon="-3.51415"></trkpt>
      <trkpt lat="50.50354" lon="-3.51414"></trkpt>
      <trkpt lat="50.50358" lon="-3.51408"></trkpt>
      <trkpt lat="50.50373" lon="-3.51394"></trkpt>
      <trkpt lat="50.50389" lon="-3.51372"></trkpt>
      <trkpt lat="50.50406" lon="-3.5136"></trkpt>
      <trkpt lat="50.50463" lon="-3.51356"></trkpt>
      <trkpt lat="50.50477" lon="-3.51352"></trkpt>
      <trkpt lat="50.5051" lon="-3.51357"></trkpt>
      <trkpt lat="50.50528" lon="-3.51362"></trkpt>
      <trkpt lat="50.50549" lon="-3.51378"></trkpt>
      <trkpt lat="50.50558" lon="-3.51393"></trkpt>
      <trkpt lat="50.50561" lon="-3.51401"></trkpt>
      <trkpt lat="50.50561" lon="-3.51411"></trkpt>
      <trkpt lat="50.50576" lon="-3.5146"></trkpt>
      <trkpt lat="50.50583" lon="-3.51473"></trkpt>
      <trkpt lat="50.50586" lon="-3.51497"></trkpt>
      <trkpt lat="50.50592" lon="-3.51512"></trkpt>
      <trkpt lat="50.50609" lon="-3.51524"></trkpt>
      <trkpt lat="50.50617" lon="-3.51523"></trkpt>
      <trkpt lat="50.50626" lon="-3.51493"></trkpt>
      <trkpt lat="50.50651" lon="-3.51446"></trkpt>
      <trkpt lat="50.50661" lon="-3.51436"></trkpt>
      <trkpt lat="50.50678" lon="-3.51427"></trkpt>
      <trkpt lat="50.5069" lon="-3.51413"></trkpt>
      <trkpt lat="50.50698" lon="-3.51393"></trkpt>
      <trkpt lat="50.50709" lon="-3.51336"></trkpt>
      <trkpt lat="50.50727" lon="-3.5131"></trkpt>
      <trkpt lat="50.50737" lon="-3.51313"></trkpt>
      <trkpt lat="50.50739" lon="-3.51311"></trkpt>
      <trkpt lat="50.50753" lon="-3.51255"></trkpt>
      <trkpt lat="50.50763" lon="-3.51221"></trkpt>
      <trkpt lat="50.50768" lon="-3.51217"></trkpt>
      <trkpt lat="50.50776" lon="-3.51199"></trkpt>
      <trkpt lat="50.50787" lon="-3.51197"></trkpt>
      <trkpt lat="50.50826" lon="-3.512"></trkpt>
      <trkpt lat="50.50838" lon="-3.51204"></trkpt>
      <trkpt lat="50.50855" lon="-3.51213"></trkpt>
      <trkpt lat="50.50893" lon="-3.51253"></trkpt>
      <trkpt lat="50.50918" lon="-3.51283"></trkpt>
      <trkpt lat="50.50936" lon="-3.5129"></trkpt>
      <trkpt lat="50.50956" lon="-3.51287"></trkpt>
      <trkpt lat="50.50972" lon="-3.51289"></trkpt>
      <trkpt lat="50.50983" lon="-3.51294"></trkpt>
      <trkpt lat="50.50993" lon="-3.5129"></trkpt>
      <trkpt lat="50.50997" lon="-3.51286"></trkpt>
      <trkpt lat="50.51015" lon="-3.51249"></trkpt>
      <trkpt lat="50.51019" lon="-3.51234"></trkpt>
      <trkpt lat="50.51022" lon="-3.51204"></trkpt>
      <trkpt lat="50.51026" lon="-3.51195"></trkpt>
      <trkpt lat="50.51031" lon="-3.51197"></trkpt>
      <trkpt lat="50.51035" lon="-3.51206"></trkpt>
      <trkpt lat="50.51042" lon="-3.51217"></trkpt>
      <trkpt lat="50.51047" lon="-3.51221"></trkpt>
      <trkpt lat="50.51048" lon="-3.51225"></trkpt>
      <trkpt lat="50.51091" lon="-3.51242"></trkpt>
      <trkpt lat="50.51095" lon="-3.51248"></trkpt>
      <trkpt lat="50.51102" lon="-3.5125"></trkpt>
      <trkpt lat="50.5117" lon="-3.5125"></trkpt>
      <trkpt lat="50.51177" lon="-3.51246"></trkpt>
      <trkpt lat="50.5118" lon="-3.51242"></trkpt>
      <trkpt lat="50.51207" lon="-3.51129"></trkpt>
      <trkpt lat="50.51207" lon="-3.5113"></trkpt>
      <trkpt lat="50.51214" lon="-3.51091"></trkpt>
      <trkpt lat="50.51231" lon="-3.51054"></trkpt>
      <trkpt lat="50.51237" lon="-3.51048"></trkpt>
      <trkpt lat="50.51244" lon="-3.51051"></trkpt>
      <trkpt lat="50.51301" lon="-3.51036"></trkpt>
      <trkpt lat="50.51324" lon="-3.51039"></trkpt>
      <trkpt lat="50.51341" lon="-3.51049"></trkpt>
      <trkpt lat="50.51359" lon="-3.51055"></trkpt>
      <trkpt lat="50.51382" lon="-3.51073"></trkpt>
      <trkpt lat="50.51421" lon="-3.51086"></trkpt>
      <trkpt lat="50.51458" lon="-3.51073"></trkpt>
      <trkpt lat="50.51488" lon="-3.51056"></trkpt>
      <trkpt lat="50.51498" lon="-3.51041"></trkpt>
      <trkpt lat="50.51506" lon="-3.5099"></trkpt>
      <trkpt lat="50.51511" lon="-3.50949"></trkpt>
      <trkpt lat="50.51539" lon="-3.50941"></trkpt>
      <trkpt lat="50.51585" lon="-3.50937"></trkpt>
      <trkpt lat="50.51627" lon="-3.50937"></trkpt>
      <trkpt lat="50.51641" lon="-3.5095"></trkpt>
      <trkpt lat="50.51649" lon="-3.50954"></trkpt>
      <trkpt lat="50.51656" lon="-3.50966"></trkpt>
      <trkpt lat="50.51656" lon="-3.50979"></trkpt>
      <trkpt lat="50.51664" lon="-3.50994"></trkpt>
      <trkpt lat="50.51673" lon="-3.51"></trkpt>
      <trkpt lat="50.51696" lon="-3.50992"></trkpt>
      <trkpt lat="50.51704" lon="-3.51002"></trkpt>
      <trkpt lat="50.51716" lon="-3.51009"></trkpt>
      <trkpt lat="50.51772" lon="-3.51002"></trkpt>
      <trkpt lat="50.51794" lon="-3.50989"></trkpt>
      <trkpt lat="50.51836" lon="-3.50958"></trkpt>
      <trkpt lat="50.51845" lon="-3.50946"></trkpt>
      <trkpt lat="50.51864" lon="-3.50934"></trkpt>
      <trkpt lat="50.51883" lon="-3.50922"></trkpt>
      <trkpt lat="50.51907" lon="-3.50912"></trkpt>
      <trkpt lat="50.51918" lon="-3.50911"></trkpt>
      <trkpt lat="50.51959" lon="-3.5093"></trkpt>
      <trkpt lat="50.5197" lon="-3.50932"></trkpt>
      <trkpt lat="50.51978" lon="-3.50928"></trkpt>
      <trkpt lat="50.5199" lon="-3.50935"></trkpt>
      <trkpt lat="50.5199" lon="-3.50931"></trkpt>
      <trkpt lat="50.52" lon="-3.50931"></trkpt>
      <trkpt lat="50.51999" lon="-3.50922"></trkpt>
      <trkpt lat="50.52001" lon="-3.5092"></trkpt>
      <trkpt lat="50.52009" lon="-3.50925"></trkpt>
      <trkpt lat="50.52009" lon="-3.50906"></trkpt>
      <trkpt lat="50.52015" lon="-3.50904"></trkpt>
      <trkpt lat="50.52016" lon="-3.509"></trkpt>
      <trkpt lat="50.52014" lon="-3.50894"></trkpt>
      <trkpt lat="50.5202" lon="-3.50887"></trkpt>
      <trkpt lat="50.52026" lon="-3.50887"></trkpt>
      <trkpt lat="50.5203" lon="-3.5087"></trkpt>
      <trkpt lat="50.52034" lon="-3.50864"></trkpt>
      <trkpt lat="50.52038" lon="-3.50842"></trkpt>
      <trkpt lat="50.52053" lon="-3.50817"></trkpt>
      <trkpt lat="50.52053" lon="-3.50811"></trkpt>
      <trkpt lat="50.52066" lon="-3.50806"></trkpt>
      <trkpt lat="50.52075" lon="-3.50806"></trkpt>
      <trkpt lat="50.5208" lon="-3.50808"></trkpt>
      <trkpt lat="50.52083" lon="-3.50812"></trkpt>
      <trkpt lat="50.52085" lon="-3.50811"></trkpt>
      <trkpt lat="50.52092" lon="-3.50792"></trkpt>
      <trkpt lat="50.52095" lon="-3.50753"></trkpt>
      <trkpt lat="50.52099" lon="-3.50743"></trkpt>
      <trkpt lat="50.52104" lon="-3.50739"></trkpt>
      <trkpt lat="50.52136" lon="-3.50731"></trkpt>
      <trkpt lat="50.52141" lon="-3.50735"></trkpt>
      <trkpt lat="50.52146" lon="-3.50738"></trkpt>
      <trkpt lat="50.52159" lon="-3.50738"></trkpt>
      <trkpt lat="50.52169" lon="-3.50746"></trkpt>
      <trkpt lat="50.52203" lon="-3.50756"></trkpt>
      <trkpt lat="50.52225" lon="-3.50759"></trkpt>
      <trkpt lat="50.52234" lon="-3.50757"></trkpt>
      <trkpt lat="50.52249" lon="-3.5074"></trkpt>
      <trkpt lat="50.52266" lon="-3.50713"></trkpt>
      <trkpt lat="50.52295" lon="-3.50701"></trkpt>
      <trkpt lat="50.52306" lon="-3.50701"></trkpt>
      <trkpt lat="50.52377" lon="-3.50746"></trkpt>
      <trkpt lat="50.52407" lon="-3.5077"></trkpt>
      <trkpt lat="50.52421" lon="-3.50774"></trkpt>
      <trkpt lat="50.5244" lon="-3.50768"></trkpt>
      <trkpt lat="50.52464" lon="-3.5077"></trkpt>
      <trkpt lat="50.52475" lon="-3.50765"></trkpt>
      <trkpt lat="50.52477" lon="-3.50757"></trkpt>
      <trkpt lat="50.52477" lon="-3.50747"></trkpt>
      <trkpt lat="50.52472" lon="-3.50715"></trkpt>
      <trkpt lat="50.52469" lon="-3.50655"></trkpt>
      <trkpt lat="50.52482" lon="-3.50643"></trkpt>
      <trkpt lat="50.52523" lon="-3.50625"></trkpt>
      <trkpt lat="50.52558" lon="-3.50604"></trkpt>
      <trkpt lat="50.52579" lon="-3.50597"></trkpt>
      <trkpt lat="50.5259" lon="-3.50598"></trkpt>
      <trkpt lat="50.52598" lon="-3.50603"></trkpt>
      <trkpt lat="50.52598" lon="-3.50602"></trkpt>
      <trkpt lat="50.52722" lon="-3.50676"></trkpt>
      <trkpt lat="50.52768" lon="-3.50708"></trkpt>
      <trkpt lat="50.5277" lon="-3.50694"></trkpt>
      <trkpt lat="50.52774" lon="-3.50686"></trkpt>
      <trkpt lat="50.52793" lon="-3.50672"></trkpt>
      <trkpt lat="50.52803" lon="-3.50676"></trkpt>
      <trkpt lat="50.52802" lon="-3.50611"></trkpt>
      <trkpt lat="50.52805" lon="-3.50588"></trkpt>
      <trkpt lat="50.52817" lon="-3.50576"></trkpt>
      <trkpt lat="50.52875" lon="-3.50542"></trkpt>
      <trkpt lat="50.5289" lon="-3.50524"></trkpt>
      <trkpt lat="50.52903" lon="-3.50513"></trkpt>
      <trkpt lat="50.52905" lon="-3.50485"></trkpt>
      <trkpt lat="50.52912" lon="-3.50467"></trkpt>
      <trkpt lat="50.52914" lon="-3.50464"></trkpt>
      <trkpt lat="50.52961" lon="-3.50427"></trkpt>
      <trkpt lat="50.52977" lon="-3.50405"></trkpt>
      <trkpt lat="50.53015" lon="-3.50307"></trkpt>
      <trkpt lat="50.53039" lon="-3.50254"></trkpt>
      <trkpt lat="50.53055" lon="-3.50228"></trkpt>
      <trkpt lat="50.53072" lon="-3.50216"></trkpt>
      <trkpt lat="50.53103" lon="-3.50201"></trkpt>
      <trkpt lat="50.53171" lon="-3.50159"></trkpt>
      <trkpt lat="50.53182" lon="-3.50157"></trkpt>
      <trkpt lat="50.53239" lon="-3.50151"></trkpt>
      <trkpt lat="50.53268" lon="-3.50156"></trkpt>
      <trkpt lat="50.53376" lon="-3.50127"></trkpt>
      <trkpt lat="50.53432" lon="-3.501"></trkpt>
      <trkpt lat="50.53469" lon="-3.50052"></trkpt>
      <trkpt lat="50.53494" lon="-3.50041"></trkpt>
      <trkpt lat="50.53507" lon="-3.49983"></trkpt>
      <trkpt lat="50.53519" lon="-3.49965"></trkpt>
      <trkpt lat="50.53529" lon="-3.49956"></trkpt>
      <trkpt lat="50.53643" lon="-3.49852"></trkpt>
      <trkpt lat="50.53648" lon="-3.49845"></trkpt>
      <trkpt lat="50.53659" lon="-3.49809"></trkpt>
      <trkpt lat="50.53672" lon="-3.4979"></trkpt>
      <trkpt lat="50.53708" lon="-3.4977"></trkpt>
      <trkpt lat="50.53729" lon="-3.49729"></trkpt>
      <trkpt lat="50.53735" lon="-3.49707"></trkpt>
      <trkpt lat="50.53745" lon="-3.49684"></trkpt>
      <trkpt lat="50.53754" lon="-3.49674"></trkpt>
      <trkpt lat="50.53765" lon="-3.49668"></trkpt>
      <trkpt lat="50.53764" lon="-3.49668"></trkpt>
      <trkpt lat="50.53772" lon="-3.49668"></trkpt>
      <trkpt lat="50.53776" lon="-3.49675"></trkpt>
      <trkpt lat="50.53778" lon="-3.49682"></trkpt>
      <trkpt lat="50.5378" lon="-3.4971"></trkpt>
      <trkpt lat="50.5378" lon="-3.49738"></trkpt>
      <trkpt lat="50.53785" lon="-3.49841"></trkpt>
      <trkpt lat="50.53793" lon="-3.4987"></trkpt>
      <trkpt lat="50.53802" lon="-3.49885"></trkpt>
      <trkpt lat="50.53821" lon="-3.49893"></trkpt>
      <trkpt lat="50.53836" lon="-3.49931"></trkpt>
      <trkpt lat="50.53838" lon="-3.49944"></trkpt>
      <trkpt lat="50.53864" lon="-3.49954"></trkpt>
      <trkpt lat="50.53901" lon="-3.50073"></trkpt>
      <trkpt lat="50.53937" lon="-3.5018"></trkpt>
      <trkpt lat="50.53959" lon="-3.50222"></trkpt>
      <trkpt lat="50.5398" lon="-3.50297"></trkpt>
      <trkpt lat="50.53985" lon="-3.50311"></trkpt>
      <trkpt lat="50.54007" lon="-3.50363"></trkpt>
      <trkpt lat="50.54018" lon="-3.50346"></trkpt>
      <trkpt lat="50.54025" lon="-3.50331"></trkpt>
      <trkpt lat="50.5407" lon="-3.50208"></trkpt>
      <trkpt lat="50.54222" lon="-3.50032"></trkpt>
      <trkpt lat="50.54238" lon="-3.49985"></trkpt>
      <trkpt lat="50.54226" lon="-3.49879"></trkpt>
      <trkpt lat="50.54213" lon="-3.49885"></trkpt>
      <trkpt lat="50.54212" lon="-3.49885"></trkpt>
      <trkpt lat="50.54226" lon="-3.49879"></trkpt>
      <trkpt lat="50.54218" lon="-3.49801"></trkpt>
      <trkpt lat="50.54227" lon="-3.49798"></trkpt>
      <trkpt lat="50.54224" lon="-3.49757"></trkpt>
      <trkpt lat="50.54226" lon="-3.49732"></trkpt>
      <trkpt lat="50.54233" lon="-3.49715"></trkpt>
      <trkpt lat="50.54242" lon="-3.49699"></trkpt>
      <trkpt lat="50.54243" lon="-3.49693"></trkpt>
      <trkpt lat="50.54242" lon="-3.49699"></trkpt>
      <trkpt lat="50.54253" lon="-3.49701"></trkpt>
      <trkpt lat="50.54264" lon="-3.49673"></trkpt>
      <trkpt lat="50.54275" lon="-3.49652"></trkpt>
      <trkpt lat="50.54277" lon="-3.49653"></trkpt>
      <trkpt lat="50.54321" lon="-3.49593"></trkpt>
      <trkpt lat="50.54475" lon="-3.49448"></trkpt>
      <trkpt lat="50.54592" lon="-3.49346"></trkpt>
      <trkpt lat="50.54626" lon="-3.49312"></trkpt>
      <trkpt lat="50.54631" lon="-3.4929"></trkpt>
      <trkpt lat="50.54645" lon="-3.49277"></trkpt>
      <trkpt lat="50.54676" lon="-3.49239"></trkpt>
      <trkpt lat="50.54733" lon="-3.49177"></trkpt>
      <trkpt lat="50.54761" lon="-3.49148"></trkpt>
      <trkpt lat="50.54769" lon="-3.49143"></trkpt>
      <trkpt lat="50.5477" lon="-3.49146"></trkpt>
      <trkpt lat="50.54786" lon="-3.49128"></trkpt>
      <trkpt lat="50.54921" lon="-3.49002"></trkpt>
      <trkpt lat="50.54938" lon="-3.48982"></trkpt>
      <trkpt lat="50.54938" lon="-3.48983"></trkpt>
      <trkpt lat="50.54976" lon="-3.48915"></trkpt>
      <trkpt lat="50.55001" lon="-3.48881"></trkpt>
      <trkpt lat="50.55028" lon="-3.48849"></trkpt>
      <trkpt lat="50.55055" lon="-3.4882"></trkpt>
      <trkpt lat="50.55182" lon="-3.48706"></trkpt>
      <trkpt lat="50.55232" lon="-3.48652"></trkpt>
      <trkpt lat="50.55307" lon="-3.48566"></trkpt>
      <trkpt lat="50.55417" lon="-3.48411"></trkpt>
      <trkpt lat="50.55451" lon="-3.48367"></trkpt>
      <trkpt lat="50.55504" lon="-3.48303"></trkpt>
      <trkpt lat="50.55522" lon="-3.48289"></trkpt>
      <trkpt lat="50.5565" lon="-3.48172"></trkpt>
      <trkpt lat="50.55741" lon="-3.48085"></trkpt>
      <trkpt lat="50.55789" lon="-3.48043"></trkpt>
      <trkpt lat="50.55857" lon="-3.47973"></trkpt>
      <trkpt lat="50.55932" lon="-3.47886"></trkpt>
      <trkpt lat="50.56035" lon="-3.4775"></trkpt>
      <trkpt lat="50.56072" lon="-3.47695"></trkpt>
      <trkpt lat="50.56158" lon="-3.47554"></trkpt>
      <trkpt lat="50.56188" lon="-3.47493"></trkpt>
      <trkpt lat="50.56204" lon="-3.47451"></trkpt>
      <trkpt lat="50.56206" lon="-3.4745"></trkpt>
      <trkpt lat="50.56233" lon="-3.47476"></trkpt>
      <trkpt lat="50.5624" lon="-3.47479"></trkpt>
      <trkpt lat="50.56247" lon="-3.47477"></trkpt>
      <trkpt lat="50.56255" lon="-3.47491"></trkpt>
      <trkpt lat="50.56283" lon="-3.47527"></trkpt>
      <trkpt lat="50.56296" lon="-3.47558"></trkpt>
      <trkpt lat="50.563" lon="-3.47576"></trkpt>
      <trkpt lat="50.56308" lon="-3.47597"></trkpt>
      <trkpt lat="50.56321" lon="-3.47611"></trkpt>
      <trkpt lat="50.56328" lon="-3.47632"></trkpt>
      <trkpt lat="50.56331" lon="-3.47654"></trkpt>
      <trkpt lat="50.56338" lon="-3.47671"></trkpt>
      <trkpt lat="50.56356" lon="-3.47679"></trkpt>
      <trkpt lat="50.56378" lon="-3.47682"></trkpt>
      <trkpt lat="50.56381" lon="-3.47689"></trkpt>
      <trkpt lat="50.56381" lon="-3.47695"></trkpt>
      <trkpt lat="50.56444" lon="-3.47679"></trkpt>
      <trkpt lat="50.56475" lon="-3.47669"></trkpt>
      <trkpt lat="50.56476" lon="-3.47663"></trkpt>
      <trkpt lat="50.56512" lon="-3.47652"></trkpt>
      <trkpt lat="50.56509" lon="-3.47625"></trkpt>
      <trkpt lat="50.56513" lon="-3.47608"></trkpt>
      <trkpt lat="50.56518" lon="-3.47599"></trkpt>
      <trkpt lat="50.56511" lon="-3.47578"></trkpt>
      <trkpt lat="50.56523" lon="-3.47556"></trkpt>
      <trkpt lat="50.56545" lon="-3.47501"></trkpt>
      <trkpt lat="50.56559" lon="-3.47459"></trkpt>
      <trkpt lat="50.56576" lon="-3.47392"></trkpt>
      <trkpt lat="50.56598" lon="-3.47283"></trkpt>
      <trkpt lat="50.56603" lon="-3.4727"></trkpt>
      <trkpt lat="50.56611" lon="-3.47263"></trkpt>
      <trkpt lat="50.56635" lon="-3.47219"></trkpt>
      <trkpt lat="50.56637" lon="-3.47208"></trkpt>
      <trkpt lat="50.56597" lon="-3.46999"></trkpt>
      <trkpt lat="50.566" lon="-3.46995"></trkpt>
      <trkpt lat="50.56628" lon="-3.4698"></trkpt>
      <trkpt lat="50.56627" lon="-3.4698"></trkpt>
      <trkpt lat="50.56665" lon="-3.46963"></trkpt>
      <trkpt lat="50.56791" lon="-3.46961"></trkpt>
      <trkpt lat="50.5682" lon="-3.46961"></trkpt>
      <trkpt lat="50.56827" lon="-3.46959"></trkpt>
      <trkpt lat="50.56829" lon="-3.46955"></trkpt>
      <trkpt lat="50.56835" lon="-3.46954"></trkpt>
      <trkpt lat="50.5684" lon="-3.46956"></trkpt>
      <trkpt lat="50.56839" lon="-3.4696"></trkpt>
      <trkpt lat="50.56853" lon="-3.4697"></trkpt>
      <trkpt lat="50.56948" lon="-3.46994"></trkpt>
      <trkpt lat="50.5697" lon="-3.46997"></trkpt>
      <trkpt lat="50.56978" lon="-3.47011"></trkpt>
      <trkpt lat="50.56988" lon="-3.47041"></trkpt>
      <trkpt lat="50.57005" lon="-3.47073"></trkpt>
      <trkpt lat="50.57049" lon="-3.47183"></trkpt>
      <trkpt lat="50.57064" lon="-3.47243"></trkpt>
      <trkpt lat="50.5708" lon="-3.47291"></trkpt>
      <trkpt lat="50.57087" lon="-3.47317"></trkpt>
      <trkpt lat="50.57104" lon="-3.47287"></trkpt>
      <trkpt lat="50.57134" lon="-3.4725"></trkpt>
      <trkpt lat="50.57149" lon="-3.47235"></trkpt>
      <trkpt lat="50.57154" lon="-3.47224"></trkpt>
      <trkpt lat="50.57171" lon="-3.47201"></trkpt>
      <trkpt lat="50.57188" lon="-3.47171"></trkpt>
      <trkpt lat="50.57204" lon="-3.47129"></trkpt>
      <trkpt lat="50.57224" lon="-3.47089"></trkpt>
      <trkpt lat="50.5724" lon="-3.47073"></trkpt>
      <trkpt lat="50.57242" lon="-3.47058"></trkpt>
      <trkpt lat="50.5724" lon="-3.47073"></trkpt>
      <trkpt lat="50.57248" lon="-3.4707"></trkpt>
      <trkpt lat="50.57261" lon="-3.4707"></trkpt>
      <trkpt lat="50.57303" lon="-3.47097"></trkpt>
      <trkpt lat="50.57373" lon="-3.47132"></trkpt>
      <trkpt lat="50.57387" lon="-3.47135"></trkpt>
      <trkpt lat="50.57407" lon="-3.47131"></trkpt>
      <trkpt lat="50.57424" lon="-3.47117"></trkpt>
      <trkpt lat="50.57464" lon="-3.47061"></trkpt>
      <trkpt lat="50.57505" lon="-3.47"></trkpt>
      <trkpt lat="50.57513" lon="-3.47001"></trkpt>
      <trkpt lat="50.57541" lon="-3.46958"></trkpt>
      <trkpt lat="50.57564" lon="-3.46931"></trkpt>
      <trkpt lat="50.5758" lon="-3.46882"></trkpt>
      <trkpt lat="50.57585" lon="-3.46885"></trkpt>
      <trkpt lat="50.57594" lon="-3.46874"></trkpt>
      <trkpt lat="50.57603" lon="-3.46848"></trkpt>
      <trkpt lat="50.57623" lon="-3.46819"></trkpt>
      <trkpt lat="50.57629" lon="-3.46805"></trkpt>
      <trkpt lat="50.57636" lon="-3.46781"></trkpt>
      <trkpt lat="50.5764" lon="-3.4678"></trkpt>
      <trkpt lat="50.5767" lon="-3.46799"></trkpt>
      <trkpt lat="50.57679" lon="-3.468"></trkpt>
      <trkpt lat="50.57678" lon="-3.46792"></trkpt>
      <trkpt lat="50.57662" lon="-3.46779"></trkpt>
      <trkpt lat="50.57657" lon="-3.4677"></trkpt>
      <trkpt lat="50.57679" lon="-3.46784"></trkpt>
      <trkpt lat="50.57703" lon="-3.4679"></trkpt>
      <trkpt lat="50.57726" lon="-3.46787"></trkpt>
      <trkpt lat="50.57739" lon="-3.46783"></trkpt>
      <trkpt lat="50.57788" lon="-3.46743"></trkpt>
      <trkpt lat="50.57827" lon="-3.46725"></trkpt>
      <trkpt lat="50.57952" lon="-3.46588"></trkpt>
      <trkpt lat="50.57964" lon="-3.46588"></trkpt>
      <trkpt lat="50.58007" lon="-3.46533"></trkpt>
      <trkpt lat="50.57995" lon="-3.46506"></trkpt>
      <trkpt lat="50.58023" lon="-3.46475"></trkpt>
      <trkpt lat="50.58025" lon="-3.46479"></trkpt>
      <trkpt lat="50.58046" lon="-3.46441"></trkpt>
      <trkpt lat="50.58064" lon="-3.46417"></trkpt>
      <trkpt lat="50.5807" lon="-3.46417"></trkpt>
      <trkpt lat="50.58088" lon="-3.46391"></trkpt>
      <trkpt lat="50.58242" lon="-3.46174"></trkpt>
      <trkpt lat="50.58286" lon="-3.46125"></trkpt>
      <trkpt lat="50.58333" lon="-3.46066"></trkpt>
      <trkpt lat="50.58375" lon="-3.4601"></trkpt>
      <trkpt lat="50.58421" lon="-3.45946"></trkpt>
      <trkpt lat="50.58489" lon="-3.45845"></trkpt>
      <trkpt lat="50.58594" lon="-3.45675"></trkpt>
      <trkpt lat="50.58725" lon="-3.45456"></trkpt>
      <trkpt lat="50.5884" lon="-3.45253"></trkpt>
      <trkpt lat="50.58928" lon="-3.45085"></trkpt>
      <trkpt lat="50.58952" lon="-3.45035"></trkpt>
      <trkpt lat="50.58951" lon="-3.45035"></trkpt>
      <trkpt lat="50.59084" lon="-3.4474"></trkpt>
      <trkpt lat="50.59117" lon="-3.44657"></trkpt>
      <trkpt lat="50.59187" lon="-3.44525"></trkpt>
      <trkpt lat="50.5921" lon="-3.44494"></trkpt>
      <trkpt lat="50.59261" lon="-3.44426"></trkpt>
      <trkpt lat="50.5928" lon="-3.44407"></trkpt>
      <trkpt lat="50.5931" lon="-3.44387"></trkpt>
      <trkpt lat="50.5939" lon="-3.4435"></trkpt>
      <trkpt lat="50.59467" lon="-3.44337"></trkpt>
      <trkpt lat="50.59566" lon="-3.44333"></trkpt>
      <trkpt lat="50.59567" lon="-3.44333"></trkpt>
      <trkpt lat="50.59567" lon="-3.44349"></trkpt>
      <trkpt lat="50.59575" lon="-3.44349"></trkpt>
      <trkpt lat="50.59576" lon="-3.44355"></trkpt>
      <trkpt lat="50.59607" lon="-3.44354"></trkpt>
      <trkpt lat="50.59608" lon="-3.44373"></trkpt>
      <trkpt lat="50.59613" lon="-3.44381"></trkpt>
      <trkpt lat="50.59617" lon="-3.44392"></trkpt>
      <trkpt lat="50.59625" lon="-3.44392"></trkpt>
      <trkpt lat="50.59644" lon="-3.44417"></trkpt>
      <trkpt lat="50.59725" lon="-3.44421"></trkpt>
      <trkpt lat="50.59742" lon="-3.44427"></trkpt>
      <trkpt lat="50.59755" lon="-3.44435"></trkpt>
      <trkpt lat="50.59756" lon="-3.44447"></trkpt>
      <trkpt lat="50.59755" lon="-3.44451"></trkpt>
      <trkpt lat="50.5975" lon="-3.44456"></trkpt>
      <trkpt lat="50.59759" lon="-3.44482"></trkpt>
      <trkpt lat="50.59769" lon="-3.44497"></trkpt>
      <trkpt lat="50.59779" lon="-3.4449"></trkpt>
      <trkpt lat="50.59813" lon="-3.44481"></trkpt>
      <trkpt lat="50.59846" lon="-3.4448"></trkpt>
      <trkpt lat="50.59862" lon="-3.44486"></trkpt>
      <trkpt lat="50.59888" lon="-3.44511"></trkpt>
      <trkpt lat="50.59899" lon="-3.44532"></trkpt>
      <trkpt lat="50.59967" lon="-3.44725"></trkpt>
      <trkpt lat="50.5999" lon="-3.4477"></trkpt>
      <trkpt lat="50.60014" lon="-3.448"></trkpt>
      <trkpt lat="50.60033" lon="-3.44817"></trkpt>
      <trkpt lat="50.60067" lon="-3.44836"></trkpt>
      <trkpt lat="50.60087" lon="-3.44841"></trkpt>
      <trkpt lat="50.60106" lon="-3.44842"></trkpt>
      <trkpt lat="50.60128" lon="-3.44838"></trkpt>
      <trkpt lat="50.60155" lon="-3.44827"></trkpt>
      <trkpt lat="50.60169" lon="-3.44818"></trkpt>
      <trkpt lat="50.60162" lon="-3.44784"></trkpt>
      <trkpt lat="50.60171" lon="-3.44798"></trkpt>
      <trkpt lat="50.60229" lon="-3.44755"></trkpt>
      <trkpt lat="50.60243" lon="-3.4474"></trkpt>
      <trkpt lat="50.60247" lon="-3.44707"></trkpt>
      <trkpt lat="50.60275" lon="-3.44676"></trkpt>
      <trkpt lat="50.60263" lon="-3.44654"></trkpt>
      <trkpt lat="50.6027" lon="-3.44641"></trkpt>
      <trkpt lat="50.60306" lon="-3.44605"></trkpt>
      <trkpt lat="50.60318" lon="-3.44602"></trkpt>
      <trkpt lat="50.60322" lon="-3.44659"></trkpt>
      <trkpt lat="50.60325" lon="-3.44666"></trkpt>
      <trkpt lat="50.60331" lon="-3.44667"></trkpt>
      <trkpt lat="50.60347" lon="-3.44658"></trkpt>
      <trkpt lat="50.60347" lon="-3.44659"></trkpt>
      <trkpt lat="50.60331" lon="-3.44667"></trkpt>
      <trkpt lat="50.60325" lon="-3.44666"></trkpt>
      <trkpt lat="50.60322" lon="-3.44659"></trkpt>
      <trkpt lat="50.60318" lon="-3.44602"></trkpt>
      <trkpt lat="50.60306" lon="-3.44605"></trkpt>
      <trkpt lat="50.60284" lon="-3.44627"></trkpt>
      <trkpt lat="50.60292" lon="-3.44644"></trkpt>
      <trkpt lat="50.60308" lon="-3.44698"></trkpt>
      <trkpt lat="50.60286" lon="-3.44718"></trkpt>
      <trkpt lat="50.60287" lon="-3.4472"></trkpt>
      <trkpt lat="50.60301" lon="-3.44723"></trkpt>
      <trkpt lat="50.60305" lon="-3.44719"></trkpt>
      <trkpt lat="50.60306" lon="-3.44714"></trkpt>
      <trkpt lat="50.60381" lon="-3.44662"></trkpt>
      <trkpt lat="50.60422" lon="-3.44653"></trkpt>
      <trkpt lat="50.60455" lon="-3.4465"></trkpt>
      <trkpt lat="50.60495" lon="-3.44642"></trkpt>
      <trkpt lat="50.60564" lon="-3.4462"></trkpt>
      <trkpt lat="50.60586" lon="-3.44606"></trkpt>
      <trkpt lat="50.60602" lon="-3.44603"></trkpt>
      <trkpt lat="50.60665" lon="-3.44601"></trkpt>
      <trkpt lat="50.60666" lon="-3.44574"></trkpt>
      <trkpt lat="50.60691" lon="-3.44574"></trkpt>
      <trkpt lat="50.60745" lon="-3.44543"></trkpt>
      <trkpt lat="50.60767" lon="-3.4454"></trkpt>
      <trkpt lat="50.60779" lon="-3.44533"></trkpt>
      <trkpt lat="50.6086" lon="-3.44548"></trkpt>
      <trkpt lat="50.60926" lon="-3.44594"></trkpt>
      <trkpt lat="50.60965" lon="-3.44612"></trkpt>
      <trkpt lat="50.60992" lon="-3.4462"></trkpt>
      <trkpt lat="50.61" lon="-3.4462"></trkpt>
      <trkpt lat="50.60998" lon="-3.44634"></trkpt>
      <trkpt lat="50.6101" lon="-3.44631"></trkpt>
      <trkpt lat="50.61026" lon="-3.4462"></trkpt>
      <trkpt lat="50.61062" lon="-3.44578"></trkpt>
      <trkpt lat="50.61084" lon="-3.44556"></trkpt>
      <trkpt lat="50.61101" lon="-3.44544"></trkpt>
      <trkpt lat="50.61123" lon="-3.44535"></trkpt>
      <trkpt lat="50.61138" lon="-3.44536"></trkpt>
      <trkpt lat="50.61236" lon="-3.44548"></trkpt>
      <trkpt lat="50.61297" lon="-3.44561"></trkpt>
      <trkpt lat="50.61348" lon="-3.44577"></trkpt>
      <trkpt lat="50.61452" lon="-3.44621"></trkpt>
      <trkpt lat="50.61497" lon="-3.44645"></trkpt>
      <trkpt lat="50.61553" lon="-3.44683"></trkpt>
      <trkpt lat="50.61593" lon="-3.44709"></trkpt>
      <trkpt lat="50.61644" lon="-3.44749"></trkpt>
      <trkpt lat="50.61668" lon="-3.44777"></trkpt>
      <trkpt lat="50.61674" lon="-3.44794"></trkpt>
      <trkpt lat="50.61692" lon="-3.44898"></trkpt>
      <trkpt lat="50.61718" lon="-3.44922"></trkpt>
      <trkpt lat="50.61722" lon="-3.44919"></trkpt>
      <trkpt lat="50.61735" lon="-3.44896"></trkpt>
      <trkpt lat="50.61747" lon="-3.44888"></trkpt>
      <trkpt lat="50.61805" lon="-3.44905"></trkpt>
      <trkpt lat="50.61835" lon="-3.44917"></trkpt>
      <trkpt lat="50.61866" lon="-3.4486"></trkpt>
      <trkpt lat="50.61873" lon="-3.44839"></trkpt>
      <trkpt lat="50.61887" lon="-3.44846"></trkpt>
      <trkpt lat="50.61891" lon="-3.44844"></trkpt>
      <trkpt lat="50.61901" lon="-3.44781"></trkpt>
      <trkpt lat="50.61907" lon="-3.44771"></trkpt>
      <trkpt lat="50.61915" lon="-3.44765"></trkpt>
      <trkpt lat="50.61925" lon="-3.44762"></trkpt>
      <trkpt lat="50.61967" lon="-3.44757"></trkpt>
      <trkpt lat="50.61981" lon="-3.44752"></trkpt>
      <trkpt lat="50.62027" lon="-3.44746"></trkpt>
      <trkpt lat="50.62077" lon="-3.44735"></trkpt>
      <trkpt lat="50.62116" lon="-3.44724"></trkpt>
      <trkpt lat="50.62186" lon="-3.44699"></trkpt>
      <trkpt lat="50.62257" lon="-3.44669"></trkpt>
      <trkpt lat="50.62331" lon="-3.44644"></trkpt>
      <trkpt lat="50.62375" lon="-3.44636"></trkpt>
      <trkpt lat="50.62391" lon="-3.44636"></trkpt>
      <trkpt lat="50.62398" lon="-3.44637"></trkpt>
      <trkpt lat="50.62402" lon="-3.4464"></trkpt>
      <trkpt lat="50.62459" lon="-3.4465"></trkpt>
      <trkpt lat="50.62462" lon="-3.44659"></trkpt>
      <trkpt lat="50.62473" lon="-3.4466"></trkpt>
      <trkpt lat="50.62476" lon="-3.44655"></trkpt>
      <trkpt lat="50.62483" lon="-3.44651"></trkpt>
      <trkpt lat="50.62529" lon="-3.44659"></trkpt>
      <trkpt lat="50.62576" lon="-3.44682"></trkpt>
      <trkpt lat="50.62591" lon="-3.44693"></trkpt>
      <trkpt lat="50.62592" lon="-3.44688"></trkpt>
      <trkpt lat="50.62599" lon="-3.44693"></trkpt>
    </trkseg>
  </trk>
</gpx>
