<?xml version="1.0" encoding="UTF-8"?>
<gpx version="1.1" creator="swcp-walk (imported from OS Maps route 33858203)"
     xmlns="http://www.topografix.com/GPX/1/1">
  <metadata>
    <name>SWCP44-Exmouth-Sidmouth</name>
  </metadata>
  <trk>
    <name>SWCP44-Exmouth-Sidmouth</name>
    <trkseg>
      <trkpt lat="50.61682218682546" lon="-3.423480273675864"></trkpt>
      <trkpt lat="50.61695" lon="-3.4234"></trkpt>
      <trkpt lat="50.61683" lon="-3.42291"></trkpt>
      <trkpt lat="50.61674" lon="-3.42242"></trkpt>
      <trkpt lat="50.61661" lon="-3.42185"></trkpt>
      <trkpt lat="50.61655" lon="-3.42174"></trkpt>
      <trkpt lat="50.6165" lon="-3.42112"></trkpt>
      <trkpt lat="50.61636" lon="-3.42036"></trkpt>
      <trkpt lat="50.61631" lon="-3.4197"></trkpt>
      <trkpt lat="50.61629" lon="-3.41858"></trkpt>
      <trkpt lat="50.61624" lon="-3.41789"></trkpt>
      <trkpt lat="50.61617" lon="-3.41712"></trkpt>
      <trkpt lat="50.61606" lon="-3.41635"></trkpt>
      <trkpt lat="50.61613" lon="-3.41632"></trkpt>
      <trkpt lat="50.61584" lon="-3.41483"></trkpt>
      <trkpt lat="50.61557" lon="-3.41359"></trkpt>
      <trkpt lat="50.6154" lon="-3.41295"></trkpt>
      <trkpt lat="50.61527" lon="-3.41252"></trkpt>
      <trkpt lat="50.61512" lon="-3.4122"></trkpt>
      <trkpt lat="50.61477" lon="-3.41169"></trkpt>
      <trkpt lat="50.61434" lon="-3.41118"></trkpt>
      <trkpt lat="50.6143" lon="-3.41108"></trkpt>
      <trkpt lat="50.61427" lon="-3.41085"></trkpt>
      <trkpt lat="50.61416" lon="-3.41082"></trkpt>
      <trkpt lat="50.61413" lon="-3.41087"></trkpt>
      <trkpt lat="50.6141" lon="-3.4109"></trkpt>
      <trkpt lat="50.61404" lon="-3.41091"></trkpt>
      <trkpt lat="50.61399" lon="-3.41089"></trkpt>
      <trkpt lat="50.61334" lon="-3.41027"></trkpt>
      <trkpt lat="50.61313" lon="-3.41002"></trkpt>
      <trkpt lat="50.61282" lon="-3.40945"></trkpt>
      <trkpt lat="50.61277" lon="-3.4093"></trkpt>
      <trkpt lat="50.61237" lon="-3.40692"></trkpt>
      <trkpt lat="50.61237" lon="-3.40688"></trkpt>
      <trkpt lat="50.6124" lon="-3.40685"></trkpt>
      <trkpt lat="50.61239" lon="-3.40677"></trkpt>
      <trkpt lat="50.61235" lon="-3.40675"></trkpt>
      <trkpt lat="50.61229" lon="-3.4068"></trkpt>
      <trkpt lat="50.61223" lon="-3.40677"></trkpt>
      <trkpt lat="50.61213" lon="-3.40677"></trkpt>
      <trkpt lat="50.61213" lon="-3.40682"></trkpt>
      <trkpt lat="50.61176" lon="-3.40683"></trkpt>
      <trkpt lat="50.61169" lon="-3.40678"></trkpt>
      <trkpt lat="50.61166" lon="-3.40671"></trkpt>
      <trkpt lat="50.61161" lon="-3.40631"></trkpt>
      <trkpt lat="50.61157" lon="-3.40591"></trkpt>
      <trkpt lat="50.61162" lon="-3.40589"></trkpt>
      <trkpt lat="50.61157" lon="-3.40545"></trkpt>
      <trkpt lat="50.6116" lon="-3.40508"></trkpt>
      <trkpt lat="50.61162" lon="-3.405"></trkpt>
      <trkpt lat="50.61163" lon="-3.4048"></trkpt>
      <trkpt lat="50.61174" lon="-3.40385"></trkpt>
      <trkpt lat="50.61177" lon="-3.40309"></trkpt>
      <trkpt lat="50.61176" lon="-3.40245"></trkpt>
      <trkpt lat="50.61169" lon="-3.40146"></trkpt>
      <trkpt lat="50.61164" lon="-3.40109"></trkpt>
      <trkpt lat="50.61144" lon="-3.40013"></trkpt>
      <trkpt lat="50.61132" lon="-3.4002"></trkpt>
      <trkpt lat="50.61125" lon="-3.39985"></trkpt>
      <trkpt lat="50.6112" lon="-3.39979"></trkpt>
      <trkpt lat="50.61104" lon="-3.3992"></trkpt>
      <trkpt lat="50.6109" lon="-3.39904"></trkpt>
      <trkpt lat="50.61093" lon="-3.39897"></trkpt>
      <trkpt lat="50.61087" lon="-3.39861"></trkpt>
      <trkpt lat="50.61086" lon="-3.39846"></trkpt>
      <trkpt lat="50.61081" lon="-3.39828"></trkpt>
      <trkpt lat="50.61026" lon="-3.39469"></trkpt>
      <trkpt lat="50.61017" lon="-3.39412"></trkpt>
      <trkpt lat="50.61032" lon="-3.39406"></trkpt>
      <trkpt lat="50.6096" lon="-3.38917"></trkpt>
      <trkpt lat="50.60958" lon="-3.38911"></trkpt>
      <trkpt lat="50.60956" lon="-3.38891"></trkpt>
      <trkpt lat="50.60957" lon="-3.3889"></trkpt>
      <trkpt lat="50.60959" lon="-3.38904"></trkpt>
      <trkpt lat="50.60961" lon="-3.38903"></trkpt>
      <trkpt lat="50.60956" lon="-3.38827"></trkpt>
      <trkpt lat="50.60957" lon="-3.38826"></trkpt>
      <trkpt lat="50.60986" lon="-3.38926"></trkpt>
      <trkpt lat="50.60987" lon="-3.38926"></trkpt>
      <trkpt lat="50.6098" lon="-3.3883"></trkpt>
      <trkpt lat="50.60982" lon="-3.3883"></trkpt>
      <trkpt lat="50.60981" lon="-3.38821"></trkpt>
      <trkpt lat="50.60969" lon="-3.38768"></trkpt>
      <trkpt lat="50.60951" lon="-3.38746"></trkpt>
      <trkpt lat="50.60941" lon="-3.38743"></trkpt>
      <trkpt lat="50.60906" lon="-3.38709"></trkpt>
      <trkpt lat="50.6088" lon="-3.38679"></trkpt>
      <trkpt lat="50.60814" lon="-3.38609"></trkpt>
      <trkpt lat="50.60805" lon="-3.3862"></trkpt>
      <trkpt lat="50.60801" lon="-3.38631"></trkpt>
      <trkpt lat="50.60795" lon="-3.38659"></trkpt>
      <trkpt lat="50.60779" lon="-3.38644"></trkpt>
      <trkpt lat="50.60768" lon="-3.38631"></trkpt>
      <trkpt lat="50.60759" lon="-3.38616"></trkpt>
      <trkpt lat="50.60756" lon="-3.38605"></trkpt>
      <trkpt lat="50.60756" lon="-3.3859"></trkpt>
      <trkpt lat="50.60776" lon="-3.38527"></trkpt>
      <trkpt lat="50.6077" lon="-3.38517"></trkpt>
      <trkpt lat="50.60734" lon="-3.38486"></trkpt>
      <trkpt lat="50.60732" lon="-3.38479"></trkpt>
      <trkpt lat="50.60744" lon="-3.38402"></trkpt>
      <trkpt lat="50.60777" lon="-3.38314"></trkpt>
      <trkpt lat="50.60822" lon="-3.38033"></trkpt>
      <trkpt lat="50.60842" lon="-3.37934"></trkpt>
      <trkpt lat="50.6085" lon="-3.37807"></trkpt>
      <trkpt lat="50.60853" lon="-3.37771"></trkpt>
      <trkpt lat="50.60844" lon="-3.3773"></trkpt>
      <trkpt lat="50.6084" lon="-3.37698"></trkpt>
      <trkpt lat="50.6084" lon="-3.37689"></trkpt>
      <trkpt lat="50.60844" lon="-3.37661"></trkpt>
      <trkpt lat="50.60872" lon="-3.37564"></trkpt>
      <trkpt lat="50.60892" lon="-3.37506"></trkpt>
      <trkpt lat="50.60938" lon="-3.37363"></trkpt>
      <trkpt lat="50.60949" lon="-3.37341"></trkpt>
      <trkpt lat="50.60959" lon="-3.37342"></trkpt>
      <trkpt lat="50.60961" lon="-3.37341"></trkpt>
      <trkpt lat="50.60963" lon="-3.37337"></trkpt>
      <trkpt lat="50.60964" lon="-3.37333"></trkpt>
      <trkpt lat="50.60962" lon="-3.37329"></trkpt>
      <trkpt lat="50.60953" lon="-3.37324"></trkpt>
      <trkpt lat="50.60953" lon="-3.3732"></trkpt>
      <trkpt lat="50.60961" lon="-3.3729"></trkpt>
      <trkpt lat="50.60986" lon="-3.3725"></trkpt>
      <trkpt lat="50.61003" lon="-3.37233"></trkpt>
      <trkpt lat="50.61008" lon="-3.37208"></trkpt>
      <trkpt lat="50.61008" lon="-3.372"></trkpt>
      <trkpt lat="50.61003" lon="-3.37153"></trkpt>
      <trkpt lat="50.61001" lon="-3.37145"></trkpt>
      <trkpt lat="50.60999" lon="-3.37103"></trkpt>
      <trkpt lat="50.6103" lon="-3.36915"></trkpt>
      <trkpt lat="50.61032" lon="-3.36887"></trkpt>
      <trkpt lat="50.61032" lon="-3.36856"></trkpt>
      <trkpt lat="50.6106" lon="-3.36814"></trkpt>
      <trkpt lat="50.61066" lon="-3.36802"></trkpt>
      <trkpt lat="50.6107" lon="-3.36792"></trkpt>
      <trkpt lat="50.61078" lon="-3.36764"></trkpt>
      <trkpt lat="50.61084" lon="-3.3675"></trkpt>
      <trkpt lat="50.61097" lon="-3.36742"></trkpt>
      <trkpt lat="50.61096" lon="-3.36728"></trkpt>
      <trkpt lat="50.61092" lon="-3.36718"></trkpt>
      <trkpt lat="50.61082" lon="-3.36709"></trkpt>
      <trkpt lat="50.61075" lon="-3.3671"></trkpt>
      <trkpt lat="50.61071" lon="-3.36707"></trkpt>
      <trkpt lat="50.61069" lon="-3.36685"></trkpt>
      <trkpt lat="50.61045" lon="-3.36679"></trkpt>
      <trkpt lat="50.61045" lon="-3.36682"></trkpt>
      <trkpt lat="50.61045" lon="-3.36683"></trkpt>
      <trkpt lat="50.61045" lon="-3.36662"></trkpt>
      <trkpt lat="50.61048" lon="-3.36635"></trkpt>
      <trkpt lat="50.61051" lon="-3.36626"></trkpt>
      <trkpt lat="50.61056" lon="-3.36598"></trkpt>
      <trkpt lat="50.61068" lon="-3.36559"></trkpt>
      <trkpt lat="50.61072" lon="-3.36554"></trkpt>
      <trkpt lat="50.61085" lon="-3.36555"></trkpt>
      <trkpt lat="50.6109" lon="-3.36544"></trkpt>
      <trkpt lat="50.61088" lon="-3.36517"></trkpt>
      <trkpt lat="50.61084" lon="-3.3651"></trkpt>
      <trkpt lat="50.61083" lon="-3.36493"></trkpt>
      <trkpt lat="50.61085" lon="-3.36488"></trkpt>
      <trkpt lat="50.61093" lon="-3.36486"></trkpt>
      <trkpt lat="50.61099" lon="-3.36488"></trkpt>
      <trkpt lat="50.61091" lon="-3.36395"></trkpt>
      <trkpt lat="50.61125" lon="-3.36376"></trkpt>
      <trkpt lat="50.61136" lon="-3.36338"></trkpt>
      <trkpt lat="50.61142" lon="-3.36324"></trkpt>
      <trkpt lat="50.61157" lon="-3.36307"></trkpt>
      <trkpt lat="50.61158" lon="-3.36289"></trkpt>
      <trkpt lat="50.6117" lon="-3.36278"></trkpt>
      <trkpt lat="50.61193" lon="-3.36228"></trkpt>
      <trkpt lat="50.61199" lon="-3.36225"></trkpt>
      <trkpt lat="50.61201" lon="-3.36212"></trkpt>
      <trkpt lat="50.61221" lon="-3.36159"></trkpt>
      <trkpt lat="50.61241" lon="-3.36087"></trkpt>
      <trkpt lat="50.61249" lon="-3.36052"></trkpt>
      <trkpt lat="50.61252" lon="-3.3604"></trkpt>
      <trkpt lat="50.61283" lon="-3.36031"></trkpt>
      <trkpt lat="50.61308" lon="-3.36032"></trkpt>
      <trkpt lat="50.6133" lon="-3.36042"></trkpt>
      <trkpt lat="50.61332" lon="-3.36056"></trkpt>
      <trkpt lat="50.61338" lon="-3.36056"></trkpt>
      <trkpt lat="50.6134" lon="-3.36061"></trkpt>
      <trkpt lat="50.61359" lon="-3.36064"></trkpt>
      <trkpt lat="50.61386" lon="-3.36079"></trkpt>
      <trkpt lat="50.61399" lon="-3.36082"></trkpt>
      <trkpt lat="50.61474" lon="-3.36066"></trkpt>
      <trkpt lat="50.61486" lon="-3.36062"></trkpt>
      <trkpt lat="50.61506" lon="-3.36048"></trkpt>
      <trkpt lat="50.61557" lon="-3.36025"></trkpt>
      <trkpt lat="50.61574" lon="-3.36022"></trkpt>
      <trkpt lat="50.61604" lon="-3.36016"></trkpt>
      <trkpt lat="50.61693" lon="-3.35958"></trkpt>
      <trkpt lat="50.61704" lon="-3.35956"></trkpt>
      <trkpt lat="50.61709" lon="-3.35949"></trkpt>
      <trkpt lat="50.61723" lon="-3.35905"></trkpt>
      <trkpt lat="50.61728" lon="-3.35884"></trkpt>
      <trkpt lat="50.61746" lon="-3.35814"></trkpt>
      <trkpt lat="50.61772" lon="-3.3575"></trkpt>
      <trkpt lat="50.61796" lon="-3.35647"></trkpt>
      <trkpt lat="50.61806" lon="-3.35631"></trkpt>
      <trkpt lat="50.61834" lon="-3.35553"></trkpt>
      <trkpt lat="50.61849" lon="-3.35539"></trkpt>
      <trkpt lat="50.61863" lon="-3.35532"></trkpt>
      <trkpt lat="50.61878" lon="-3.35528"></trkpt>
      <trkpt lat="50.61904" lon="-3.35506"></trkpt>
      <trkpt lat="50.61932" lon="-3.35476"></trkpt>
      <trkpt lat="50.6196" lon="-3.3545"></trkpt>
      <trkpt lat="50.61977" lon="-3.3544"></trkpt>
      <trkpt lat="50.61987" lon="-3.3544"></trkpt>
      <trkpt lat="50.62014" lon="-3.35439"></trkpt>
      <trkpt lat="50.62031" lon="-3.35435"></trkpt>
      <trkpt lat="50.62072" lon="-3.3541"></trkpt>
      <trkpt lat="50.62084" lon="-3.35392"></trkpt>
      <trkpt lat="50.62108" lon="-3.3533"></trkpt>
      <trkpt lat="50.62127" lon="-3.35294"></trkpt>
      <trkpt lat="50.62134" lon="-3.35274"></trkpt>
      <trkpt lat="50.62142" lon="-3.35173"></trkpt>
      <trkpt lat="50.62142" lon="-3.35145"></trkpt>
      <trkpt lat="50.62144" lon="-3.35133"></trkpt>
      <trkpt lat="50.62146" lon="-3.35126"></trkpt>
      <trkpt lat="50.62145" lon="-3.35113"></trkpt>
      <trkpt lat="50.62146" lon="-3.35107"></trkpt>
      <trkpt lat="50.6219" lon="-3.35129"></trkpt>
      <trkpt lat="50.62187" lon="-3.35095"></trkpt>
      <trkpt lat="50.62178" lon="-3.3506"></trkpt>
      <trkpt lat="50.62183" lon="-3.35"></trkpt>
      <trkpt lat="50.6219" lon="-3.34968"></trkpt>
      <trkpt lat="50.62204" lon="-3.34945"></trkpt>
      <trkpt lat="50.6222" lon="-3.348"></trkpt>
      <trkpt lat="50.62223" lon="-3.34751"></trkpt>
      <trkpt lat="50.62268" lon="-3.34613"></trkpt>
      <trkpt lat="50.62275" lon="-3.34607"></trkpt>
      <trkpt lat="50.62279" lon="-3.346"></trkpt>
      <trkpt lat="50.62303" lon="-3.34544"></trkpt>
      <trkpt lat="50.62304" lon="-3.34524"></trkpt>
      <trkpt lat="50.62328" lon="-3.34445"></trkpt>
      <trkpt lat="50.62333" lon="-3.34417"></trkpt>
      <trkpt lat="50.62353" lon="-3.3431"></trkpt>
      <trkpt lat="50.62356" lon="-3.343"></trkpt>
      <trkpt lat="50.62361" lon="-3.34291"></trkpt>
      <trkpt lat="50.62387" lon="-3.34256"></trkpt>
      <trkpt lat="50.62424" lon="-3.34201"></trkpt>
      <trkpt lat="50.62439" lon="-3.34175"></trkpt>
      <trkpt lat="50.62444" lon="-3.34155"></trkpt>
      <trkpt lat="50.6247" lon="-3.34093"></trkpt>
      <trkpt lat="50.62476" lon="-3.34062"></trkpt>
      <trkpt lat="50.62482" lon="-3.33968"></trkpt>
      <trkpt lat="50.62489" lon="-3.33932"></trkpt>
      <trkpt lat="50.62494" lon="-3.33926"></trkpt>
      <trkpt lat="50.62507" lon="-3.33926"></trkpt>
      <trkpt lat="50.62518" lon="-3.33868"></trkpt>
      <trkpt lat="50.62524" lon="-3.33845"></trkpt>
      <trkpt lat="50.6253" lon="-3.33831"></trkpt>
      <trkpt lat="50.62534" lon="-3.3376"></trkpt>
      <trkpt lat="50.62544" lon="-3.33702"></trkpt>
      <trkpt lat="50.62557" lon="-3.33658"></trkpt>
      <trkpt lat="50.62561" lon="-3.33637"></trkpt>
      <trkpt lat="50.62557" lon="-3.33598"></trkpt>
      <trkpt lat="50.6256" lon="-3.33553"></trkpt>
      <trkpt lat="50.62566" lon="-3.33525"></trkpt>
      <trkpt lat="50.6257" lon="-3.33513"></trkpt>
      <trkpt lat="50.62581" lon="-3.33501"></trkpt>
      <trkpt lat="50.62599" lon="-3.33486"></trkpt>
      <trkpt lat="50.62632" lon="-3.33436"></trkpt>
      <trkpt lat="50.62635" lon="-3.33426"></trkpt>
      <trkpt lat="50.62636" lon="-3.33416"></trkpt>
      <trkpt lat="50.62636" lon="-3.3335"></trkpt>
      <trkpt lat="50.62633" lon="-3.3327"></trkpt>
      <trkpt lat="50.62634" lon="-3.33263"></trkpt>
      <trkpt lat="50.62644" lon="-3.33241"></trkpt>
      <trkpt lat="50.62651" lon="-3.33218"></trkpt>
      <trkpt lat="50.62671" lon="-3.33132"></trkpt>
      <trkpt lat="50.62685" lon="-3.33071"></trkpt>
      <trkpt lat="50.62703" lon="-3.3302"></trkpt>
      <trkpt lat="50.62705" lon="-3.33011"></trkpt>
      <trkpt lat="50.62706" lon="-3.32986"></trkpt>
      <trkpt lat="50.62713" lon="-3.32977"></trkpt>
      <trkpt lat="50.62718" lon="-3.32946"></trkpt>
      <trkpt lat="50.62719" lon="-3.32932"></trkpt>
      <trkpt lat="50.62728" lon="-3.32928"></trkpt>
      <trkpt lat="50.62733" lon="-3.32874"></trkpt>
      <trkpt lat="50.62742" lon="-3.32871"></trkpt>
      <trkpt lat="50.62737" lon="-3.32828"></trkpt>
      <trkpt lat="50.62765" lon="-3.3272"></trkpt>
      <trkpt lat="50.62773" lon="-3.32695"></trkpt>
      <trkpt lat="50.62773" lon="-3.32688"></trkpt>
      <trkpt lat="50.62819" lon="-3.32534"></trkpt>
      <trkpt lat="50.62819" lon="-3.32527"></trkpt>
      <trkpt lat="50.62827" lon="-3.325"></trkpt>
      <trkpt lat="50.62824" lon="-3.32495"></trkpt>
      <trkpt lat="50.62831" lon="-3.32464"></trkpt>
      <trkpt lat="50.62833" lon="-3.32452"></trkpt>
      <trkpt lat="50.6284" lon="-3.32433"></trkpt>
      <trkpt lat="50.62841" lon="-3.32423"></trkpt>
      <trkpt lat="50.62845" lon="-3.32413"></trkpt>
      <trkpt lat="50.62847" lon="-3.32412"></trkpt>
      <trkpt lat="50.62867" lon="-3.32317"></trkpt>
      <trkpt lat="50.62872" lon="-3.32276"></trkpt>
      <trkpt lat="50.62869" lon="-3.32269"></trkpt>
      <trkpt lat="50.62871" lon="-3.3225"></trkpt>
      <trkpt lat="50.62893" lon="-3.32133"></trkpt>
      <trkpt lat="50.62902" lon="-3.32098"></trkpt>
      <trkpt lat="50.62911" lon="-3.32093"></trkpt>
      <trkpt lat="50.62946" lon="-3.31853"></trkpt>
      <trkpt lat="50.62952" lon="-3.3181"></trkpt>
      <trkpt lat="50.62969" lon="-3.31716"></trkpt>
      <trkpt lat="50.62976" lon="-3.31657"></trkpt>
      <trkpt lat="50.62984" lon="-3.31609"></trkpt>
      <trkpt lat="50.6299" lon="-3.31589"></trkpt>
      <trkpt lat="50.62989" lon="-3.31585"></trkpt>
      <trkpt lat="50.62989" lon="-3.31573"></trkpt>
      <trkpt lat="50.63004" lon="-3.31462"></trkpt>
      <trkpt lat="50.63018" lon="-3.31339"></trkpt>
      <trkpt lat="50.63011" lon="-3.31299"></trkpt>
      <trkpt lat="50.63014" lon="-3.31293"></trkpt>
      <trkpt lat="50.63012" lon="-3.31281"></trkpt>
      <trkpt lat="50.63006" lon="-3.31281"></trkpt>
      <trkpt lat="50.63006" lon="-3.31277"></trkpt>
      <trkpt lat="50.63006" lon="-3.31281"></trkpt>
      <trkpt lat="50.63012" lon="-3.31281"></trkpt>
      <trkpt lat="50.63014" lon="-3.31293"></trkpt>
      <trkpt lat="50.63019" lon="-3.31293"></trkpt>
      <trkpt lat="50.63032" lon="-3.31304"></trkpt>
      <trkpt lat="50.63046" lon="-3.31302"></trkpt>
      <trkpt lat="50.6305" lon="-3.31287"></trkpt>
      <trkpt lat="50.63056" lon="-3.31279"></trkpt>
      <trkpt lat="50.63074" lon="-3.31276"></trkpt>
      <trkpt lat="50.63076" lon="-3.31216"></trkpt>
      <trkpt lat="50.63104" lon="-3.31217"></trkpt>
      <trkpt lat="50.63127" lon="-3.31208"></trkpt>
      <trkpt lat="50.6313" lon="-3.31209"></trkpt>
      <trkpt lat="50.63139" lon="-3.31197"></trkpt>
      <trkpt lat="50.63154" lon="-3.3119"></trkpt>
      <trkpt lat="50.63171" lon="-3.31187"></trkpt>
      <trkpt lat="50.63233" lon="-3.31098"></trkpt>
      <trkpt lat="50.63233" lon="-3.31087"></trkpt>
      <trkpt lat="50.63268" lon="-3.31063"></trkpt>
      <trkpt lat="50.63292" lon="-3.31052"></trkpt>
      <trkpt lat="50.63311" lon="-3.31049"></trkpt>
      <trkpt lat="50.63378" lon="-3.31059"></trkpt>
      <trkpt lat="50.63481" lon="-3.31081"></trkpt>
      <trkpt lat="50.63558" lon="-3.31095"></trkpt>
      <trkpt lat="50.63595" lon="-3.31096"></trkpt>
      <trkpt lat="50.63612" lon="-3.31093"></trkpt>
      <trkpt lat="50.63648" lon="-3.31077"></trkpt>
      <trkpt lat="50.63759" lon="-3.31011"></trkpt>
      <trkpt lat="50.63808" lon="-3.30984"></trkpt>
      <trkpt lat="50.63846" lon="-3.30966"></trkpt>
      <trkpt lat="50.6386" lon="-3.30964"></trkpt>
      <trkpt lat="50.63882" lon="-3.30966"></trkpt>
      <trkpt lat="50.63958" lon="-3.30977"></trkpt>
      <trkpt lat="50.63961" lon="-3.30927"></trkpt>
      <trkpt lat="50.63965" lon="-3.30905"></trkpt>
      <trkpt lat="50.63975" lon="-3.30874"></trkpt>
      <trkpt lat="50.6399" lon="-3.30814"></trkpt>
      <trkpt lat="50.63991" lon="-3.30797"></trkpt>
      <trkpt lat="50.63988" lon="-3.30792"></trkpt>
      <trkpt lat="50.63974" lon="-3.30778"></trkpt>
      <trkpt lat="50.63957" lon="-3.30767"></trkpt>
      <trkpt lat="50.63951" lon="-3.3076"></trkpt>
      <trkpt lat="50.63948" lon="-3.30753"></trkpt>
      <trkpt lat="50.63936" lon="-3.30757"></trkpt>
      <trkpt lat="50.63915" lon="-3.30757"></trkpt>
      <trkpt lat="50.63884" lon="-3.30763"></trkpt>
      <trkpt lat="50.63868" lon="-3.30775"></trkpt>
      <trkpt lat="50.63856" lon="-3.3079"></trkpt>
      <trkpt lat="50.63841" lon="-3.308"></trkpt>
      <trkpt lat="50.63828" lon="-3.30804"></trkpt>
      <trkpt lat="50.63795" lon="-3.30809"></trkpt>
      <trkpt lat="50.63774" lon="-3.30824"></trkpt>
      <trkpt lat="50.63764" lon="-3.30828"></trkpt>
      <trkpt lat="50.63668" lon="-3.30809"></trkpt>
      <trkpt lat="50.63576" lon="-3.30801"></trkpt>
      <trkpt lat="50.63566" lon="-3.30798"></trkpt>
      <trkpt lat="50.63507" lon="-3.30762"></trkpt>
      <trkpt lat="50.63401" lon="-3.30686"></trkpt>
      <trkpt lat="50.63287" lon="-3.30601"></trkpt>
      <trkpt lat="50.63253" lon="-3.30586"></trkpt>
      <trkpt lat="50.63211" lon="-3.30574"></trkpt>
      <trkpt lat="50.63077" lon="-3.30569"></trkpt>
      <trkpt lat="50.63056" lon="-3.30556"></trkpt>
      <trkpt lat="50.63035" lon="-3.30536"></trkpt>
      <trkpt lat="50.6303" lon="-3.30547"></trkpt>
      <trkpt lat="50.63029" lon="-3.30558"></trkpt>
      <trkpt lat="50.63029" lon="-3.30559"></trkpt>
      <trkpt lat="50.6303" lon="-3.30547"></trkpt>
      <trkpt lat="50.63035" lon="-3.30536"></trkpt>
      <trkpt lat="50.63015" lon="-3.3052"></trkpt>
      <trkpt lat="50.63016" lon="-3.30454"></trkpt>
      <trkpt lat="50.63012" lon="-3.30375"></trkpt>
      <trkpt lat="50.63017" lon="-3.30352"></trkpt>
      <trkpt lat="50.63024" lon="-3.30332"></trkpt>
      <trkpt lat="50.63032" lon="-3.30318"></trkpt>
      <trkpt lat="50.63045" lon="-3.30309"></trkpt>
      <trkpt lat="50.63061" lon="-3.30307"></trkpt>
      <trkpt lat="50.63072" lon="-3.30302"></trkpt>
      <trkpt lat="50.63085" lon="-3.30293"></trkpt>
      <trkpt lat="50.63098" lon="-3.30278"></trkpt>
      <trkpt lat="50.63109" lon="-3.3026"></trkpt>
      <trkpt lat="50.63125" lon="-3.30225"></trkpt>
      <trkpt lat="50.63155" lon="-3.30131"></trkpt>
      <trkpt lat="50.63164" lon="-3.30112"></trkpt>
      <trkpt lat="50.63172" lon="-3.30104"></trkpt>
      <trkpt lat="50.63188" lon="-3.30098"></trkpt>
      <trkpt lat="50.63206" lon="-3.301"></trkpt>
      <trkpt lat="50.63217" lon="-3.30094"></trkpt>
      <trkpt lat="50.63273" lon="-3.30031"></trkpt>
      <trkpt lat="50.63294" lon="-3.29983"></trkpt>
      <trkpt lat="50.63306" lon="-3.29968"></trkpt>
      <trkpt lat="50.63329" lon="-3.2995"></trkpt>
      <trkpt lat="50.63334" lon="-3.29944"></trkpt>
      <trkpt lat="50.63365" lon="-3.29901"></trkpt>
      <trkpt lat="50.63412" lon="-3.29845"></trkpt>
      <trkpt lat="50.63438" lon="-3.29801"></trkpt>
      <trkpt lat="50.63502" lon="-3.29705"></trkpt>
      <trkpt lat="50.63522" lon="-3.29682"></trkpt>
      <trkpt lat="50.63544" lon="-3.29643"></trkpt>
      <trkpt lat="50.6355" lon="-3.29626"></trkpt>
      <trkpt lat="50.63568" lon="-3.29546"></trkpt>
      <trkpt lat="50.6358" lon="-3.29519"></trkpt>
      <trkpt lat="50.63593" lon="-3.29495"></trkpt>
      <trkpt lat="50.6361" lon="-3.29481"></trkpt>
      <trkpt lat="50.63631" lon="-3.2947"></trkpt>
      <trkpt lat="50.63653" lon="-3.29454"></trkpt>
      <trkpt lat="50.63673" lon="-3.29434"></trkpt>
      <trkpt lat="50.63696" lon="-3.29415"></trkpt>
      <trkpt lat="50.63771" lon="-3.29381"></trkpt>
      <trkpt lat="50.63797" lon="-3.2935"></trkpt>
      <trkpt lat="50.63806" lon="-3.29343"></trkpt>
      <trkpt lat="50.63813" lon="-3.29342"></trkpt>
      <trkpt lat="50.63824" lon="-3.29344"></trkpt>
      <trkpt lat="50.63832" lon="-3.29348"></trkpt>
      <trkpt lat="50.63844" lon="-3.29348"></trkpt>
      <trkpt lat="50.63868" lon="-3.29334"></trkpt>
      <trkpt lat="50.63889" lon="-3.29317"></trkpt>
      <trkpt lat="50.63927" lon="-3.29267"></trkpt>
      <trkpt lat="50.63941" lon="-3.29258"></trkpt>
      <trkpt lat="50.63946" lon="-3.29252"></trkpt>
      <trkpt lat="50.6395" lon="-3.29238"></trkpt>
      <trkpt lat="50.63959" lon="-3.29221"></trkpt>
      <trkpt lat="50.64094" lon="-3.29003"></trkpt>
      <trkpt lat="50.64113" lon="-3.28955"></trkpt>
      <trkpt lat="50.64112" lon="-3.28955"></trkpt>
      <trkpt lat="50.64117" lon="-3.28945"></trkpt>
      <trkpt lat="50.64126" lon="-3.28937"></trkpt>
      <trkpt lat="50.64205" lon="-3.2893"></trkpt>
      <trkpt lat="50.64266" lon="-3.28919"></trkpt>
      <trkpt lat="50.64318" lon="-3.289"></trkpt>
      <trkpt lat="50.64369" lon="-3.28877"></trkpt>
      <trkpt lat="50.6442" lon="-3.28837"></trkpt>
      <trkpt lat="50.64468" lon="-3.2881"></trkpt>
      <trkpt lat="50.64516" lon="-3.28765"></trkpt>
      <trkpt lat="50.64522" lon="-3.28755"></trkpt>
      <trkpt lat="50.64586" lon="-3.28727"></trkpt>
      <trkpt lat="50.64603" lon="-3.28736"></trkpt>
      <trkpt lat="50.64612" lon="-3.28738"></trkpt>
      <trkpt lat="50.64625" lon="-3.28738"></trkpt>
      <trkpt lat="50.6465" lon="-3.28723"></trkpt>
      <trkpt lat="50.64686" lon="-3.28672"></trkpt>
      <trkpt lat="50.64707" lon="-3.28657"></trkpt>
      <trkpt lat="50.64718" lon="-3.28647"></trkpt>
      <trkpt lat="50.64721" lon="-3.2863"></trkpt>
      <trkpt lat="50.64717" lon="-3.28592"></trkpt>
      <trkpt lat="50.6472" lon="-3.28588"></trkpt>
      <trkpt lat="50.6475" lon="-3.28577"></trkpt>
      <trkpt lat="50.64771" lon="-3.28577"></trkpt>
      <trkpt lat="50.64796" lon="-3.28573"></trkpt>
      <trkpt lat="50.64848" lon="-3.28534"></trkpt>
      <trkpt lat="50.64859" lon="-3.28532"></trkpt>
      <trkpt lat="50.64878" lon="-3.28536"></trkpt>
      <trkpt lat="50.64922" lon="-3.28525"></trkpt>
      <trkpt lat="50.64936" lon="-3.28525"></trkpt>
      <trkpt lat="50.64955" lon="-3.28529"></trkpt>
      <trkpt lat="50.64967" lon="-3.28527"></trkpt>
      <trkpt lat="50.65031" lon="-3.28536"></trkpt>
      <trkpt lat="50.65082" lon="-3.28536"></trkpt>
      <trkpt lat="50.65148" lon="-3.28552"></trkpt>
      <trkpt lat="50.65198" lon="-3.28558"></trkpt>
      <trkpt lat="50.6524" lon="-3.28555"></trkpt>
      <trkpt lat="50.6525" lon="-3.28562"></trkpt>
      <trkpt lat="50.65259" lon="-3.28564"></trkpt>
      <trkpt lat="50.65296" lon="-3.2854"></trkpt>
      <trkpt lat="50.65312" lon="-3.28533"></trkpt>
      <trkpt lat="50.65345" lon="-3.28492"></trkpt>
      <trkpt lat="50.65386" lon="-3.28446"></trkpt>
      <trkpt lat="50.654" lon="-3.28439"></trkpt>
      <trkpt lat="50.65424" lon="-3.28399"></trkpt>
      <trkpt lat="50.65483" lon="-3.28292"></trkpt>
      <trkpt lat="50.65513" lon="-3.2818"></trkpt>
      <trkpt lat="50.65528" lon="-3.28169"></trkpt>
      <trkpt lat="50.65555" lon="-3.28165"></trkpt>
      <trkpt lat="50.65563" lon="-3.28164"></trkpt>
      <trkpt lat="50.65609" lon="-3.28132"></trkpt>
      <trkpt lat="50.65627" lon="-3.28129"></trkpt>
      <trkpt lat="50.65644" lon="-3.28129"></trkpt>
      <trkpt lat="50.65694" lon="-3.28148"></trkpt>
      <trkpt lat="50.65707" lon="-3.28149"></trkpt>
      <trkpt lat="50.65718" lon="-3.28147"></trkpt>
      <trkpt lat="50.6574" lon="-3.28131"></trkpt>
      <trkpt lat="50.65771" lon="-3.28127"></trkpt>
      <trkpt lat="50.65784" lon="-3.28112"></trkpt>
      <trkpt lat="50.65796" lon="-3.28094"></trkpt>
      <trkpt lat="50.65802" lon="-3.28088"></trkpt>
      <trkpt lat="50.65809" lon="-3.28085"></trkpt>
      <trkpt lat="50.65824" lon="-3.28069"></trkpt>
      <trkpt lat="50.65869" lon="-3.28006"></trkpt>
      <trkpt lat="50.6591" lon="-3.27925"></trkpt>
      <trkpt lat="50.65944" lon="-3.27971"></trkpt>
      <trkpt lat="50.65949" lon="-3.27969"></trkpt>
      <trkpt lat="50.65957" lon="-3.27955"></trkpt>
      <trkpt lat="50.65963" lon="-3.27949"></trkpt>
      <trkpt lat="50.6597" lon="-3.27948"></trkpt>
      <trkpt lat="50.65987" lon="-3.27957"></trkpt>
      <trkpt lat="50.65972" lon="-3.27932"></trkpt>
      <trkpt lat="50.65958" lon="-3.27866"></trkpt>
      <trkpt lat="50.65958" lon="-3.2783"></trkpt>
      <trkpt lat="50.65963" lon="-3.27815"></trkpt>
      <trkpt lat="50.65971" lon="-3.27802"></trkpt>
      <trkpt lat="50.65991" lon="-3.27777"></trkpt>
      <trkpt lat="50.66019" lon="-3.27783"></trkpt>
      <trkpt lat="50.66026" lon="-3.27783"></trkpt>
      <trkpt lat="50.66058" lon="-3.27772"></trkpt>
      <trkpt lat="50.66078" lon="-3.27761"></trkpt>
      <trkpt lat="50.66092" lon="-3.27746"></trkpt>
      <trkpt lat="50.66106" lon="-3.27721"></trkpt>
      <trkpt lat="50.66121" lon="-3.27706"></trkpt>
      <trkpt lat="50.6613" lon="-3.27694"></trkpt>
      <trkpt lat="50.66157" lon="-3.27689"></trkpt>
      <trkpt lat="50.66178" lon="-3.27683"></trkpt>
      <trkpt lat="50.66198" lon="-3.27668"></trkpt>
      <trkpt lat="50.66206" lon="-3.27659"></trkpt>
      <trkpt lat="50.66224" lon="-3.27645"></trkpt>
      <trkpt lat="50.66236" lon="-3.27642"></trkpt>
      <trkpt lat="50.66247" lon="-3.2763"></trkpt>
      <trkpt lat="50.66255" lon="-3.2761"></trkpt>
      <trkpt lat="50.66263" lon="-3.27568"></trkpt>
      <trkpt lat="50.66268" lon="-3.27556"></trkpt>
      <trkpt lat="50.66279" lon="-3.27506"></trkpt>
      <trkpt lat="50.6628" lon="-3.27415"></trkpt>
      <trkpt lat="50.663" lon="-3.27384"></trkpt>
      <trkpt lat="50.66345" lon="-3.27314"></trkpt>
      <trkpt lat="50.66404" lon="-3.27238"></trkpt>
      <trkpt lat="50.66411" lon="-3.27232"></trkpt>
      <trkpt lat="50.66434" lon="-3.27227"></trkpt>
      <trkpt lat="50.66455" lon="-3.27199"></trkpt>
      <trkpt lat="50.66483" lon="-3.27185"></trkpt>
      <trkpt lat="50.66511" lon="-3.27187"></trkpt>
      <trkpt lat="50.6657" lon="-3.2717"></trkpt>
      <trkpt lat="50.66636" lon="-3.27163"></trkpt>
      <trkpt lat="50.66643" lon="-3.27161"></trkpt>
      <trkpt lat="50.66704" lon="-3.27099"></trkpt>
      <trkpt lat="50.66763" lon="-3.27031"></trkpt>
      <trkpt lat="50.66783" lon="-3.26991"></trkpt>
      <trkpt lat="50.66864" lon="-3.2698"></trkpt>
      <trkpt lat="50.66873" lon="-3.26981"></trkpt>
      <trkpt lat="50.66911" lon="-3.26897"></trkpt>
      <trkpt lat="50.66919" lon="-3.26888"></trkpt>
      <trkpt lat="50.66928" lon="-3.26888"></trkpt>
      <trkpt lat="50.66939" lon="-3.269"></trkpt>
      <trkpt lat="50.66963" lon="-3.26911"></trkpt>
      <trkpt lat="50.66974" lon="-3.26906"></trkpt>
      <trkpt lat="50.66985" lon="-3.26895"></trkpt>
      <trkpt lat="50.67024" lon="-3.26842"></trkpt>
      <trkpt lat="50.67036" lon="-3.26829"></trkpt>
      <trkpt lat="50.67088" lon="-3.268"></trkpt>
      <trkpt lat="50.67114" lon="-3.26764"></trkpt>
      <trkpt lat="50.67131" lon="-3.26724"></trkpt>
      <trkpt lat="50.67154" lon="-3.2667"></trkpt>
      <trkpt lat="50.67187" lon="-3.26599"></trkpt>
      <trkpt lat="50.6719" lon="-3.26587"></trkpt>
      <trkpt lat="50.67206" lon="-3.26548"></trkpt>
      <trkpt lat="50.67292" lon="-3.26436"></trkpt>
      <trkpt lat="50.67345" lon="-3.26357"></trkpt>
      <trkpt lat="50.67387" lon="-3.26307"></trkpt>
      <trkpt lat="50.67419" lon="-3.26239"></trkpt>
      <trkpt lat="50.67422" lon="-3.26209"></trkpt>
      <trkpt lat="50.67381" lon="-3.26121"></trkpt>
      <trkpt lat="50.67391" lon="-3.26092"></trkpt>
      <trkpt lat="50.67457" lon="-3.25936"></trkpt>
      <trkpt lat="50.67473" lon="-3.25885"></trkpt>
      <trkpt lat="50.67468" lon="-3.25775"></trkpt>
      <trkpt lat="50.67468" lon="-3.25756"></trkpt>
      <trkpt lat="50.67482" lon="-3.25756"></trkpt>
      <trkpt lat="50.67475" lon="-3.25738"></trkpt>
      <trkpt lat="50.67462" lon="-3.25688"></trkpt>
      <trkpt lat="50.67461" lon="-3.25672"></trkpt>
      <trkpt lat="50.6746" lon="-3.25662"></trkpt>
      <trkpt lat="50.67478" lon="-3.25623"></trkpt>
      <trkpt lat="50.67486" lon="-3.25593"></trkpt>
      <trkpt lat="50.67501" lon="-3.25522"></trkpt>
      <trkpt lat="50.67501" lon="-3.25507"></trkpt>
      <trkpt lat="50.67497" lon="-3.25476"></trkpt>
      <trkpt lat="50.67496" lon="-3.25455"></trkpt>
      <trkpt lat="50.67499" lon="-3.25432"></trkpt>
      <trkpt lat="50.67524" lon="-3.25329"></trkpt>
      <trkpt lat="50.67531" lon="-3.25292"></trkpt>
      <trkpt lat="50.67557" lon="-3.25121"></trkpt>
      <trkpt lat="50.67558" lon="-3.25098"></trkpt>
      <trkpt lat="50.67578" lon="-3.24981"></trkpt>
      <trkpt lat="50.67582" lon="-3.24934"></trkpt>
      <trkpt lat="50.67595" lon="-3.24727"></trkpt>
      <trkpt lat="50.6759" lon="-3.24727"></trkpt>
      <trkpt lat="50.67578" lon="-3.24756"></trkpt>
      <trkpt lat="50.67578" lon="-3.24773"></trkpt>
      <trkpt lat="50.67576" lon="-3.24784"></trkpt>
      <trkpt lat="50.67567" lon="-3.24783"></trkpt>
      <trkpt lat="50.67576" lon="-3.24784"></trkpt>
      <trkpt lat="50.67578" lon="-3.24773"></trkpt>
      <trkpt lat="50.67578" lon="-3.24756"></trkpt>
      <trkpt lat="50.6759" lon="-3.24727"></trkpt>
      <trkpt lat="50.67583" lon="-3.24721"></trkpt>
      <trkpt lat="50.67575" lon="-3.24692"></trkpt>
      <trkpt lat="50.67577" lon="-3.24654"></trkpt>
      <trkpt lat="50.67569" lon="-3.24639"></trkpt>
      <trkpt lat="50.67547" lon="-3.24624"></trkpt>
      <trkpt lat="50.67554" lon="-3.2459"></trkpt>
      <trkpt lat="50.67554" lon="-3.24577"></trkpt>
      <trkpt lat="50.67559" lon="-3.24562"></trkpt>
      <trkpt lat="50.67559" lon="-3.24547"></trkpt>
      <trkpt lat="50.67563" lon="-3.24536"></trkpt>
      <trkpt lat="50.67567" lon="-3.24536"></trkpt>
      <trkpt lat="50.67573" lon="-3.24517"></trkpt>
      <trkpt lat="50.67577" lon="-3.24492"></trkpt>
      <trkpt lat="50.67577" lon="-3.24484"></trkpt>
      <trkpt lat="50.67709410167919" lon="-3.241710262680556"></trkpt>
      <trkpt lat="50.67712" lon="-3.24174"></trkpt>
      <trkpt lat="50.67718" lon="-3.24159"></trkpt>
      <trkpt lat="50.67735" lon="-3.24089"></trkpt>
      <trkpt lat="50.67742" lon="-3.24093"></trkpt>
      <trkpt lat="50.67762" lon="-3.24003"></trkpt>
      <trkpt lat="50.67785" lon="-3.23883"></trkpt>
      <trkpt lat="50.67818" lon="-3.23728"></trkpt>
      <trkpt lat="50.67848" lon="-3.23575"></trkpt>
      <trkpt lat="50.67843" lon="-3.23573"></trkpt>
      <trkpt lat="50.67843" lon="-3.23571"></trkpt>
      <trkpt lat="50.67853" lon="-3.23509"></trkpt>
      <trkpt lat="50.67859" lon="-3.23511"></trkpt>
      <trkpt lat="50.67865" lon="-3.23471"></trkpt>
      <trkpt lat="50.67873" lon="-3.23456"></trkpt>
      <trkpt lat="50.67877" lon="-3.23451"></trkpt>
      <trkpt lat="50.67883" lon="-3.23448"></trkpt>
      <trkpt lat="50.67899" lon="-3.23449"></trkpt>
      <trkpt lat="50.67906" lon="-3.23446"></trkpt>
      <trkpt lat="50.67912" lon="-3.23449"></trkpt>
      <trkpt lat="50.67916" lon="-3.23456"></trkpt>
      <trkpt lat="50.67926" lon="-3.23455"></trkpt>
      <trkpt lat="50.67927" lon="-3.23445"></trkpt>
      <trkpt lat="50.67939" lon="-3.2345"></trkpt>
      <trkpt lat="50.67942" lon="-3.23435"></trkpt>
    </trkseg>
  </trk>
</gpx>
