<?xml version="1.0" encoding="UTF-8"?>
<gpx version="1.1" creator="swcp-walk (imported from OS Maps route 33858282)"
     xmlns="http://www.topografix.com/GPX/1/1">
  <metadata>
    <name>SWCP45-Sidmouth-Seaton</name>
  </metadata>
  <trk>
    <name>SWCP45-Sidmouth-Seaton</name>
    <trkseg>
      <trkpt lat="50.67938907258372" lon="-3.23428979840358"></trkpt>
      <trkpt lat="50.67942" lon="-3.23431"></trkpt>
      <trkpt lat="50.67944" lon="-3.2342"></trkpt>
      <trkpt lat="50.6795" lon="-3.2342"></trkpt>
      <trkpt lat="50.67944" lon="-3.23416"></trkpt>
      <trkpt lat="50.67944" lon="-3.23413"></trkpt>
      <trkpt lat="50.67961" lon="-3.23416"></trkpt>
      <trkpt lat="50.67961" lon="-3.23411"></trkpt>
      <trkpt lat="50.67953" lon="-3.23409"></trkpt>
      <trkpt lat="50.67944" lon="-3.23397"></trkpt>
      <trkpt lat="50.67938" lon="-3.23396"></trkpt>
      <trkpt lat="50.67936" lon="-3.23382"></trkpt>
      <trkpt lat="50.67958" lon="-3.23384"></trkpt>
      <trkpt lat="50.6797" lon="-3.23394"></trkpt>
      <trkpt lat="50.67981" lon="-3.23388"></trkpt>
      <trkpt lat="50.67988" lon="-3.23352"></trkpt>
      <trkpt lat="50.68015" lon="-3.23273"></trkpt>
      <trkpt lat="50.68025" lon="-3.23238"></trkpt>
      <trkpt lat="50.68046" lon="-3.2313"></trkpt>
      <trkpt lat="50.6805" lon="-3.23128"></trkpt>
      <trkpt lat="50.68073" lon="-3.23134"></trkpt>
      <trkpt lat="50.68132" lon="-3.23131"></trkpt>
      <trkpt lat="50.68134" lon="-3.23115"></trkpt>
      <trkpt lat="50.68129" lon="-3.23106"></trkpt>
      <trkpt lat="50.68132" lon="-3.23081"></trkpt>
      <trkpt lat="50.68154" lon="-3.22943"></trkpt>
      <trkpt lat="50.68151" lon="-3.22941"></trkpt>
      <trkpt lat="50.68144" lon="-3.22941"></trkpt>
      <trkpt lat="50.68124" lon="-3.22951"></trkpt>
      <trkpt lat="50.6812" lon="-3.22945"></trkpt>
      <trkpt lat="50.68118" lon="-3.22947"></trkpt>
      <trkpt lat="50.68083" lon="-3.22962"></trkpt>
      <trkpt lat="50.68071" lon="-3.22962"></trkpt>
      <trkpt lat="50.68066" lon="-3.22948"></trkpt>
      <trkpt lat="50.68061" lon="-3.22906"></trkpt>
      <trkpt lat="50.68067" lon="-3.22888"></trkpt>
      <trkpt lat="50.68076" lon="-3.22853"></trkpt>
      <trkpt lat="50.68081" lon="-3.22812"></trkpt>
      <trkpt lat="50.68084" lon="-3.2277"></trkpt>
      <trkpt lat="50.681" lon="-3.22683"></trkpt>
      <trkpt lat="50.68111" lon="-3.22645"></trkpt>
      <trkpt lat="50.6813" lon="-3.22559"></trkpt>
      <trkpt lat="50.68134" lon="-3.22525"></trkpt>
      <trkpt lat="50.68134" lon="-3.22488"></trkpt>
      <trkpt lat="50.6813" lon="-3.22463"></trkpt>
      <trkpt lat="50.68121" lon="-3.22441"></trkpt>
      <trkpt lat="50.68119" lon="-3.22435"></trkpt>
      <trkpt lat="50.68118" lon="-3.22421"></trkpt>
      <trkpt lat="50.68114" lon="-3.22408"></trkpt>
      <trkpt lat="50.68116" lon="-3.22391"></trkpt>
      <trkpt lat="50.68124" lon="-3.22381"></trkpt>
      <trkpt lat="50.68129" lon="-3.22372"></trkpt>
      <trkpt lat="50.68131" lon="-3.22353"></trkpt>
      <trkpt lat="50.68146" lon="-3.22348"></trkpt>
      <trkpt lat="50.68183" lon="-3.22348"></trkpt>
      <trkpt lat="50.68187" lon="-3.22337"></trkpt>
      <trkpt lat="50.68194" lon="-3.22335"></trkpt>
      <trkpt lat="50.68197" lon="-3.22319"></trkpt>
      <trkpt lat="50.68173" lon="-3.22303"></trkpt>
      <trkpt lat="50.68156" lon="-3.22285"></trkpt>
      <trkpt lat="50.6816" lon="-3.22277"></trkpt>
      <trkpt lat="50.68172" lon="-3.22263"></trkpt>
      <trkpt lat="50.68181" lon="-3.22248"></trkpt>
      <trkpt lat="50.68184" lon="-3.22234"></trkpt>
      <trkpt lat="50.6818" lon="-3.22222"></trkpt>
      <trkpt lat="50.68184" lon="-3.22208"></trkpt>
      <trkpt lat="50.6818" lon="-3.2218"></trkpt>
      <trkpt lat="50.68195" lon="-3.22134"></trkpt>
      <trkpt lat="50.68196" lon="-3.22113"></trkpt>
      <trkpt lat="50.68195" lon="-3.22104"></trkpt>
      <trkpt lat="50.68225" lon="-3.2194"></trkpt>
      <trkpt lat="50.68245" lon="-3.21895"></trkpt>
      <trkpt lat="50.68264" lon="-3.21833"></trkpt>
      <trkpt lat="50.68264" lon="-3.21834"></trkpt>
      <trkpt lat="50.68276" lon="-3.21761"></trkpt>
      <trkpt lat="50.68276" lon="-3.21739"></trkpt>
      <trkpt lat="50.68273" lon="-3.21732"></trkpt>
      <trkpt lat="50.68263" lon="-3.21724"></trkpt>
      <trkpt lat="50.68256" lon="-3.21711"></trkpt>
      <trkpt lat="50.68251" lon="-3.21696"></trkpt>
      <trkpt lat="50.68253" lon="-3.21664"></trkpt>
      <trkpt lat="50.68238" lon="-3.21645"></trkpt>
      <trkpt lat="50.68227" lon="-3.21611"></trkpt>
      <trkpt lat="50.68226" lon="-3.21579"></trkpt>
      <trkpt lat="50.68233" lon="-3.21553"></trkpt>
      <trkpt lat="50.68239" lon="-3.21522"></trkpt>
      <trkpt lat="50.68253" lon="-3.21474"></trkpt>
      <trkpt lat="50.68256" lon="-3.21433"></trkpt>
      <trkpt lat="50.68256" lon="-3.21363"></trkpt>
      <trkpt lat="50.6825" lon="-3.21254"></trkpt>
      <trkpt lat="50.68258" lon="-3.21202"></trkpt>
      <trkpt lat="50.68257" lon="-3.21181"></trkpt>
      <trkpt lat="50.68254" lon="-3.21164"></trkpt>
      <trkpt lat="50.68263" lon="-3.21124"></trkpt>
      <trkpt lat="50.68275" lon="-3.21099"></trkpt>
      <trkpt lat="50.68285" lon="-3.21062"></trkpt>
      <trkpt lat="50.68305" lon="-3.21039"></trkpt>
      <trkpt lat="50.68367" lon="-3.20989"></trkpt>
      <trkpt lat="50.68378" lon="-3.2098"></trkpt>
      <trkpt lat="50.68426" lon="-3.20961"></trkpt>
      <trkpt lat="50.68422" lon="-3.20933"></trkpt>
      <trkpt lat="50.68416" lon="-3.2091"></trkpt>
      <trkpt lat="50.68328" lon="-3.20681"></trkpt>
      <trkpt lat="50.68391" lon="-3.20682"></trkpt>
      <trkpt lat="50.68378" lon="-3.20672"></trkpt>
      <trkpt lat="50.68377" lon="-3.20661"></trkpt>
      <trkpt lat="50.68363" lon="-3.20663"></trkpt>
      <trkpt lat="50.6835" lon="-3.20651"></trkpt>
      <trkpt lat="50.68354" lon="-3.20644"></trkpt>
      <trkpt lat="50.68364" lon="-3.20637"></trkpt>
      <trkpt lat="50.6836" lon="-3.20631"></trkpt>
      <trkpt lat="50.68346" lon="-3.20621"></trkpt>
      <trkpt lat="50.68343" lon="-3.20618"></trkpt>
      <trkpt lat="50.68382" lon="-3.2059"></trkpt>
      <trkpt lat="50.68379" lon="-3.20585"></trkpt>
      <trkpt lat="50.6836" lon="-3.2057"></trkpt>
      <trkpt lat="50.68366" lon="-3.20566"></trkpt>
      <trkpt lat="50.68368" lon="-3.20561"></trkpt>
      <trkpt lat="50.68379" lon="-3.20559"></trkpt>
      <trkpt lat="50.68377" lon="-3.20552"></trkpt>
      <trkpt lat="50.68386" lon="-3.20542"></trkpt>
      <trkpt lat="50.68377" lon="-3.20537"></trkpt>
      <trkpt lat="50.68387" lon="-3.20532"></trkpt>
      <trkpt lat="50.68391" lon="-3.20527"></trkpt>
      <trkpt lat="50.68389" lon="-3.20519"></trkpt>
      <trkpt lat="50.68393" lon="-3.20501"></trkpt>
      <trkpt lat="50.68396" lon="-3.20505"></trkpt>
      <trkpt lat="50.68398" lon="-3.20496"></trkpt>
      <trkpt lat="50.68393" lon="-3.20492"></trkpt>
      <trkpt lat="50.68372" lon="-3.2049"></trkpt>
      <trkpt lat="50.68384" lon="-3.20384"></trkpt>
      <trkpt lat="50.68381" lon="-3.20345"></trkpt>
      <trkpt lat="50.6837" lon="-3.20284"></trkpt>
      <trkpt lat="50.68351" lon="-3.20233"></trkpt>
      <trkpt lat="50.68409" lon="-3.20049"></trkpt>
      <trkpt lat="50.6841" lon="-3.20031"></trkpt>
      <trkpt lat="50.68417" lon="-3.19956"></trkpt>
      <trkpt lat="50.68424" lon="-3.19933"></trkpt>
      <trkpt lat="50.68425" lon="-3.19919"></trkpt>
      <trkpt lat="50.68421" lon="-3.19892"></trkpt>
      <trkpt lat="50.68428" lon="-3.19831"></trkpt>
      <trkpt lat="50.68435" lon="-3.19788"></trkpt>
      <trkpt lat="50.68458" lon="-3.19734"></trkpt>
      <trkpt lat="50.68537" lon="-3.19679"></trkpt>
      <trkpt lat="50.68575" lon="-3.19663"></trkpt>
      <trkpt lat="50.68621" lon="-3.1965"></trkpt>
      <trkpt lat="50.6864" lon="-3.1964"></trkpt>
      <trkpt lat="50.68665" lon="-3.19618"></trkpt>
      <trkpt lat="50.68701" lon="-3.1957"></trkpt>
      <trkpt lat="50.68721" lon="-3.19557"></trkpt>
      <trkpt lat="50.68732" lon="-3.19555"></trkpt>
      <trkpt lat="50.68747" lon="-3.19558"></trkpt>
      <trkpt lat="50.68749" lon="-3.19514"></trkpt>
      <trkpt lat="50.68748" lon="-3.19451"></trkpt>
      <trkpt lat="50.68692" lon="-3.19391"></trkpt>
      <trkpt lat="50.68684" lon="-3.19373"></trkpt>
      <trkpt lat="50.68674" lon="-3.19338"></trkpt>
      <trkpt lat="50.68672" lon="-3.19318"></trkpt>
      <trkpt lat="50.68672" lon="-3.19278"></trkpt>
      <trkpt lat="50.68666" lon="-3.19258"></trkpt>
      <trkpt lat="50.68664" lon="-3.19228"></trkpt>
      <trkpt lat="50.6866" lon="-3.19204"></trkpt>
      <trkpt lat="50.68666" lon="-3.19176"></trkpt>
      <trkpt lat="50.68657" lon="-3.19138"></trkpt>
      <trkpt lat="50.68653" lon="-3.19114"></trkpt>
      <trkpt lat="50.68658" lon="-3.19081"></trkpt>
      <trkpt lat="50.68658" lon="-3.19073"></trkpt>
      <trkpt lat="50.68655" lon="-3.19059"></trkpt>
      <trkpt lat="50.68649" lon="-3.19043"></trkpt>
      <trkpt lat="50.68645" lon="-3.19006"></trkpt>
      <trkpt lat="50.68649" lon="-3.18991"></trkpt>
      <trkpt lat="50.68682" lon="-3.18949"></trkpt>
      <trkpt lat="50.6868" lon="-3.18873"></trkpt>
      <trkpt lat="50.68699" lon="-3.1885"></trkpt>
      <trkpt lat="50.68704" lon="-3.1885"></trkpt>
      <trkpt lat="50.68738" lon="-3.18859"></trkpt>
      <trkpt lat="50.68722" lon="-3.18826"></trkpt>
      <trkpt lat="50.68665" lon="-3.18765"></trkpt>
      <trkpt lat="50.68665" lon="-3.18759"></trkpt>
      <trkpt lat="50.68676" lon="-3.18747"></trkpt>
      <trkpt lat="50.68667" lon="-3.18722"></trkpt>
      <trkpt lat="50.68658" lon="-3.18717"></trkpt>
      <trkpt lat="50.68652" lon="-3.18722"></trkpt>
      <trkpt lat="50.68639" lon="-3.18715"></trkpt>
      <trkpt lat="50.68612" lon="-3.18675"></trkpt>
      <trkpt lat="50.68605" lon="-3.18662"></trkpt>
      <trkpt lat="50.68601" lon="-3.18641"></trkpt>
      <trkpt lat="50.68582" lon="-3.18599"></trkpt>
      <trkpt lat="50.68577" lon="-3.18568"></trkpt>
      <trkpt lat="50.68576" lon="-3.18539"></trkpt>
      <trkpt lat="50.68569" lon="-3.18535"></trkpt>
      <trkpt lat="50.68564" lon="-3.18538"></trkpt>
      <trkpt lat="50.68553" lon="-3.1856"></trkpt>
      <trkpt lat="50.6855" lon="-3.1857"></trkpt>
      <trkpt lat="50.68544" lon="-3.18532"></trkpt>
      <trkpt lat="50.68546" lon="-3.18507"></trkpt>
      <trkpt lat="50.68548" lon="-3.185"></trkpt>
      <trkpt lat="50.68557412261373" lon="-3.1845241123113226"></trkpt>
      <trkpt lat="50.68566" lon="-3.18454"></trkpt>
      <trkpt lat="50.6857" lon="-3.1846"></trkpt>
      <trkpt lat="50.68576" lon="-3.18462"></trkpt>
      <trkpt lat="50.68584" lon="-3.18461"></trkpt>
      <trkpt lat="50.68598" lon="-3.18453"></trkpt>
      <trkpt lat="50.68619" lon="-3.18451"></trkpt>
      <trkpt lat="50.68627" lon="-3.18453"></trkpt>
      <trkpt lat="50.68636" lon="-3.18459"></trkpt>
      <trkpt lat="50.68645" lon="-3.18468"></trkpt>
      <trkpt lat="50.68653" lon="-3.18468"></trkpt>
      <trkpt lat="50.68659" lon="-3.18457"></trkpt>
      <trkpt lat="50.68657" lon="-3.18451"></trkpt>
      <trkpt lat="50.68642" lon="-3.18335"></trkpt>
      <trkpt lat="50.68625" lon="-3.182"></trkpt>
      <trkpt lat="50.68633" lon="-3.18148"></trkpt>
      <trkpt lat="50.68655" lon="-3.18108"></trkpt>
      <trkpt lat="50.68678" lon="-3.18044"></trkpt>
      <trkpt lat="50.68678" lon="-3.18045"></trkpt>
      <trkpt lat="50.68655" lon="-3.18108"></trkpt>
      <trkpt lat="50.68644" lon="-3.17976"></trkpt>
      <trkpt lat="50.68657" lon="-3.17914"></trkpt>
      <trkpt lat="50.68677" lon="-3.17865"></trkpt>
      <trkpt lat="50.68684" lon="-3.17857"></trkpt>
      <trkpt lat="50.68692" lon="-3.17843"></trkpt>
      <trkpt lat="50.68693" lon="-3.17832"></trkpt>
      <trkpt lat="50.68685" lon="-3.17752"></trkpt>
      <trkpt lat="50.68685" lon="-3.17616"></trkpt>
      <trkpt lat="50.6869" lon="-3.17354"></trkpt>
      <trkpt lat="50.68688" lon="-3.17236"></trkpt>
      <trkpt lat="50.68678" lon="-3.17128"></trkpt>
      <trkpt lat="50.68675" lon="-3.17126"></trkpt>
      <trkpt lat="50.68674" lon="-3.1712"></trkpt>
      <trkpt lat="50.68674" lon="-3.17103"></trkpt>
      <trkpt lat="50.68681" lon="-3.1706"></trkpt>
      <trkpt lat="50.6868" lon="-3.16967"></trkpt>
      <trkpt lat="50.68682" lon="-3.16933"></trkpt>
      <trkpt lat="50.68682" lon="-3.16886"></trkpt>
      <trkpt lat="50.6869" lon="-3.16745"></trkpt>
      <trkpt lat="50.68689" lon="-3.16736"></trkpt>
      <trkpt lat="50.68688" lon="-3.16728"></trkpt>
      <trkpt lat="50.68755" lon="-3.16626"></trkpt>
      <trkpt lat="50.68785" lon="-3.16588"></trkpt>
      <trkpt lat="50.68808" lon="-3.16569"></trkpt>
      <trkpt lat="50.68823" lon="-3.16534"></trkpt>
      <trkpt lat="50.68853" lon="-3.16399"></trkpt>
      <trkpt lat="50.68867" lon="-3.16357"></trkpt>
      <trkpt lat="50.6886" lon="-3.1635"></trkpt>
      <trkpt lat="50.68857" lon="-3.16258"></trkpt>
      <trkpt lat="50.68862" lon="-3.1598"></trkpt>
      <trkpt lat="50.68865" lon="-3.15919"></trkpt>
      <trkpt lat="50.68862" lon="-3.15899"></trkpt>
      <trkpt lat="50.68855" lon="-3.15886"></trkpt>
      <trkpt lat="50.68853" lon="-3.1586"></trkpt>
      <trkpt lat="50.68862" lon="-3.15802"></trkpt>
      <trkpt lat="50.68858" lon="-3.15783"></trkpt>
      <trkpt lat="50.68856" lon="-3.15754"></trkpt>
      <trkpt lat="50.68847" lon="-3.15718"></trkpt>
      <trkpt lat="50.68834" lon="-3.1568"></trkpt>
      <trkpt lat="50.6883" lon="-3.15646"></trkpt>
      <trkpt lat="50.6883" lon="-3.15626"></trkpt>
      <trkpt lat="50.68821" lon="-3.15585"></trkpt>
      <trkpt lat="50.68821" lon="-3.15567"></trkpt>
      <trkpt lat="50.68821" lon="-3.15527"></trkpt>
      <trkpt lat="50.68815" lon="-3.15483"></trkpt>
      <trkpt lat="50.68773" lon="-3.15307"></trkpt>
      <trkpt lat="50.68769" lon="-3.15293"></trkpt>
      <trkpt lat="50.6876" lon="-3.15279"></trkpt>
      <trkpt lat="50.68757" lon="-3.15269"></trkpt>
      <trkpt lat="50.68752" lon="-3.15235"></trkpt>
      <trkpt lat="50.68747" lon="-3.15227"></trkpt>
      <trkpt lat="50.68748" lon="-3.1522"></trkpt>
      <trkpt lat="50.68737" lon="-3.15167"></trkpt>
      <trkpt lat="50.68731" lon="-3.15109"></trkpt>
      <trkpt lat="50.68738" lon="-3.15059"></trkpt>
      <trkpt lat="50.68737" lon="-3.15033"></trkpt>
      <trkpt lat="50.68727" lon="-3.14975"></trkpt>
      <trkpt lat="50.68717" lon="-3.14943"></trkpt>
      <trkpt lat="50.68709" lon="-3.1491"></trkpt>
      <trkpt lat="50.68708" lon="-3.14861"></trkpt>
      <trkpt lat="50.68715" lon="-3.14821"></trkpt>
      <trkpt lat="50.68715" lon="-3.14791"></trkpt>
      <trkpt lat="50.68719" lon="-3.14783"></trkpt>
      <trkpt lat="50.68734" lon="-3.14766"></trkpt>
      <trkpt lat="50.68739" lon="-3.1475"></trkpt>
      <trkpt lat="50.6874" lon="-3.14731"></trkpt>
      <trkpt lat="50.68734" lon="-3.14687"></trkpt>
      <trkpt lat="50.68741" lon="-3.14667"></trkpt>
      <trkpt lat="50.68746" lon="-3.14649"></trkpt>
      <trkpt lat="50.68736" lon="-3.14577"></trkpt>
      <trkpt lat="50.6876" lon="-3.14557"></trkpt>
      <trkpt lat="50.68776" lon="-3.14554"></trkpt>
      <trkpt lat="50.68758" lon="-3.14533"></trkpt>
      <trkpt lat="50.68754" lon="-3.14522"></trkpt>
      <trkpt lat="50.68758" lon="-3.14506"></trkpt>
      <trkpt lat="50.68758" lon="-3.14494"></trkpt>
      <trkpt lat="50.68762" lon="-3.14487"></trkpt>
      <trkpt lat="50.68797" lon="-3.14485"></trkpt>
      <trkpt lat="50.68808" lon="-3.1449"></trkpt>
      <trkpt lat="50.68816" lon="-3.14498"></trkpt>
      <trkpt lat="50.68837" lon="-3.14509"></trkpt>
      <trkpt lat="50.68855" lon="-3.14515"></trkpt>
      <trkpt lat="50.68863" lon="-3.14522"></trkpt>
      <trkpt lat="50.68862" lon="-3.14503"></trkpt>
      <trkpt lat="50.68864" lon="-3.14469"></trkpt>
      <trkpt lat="50.68863" lon="-3.14439"></trkpt>
      <trkpt lat="50.68859" lon="-3.14413"></trkpt>
      <trkpt lat="50.68843" lon="-3.14344"></trkpt>
      <trkpt lat="50.68844" lon="-3.14317"></trkpt>
      <trkpt lat="50.68836" lon="-3.14259"></trkpt>
      <trkpt lat="50.68832" lon="-3.14218"></trkpt>
      <trkpt lat="50.68838" lon="-3.14173"></trkpt>
      <trkpt lat="50.68838" lon="-3.1411"></trkpt>
      <trkpt lat="50.68836" lon="-3.14087"></trkpt>
      <trkpt lat="50.68832" lon="-3.14065"></trkpt>
      <trkpt lat="50.68829" lon="-3.1403"></trkpt>
      <trkpt lat="50.68819" lon="-3.13983"></trkpt>
      <trkpt lat="50.6882" lon="-3.13964"></trkpt>
      <trkpt lat="50.6883" lon="-3.13913"></trkpt>
      <trkpt lat="50.68835" lon="-3.13807"></trkpt>
      <trkpt lat="50.68838" lon="-3.13787"></trkpt>
      <trkpt lat="50.68843" lon="-3.13766"></trkpt>
      <trkpt lat="50.6885" lon="-3.13749"></trkpt>
      <trkpt lat="50.68863" lon="-3.13685"></trkpt>
      <trkpt lat="50.68878" lon="-3.13637"></trkpt>
      <trkpt lat="50.6888" lon="-3.1363"></trkpt>
      <trkpt lat="50.68885" lon="-3.13594"></trkpt>
      <trkpt lat="50.68882" lon="-3.13574"></trkpt>
      <trkpt lat="50.68872" lon="-3.13545"></trkpt>
      <trkpt lat="50.68872" lon="-3.13526"></trkpt>
      <trkpt lat="50.68866" lon="-3.13473"></trkpt>
      <trkpt lat="50.68864" lon="-3.13408"></trkpt>
      <trkpt lat="50.68865" lon="-3.13374"></trkpt>
      <trkpt lat="50.6886" lon="-3.13297"></trkpt>
      <trkpt lat="50.68849" lon="-3.13229"></trkpt>
      <trkpt lat="50.68839" lon="-3.13181"></trkpt>
      <trkpt lat="50.68834" lon="-3.13142"></trkpt>
      <trkpt lat="50.68824" lon="-3.1308"></trkpt>
      <trkpt lat="50.68806" lon="-3.13021"></trkpt>
      <trkpt lat="50.688" lon="-3.12984"></trkpt>
      <trkpt lat="50.688" lon="-3.12957"></trkpt>
      <trkpt lat="50.68803" lon="-3.12939"></trkpt>
      <trkpt lat="50.68802" lon="-3.12901"></trkpt>
      <trkpt lat="50.68806" lon="-3.12887"></trkpt>
      <trkpt lat="50.68806" lon="-3.12856"></trkpt>
      <trkpt lat="50.68804" lon="-3.1283"></trkpt>
      <trkpt lat="50.68805" lon="-3.1282"></trkpt>
      <trkpt lat="50.68803" lon="-3.12814"></trkpt>
      <trkpt lat="50.68803" lon="-3.12807"></trkpt>
      <trkpt lat="50.68811" lon="-3.12809"></trkpt>
      <trkpt lat="50.68806" lon="-3.12799"></trkpt>
      <trkpt lat="50.68811" lon="-3.12796"></trkpt>
      <trkpt lat="50.68823" lon="-3.12794"></trkpt>
      <trkpt lat="50.68825" lon="-3.1279"></trkpt>
      <trkpt lat="50.68815" lon="-3.12773"></trkpt>
      <trkpt lat="50.68804" lon="-3.12762"></trkpt>
      <trkpt lat="50.688" lon="-3.12753"></trkpt>
      <trkpt lat="50.68805" lon="-3.12733"></trkpt>
      <trkpt lat="50.688" lon="-3.12719"></trkpt>
      <trkpt lat="50.68805" lon="-3.12713"></trkpt>
      <trkpt lat="50.68803" lon="-3.12707"></trkpt>
      <trkpt lat="50.68809" lon="-3.12677"></trkpt>
      <trkpt lat="50.6884" lon="-3.1263"></trkpt>
      <trkpt lat="50.68791" lon="-3.12508"></trkpt>
      <trkpt lat="50.68752" lon="-3.124"></trkpt>
      <trkpt lat="50.68755" lon="-3.12381"></trkpt>
      <trkpt lat="50.6876" lon="-3.12365"></trkpt>
      <trkpt lat="50.6877" lon="-3.12345"></trkpt>
      <trkpt lat="50.68774" lon="-3.12342"></trkpt>
      <trkpt lat="50.68789" lon="-3.1234"></trkpt>
      <trkpt lat="50.68793" lon="-3.12326"></trkpt>
      <trkpt lat="50.68793" lon="-3.12307"></trkpt>
      <trkpt lat="50.68772" lon="-3.12205"></trkpt>
      <trkpt lat="50.68759" lon="-3.12115"></trkpt>
      <trkpt lat="50.68751" lon="-3.12017"></trkpt>
      <trkpt lat="50.68755" lon="-3.11989"></trkpt>
      <trkpt lat="50.68754" lon="-3.11979"></trkpt>
      <trkpt lat="50.68751" lon="-3.11967"></trkpt>
      <trkpt lat="50.68752" lon="-3.11939"></trkpt>
      <trkpt lat="50.68763" lon="-3.11881"></trkpt>
      <trkpt lat="50.68762" lon="-3.1185"></trkpt>
      <trkpt lat="50.68747" lon="-3.11764"></trkpt>
      <trkpt lat="50.68747" lon="-3.11733"></trkpt>
      <trkpt lat="50.68751" lon="-3.11705"></trkpt>
      <trkpt lat="50.68748" lon="-3.11667"></trkpt>
      <trkpt lat="50.68749" lon="-3.11657"></trkpt>
      <trkpt lat="50.68757" lon="-3.11638"></trkpt>
      <trkpt lat="50.68758" lon="-3.11631"></trkpt>
      <trkpt lat="50.68725" lon="-3.1153"></trkpt>
      <trkpt lat="50.68721" lon="-3.1152"></trkpt>
      <trkpt lat="50.68721" lon="-3.1148"></trkpt>
      <trkpt lat="50.68716" lon="-3.11429"></trkpt>
      <trkpt lat="50.68716" lon="-3.11383"></trkpt>
      <trkpt lat="50.6871" lon="-3.11372"></trkpt>
      <trkpt lat="50.68701" lon="-3.11366"></trkpt>
      <trkpt lat="50.68697" lon="-3.11349"></trkpt>
      <trkpt lat="50.68687" lon="-3.11321"></trkpt>
      <trkpt lat="50.68696" lon="-3.11305"></trkpt>
      <trkpt lat="50.68686" lon="-3.1126"></trkpt>
      <trkpt lat="50.68693" lon="-3.11248"></trkpt>
      <trkpt lat="50.68684" lon="-3.11236"></trkpt>
      <trkpt lat="50.68693" lon="-3.11201"></trkpt>
      <trkpt lat="50.68688" lon="-3.11187"></trkpt>
      <trkpt lat="50.68694" lon="-3.1116"></trkpt>
      <trkpt lat="50.68677" lon="-3.11114"></trkpt>
      <trkpt lat="50.68677" lon="-3.11093"></trkpt>
      <trkpt lat="50.68688" lon="-3.11084"></trkpt>
      <trkpt lat="50.68681" lon="-3.11059"></trkpt>
      <trkpt lat="50.68674" lon="-3.11057"></trkpt>
      <trkpt lat="50.68679" lon="-3.11047"></trkpt>
      <trkpt lat="50.68663" lon="-3.11021"></trkpt>
      <trkpt lat="50.68662" lon="-3.1101"></trkpt>
      <trkpt lat="50.68663" lon="-3.10976"></trkpt>
      <trkpt lat="50.68655" lon="-3.10945"></trkpt>
      <trkpt lat="50.68655" lon="-3.1093"></trkpt>
      <trkpt lat="50.68649" lon="-3.10909"></trkpt>
      <trkpt lat="50.68641" lon="-3.10869"></trkpt>
      <trkpt lat="50.68635" lon="-3.10823"></trkpt>
      <trkpt lat="50.68638" lon="-3.10787"></trkpt>
      <trkpt lat="50.68633" lon="-3.10768"></trkpt>
      <trkpt lat="50.68627" lon="-3.10762"></trkpt>
      <trkpt lat="50.68625" lon="-3.10744"></trkpt>
      <trkpt lat="50.6863" lon="-3.10738"></trkpt>
      <trkpt lat="50.68628" lon="-3.10716"></trkpt>
      <trkpt lat="50.68636" lon="-3.107"></trkpt>
      <trkpt lat="50.68648" lon="-3.10688"></trkpt>
      <trkpt lat="50.6866" lon="-3.10667"></trkpt>
      <trkpt lat="50.68663" lon="-3.1065"></trkpt>
      <trkpt lat="50.68659" lon="-3.10615"></trkpt>
      <trkpt lat="50.68661" lon="-3.10596"></trkpt>
      <trkpt lat="50.68665" lon="-3.10578"></trkpt>
      <trkpt lat="50.68674" lon="-3.10564"></trkpt>
      <trkpt lat="50.68681" lon="-3.10549"></trkpt>
      <trkpt lat="50.68684" lon="-3.10528"></trkpt>
      <trkpt lat="50.68682" lon="-3.10516"></trkpt>
      <trkpt lat="50.68687" lon="-3.10501"></trkpt>
      <trkpt lat="50.68683" lon="-3.10469"></trkpt>
      <trkpt lat="50.68683" lon="-3.10466"></trkpt>
      <trkpt lat="50.68686" lon="-3.10448"></trkpt>
      <trkpt lat="50.68687" lon="-3.10422"></trkpt>
      <trkpt lat="50.68678" lon="-3.10402"></trkpt>
      <trkpt lat="50.68668" lon="-3.10387"></trkpt>
      <trkpt lat="50.68667" lon="-3.10375"></trkpt>
      <trkpt lat="50.6867" lon="-3.10363"></trkpt>
      <trkpt lat="50.6867" lon="-3.10351"></trkpt>
      <trkpt lat="50.68668" lon="-3.10331"></trkpt>
      <trkpt lat="50.68669" lon="-3.10319"></trkpt>
      <trkpt lat="50.68672" lon="-3.10312"></trkpt>
      <trkpt lat="50.68673" lon="-3.10298"></trkpt>
      <trkpt lat="50.68662" lon="-3.10254"></trkpt>
      <trkpt lat="50.68662" lon="-3.10245"></trkpt>
      <trkpt lat="50.68668" lon="-3.10253"></trkpt>
      <trkpt lat="50.68671" lon="-3.10253"></trkpt>
      <trkpt lat="50.68671" lon="-3.1025"></trkpt>
      <trkpt lat="50.68664" lon="-3.10229"></trkpt>
      <trkpt lat="50.68668" lon="-3.10221"></trkpt>
      <trkpt lat="50.68668" lon="-3.10199"></trkpt>
      <trkpt lat="50.6867" lon="-3.10188"></trkpt>
      <trkpt lat="50.68669" lon="-3.10177"></trkpt>
      <trkpt lat="50.68675" lon="-3.10167"></trkpt>
      <trkpt lat="50.68676" lon="-3.1015"></trkpt>
      <trkpt lat="50.68675" lon="-3.10133"></trkpt>
      <trkpt lat="50.6866" lon="-3.10041"></trkpt>
      <trkpt lat="50.68646" lon="-3.09985"></trkpt>
      <trkpt lat="50.68645" lon="-3.0997"></trkpt>
      <trkpt lat="50.68648" lon="-3.09953"></trkpt>
      <trkpt lat="50.68645" lon="-3.09929"></trkpt>
      <trkpt lat="50.68621" lon="-3.09874"></trkpt>
      <trkpt lat="50.68599" lon="-3.0984"></trkpt>
      <trkpt lat="50.68595" lon="-3.09804"></trkpt>
      <trkpt lat="50.68602" lon="-3.09796"></trkpt>
      <trkpt lat="50.68604" lon="-3.09781"></trkpt>
      <trkpt lat="50.68603" lon="-3.09768"></trkpt>
      <trkpt lat="50.68595" lon="-3.09734"></trkpt>
      <trkpt lat="50.68596" lon="-3.09721"></trkpt>
      <trkpt lat="50.68605" lon="-3.09703"></trkpt>
      <trkpt lat="50.68623" lon="-3.09689"></trkpt>
      <trkpt lat="50.68673" lon="-3.09639"></trkpt>
      <trkpt lat="50.68672" lon="-3.09639"></trkpt>
      <trkpt lat="50.68689" lon="-3.09625"></trkpt>
      <trkpt lat="50.68707" lon="-3.09615"></trkpt>
      <trkpt lat="50.68813" lon="-3.09597"></trkpt>
      <trkpt lat="50.68836" lon="-3.09584"></trkpt>
      <trkpt lat="50.68842" lon="-3.09577"></trkpt>
      <trkpt lat="50.68889" lon="-3.09542"></trkpt>
      <trkpt lat="50.689" lon="-3.0954"></trkpt>
      <trkpt lat="50.68925" lon="-3.0955"></trkpt>
      <trkpt lat="50.6895" lon="-3.09538"></trkpt>
      <trkpt lat="50.68988" lon="-3.09507"></trkpt>
      <trkpt lat="50.69001" lon="-3.09491"></trkpt>
      <trkpt lat="50.6903" lon="-3.09444"></trkpt>
      <trkpt lat="50.69055" lon="-3.09412"></trkpt>
      <trkpt lat="50.69086" lon="-3.09385"></trkpt>
      <trkpt lat="50.69088" lon="-3.09368"></trkpt>
      <trkpt lat="50.69107" lon="-3.0937"></trkpt>
      <trkpt lat="50.69122" lon="-3.09376"></trkpt>
      <trkpt lat="50.69169" lon="-3.09412"></trkpt>
      <trkpt lat="50.69187" lon="-3.09436"></trkpt>
      <trkpt lat="50.69207" lon="-3.09473"></trkpt>
      <trkpt lat="50.69217" lon="-3.09483"></trkpt>
      <trkpt lat="50.69236" lon="-3.09525"></trkpt>
      <trkpt lat="50.69245" lon="-3.09539"></trkpt>
      <trkpt lat="50.69249" lon="-3.09538"></trkpt>
      <trkpt lat="50.69298" lon="-3.09468"></trkpt>
      <trkpt lat="50.69308" lon="-3.09468"></trkpt>
      <trkpt lat="50.69312" lon="-3.09464"></trkpt>
      <trkpt lat="50.69321" lon="-3.09473"></trkpt>
      <trkpt lat="50.6936" lon="-3.0943"></trkpt>
      <trkpt lat="50.69394" lon="-3.09402"></trkpt>
      <trkpt lat="50.69406" lon="-3.09396"></trkpt>
      <trkpt lat="50.69415" lon="-3.09398"></trkpt>
      <trkpt lat="50.69426" lon="-3.09395"></trkpt>
      <trkpt lat="50.69438" lon="-3.09396"></trkpt>
      <trkpt lat="50.69465" lon="-3.09366"></trkpt>
      <trkpt lat="50.69477" lon="-3.09361"></trkpt>
      <trkpt lat="50.69483" lon="-3.09353"></trkpt>
      <trkpt lat="50.69486" lon="-3.09352"></trkpt>
      <trkpt lat="50.69501" lon="-3.09328"></trkpt>
      <trkpt lat="50.69524" lon="-3.09308"></trkpt>
      <trkpt lat="50.69581" lon="-3.09271"></trkpt>
      <trkpt lat="50.69629" lon="-3.09257"></trkpt>
      <trkpt lat="50.69643" lon="-3.09247"></trkpt>
      <trkpt lat="50.69657" lon="-3.09231"></trkpt>
      <trkpt lat="50.69692" lon="-3.09184"></trkpt>
      <trkpt lat="50.69701" lon="-3.09175"></trkpt>
      <trkpt lat="50.69718" lon="-3.09174"></trkpt>
      <trkpt lat="50.6972" lon="-3.09172"></trkpt>
      <trkpt lat="50.69717" lon="-3.09161"></trkpt>
      <trkpt lat="50.69702" lon="-3.09121"></trkpt>
      <trkpt lat="50.69705" lon="-3.09116"></trkpt>
      <trkpt lat="50.69702" lon="-3.09108"></trkpt>
      <trkpt lat="50.69706" lon="-3.09104"></trkpt>
      <trkpt lat="50.69706" lon="-3.09096"></trkpt>
      <trkpt lat="50.69703" lon="-3.09098"></trkpt>
      <trkpt lat="50.69695" lon="-3.09089"></trkpt>
      <trkpt lat="50.69694" lon="-3.0906"></trkpt>
      <trkpt lat="50.69691" lon="-3.09058"></trkpt>
      <trkpt lat="50.69692" lon="-3.09043"></trkpt>
      <trkpt lat="50.69696" lon="-3.09019"></trkpt>
      <trkpt lat="50.69698" lon="-3.09025"></trkpt>
      <trkpt lat="50.69699" lon="-3.09019"></trkpt>
      <trkpt lat="50.69707" lon="-3.09028"></trkpt>
      <trkpt lat="50.69713" lon="-3.09023"></trkpt>
      <trkpt lat="50.69717" lon="-3.08996"></trkpt>
      <trkpt lat="50.6973" lon="-3.08959"></trkpt>
      <trkpt lat="50.69728" lon="-3.0895"></trkpt>
      <trkpt lat="50.69717" lon="-3.08919"></trkpt>
      <trkpt lat="50.69717" lon="-3.08896"></trkpt>
      <trkpt lat="50.69712" lon="-3.08881"></trkpt>
      <trkpt lat="50.69708" lon="-3.08861"></trkpt>
      <trkpt lat="50.69711" lon="-3.08838"></trkpt>
      <trkpt lat="50.6971" lon="-3.08823"></trkpt>
      <trkpt lat="50.6971" lon="-3.08809"></trkpt>
      <trkpt lat="50.69723" lon="-3.0878"></trkpt>
      <trkpt lat="50.69723" lon="-3.08762"></trkpt>
      <trkpt lat="50.6973" lon="-3.08747"></trkpt>
      <trkpt lat="50.69739" lon="-3.08734"></trkpt>
      <trkpt lat="50.69757" lon="-3.08723"></trkpt>
      <trkpt lat="50.69766" lon="-3.08714"></trkpt>
      <trkpt lat="50.69798" lon="-3.08702"></trkpt>
      <trkpt lat="50.69803" lon="-3.08698"></trkpt>
      <trkpt lat="50.69821" lon="-3.08672"></trkpt>
      <trkpt lat="50.69856" lon="-3.08659"></trkpt>
      <trkpt lat="50.69863" lon="-3.08654"></trkpt>
      <trkpt lat="50.69877" lon="-3.08636"></trkpt>
      <trkpt lat="50.69916" lon="-3.08609"></trkpt>
      <trkpt lat="50.69928" lon="-3.08598"></trkpt>
      <trkpt lat="50.69939" lon="-3.08584"></trkpt>
      <trkpt lat="50.69994" lon="-3.08542"></trkpt>
      <trkpt lat="50.70007" lon="-3.08535"></trkpt>
      <trkpt lat="50.7004" lon="-3.08528"></trkpt>
      <trkpt lat="50.70053" lon="-3.08533"></trkpt>
      <trkpt lat="50.7007" lon="-3.08557"></trkpt>
      <trkpt lat="50.70074" lon="-3.08567"></trkpt>
      <trkpt lat="50.70077" lon="-3.08595"></trkpt>
      <trkpt lat="50.70072" lon="-3.08617"></trkpt>
      <trkpt lat="50.70067" lon="-3.08626"></trkpt>
      <trkpt lat="50.70069" lon="-3.08629"></trkpt>
      <trkpt lat="50.70107" lon="-3.08573"></trkpt>
      <trkpt lat="50.70133" lon="-3.08506"></trkpt>
      <trkpt lat="50.70142" lon="-3.08494"></trkpt>
      <trkpt lat="50.70134" lon="-3.08476"></trkpt>
      <trkpt lat="50.70134" lon="-3.08455"></trkpt>
      <trkpt lat="50.70129" lon="-3.08436"></trkpt>
      <trkpt lat="50.70126" lon="-3.08434"></trkpt>
      <trkpt lat="50.7012" lon="-3.08436"></trkpt>
      <trkpt lat="50.70104" lon="-3.08462"></trkpt>
      <trkpt lat="50.70098" lon="-3.08452"></trkpt>
      <trkpt lat="50.70094" lon="-3.08433"></trkpt>
      <trkpt lat="50.70117" lon="-3.08389"></trkpt>
      <trkpt lat="50.70202" lon="-3.08152"></trkpt>
      <trkpt lat="50.70224" lon="-3.08065"></trkpt>
      <trkpt lat="50.70233" lon="-3.08014"></trkpt>
      <trkpt lat="50.70251" lon="-3.07914"></trkpt>
      <trkpt lat="50.70261" lon="-3.07866"></trkpt>
      <trkpt lat="50.70265" lon="-3.07823"></trkpt>
      <trkpt lat="50.70275" lon="-3.07757"></trkpt>
      <trkpt lat="50.70281" lon="-3.07746"></trkpt>
      <trkpt lat="50.70284" lon="-3.07728"></trkpt>
      <trkpt lat="50.70326" lon="-3.07341"></trkpt>
      <trkpt lat="50.70339" lon="-3.07186"></trkpt>
      <trkpt lat="50.70342" lon="-3.07133"></trkpt>
    </trkseg>
  </trk>
</gpx>
