<?xml version="1.0" encoding="UTF-8"?>
<gpx version="1.1" creator="swcp-walk (imported from OS Maps route 33858578)"
     xmlns="http://www.topografix.com/GPX/1/1">
  <metadata>
    <name>SWCP46-Seaton-Seatown</name>
  </metadata>
  <trk>
    <name>SWCP46-Seaton-Seatown</name>
    <trkseg>
      <trkpt lat="50.70353363489332" lon="-3.0711215496317834"></trkpt>
      <trkpt lat="50.70354" lon="-3.07103"></trkpt>
      <trkpt lat="50.70349" lon="-3.07053"></trkpt>
      <trkpt lat="50.70352" lon="-3.06918"></trkpt>
      <trkpt lat="50.70355" lon="-3.06891"></trkpt>
      <trkpt lat="50.70362" lon="-3.0672"></trkpt>
      <trkpt lat="50.70366" lon="-3.06719"></trkpt>
      <trkpt lat="50.70364" lon="-3.06716"></trkpt>
      <trkpt lat="50.70363" lon="-3.06701"></trkpt>
      <trkpt lat="50.70352" lon="-3.06189"></trkpt>
      <trkpt lat="50.70348" lon="-3.06167"></trkpt>
      <trkpt lat="50.70349" lon="-3.06161"></trkpt>
      <trkpt lat="50.70346" lon="-3.06153"></trkpt>
      <trkpt lat="50.70345" lon="-3.061"></trkpt>
      <trkpt lat="50.70354" lon="-3.06101"></trkpt>
      <trkpt lat="50.70354" lon="-3.06096"></trkpt>
      <trkpt lat="50.70446" lon="-3.06095"></trkpt>
      <trkpt lat="50.70446" lon="-3.06093"></trkpt>
      <trkpt lat="50.70452" lon="-3.06029"></trkpt>
      <trkpt lat="50.7046" lon="-3.05994"></trkpt>
      <trkpt lat="50.70472" lon="-3.05955"></trkpt>
      <trkpt lat="50.70489" lon="-3.0592"></trkpt>
      <trkpt lat="50.70518" lon="-3.0588"></trkpt>
      <trkpt lat="50.70533" lon="-3.05865"></trkpt>
      <trkpt lat="50.70563" lon="-3.05846"></trkpt>
      <trkpt lat="50.70578" lon="-3.0584"></trkpt>
      <trkpt lat="50.70571" lon="-3.05762"></trkpt>
      <trkpt lat="50.7057" lon="-3.0574"></trkpt>
      <trkpt lat="50.70563" lon="-3.05709"></trkpt>
      <trkpt lat="50.70557" lon="-3.05641"></trkpt>
      <trkpt lat="50.70558" lon="-3.05614"></trkpt>
      <trkpt lat="50.7056" lon="-3.05586"></trkpt>
      <trkpt lat="50.70567" lon="-3.05525"></trkpt>
      <trkpt lat="50.70568" lon="-3.05495"></trkpt>
      <trkpt lat="50.70586" lon="-3.054"></trkpt>
      <trkpt lat="50.70599" lon="-3.05339"></trkpt>
      <trkpt lat="50.70612" lon="-3.05259"></trkpt>
      <trkpt lat="50.70638" lon="-3.05183"></trkpt>
      <trkpt lat="50.70686" lon="-3.05003"></trkpt>
      <trkpt lat="50.70688" lon="-3.04976"></trkpt>
      <trkpt lat="50.70694" lon="-3.04956"></trkpt>
      <trkpt lat="50.70701" lon="-3.04919"></trkpt>
      <trkpt lat="50.70714" lon="-3.04823"></trkpt>
      <trkpt lat="50.70716" lon="-3.04792"></trkpt>
      <trkpt lat="50.70708" lon="-3.0465"></trkpt>
      <trkpt lat="50.70716" lon="-3.04512"></trkpt>
      <trkpt lat="50.70716" lon="-3.04475"></trkpt>
      <trkpt lat="50.70682" lon="-3.04462"></trkpt>
      <trkpt lat="50.70649" lon="-3.0444"></trkpt>
      <trkpt lat="50.70572" lon="-3.04401"></trkpt>
      <trkpt lat="50.70531" lon="-3.04376"></trkpt>
      <trkpt lat="50.70529" lon="-3.04363"></trkpt>
      <trkpt lat="50.70525" lon="-3.0436"></trkpt>
      <trkpt lat="50.70452" lon="-3.04331"></trkpt>
      <trkpt lat="50.70389" lon="-3.04311"></trkpt>
      <trkpt lat="50.70352" lon="-3.0429"></trkpt>
      <trkpt lat="50.70351" lon="-3.04283"></trkpt>
      <trkpt lat="50.70352" lon="-3.04273"></trkpt>
      <trkpt lat="50.70349" lon="-3.04266"></trkpt>
      <trkpt lat="50.70275" lon="-3.04116"></trkpt>
      <trkpt lat="50.70258" lon="-3.04072"></trkpt>
      <trkpt lat="50.70248" lon="-3.03999"></trkpt>
      <trkpt lat="50.70229" lon="-3.03971"></trkpt>
      <trkpt lat="50.70228" lon="-3.03955"></trkpt>
      <trkpt lat="50.7023" lon="-3.03946"></trkpt>
      <trkpt lat="50.70229" lon="-3.03935"></trkpt>
      <trkpt lat="50.70223" lon="-3.03912"></trkpt>
      <trkpt lat="50.70194" lon="-3.03841"></trkpt>
      <trkpt lat="50.70184" lon="-3.03802"></trkpt>
      <trkpt lat="50.70179" lon="-3.03787"></trkpt>
      <trkpt lat="50.70172" lon="-3.03754"></trkpt>
      <trkpt lat="50.70171" lon="-3.03669"></trkpt>
      <trkpt lat="50.70173" lon="-3.03652"></trkpt>
      <trkpt lat="50.70174" lon="-3.03647"></trkpt>
      <trkpt lat="50.70165" lon="-3.03576"></trkpt>
      <trkpt lat="50.70165" lon="-3.03529"></trkpt>
      <trkpt lat="50.70161" lon="-3.03496"></trkpt>
      <trkpt lat="50.70162" lon="-3.03474"></trkpt>
      <trkpt lat="50.70159" lon="-3.03456"></trkpt>
      <trkpt lat="50.70162" lon="-3.03435"></trkpt>
      <trkpt lat="50.7016" lon="-3.03408"></trkpt>
      <trkpt lat="50.70156" lon="-3.03378"></trkpt>
      <trkpt lat="50.70155" lon="-3.03326"></trkpt>
      <trkpt lat="50.70159" lon="-3.03307"></trkpt>
      <trkpt lat="50.70168" lon="-3.03275"></trkpt>
      <trkpt lat="50.70173" lon="-3.03269"></trkpt>
      <trkpt lat="50.70174" lon="-3.03258"></trkpt>
      <trkpt lat="50.70173" lon="-3.0325"></trkpt>
      <trkpt lat="50.70161" lon="-3.03235"></trkpt>
      <trkpt lat="50.70158" lon="-3.03195"></trkpt>
      <trkpt lat="50.70139" lon="-3.03031"></trkpt>
      <trkpt lat="50.70138" lon="-3.03009"></trkpt>
      <trkpt lat="50.70142" lon="-3.02988"></trkpt>
      <trkpt lat="50.70152" lon="-3.02971"></trkpt>
      <trkpt lat="50.70162" lon="-3.02951"></trkpt>
      <trkpt lat="50.70169" lon="-3.02948"></trkpt>
      <trkpt lat="50.7018" lon="-3.02949"></trkpt>
      <trkpt lat="50.70186" lon="-3.02945"></trkpt>
      <trkpt lat="50.70189" lon="-3.0294"></trkpt>
      <trkpt lat="50.70186" lon="-3.02919"></trkpt>
      <trkpt lat="50.7019" lon="-3.02904"></trkpt>
      <trkpt lat="50.7019" lon="-3.02878"></trkpt>
      <trkpt lat="50.70184" lon="-3.02862"></trkpt>
      <trkpt lat="50.70173" lon="-3.02859"></trkpt>
      <trkpt lat="50.70168" lon="-3.02864"></trkpt>
      <trkpt lat="50.70162" lon="-3.02864"></trkpt>
      <trkpt lat="50.70158" lon="-3.0286"></trkpt>
      <trkpt lat="50.70158" lon="-3.02856"></trkpt>
      <trkpt lat="50.70155" lon="-3.02855"></trkpt>
      <trkpt lat="50.70163" lon="-3.02835"></trkpt>
      <trkpt lat="50.7016" lon="-3.02816"></trkpt>
      <trkpt lat="50.70155" lon="-3.02814"></trkpt>
      <trkpt lat="50.70154" lon="-3.02799"></trkpt>
      <trkpt lat="50.70151" lon="-3.02797"></trkpt>
      <trkpt lat="50.70139" lon="-3.02797"></trkpt>
      <trkpt lat="50.70126" lon="-3.02803"></trkpt>
      <trkpt lat="50.70117" lon="-3.02801"></trkpt>
      <trkpt lat="50.70115" lon="-3.02796"></trkpt>
      <trkpt lat="50.70117" lon="-3.02776"></trkpt>
      <trkpt lat="50.70106" lon="-3.02759"></trkpt>
      <trkpt lat="50.70088" lon="-3.02716"></trkpt>
      <trkpt lat="50.7008" lon="-3.02677"></trkpt>
      <trkpt lat="50.7008" lon="-3.02662"></trkpt>
      <trkpt lat="50.70084" lon="-3.02634"></trkpt>
      <trkpt lat="50.70105" lon="-3.02556"></trkpt>
      <trkpt lat="50.70111" lon="-3.02526"></trkpt>
      <trkpt lat="50.70114" lon="-3.02478"></trkpt>
      <trkpt lat="50.70111" lon="-3.02469"></trkpt>
      <trkpt lat="50.70086" lon="-3.02459"></trkpt>
      <trkpt lat="50.70074" lon="-3.0246"></trkpt>
      <trkpt lat="50.70065" lon="-3.02465"></trkpt>
      <trkpt lat="50.70056" lon="-3.02462"></trkpt>
      <trkpt lat="50.70052" lon="-3.02456"></trkpt>
      <trkpt lat="50.70051" lon="-3.024"></trkpt>
      <trkpt lat="50.70046" lon="-3.02382"></trkpt>
      <trkpt lat="50.70024" lon="-3.02336"></trkpt>
      <trkpt lat="50.70008" lon="-3.02325"></trkpt>
      <trkpt lat="50.70009" lon="-3.02306"></trkpt>
      <trkpt lat="50.69999" lon="-3.0229"></trkpt>
      <trkpt lat="50.69994" lon="-3.02292"></trkpt>
      <trkpt lat="50.69977" lon="-3.02285"></trkpt>
      <trkpt lat="50.69972" lon="-3.02285"></trkpt>
      <trkpt lat="50.69966" lon="-3.02288"></trkpt>
      <trkpt lat="50.69954" lon="-3.02306"></trkpt>
      <trkpt lat="50.69952" lon="-3.02291"></trkpt>
      <trkpt lat="50.69935" lon="-3.02275"></trkpt>
      <trkpt lat="50.69937" lon="-3.02274"></trkpt>
      <trkpt lat="50.69936" lon="-3.02266"></trkpt>
      <trkpt lat="50.69937" lon="-3.02261"></trkpt>
      <trkpt lat="50.69942" lon="-3.02259"></trkpt>
      <trkpt lat="50.69946" lon="-3.02248"></trkpt>
      <trkpt lat="50.69956" lon="-3.02233"></trkpt>
      <trkpt lat="50.6996" lon="-3.02213"></trkpt>
      <trkpt lat="50.69964" lon="-3.0217"></trkpt>
      <trkpt lat="50.69971" lon="-3.02141"></trkpt>
      <trkpt lat="50.6997" lon="-3.02141"></trkpt>
      <trkpt lat="50.69975" lon="-3.02126"></trkpt>
      <trkpt lat="50.69983" lon="-3.02109"></trkpt>
      <trkpt lat="50.69993" lon="-3.02094"></trkpt>
      <trkpt lat="50.7" lon="-3.02078"></trkpt>
      <trkpt lat="50.7002" lon="-3.02048"></trkpt>
      <trkpt lat="50.7004" lon="-3.01985"></trkpt>
      <trkpt lat="50.70046" lon="-3.01956"></trkpt>
      <trkpt lat="50.70049" lon="-3.01949"></trkpt>
      <trkpt lat="50.7006" lon="-3.01858"></trkpt>
      <trkpt lat="50.70067" lon="-3.01832"></trkpt>
      <trkpt lat="50.7007" lon="-3.01806"></trkpt>
      <trkpt lat="50.70074" lon="-3.01785"></trkpt>
      <trkpt lat="50.70075" lon="-3.01761"></trkpt>
      <trkpt lat="50.70079" lon="-3.01743"></trkpt>
      <trkpt lat="50.7008" lon="-3.01731"></trkpt>
      <trkpt lat="50.70068" lon="-3.01712"></trkpt>
      <trkpt lat="50.70054" lon="-3.01666"></trkpt>
      <trkpt lat="50.70055" lon="-3.01653"></trkpt>
      <trkpt lat="50.70061" lon="-3.01634"></trkpt>
      <trkpt lat="50.70061" lon="-3.01621"></trkpt>
      <trkpt lat="50.70066" lon="-3.01616"></trkpt>
      <trkpt lat="50.70079" lon="-3.01586"></trkpt>
      <trkpt lat="50.7008" lon="-3.01572"></trkpt>
      <trkpt lat="50.70064" lon="-3.01541"></trkpt>
      <trkpt lat="50.70071" lon="-3.01504"></trkpt>
      <trkpt lat="50.70083" lon="-3.01467"></trkpt>
      <trkpt lat="50.7008" lon="-3.01458"></trkpt>
      <trkpt lat="50.70081" lon="-3.01453"></trkpt>
      <trkpt lat="50.70073" lon="-3.01441"></trkpt>
      <trkpt lat="50.70083" lon="-3.01436"></trkpt>
      <trkpt lat="50.70085" lon="-3.01424"></trkpt>
      <trkpt lat="50.70071" lon="-3.0141"></trkpt>
      <trkpt lat="50.70086" lon="-3.01389"></trkpt>
      <trkpt lat="50.70095" lon="-3.01376"></trkpt>
      <trkpt lat="50.70109" lon="-3.01362"></trkpt>
      <trkpt lat="50.70098" lon="-3.01322"></trkpt>
      <trkpt lat="50.70104" lon="-3.01284"></trkpt>
      <trkpt lat="50.70115" lon="-3.01243"></trkpt>
      <trkpt lat="50.7012" lon="-3.01212"></trkpt>
      <trkpt lat="50.70135" lon="-3.01158"></trkpt>
      <trkpt lat="50.70137" lon="-3.0114"></trkpt>
      <trkpt lat="50.70141" lon="-3.01136"></trkpt>
      <trkpt lat="50.70154" lon="-3.01096"></trkpt>
      <trkpt lat="50.70164" lon="-3.01081"></trkpt>
      <trkpt lat="50.70178" lon="-3.01035"></trkpt>
      <trkpt lat="50.70184" lon="-3.01023"></trkpt>
      <trkpt lat="50.70203" lon="-3.01014"></trkpt>
      <trkpt lat="50.70213" lon="-3.01002"></trkpt>
      <trkpt lat="50.70218" lon="-3.00988"></trkpt>
      <trkpt lat="50.70234" lon="-3.00965"></trkpt>
      <trkpt lat="50.70235" lon="-3.00959"></trkpt>
      <trkpt lat="50.7024" lon="-3.0095"></trkpt>
      <trkpt lat="50.70249" lon="-3.00926"></trkpt>
      <trkpt lat="50.70253" lon="-3.00906"></trkpt>
      <trkpt lat="50.70267" lon="-3.00876"></trkpt>
      <trkpt lat="50.70283" lon="-3.00837"></trkpt>
      <trkpt lat="50.70301" lon="-3.00825"></trkpt>
      <trkpt lat="50.70306" lon="-3.00815"></trkpt>
      <trkpt lat="50.70311" lon="-3.0081"></trkpt>
      <trkpt lat="50.70326" lon="-3.00778"></trkpt>
      <trkpt lat="50.7033" lon="-3.00763"></trkpt>
      <trkpt lat="50.70333" lon="-3.00737"></trkpt>
      <trkpt lat="50.70326" lon="-3.00701"></trkpt>
      <trkpt lat="50.7034" lon="-3.00685"></trkpt>
      <trkpt lat="50.70342" lon="-3.00639"></trkpt>
      <trkpt lat="50.70336" lon="-3.00627"></trkpt>
      <trkpt lat="50.70333" lon="-3.00625"></trkpt>
      <trkpt lat="50.70331" lon="-3.00614"></trkpt>
      <trkpt lat="50.70342" lon="-3.00588"></trkpt>
      <trkpt lat="50.70345" lon="-3.00568"></trkpt>
      <trkpt lat="50.7037" lon="-3.00561"></trkpt>
      <trkpt lat="50.70386" lon="-3.00534"></trkpt>
      <trkpt lat="50.70363" lon="-3.00515"></trkpt>
      <trkpt lat="50.7035" lon="-3.00493"></trkpt>
      <trkpt lat="50.70353" lon="-3.00472"></trkpt>
      <trkpt lat="50.7036" lon="-3.0045"></trkpt>
      <trkpt lat="50.70361" lon="-3.00436"></trkpt>
      <trkpt lat="50.70354" lon="-3.00415"></trkpt>
      <trkpt lat="50.70368" lon="-3.00375"></trkpt>
      <trkpt lat="50.70369" lon="-3.00355"></trkpt>
      <trkpt lat="50.70372" lon="-3.00341"></trkpt>
      <trkpt lat="50.70374" lon="-3.00319"></trkpt>
      <trkpt lat="50.70378" lon="-3.00312"></trkpt>
      <trkpt lat="50.70378" lon="-3.00296"></trkpt>
      <trkpt lat="50.70372" lon="-3.00277"></trkpt>
      <trkpt lat="50.70371" lon="-3.00241"></trkpt>
      <trkpt lat="50.70378" lon="-3.00235"></trkpt>
      <trkpt lat="50.70384" lon="-3.00214"></trkpt>
      <trkpt lat="50.70402" lon="-3.00197"></trkpt>
      <trkpt lat="50.70415" lon="-3.00197"></trkpt>
      <trkpt lat="50.70428" lon="-3.00185"></trkpt>
      <trkpt lat="50.70435" lon="-3.00186"></trkpt>
      <trkpt lat="50.70444" lon="-3.00175"></trkpt>
      <trkpt lat="50.70449" lon="-3.00156"></trkpt>
      <trkpt lat="50.70462" lon="-3.00139"></trkpt>
      <trkpt lat="50.70471" lon="-3.0012"></trkpt>
      <trkpt lat="50.70483" lon="-3.00108"></trkpt>
      <trkpt lat="50.70497" lon="-3.00083"></trkpt>
      <trkpt lat="50.70506" lon="-3.00078"></trkpt>
      <trkpt lat="50.7051" lon="-3.00066"></trkpt>
      <trkpt lat="50.70523" lon="-3.00049"></trkpt>
      <trkpt lat="50.70533" lon="-3.00026"></trkpt>
      <trkpt lat="50.70545" lon="-3.00019"></trkpt>
      <trkpt lat="50.70549" lon="-3.0002"></trkpt>
      <trkpt lat="50.70556" lon="-2.99998"></trkpt>
      <trkpt lat="50.70564" lon="-2.99983"></trkpt>
      <trkpt lat="50.70563" lon="-2.99963"></trkpt>
      <trkpt lat="50.70571" lon="-2.99945"></trkpt>
      <trkpt lat="50.70578" lon="-2.99918"></trkpt>
      <trkpt lat="50.70572" lon="-2.99903"></trkpt>
      <trkpt lat="50.70566" lon="-2.99898"></trkpt>
      <trkpt lat="50.70569" lon="-2.99879"></trkpt>
      <trkpt lat="50.70576" lon="-2.99876"></trkpt>
      <trkpt lat="50.70577" lon="-2.99865"></trkpt>
      <trkpt lat="50.70581" lon="-2.99857"></trkpt>
      <trkpt lat="50.70586" lon="-2.99854"></trkpt>
      <trkpt lat="50.70588" lon="-2.99847"></trkpt>
      <trkpt lat="50.70589" lon="-2.99835"></trkpt>
      <trkpt lat="50.70593" lon="-2.9983"></trkpt>
      <trkpt lat="50.70596" lon="-2.99818"></trkpt>
      <trkpt lat="50.70595" lon="-2.99804"></trkpt>
      <trkpt lat="50.70592" lon="-2.99799"></trkpt>
      <trkpt lat="50.70585" lon="-2.99781"></trkpt>
      <trkpt lat="50.70594" lon="-2.9976"></trkpt>
      <trkpt lat="50.70593" lon="-2.99738"></trkpt>
      <trkpt lat="50.70594" lon="-2.99721"></trkpt>
      <trkpt lat="50.7061" lon="-2.99672"></trkpt>
      <trkpt lat="50.70619" lon="-2.99651"></trkpt>
      <trkpt lat="50.70626" lon="-2.99653"></trkpt>
      <trkpt lat="50.70633" lon="-2.99646"></trkpt>
      <trkpt lat="50.7065" lon="-2.99646"></trkpt>
      <trkpt lat="50.70654" lon="-2.99632"></trkpt>
      <trkpt lat="50.70653" lon="-2.99611"></trkpt>
      <trkpt lat="50.70656" lon="-2.99596"></trkpt>
      <trkpt lat="50.70662" lon="-2.99583"></trkpt>
      <trkpt lat="50.70659" lon="-2.99577"></trkpt>
      <trkpt lat="50.70658" lon="-2.99569"></trkpt>
      <trkpt lat="50.70673" lon="-2.99565"></trkpt>
      <trkpt lat="50.70679" lon="-2.99554"></trkpt>
      <trkpt lat="50.70693" lon="-2.99544"></trkpt>
      <trkpt lat="50.70708" lon="-2.99523"></trkpt>
      <trkpt lat="50.70707" lon="-2.99511"></trkpt>
      <trkpt lat="50.70715" lon="-2.99489"></trkpt>
      <trkpt lat="50.70724" lon="-2.99489"></trkpt>
      <trkpt lat="50.70721" lon="-2.99476"></trkpt>
      <trkpt lat="50.70724" lon="-2.99476"></trkpt>
      <trkpt lat="50.70722" lon="-2.99467"></trkpt>
      <trkpt lat="50.70729" lon="-2.99456"></trkpt>
      <trkpt lat="50.70728" lon="-2.9945"></trkpt>
      <trkpt lat="50.70723" lon="-2.99447"></trkpt>
      <trkpt lat="50.70724" lon="-2.99427"></trkpt>
      <trkpt lat="50.70728" lon="-2.99415"></trkpt>
      <trkpt lat="50.70732" lon="-2.99388"></trkpt>
      <trkpt lat="50.70735" lon="-2.99378"></trkpt>
      <trkpt lat="50.70732" lon="-2.99365"></trkpt>
      <trkpt lat="50.7072" lon="-2.99358"></trkpt>
      <trkpt lat="50.70727" lon="-2.99343"></trkpt>
      <trkpt lat="50.70729" lon="-2.99327"></trkpt>
      <trkpt lat="50.70732" lon="-2.99319"></trkpt>
      <trkpt lat="50.70742" lon="-2.99305"></trkpt>
      <trkpt lat="50.70746" lon="-2.99275"></trkpt>
      <trkpt lat="50.70752" lon="-2.99266"></trkpt>
      <trkpt lat="50.70753" lon="-2.99254"></trkpt>
      <trkpt lat="50.70751" lon="-2.99244"></trkpt>
      <trkpt lat="50.70756" lon="-2.99238"></trkpt>
      <trkpt lat="50.70761" lon="-2.99225"></trkpt>
      <trkpt lat="50.70765" lon="-2.99204"></trkpt>
      <trkpt lat="50.70763" lon="-2.99186"></trkpt>
      <trkpt lat="50.70774" lon="-2.99163"></trkpt>
      <trkpt lat="50.70775" lon="-2.99149"></trkpt>
      <trkpt lat="50.70774" lon="-2.99135"></trkpt>
      <trkpt lat="50.70769" lon="-2.99126"></trkpt>
      <trkpt lat="50.70768" lon="-2.99106"></trkpt>
      <trkpt lat="50.70764" lon="-2.991"></trkpt>
      <trkpt lat="50.70764" lon="-2.99081"></trkpt>
      <trkpt lat="50.70767" lon="-2.99073"></trkpt>
      <trkpt lat="50.70776" lon="-2.99065"></trkpt>
      <trkpt lat="50.7078" lon="-2.99049"></trkpt>
      <trkpt lat="50.7078" lon="-2.9901"></trkpt>
      <trkpt lat="50.70787" lon="-2.98971"></trkpt>
      <trkpt lat="50.70784" lon="-2.98965"></trkpt>
      <trkpt lat="50.70789" lon="-2.98951"></trkpt>
      <trkpt lat="50.70789" lon="-2.98943"></trkpt>
      <trkpt lat="50.70799" lon="-2.98919"></trkpt>
      <trkpt lat="50.70795" lon="-2.98901"></trkpt>
      <trkpt lat="50.70805" lon="-2.98886"></trkpt>
      <trkpt lat="50.7081" lon="-2.98884"></trkpt>
      <trkpt lat="50.7081" lon="-2.98877"></trkpt>
      <trkpt lat="50.70814" lon="-2.98867"></trkpt>
      <trkpt lat="50.70817" lon="-2.98854"></trkpt>
      <trkpt lat="50.70824" lon="-2.98848"></trkpt>
      <trkpt lat="50.70828" lon="-2.98835"></trkpt>
      <trkpt lat="50.70826" lon="-2.98819"></trkpt>
      <trkpt lat="50.70833" lon="-2.98825"></trkpt>
      <trkpt lat="50.70836" lon="-2.98812"></trkpt>
      <trkpt lat="50.70832" lon="-2.98789"></trkpt>
      <trkpt lat="50.70839" lon="-2.9877"></trkpt>
      <trkpt lat="50.70837" lon="-2.98759"></trkpt>
      <trkpt lat="50.70842" lon="-2.98751"></trkpt>
      <trkpt lat="50.70848" lon="-2.98733"></trkpt>
      <trkpt lat="50.70843" lon="-2.98726"></trkpt>
      <trkpt lat="50.70847" lon="-2.98715"></trkpt>
      <trkpt lat="50.70845" lon="-2.98687"></trkpt>
      <trkpt lat="50.7085" lon="-2.98684"></trkpt>
      <trkpt lat="50.70856" lon="-2.98665"></trkpt>
      <trkpt lat="50.70861" lon="-2.98624"></trkpt>
      <trkpt lat="50.70866" lon="-2.98621"></trkpt>
      <trkpt lat="50.70864" lon="-2.98591"></trkpt>
      <trkpt lat="50.70868" lon="-2.98575"></trkpt>
      <trkpt lat="50.70869" lon="-2.98561"></trkpt>
      <trkpt lat="50.70873" lon="-2.98551"></trkpt>
      <trkpt lat="50.70874" lon="-2.98526"></trkpt>
      <trkpt lat="50.70872" lon="-2.98519"></trkpt>
      <trkpt lat="50.70881" lon="-2.98501"></trkpt>
      <trkpt lat="50.70878" lon="-2.98492"></trkpt>
      <trkpt lat="50.70879" lon="-2.98474"></trkpt>
      <trkpt lat="50.70883" lon="-2.98458"></trkpt>
      <trkpt lat="50.70879" lon="-2.98454"></trkpt>
      <trkpt lat="50.70878" lon="-2.98436"></trkpt>
      <trkpt lat="50.70881" lon="-2.98428"></trkpt>
      <trkpt lat="50.7088" lon="-2.9841"></trkpt>
      <trkpt lat="50.70884" lon="-2.98401"></trkpt>
      <trkpt lat="50.70884" lon="-2.98384"></trkpt>
      <trkpt lat="50.70881" lon="-2.98384"></trkpt>
      <trkpt lat="50.7088" lon="-2.98355"></trkpt>
      <trkpt lat="50.70874" lon="-2.98351"></trkpt>
      <trkpt lat="50.70871" lon="-2.98346"></trkpt>
      <trkpt lat="50.70869" lon="-2.98333"></trkpt>
      <trkpt lat="50.70865" lon="-2.98328"></trkpt>
      <trkpt lat="50.70868" lon="-2.98321"></trkpt>
      <trkpt lat="50.70871" lon="-2.98296"></trkpt>
      <trkpt lat="50.70873" lon="-2.98292"></trkpt>
      <trkpt lat="50.70871" lon="-2.98285"></trkpt>
      <trkpt lat="50.7088" lon="-2.98272"></trkpt>
      <trkpt lat="50.70873" lon="-2.98259"></trkpt>
      <trkpt lat="50.70873" lon="-2.98251"></trkpt>
      <trkpt lat="50.70885" lon="-2.98249"></trkpt>
      <trkpt lat="50.70893" lon="-2.98241"></trkpt>
      <trkpt lat="50.70894" lon="-2.98232"></trkpt>
      <trkpt lat="50.70901" lon="-2.98228"></trkpt>
      <trkpt lat="50.70908" lon="-2.98228"></trkpt>
      <trkpt lat="50.70921" lon="-2.98222"></trkpt>
      <trkpt lat="50.70925" lon="-2.98215"></trkpt>
      <trkpt lat="50.7095" lon="-2.98203"></trkpt>
      <trkpt lat="50.7096" lon="-2.98188"></trkpt>
      <trkpt lat="50.70965" lon="-2.98169"></trkpt>
      <trkpt lat="50.70965" lon="-2.98156"></trkpt>
      <trkpt lat="50.70968" lon="-2.98141"></trkpt>
      <trkpt lat="50.70988" lon="-2.98125"></trkpt>
      <trkpt lat="50.70993" lon="-2.98113"></trkpt>
      <trkpt lat="50.70996" lon="-2.98097"></trkpt>
      <trkpt lat="50.70994" lon="-2.9808"></trkpt>
      <trkpt lat="50.70981" lon="-2.98073"></trkpt>
      <trkpt lat="50.70982" lon="-2.98061"></trkpt>
      <trkpt lat="50.70993" lon="-2.98044"></trkpt>
      <trkpt lat="50.70996" lon="-2.97982"></trkpt>
      <trkpt lat="50.70994" lon="-2.97932"></trkpt>
      <trkpt lat="50.70995" lon="-2.97916"></trkpt>
      <trkpt lat="50.70999" lon="-2.97906"></trkpt>
      <trkpt lat="50.71003" lon="-2.97871"></trkpt>
      <trkpt lat="50.71" lon="-2.97852"></trkpt>
      <trkpt lat="50.70991" lon="-2.97831"></trkpt>
      <trkpt lat="50.70986" lon="-2.97814"></trkpt>
      <trkpt lat="50.70985" lon="-2.97801"></trkpt>
      <trkpt lat="50.70967" lon="-2.97728"></trkpt>
      <trkpt lat="50.7096" lon="-2.97713"></trkpt>
      <trkpt lat="50.70957" lon="-2.97695"></trkpt>
      <trkpt lat="50.70957" lon="-2.97672"></trkpt>
      <trkpt lat="50.70963" lon="-2.97644"></trkpt>
      <trkpt lat="50.70959" lon="-2.97584"></trkpt>
      <trkpt lat="50.70951" lon="-2.97571"></trkpt>
      <trkpt lat="50.70949" lon="-2.97571"></trkpt>
      <trkpt lat="50.7094" lon="-2.97568"></trkpt>
      <trkpt lat="50.70926" lon="-2.9755"></trkpt>
      <trkpt lat="50.70923" lon="-2.97543"></trkpt>
      <trkpt lat="50.70923" lon="-2.97527"></trkpt>
      <trkpt lat="50.70927" lon="-2.97508"></trkpt>
      <trkpt lat="50.70933" lon="-2.97498"></trkpt>
      <trkpt lat="50.70946" lon="-2.97464"></trkpt>
      <trkpt lat="50.70984" lon="-2.9742"></trkpt>
      <trkpt lat="50.70989" lon="-2.97405"></trkpt>
      <trkpt lat="50.7099" lon="-2.97393"></trkpt>
      <trkpt lat="50.71019" lon="-2.97329"></trkpt>
      <trkpt lat="50.71028" lon="-2.97316"></trkpt>
      <trkpt lat="50.71044" lon="-2.97302"></trkpt>
      <trkpt lat="50.71055" lon="-2.97241"></trkpt>
      <trkpt lat="50.71061" lon="-2.97222"></trkpt>
      <trkpt lat="50.71072" lon="-2.97197"></trkpt>
      <trkpt lat="50.71073" lon="-2.97187"></trkpt>
      <trkpt lat="50.71083" lon="-2.97168"></trkpt>
      <trkpt lat="50.71093" lon="-2.97159"></trkpt>
      <trkpt lat="50.71108" lon="-2.97153"></trkpt>
      <trkpt lat="50.71116" lon="-2.97145"></trkpt>
      <trkpt lat="50.71128" lon="-2.97115"></trkpt>
      <trkpt lat="50.71141" lon="-2.97093"></trkpt>
      <trkpt lat="50.7116" lon="-2.97076"></trkpt>
      <trkpt lat="50.71167" lon="-2.97065"></trkpt>
      <trkpt lat="50.71176" lon="-2.97056"></trkpt>
      <trkpt lat="50.71181" lon="-2.97047"></trkpt>
      <trkpt lat="50.7119" lon="-2.9704"></trkpt>
      <trkpt lat="50.71216" lon="-2.97005"></trkpt>
      <trkpt lat="50.71234" lon="-2.96986"></trkpt>
      <trkpt lat="50.71264" lon="-2.96966"></trkpt>
      <trkpt lat="50.71275" lon="-2.96948"></trkpt>
      <trkpt lat="50.71304" lon="-2.96931"></trkpt>
      <trkpt lat="50.71312" lon="-2.96917"></trkpt>
      <trkpt lat="50.7131" lon="-2.96904"></trkpt>
      <trkpt lat="50.71312" lon="-2.96888"></trkpt>
      <trkpt lat="50.71312" lon="-2.96889"></trkpt>
      <trkpt lat="50.71312" lon="-2.96878"></trkpt>
      <trkpt lat="50.71327" lon="-2.96906"></trkpt>
      <trkpt lat="50.71334" lon="-2.9689"></trkpt>
      <trkpt lat="50.71385" lon="-2.96872"></trkpt>
      <trkpt lat="50.7139" lon="-2.96854"></trkpt>
      <trkpt lat="50.71393" lon="-2.96824"></trkpt>
      <trkpt lat="50.71389" lon="-2.96814"></trkpt>
      <trkpt lat="50.71403" lon="-2.96774"></trkpt>
      <trkpt lat="50.714" lon="-2.96754"></trkpt>
      <trkpt lat="50.71407" lon="-2.96704"></trkpt>
      <trkpt lat="50.71419" lon="-2.96653"></trkpt>
      <trkpt lat="50.71424" lon="-2.96644"></trkpt>
      <trkpt lat="50.71431" lon="-2.96639"></trkpt>
      <trkpt lat="50.71438" lon="-2.96627"></trkpt>
      <trkpt lat="50.71443" lon="-2.96593"></trkpt>
      <trkpt lat="50.71449" lon="-2.96572"></trkpt>
      <trkpt lat="50.71443" lon="-2.9653"></trkpt>
      <trkpt lat="50.71448" lon="-2.96518"></trkpt>
      <trkpt lat="50.71457" lon="-2.96512"></trkpt>
      <trkpt lat="50.71463" lon="-2.96496"></trkpt>
      <trkpt lat="50.71467" lon="-2.9647"></trkpt>
      <trkpt lat="50.71474" lon="-2.96445"></trkpt>
      <trkpt lat="50.71486" lon="-2.96339"></trkpt>
      <trkpt lat="50.71497" lon="-2.96303"></trkpt>
      <trkpt lat="50.71503" lon="-2.96268"></trkpt>
      <trkpt lat="50.71514" lon="-2.96239"></trkpt>
      <trkpt lat="50.71519" lon="-2.96232"></trkpt>
      <trkpt lat="50.71526" lon="-2.9619"></trkpt>
      <trkpt lat="50.71533" lon="-2.96184"></trkpt>
      <trkpt lat="50.71539" lon="-2.96186"></trkpt>
      <trkpt lat="50.71545" lon="-2.9618"></trkpt>
      <trkpt lat="50.71545" lon="-2.96141"></trkpt>
      <trkpt lat="50.71547" lon="-2.96127"></trkpt>
      <trkpt lat="50.71548" lon="-2.96118"></trkpt>
      <trkpt lat="50.71557" lon="-2.96108"></trkpt>
      <trkpt lat="50.71573" lon="-2.96097"></trkpt>
      <trkpt lat="50.71577" lon="-2.96091"></trkpt>
      <trkpt lat="50.7158" lon="-2.96069"></trkpt>
      <trkpt lat="50.71582" lon="-2.96033"></trkpt>
      <trkpt lat="50.71589" lon="-2.96012"></trkpt>
      <trkpt lat="50.7159" lon="-2.95993"></trkpt>
      <trkpt lat="50.71608" lon="-2.95961"></trkpt>
      <trkpt lat="50.71603" lon="-2.95936"></trkpt>
      <trkpt lat="50.71598" lon="-2.95925"></trkpt>
      <trkpt lat="50.71599" lon="-2.95907"></trkpt>
      <trkpt lat="50.71611" lon="-2.95888"></trkpt>
      <trkpt lat="50.71619" lon="-2.95888"></trkpt>
      <trkpt lat="50.71639" lon="-2.95865"></trkpt>
      <trkpt lat="50.71642" lon="-2.95852"></trkpt>
      <trkpt lat="50.71653" lon="-2.95844"></trkpt>
      <trkpt lat="50.71661" lon="-2.9583"></trkpt>
      <trkpt lat="50.71667" lon="-2.95833"></trkpt>
      <trkpt lat="50.7168" lon="-2.95817"></trkpt>
      <trkpt lat="50.71691" lon="-2.95788"></trkpt>
      <trkpt lat="50.717" lon="-2.95781"></trkpt>
      <trkpt lat="50.71705" lon="-2.95766"></trkpt>
      <trkpt lat="50.71715" lon="-2.95757"></trkpt>
      <trkpt lat="50.71715" lon="-2.95749"></trkpt>
      <trkpt lat="50.71725" lon="-2.9573"></trkpt>
      <trkpt lat="50.71728" lon="-2.9571"></trkpt>
      <trkpt lat="50.71739" lon="-2.95704"></trkpt>
      <trkpt lat="50.71746" lon="-2.95695"></trkpt>
      <trkpt lat="50.71763" lon="-2.95662"></trkpt>
      <trkpt lat="50.71782" lon="-2.95649"></trkpt>
      <trkpt lat="50.71791" lon="-2.95625"></trkpt>
      <trkpt lat="50.71795" lon="-2.95603"></trkpt>
      <trkpt lat="50.71804" lon="-2.95585"></trkpt>
      <trkpt lat="50.7181" lon="-2.95569"></trkpt>
      <trkpt lat="50.71819" lon="-2.95567"></trkpt>
      <trkpt lat="50.71832" lon="-2.95558"></trkpt>
      <trkpt lat="50.71841" lon="-2.9553"></trkpt>
      <trkpt lat="50.71842" lon="-2.95517"></trkpt>
      <trkpt lat="50.71849" lon="-2.95512"></trkpt>
      <trkpt lat="50.71862" lon="-2.95491"></trkpt>
      <trkpt lat="50.71894" lon="-2.95462"></trkpt>
      <trkpt lat="50.71898" lon="-2.95453"></trkpt>
      <trkpt lat="50.71893" lon="-2.95455"></trkpt>
      <trkpt lat="50.71886" lon="-2.95452"></trkpt>
      <trkpt lat="50.71882" lon="-2.95445"></trkpt>
      <trkpt lat="50.71878" lon="-2.95425"></trkpt>
      <trkpt lat="50.71882" lon="-2.95445"></trkpt>
      <trkpt lat="50.71886" lon="-2.95452"></trkpt>
      <trkpt lat="50.71893" lon="-2.95455"></trkpt>
      <trkpt lat="50.71898" lon="-2.95453"></trkpt>
      <trkpt lat="50.71919" lon="-2.95427"></trkpt>
      <trkpt lat="50.7192" lon="-2.95405"></trkpt>
      <trkpt lat="50.71926" lon="-2.95395"></trkpt>
      <trkpt lat="50.71947" lon="-2.95367"></trkpt>
      <trkpt lat="50.71947" lon="-2.95357"></trkpt>
      <trkpt lat="50.71957" lon="-2.95338"></trkpt>
      <trkpt lat="50.71962" lon="-2.95323"></trkpt>
      <trkpt lat="50.71966" lon="-2.95321"></trkpt>
      <trkpt lat="50.71975" lon="-2.95288"></trkpt>
      <trkpt lat="50.71974" lon="-2.95278"></trkpt>
      <trkpt lat="50.71992" lon="-2.95248"></trkpt>
      <trkpt lat="50.71997" lon="-2.95205"></trkpt>
      <trkpt lat="50.72006" lon="-2.95179"></trkpt>
      <trkpt lat="50.72011" lon="-2.9517"></trkpt>
      <trkpt lat="50.72004" lon="-2.95169"></trkpt>
      <trkpt lat="50.72021" lon="-2.95158"></trkpt>
      <trkpt lat="50.72023" lon="-2.95147"></trkpt>
      <trkpt lat="50.72028" lon="-2.95132"></trkpt>
      <trkpt lat="50.72041" lon="-2.95107"></trkpt>
      <trkpt lat="50.72045" lon="-2.95091"></trkpt>
      <trkpt lat="50.72043" lon="-2.95069"></trkpt>
      <trkpt lat="50.7206" lon="-2.95033"></trkpt>
      <trkpt lat="50.72073" lon="-2.95014"></trkpt>
      <trkpt lat="50.72071" lon="-2.95008"></trkpt>
      <trkpt lat="50.72072" lon="-2.94995"></trkpt>
      <trkpt lat="50.72084" lon="-2.94967"></trkpt>
      <trkpt lat="50.72086" lon="-2.94954"></trkpt>
      <trkpt lat="50.72085" lon="-2.94927"></trkpt>
      <trkpt lat="50.721" lon="-2.94876"></trkpt>
      <trkpt lat="50.72091" lon="-2.94868"></trkpt>
      <trkpt lat="50.72085" lon="-2.94849"></trkpt>
      <trkpt lat="50.72071" lon="-2.94756"></trkpt>
      <trkpt lat="50.72058" lon="-2.94712"></trkpt>
      <trkpt lat="50.72062" lon="-2.94676"></trkpt>
      <trkpt lat="50.72062" lon="-2.94662"></trkpt>
      <trkpt lat="50.72048" lon="-2.94625"></trkpt>
      <trkpt lat="50.7204" lon="-2.94604"></trkpt>
      <trkpt lat="50.72041" lon="-2.94596"></trkpt>
      <trkpt lat="50.72067" lon="-2.94551"></trkpt>
      <trkpt lat="50.72108" lon="-2.94496"></trkpt>
      <trkpt lat="50.72121" lon="-2.94486"></trkpt>
      <trkpt lat="50.72131" lon="-2.94475"></trkpt>
      <trkpt lat="50.72136" lon="-2.94448"></trkpt>
      <trkpt lat="50.7214" lon="-2.9441"></trkpt>
      <trkpt lat="50.7214" lon="-2.94401"></trkpt>
      <trkpt lat="50.72144" lon="-2.94396"></trkpt>
      <trkpt lat="50.72155" lon="-2.9439"></trkpt>
      <trkpt lat="50.72158" lon="-2.94387"></trkpt>
      <trkpt lat="50.72164" lon="-2.94369"></trkpt>
      <trkpt lat="50.72168" lon="-2.94314"></trkpt>
      <trkpt lat="50.72167" lon="-2.94304"></trkpt>
      <trkpt lat="50.72155" lon="-2.943"></trkpt>
      <trkpt lat="50.72147" lon="-2.94291"></trkpt>
      <trkpt lat="50.72147" lon="-2.94284"></trkpt>
      <trkpt lat="50.72144" lon="-2.94271"></trkpt>
      <trkpt lat="50.7214" lon="-2.94266"></trkpt>
      <trkpt lat="50.72141" lon="-2.94251"></trkpt>
      <trkpt lat="50.72138" lon="-2.94222"></trkpt>
      <trkpt lat="50.72124" lon="-2.94202"></trkpt>
      <trkpt lat="50.72125" lon="-2.94192"></trkpt>
      <trkpt lat="50.72111" lon="-2.94168"></trkpt>
      <trkpt lat="50.72105" lon="-2.94165"></trkpt>
      <trkpt lat="50.72102" lon="-2.94156"></trkpt>
      <trkpt lat="50.72099" lon="-2.94154"></trkpt>
      <trkpt lat="50.72098" lon="-2.94151"></trkpt>
      <trkpt lat="50.72099" lon="-2.94146"></trkpt>
      <trkpt lat="50.72094" lon="-2.94144"></trkpt>
      <trkpt lat="50.7209" lon="-2.94132"></trkpt>
      <trkpt lat="50.72076" lon="-2.9412"></trkpt>
      <trkpt lat="50.72074" lon="-2.94115"></trkpt>
      <trkpt lat="50.72065" lon="-2.94102"></trkpt>
      <trkpt lat="50.72022" lon="-2.94078"></trkpt>
      <trkpt lat="50.72032" lon="-2.94021"></trkpt>
      <trkpt lat="50.72035" lon="-2.93996"></trkpt>
      <trkpt lat="50.7204" lon="-2.94002"></trkpt>
      <trkpt lat="50.72058" lon="-2.94013"></trkpt>
      <trkpt lat="50.72074" lon="-2.93949"></trkpt>
      <trkpt lat="50.72073" lon="-2.93949"></trkpt>
      <trkpt lat="50.72082" lon="-2.93925"></trkpt>
      <trkpt lat="50.72086" lon="-2.9393"></trkpt>
      <trkpt lat="50.72099" lon="-2.93926"></trkpt>
      <trkpt lat="50.72174" lon="-2.93874"></trkpt>
      <trkpt lat="50.72267" lon="-2.93795"></trkpt>
      <trkpt lat="50.72283" lon="-2.9377"></trkpt>
      <trkpt lat="50.72299" lon="-2.93736"></trkpt>
      <trkpt lat="50.7233" lon="-2.93676"></trkpt>
      <trkpt lat="50.72347" lon="-2.93637"></trkpt>
      <trkpt lat="50.7236" lon="-2.93597"></trkpt>
      <trkpt lat="50.72361" lon="-2.93587"></trkpt>
      <trkpt lat="50.72369" lon="-2.93547"></trkpt>
      <trkpt lat="50.72389" lon="-2.93488"></trkpt>
      <trkpt lat="50.72408" lon="-2.93424"></trkpt>
      <trkpt lat="50.72407" lon="-2.93424"></trkpt>
      <trkpt lat="50.72429" lon="-2.93329"></trkpt>
      <trkpt lat="50.72434" lon="-2.93322"></trkpt>
      <trkpt lat="50.72443" lon="-2.93301"></trkpt>
      <trkpt lat="50.72448" lon="-2.93301"></trkpt>
      <trkpt lat="50.7245" lon="-2.93276"></trkpt>
      <trkpt lat="50.72455" lon="-2.93256"></trkpt>
      <trkpt lat="50.72462" lon="-2.93242"></trkpt>
      <trkpt lat="50.72464" lon="-2.93235"></trkpt>
      <trkpt lat="50.72464" lon="-2.93219"></trkpt>
      <trkpt lat="50.7247" lon="-2.93194"></trkpt>
      <trkpt lat="50.72474" lon="-2.93167"></trkpt>
      <trkpt lat="50.72492" lon="-2.9314"></trkpt>
      <trkpt lat="50.72492" lon="-2.93129"></trkpt>
      <trkpt lat="50.72495" lon="-2.93118"></trkpt>
      <trkpt lat="50.72506" lon="-2.93097"></trkpt>
      <trkpt lat="50.7251" lon="-2.93099"></trkpt>
      <trkpt lat="50.72526" lon="-2.93019"></trkpt>
      <trkpt lat="50.72542" lon="-2.93016"></trkpt>
      <trkpt lat="50.72547" lon="-2.93048"></trkpt>
      <trkpt lat="50.72561" lon="-2.93056"></trkpt>
      <trkpt lat="50.72584" lon="-2.93053"></trkpt>
      <trkpt lat="50.72605" lon="-2.93037"></trkpt>
      <trkpt lat="50.72604" lon="-2.93037"></trkpt>
      <trkpt lat="50.72618" lon="-2.93025"></trkpt>
      <trkpt lat="50.72632" lon="-2.93018"></trkpt>
      <trkpt lat="50.72653" lon="-2.92994"></trkpt>
      <trkpt lat="50.72681" lon="-2.92955"></trkpt>
      <trkpt lat="50.72692" lon="-2.92928"></trkpt>
      <trkpt lat="50.72698" lon="-2.92921"></trkpt>
      <trkpt lat="50.72714" lon="-2.92922"></trkpt>
      <trkpt lat="50.72733" lon="-2.92915"></trkpt>
      <trkpt lat="50.72733" lon="-2.92919"></trkpt>
      <trkpt lat="50.72744" lon="-2.92917"></trkpt>
      <trkpt lat="50.72745" lon="-2.92932"></trkpt>
      <trkpt lat="50.72753" lon="-2.92936"></trkpt>
      <trkpt lat="50.72781" lon="-2.92964"></trkpt>
      <trkpt lat="50.72802" lon="-2.92965"></trkpt>
      <trkpt lat="50.72844" lon="-2.92969"></trkpt>
      <trkpt lat="50.72852" lon="-2.92995"></trkpt>
      <trkpt lat="50.72857" lon="-2.92999"></trkpt>
      <trkpt lat="50.7287" lon="-2.92996"></trkpt>
      <trkpt lat="50.72884" lon="-2.93"></trkpt>
      <trkpt lat="50.72894" lon="-2.93008"></trkpt>
      <trkpt lat="50.72902" lon="-2.9301"></trkpt>
      <trkpt lat="50.72893" lon="-2.93085"></trkpt>
      <trkpt lat="50.7289" lon="-2.93137"></trkpt>
      <trkpt lat="50.7288" lon="-2.93133"></trkpt>
      <trkpt lat="50.72925" lon="-2.93149"></trkpt>
      <trkpt lat="50.72977" lon="-2.9314"></trkpt>
      <trkpt lat="50.73041" lon="-2.93157"></trkpt>
      <trkpt lat="50.7308" lon="-2.93117"></trkpt>
      <trkpt lat="50.73195" lon="-2.93019"></trkpt>
      <trkpt lat="50.732" lon="-2.93"></trkpt>
      <trkpt lat="50.73208" lon="-2.9298"></trkpt>
      <trkpt lat="50.73224" lon="-2.92963"></trkpt>
      <trkpt lat="50.73276" lon="-2.92921"></trkpt>
      <trkpt lat="50.73291" lon="-2.92895"></trkpt>
      <trkpt lat="50.73366" lon="-2.92892"></trkpt>
      <trkpt lat="50.73386" lon="-2.929"></trkpt>
      <trkpt lat="50.73417" lon="-2.92911"></trkpt>
      <trkpt lat="50.73423" lon="-2.92916"></trkpt>
      <trkpt lat="50.73423" lon="-2.92936"></trkpt>
      <trkpt lat="50.73413" lon="-2.93036"></trkpt>
      <trkpt lat="50.73416" lon="-2.93049"></trkpt>
      <trkpt lat="50.73426" lon="-2.93038"></trkpt>
      <trkpt lat="50.73451" lon="-2.9303"></trkpt>
      <trkpt lat="50.73469" lon="-2.93032"></trkpt>
      <trkpt lat="50.73524" lon="-2.93046"></trkpt>
      <trkpt lat="50.73607" lon="-2.93054"></trkpt>
      <trkpt lat="50.73687" lon="-2.93057"></trkpt>
      <trkpt lat="50.73706" lon="-2.93049"></trkpt>
      <trkpt lat="50.73765" lon="-2.92997"></trkpt>
      <trkpt lat="50.73833" lon="-2.92921"></trkpt>
      <trkpt lat="50.73832" lon="-2.92921"></trkpt>
      <trkpt lat="50.73898" lon="-2.92854"></trkpt>
      <trkpt lat="50.73907" lon="-2.92848"></trkpt>
      <trkpt lat="50.73917" lon="-2.92849"></trkpt>
      <trkpt lat="50.73923" lon="-2.92838"></trkpt>
      <trkpt lat="50.73933" lon="-2.92826"></trkpt>
      <trkpt lat="50.73948" lon="-2.92813"></trkpt>
      <trkpt lat="50.73987" lon="-2.92787"></trkpt>
      <trkpt lat="50.73985" lon="-2.92779"></trkpt>
      <trkpt lat="50.73985" lon="-2.9276"></trkpt>
      <trkpt lat="50.73996" lon="-2.92639"></trkpt>
      <trkpt lat="50.74008" lon="-2.92538"></trkpt>
      <trkpt lat="50.74021" lon="-2.92458"></trkpt>
      <trkpt lat="50.74026" lon="-2.92376"></trkpt>
      <trkpt lat="50.74033" lon="-2.92288"></trkpt>
      <trkpt lat="50.74041" lon="-2.92232"></trkpt>
      <trkpt lat="50.74051" lon="-2.9221"></trkpt>
      <trkpt lat="50.74056" lon="-2.92187"></trkpt>
      <trkpt lat="50.7407" lon="-2.9217"></trkpt>
      <trkpt lat="50.74085" lon="-2.92161"></trkpt>
      <trkpt lat="50.74112" lon="-2.92149"></trkpt>
      <trkpt lat="50.74152" lon="-2.9214"></trkpt>
      <trkpt lat="50.74199" lon="-2.92141"></trkpt>
      <trkpt lat="50.74246" lon="-2.92135"></trkpt>
      <trkpt lat="50.74258" lon="-2.92127"></trkpt>
      <trkpt lat="50.74278" lon="-2.92094"></trkpt>
      <trkpt lat="50.7428" lon="-2.9208"></trkpt>
      <trkpt lat="50.74278" lon="-2.9207"></trkpt>
      <trkpt lat="50.74252" lon="-2.91993"></trkpt>
      <trkpt lat="50.74247" lon="-2.91984"></trkpt>
      <trkpt lat="50.74243" lon="-2.91982"></trkpt>
      <trkpt lat="50.74223" lon="-2.91999"></trkpt>
      <trkpt lat="50.74219" lon="-2.92"></trkpt>
      <trkpt lat="50.74216" lon="-2.91998"></trkpt>
      <trkpt lat="50.74215" lon="-2.91992"></trkpt>
      <trkpt lat="50.74217" lon="-2.91988"></trkpt>
      <trkpt lat="50.74225" lon="-2.91979"></trkpt>
      <trkpt lat="50.74244" lon="-2.91944"></trkpt>
      <trkpt lat="50.74228" lon="-2.91895"></trkpt>
      <trkpt lat="50.74212" lon="-2.91839"></trkpt>
      <trkpt lat="50.74184" lon="-2.91724"></trkpt>
      <trkpt lat="50.74169" lon="-2.91676"></trkpt>
      <trkpt lat="50.74154" lon="-2.91638"></trkpt>
      <trkpt lat="50.74132" lon="-2.91597"></trkpt>
      <trkpt lat="50.74095" lon="-2.91541"></trkpt>
      <trkpt lat="50.74079" lon="-2.91507"></trkpt>
      <trkpt lat="50.74078" lon="-2.91445"></trkpt>
      <trkpt lat="50.74068" lon="-2.91415"></trkpt>
      <trkpt lat="50.74066" lon="-2.91399"></trkpt>
      <trkpt lat="50.74066" lon="-2.91366"></trkpt>
      <trkpt lat="50.74074" lon="-2.91286"></trkpt>
      <trkpt lat="50.74074" lon="-2.91251"></trkpt>
      <trkpt lat="50.74066" lon="-2.91203"></trkpt>
      <trkpt lat="50.74052" lon="-2.91154"></trkpt>
      <trkpt lat="50.74007" lon="-2.91003"></trkpt>
      <trkpt lat="50.73999" lon="-2.90959"></trkpt>
      <trkpt lat="50.73988" lon="-2.90837"></trkpt>
      <trkpt lat="50.7398" lon="-2.90805"></trkpt>
      <trkpt lat="50.73972" lon="-2.90789"></trkpt>
      <trkpt lat="50.73952" lon="-2.90765"></trkpt>
      <trkpt lat="50.73909" lon="-2.90719"></trkpt>
      <trkpt lat="50.73888" lon="-2.90684"></trkpt>
      <trkpt lat="50.7385" lon="-2.9058"></trkpt>
      <trkpt lat="50.73842" lon="-2.90546"></trkpt>
      <trkpt lat="50.73821" lon="-2.90536"></trkpt>
      <trkpt lat="50.73799" lon="-2.90517"></trkpt>
      <trkpt lat="50.73746" lon="-2.90492"></trkpt>
      <trkpt lat="50.73715" lon="-2.90488"></trkpt>
      <trkpt lat="50.73706" lon="-2.90484"></trkpt>
      <trkpt lat="50.73706" lon="-2.90482"></trkpt>
      <trkpt lat="50.73706" lon="-2.90484"></trkpt>
      <trkpt lat="50.73618" lon="-2.90454"></trkpt>
      <trkpt lat="50.7355" lon="-2.90417"></trkpt>
      <trkpt lat="50.73513" lon="-2.90371"></trkpt>
      <trkpt lat="50.7349" lon="-2.90354"></trkpt>
      <trkpt lat="50.73427" lon="-2.90318"></trkpt>
      <trkpt lat="50.73422" lon="-2.90313"></trkpt>
      <trkpt lat="50.73412" lon="-2.9029"></trkpt>
      <trkpt lat="50.73374" lon="-2.90271"></trkpt>
      <trkpt lat="50.73356" lon="-2.90256"></trkpt>
      <trkpt lat="50.73341" lon="-2.90231"></trkpt>
      <trkpt lat="50.73337" lon="-2.90215"></trkpt>
      <trkpt lat="50.73338" lon="-2.90207"></trkpt>
      <trkpt lat="50.73335" lon="-2.90198"></trkpt>
      <trkpt lat="50.73335" lon="-2.90188"></trkpt>
      <trkpt lat="50.73356" lon="-2.90169"></trkpt>
      <trkpt lat="50.7337" lon="-2.90225"></trkpt>
      <trkpt lat="50.73356" lon="-2.90169"></trkpt>
      <trkpt lat="50.73392" lon="-2.90138"></trkpt>
      <trkpt lat="50.73415" lon="-2.90124"></trkpt>
      <trkpt lat="50.7348" lon="-2.90098"></trkpt>
      <trkpt lat="50.73497" lon="-2.90096"></trkpt>
      <trkpt lat="50.73496" lon="-2.90065"></trkpt>
      <trkpt lat="50.73509" lon="-2.90029"></trkpt>
      <trkpt lat="50.73547" lon="-2.89957"></trkpt>
      <trkpt lat="50.73571" lon="-2.89921"></trkpt>
      <trkpt lat="50.73599" lon="-2.89897"></trkpt>
      <trkpt lat="50.73629" lon="-2.89875"></trkpt>
      <trkpt lat="50.73746" lon="-2.89805"></trkpt>
      <trkpt lat="50.73772" lon="-2.89792"></trkpt>
      <trkpt lat="50.73818" lon="-2.89762"></trkpt>
      <trkpt lat="50.73834" lon="-2.89742"></trkpt>
      <trkpt lat="50.73857" lon="-2.89727"></trkpt>
      <trkpt lat="50.73891" lon="-2.89715"></trkpt>
      <trkpt lat="50.73897" lon="-2.89709"></trkpt>
      <trkpt lat="50.73909" lon="-2.89715"></trkpt>
      <trkpt lat="50.73927" lon="-2.89738"></trkpt>
      <trkpt lat="50.73933" lon="-2.89743"></trkpt>
      <trkpt lat="50.73942" lon="-2.89744"></trkpt>
      <trkpt lat="50.7394" lon="-2.89679"></trkpt>
      <trkpt lat="50.73941" lon="-2.89679"></trkpt>
      <trkpt lat="50.73939" lon="-2.89661"></trkpt>
      <trkpt lat="50.73932" lon="-2.89624"></trkpt>
      <trkpt lat="50.73924" lon="-2.89599"></trkpt>
      <trkpt lat="50.7391" lon="-2.89571"></trkpt>
      <trkpt lat="50.73849" lon="-2.8949"></trkpt>
      <trkpt lat="50.73834" lon="-2.89463"></trkpt>
      <trkpt lat="50.73799" lon="-2.89374"></trkpt>
      <trkpt lat="50.73797" lon="-2.89348"></trkpt>
      <trkpt lat="50.73791" lon="-2.89347"></trkpt>
      <trkpt lat="50.73785" lon="-2.89342"></trkpt>
      <trkpt lat="50.73779" lon="-2.89326"></trkpt>
      <trkpt lat="50.73762" lon="-2.89242"></trkpt>
      <trkpt lat="50.73751" lon="-2.89208"></trkpt>
      <trkpt lat="50.73744" lon="-2.89194"></trkpt>
      <trkpt lat="50.73736" lon="-2.89183"></trkpt>
      <trkpt lat="50.73718" lon="-2.89171"></trkpt>
      <trkpt lat="50.73711" lon="-2.89161"></trkpt>
      <trkpt lat="50.73707" lon="-2.89146"></trkpt>
      <trkpt lat="50.73702" lon="-2.89101"></trkpt>
      <trkpt lat="50.73687" lon="-2.8903"></trkpt>
      <trkpt lat="50.73678" lon="-2.88961"></trkpt>
      <trkpt lat="50.73673" lon="-2.88942"></trkpt>
      <trkpt lat="50.73659" lon="-2.88903"></trkpt>
      <trkpt lat="50.73617" lon="-2.88799"></trkpt>
      <trkpt lat="50.73596" lon="-2.88733"></trkpt>
      <trkpt lat="50.73578" lon="-2.88692"></trkpt>
      <trkpt lat="50.73572" lon="-2.88662"></trkpt>
      <trkpt lat="50.73569" lon="-2.88636"></trkpt>
      <trkpt lat="50.73569" lon="-2.88608"></trkpt>
      <trkpt lat="50.7358" lon="-2.88557"></trkpt>
      <trkpt lat="50.73594" lon="-2.88511"></trkpt>
      <trkpt lat="50.73602" lon="-2.88459"></trkpt>
      <trkpt lat="50.73603" lon="-2.88417"></trkpt>
      <trkpt lat="50.73599" lon="-2.88366"></trkpt>
      <trkpt lat="50.73587" lon="-2.88293"></trkpt>
      <trkpt lat="50.73586" lon="-2.88246"></trkpt>
      <trkpt lat="50.73589" lon="-2.88182"></trkpt>
      <trkpt lat="50.73603" lon="-2.88062"></trkpt>
      <trkpt lat="50.73604" lon="-2.88018"></trkpt>
      <trkpt lat="50.7359" lon="-2.87912"></trkpt>
      <trkpt lat="50.7359" lon="-2.87886"></trkpt>
      <trkpt lat="50.73591" lon="-2.8786"></trkpt>
      <trkpt lat="50.73586" lon="-2.87812"></trkpt>
      <trkpt lat="50.73558" lon="-2.87823"></trkpt>
      <trkpt lat="50.73556" lon="-2.87826"></trkpt>
      <trkpt lat="50.73473" lon="-2.87801"></trkpt>
      <trkpt lat="50.73451" lon="-2.87783"></trkpt>
      <trkpt lat="50.73444" lon="-2.87802"></trkpt>
      <trkpt lat="50.73434" lon="-2.87798"></trkpt>
      <trkpt lat="50.73422" lon="-2.87803"></trkpt>
      <trkpt lat="50.73399" lon="-2.87823"></trkpt>
      <trkpt lat="50.7335" lon="-2.87806"></trkpt>
      <trkpt lat="50.73341" lon="-2.87794"></trkpt>
      <trkpt lat="50.73321" lon="-2.87812"></trkpt>
      <trkpt lat="50.73313" lon="-2.87816"></trkpt>
      <trkpt lat="50.73293" lon="-2.87789"></trkpt>
      <trkpt lat="50.7327" lon="-2.87775"></trkpt>
      <trkpt lat="50.73222" lon="-2.87739"></trkpt>
      <trkpt lat="50.73179" lon="-2.87699"></trkpt>
      <trkpt lat="50.73164" lon="-2.87657"></trkpt>
      <trkpt lat="50.73156" lon="-2.87614"></trkpt>
      <trkpt lat="50.73157" lon="-2.87575"></trkpt>
      <trkpt lat="50.73152" lon="-2.87507"></trkpt>
      <trkpt lat="50.73153" lon="-2.87489"></trkpt>
      <trkpt lat="50.73152" lon="-2.87475"></trkpt>
      <trkpt lat="50.73146" lon="-2.87457"></trkpt>
      <trkpt lat="50.73127" lon="-2.87426"></trkpt>
      <trkpt lat="50.73073" lon="-2.87315"></trkpt>
      <trkpt lat="50.73046" lon="-2.8728"></trkpt>
      <trkpt lat="50.73018" lon="-2.87112"></trkpt>
      <trkpt lat="50.73011" lon="-2.871"></trkpt>
      <trkpt lat="50.73007" lon="-2.87099"></trkpt>
      <trkpt lat="50.73003" lon="-2.87094"></trkpt>
      <trkpt lat="50.73002" lon="-2.87085"></trkpt>
      <trkpt lat="50.73016" lon="-2.87045"></trkpt>
      <trkpt lat="50.73055" lon="-2.8696"></trkpt>
      <trkpt lat="50.73073" lon="-2.86911"></trkpt>
      <trkpt lat="50.73073" lon="-2.86912"></trkpt>
      <trkpt lat="50.73079" lon="-2.86892"></trkpt>
      <trkpt lat="50.73077" lon="-2.86872"></trkpt>
      <trkpt lat="50.72986" lon="-2.86805"></trkpt>
      <trkpt lat="50.72969" lon="-2.86777"></trkpt>
      <trkpt lat="50.72961" lon="-2.86752"></trkpt>
      <trkpt lat="50.72961" lon="-2.86733"></trkpt>
      <trkpt lat="50.72965" lon="-2.86729"></trkpt>
      <trkpt lat="50.72964" lon="-2.86713"></trkpt>
      <trkpt lat="50.72955" lon="-2.86684"></trkpt>
      <trkpt lat="50.72968" lon="-2.86642"></trkpt>
      <trkpt lat="50.72968" lon="-2.86643"></trkpt>
      <trkpt lat="50.72994" lon="-2.86546"></trkpt>
      <trkpt lat="50.7301" lon="-2.86472"></trkpt>
      <trkpt lat="50.73015" lon="-2.86438"></trkpt>
      <trkpt lat="50.73021" lon="-2.86352"></trkpt>
      <trkpt lat="50.73057" lon="-2.86288"></trkpt>
      <trkpt lat="50.73068" lon="-2.86258"></trkpt>
      <trkpt lat="50.73078" lon="-2.86224"></trkpt>
      <trkpt lat="50.73082" lon="-2.86197"></trkpt>
      <trkpt lat="50.73083" lon="-2.86174"></trkpt>
      <trkpt lat="50.73081" lon="-2.86146"></trkpt>
      <trkpt lat="50.73072" lon="-2.86079"></trkpt>
      <trkpt lat="50.73068" lon="-2.86011"></trkpt>
      <trkpt lat="50.73047" lon="-2.85992"></trkpt>
      <trkpt lat="50.73022" lon="-2.85931"></trkpt>
      <trkpt lat="50.72995" lon="-2.85874"></trkpt>
      <trkpt lat="50.72944" lon="-2.85671"></trkpt>
      <trkpt lat="50.72947" lon="-2.85654"></trkpt>
      <trkpt lat="50.72886" lon="-2.85636"></trkpt>
      <trkpt lat="50.72865" lon="-2.85624"></trkpt>
      <trkpt lat="50.72854" lon="-2.85612"></trkpt>
      <trkpt lat="50.72823" lon="-2.85568"></trkpt>
      <trkpt lat="50.72806" lon="-2.85536"></trkpt>
      <trkpt lat="50.72779" lon="-2.85459"></trkpt>
      <trkpt lat="50.72765" lon="-2.85434"></trkpt>
      <trkpt lat="50.72767" lon="-2.85424"></trkpt>
      <trkpt lat="50.72763" lon="-2.85413"></trkpt>
      <trkpt lat="50.72757" lon="-2.85411"></trkpt>
      <trkpt lat="50.72751" lon="-2.85405"></trkpt>
      <trkpt lat="50.72734" lon="-2.85404"></trkpt>
      <trkpt lat="50.72728" lon="-2.85393"></trkpt>
      <trkpt lat="50.72719" lon="-2.85365"></trkpt>
      <trkpt lat="50.72703" lon="-2.85324"></trkpt>
      <trkpt lat="50.72704" lon="-2.85294"></trkpt>
      <trkpt lat="50.72707" lon="-2.85236"></trkpt>
      <trkpt lat="50.72691" lon="-2.85191"></trkpt>
      <trkpt lat="50.72687" lon="-2.85157"></trkpt>
      <trkpt lat="50.7268" lon="-2.85115"></trkpt>
      <trkpt lat="50.72675" lon="-2.85018"></trkpt>
      <trkpt lat="50.72667" lon="-2.84976"></trkpt>
      <trkpt lat="50.72656" lon="-2.84942"></trkpt>
      <trkpt lat="50.72641" lon="-2.84871"></trkpt>
      <trkpt lat="50.72639" lon="-2.84842"></trkpt>
      <trkpt lat="50.72632" lon="-2.84824"></trkpt>
      <trkpt lat="50.72619" lon="-2.84768"></trkpt>
      <trkpt lat="50.72611" lon="-2.8471"></trkpt>
      <trkpt lat="50.72604" lon="-2.84614"></trkpt>
      <trkpt lat="50.72596" lon="-2.84593"></trkpt>
      <trkpt lat="50.72602" lon="-2.84552"></trkpt>
      <trkpt lat="50.726" lon="-2.84518"></trkpt>
      <trkpt lat="50.72605" lon="-2.84484"></trkpt>
      <trkpt lat="50.72604" lon="-2.84482"></trkpt>
      <trkpt lat="50.7259" lon="-2.84477"></trkpt>
      <trkpt lat="50.72573" lon="-2.84467"></trkpt>
      <trkpt lat="50.72573" lon="-2.84463"></trkpt>
      <trkpt lat="50.72581" lon="-2.84436"></trkpt>
      <trkpt lat="50.7258" lon="-2.84436"></trkpt>
      <trkpt lat="50.72583" lon="-2.84422"></trkpt>
      <trkpt lat="50.72582" lon="-2.8442"></trkpt>
      <trkpt lat="50.7257" lon="-2.84415"></trkpt>
      <trkpt lat="50.72576" lon="-2.84397"></trkpt>
      <trkpt lat="50.72569" lon="-2.84366"></trkpt>
      <trkpt lat="50.72579" lon="-2.84361"></trkpt>
      <trkpt lat="50.72593" lon="-2.84348"></trkpt>
      <trkpt lat="50.72603" lon="-2.84327"></trkpt>
      <trkpt lat="50.72629" lon="-2.84239"></trkpt>
      <trkpt lat="50.72646" lon="-2.84194"></trkpt>
      <trkpt lat="50.72651" lon="-2.84166"></trkpt>
      <trkpt lat="50.72665" lon="-2.84145"></trkpt>
      <trkpt lat="50.72668" lon="-2.84144"></trkpt>
      <trkpt lat="50.7268" lon="-2.84118"></trkpt>
      <trkpt lat="50.72683" lon="-2.84105"></trkpt>
      <trkpt lat="50.72681" lon="-2.84075"></trkpt>
      <trkpt lat="50.72678" lon="-2.84059"></trkpt>
      <trkpt lat="50.72679" lon="-2.8405"></trkpt>
      <trkpt lat="50.72684" lon="-2.84039"></trkpt>
      <trkpt lat="50.72692" lon="-2.84033"></trkpt>
      <trkpt lat="50.72644" lon="-2.83956"></trkpt>
      <trkpt lat="50.7263" lon="-2.83912"></trkpt>
      <trkpt lat="50.7262" lon="-2.83848"></trkpt>
      <trkpt lat="50.7261" lon="-2.83805"></trkpt>
      <trkpt lat="50.72606" lon="-2.83773"></trkpt>
      <trkpt lat="50.72606" lon="-2.83751"></trkpt>
      <trkpt lat="50.72607" lon="-2.83743"></trkpt>
      <trkpt lat="50.72615" lon="-2.8373"></trkpt>
      <trkpt lat="50.7262" lon="-2.837"></trkpt>
      <trkpt lat="50.72621" lon="-2.83665"></trkpt>
      <trkpt lat="50.72617" lon="-2.83642"></trkpt>
      <trkpt lat="50.72618" lon="-2.83642"></trkpt>
      <trkpt lat="50.72606" lon="-2.83585"></trkpt>
      <trkpt lat="50.72598" lon="-2.83498"></trkpt>
      <trkpt lat="50.72595" lon="-2.83487"></trkpt>
      <trkpt lat="50.72595" lon="-2.83434"></trkpt>
      <trkpt lat="50.72599" lon="-2.83415"></trkpt>
      <trkpt lat="50.72601" lon="-2.83375"></trkpt>
      <trkpt lat="50.72599" lon="-2.83302"></trkpt>
      <trkpt lat="50.72587" lon="-2.83242"></trkpt>
      <trkpt lat="50.72571" lon="-2.83182"></trkpt>
      <trkpt lat="50.72566" lon="-2.83168"></trkpt>
      <trkpt lat="50.7256" lon="-2.83136"></trkpt>
      <trkpt lat="50.72546" lon="-2.83104"></trkpt>
      <trkpt lat="50.72546" lon="-2.83093"></trkpt>
      <trkpt lat="50.72554" lon="-2.83079"></trkpt>
      <trkpt lat="50.72553" lon="-2.83064"></trkpt>
      <trkpt lat="50.72537" lon="-2.83036"></trkpt>
      <trkpt lat="50.7253" lon="-2.83015"></trkpt>
      <trkpt lat="50.72509" lon="-2.82976"></trkpt>
      <trkpt lat="50.72483" lon="-2.82934"></trkpt>
      <trkpt lat="50.72465" lon="-2.82884"></trkpt>
      <trkpt lat="50.72447" lon="-2.82853"></trkpt>
      <trkpt lat="50.72444" lon="-2.82835"></trkpt>
      <trkpt lat="50.72444" lon="-2.8282"></trkpt>
      <trkpt lat="50.72449" lon="-2.828"></trkpt>
      <trkpt lat="50.72457" lon="-2.8278"></trkpt>
      <trkpt lat="50.72459" lon="-2.82765"></trkpt>
      <trkpt lat="50.72463" lon="-2.82751"></trkpt>
      <trkpt lat="50.72469" lon="-2.82735"></trkpt>
      <trkpt lat="50.72474" lon="-2.82727"></trkpt>
      <trkpt lat="50.72476" lon="-2.82715"></trkpt>
      <trkpt lat="50.72473" lon="-2.82705"></trkpt>
      <trkpt lat="50.72475" lon="-2.82698"></trkpt>
      <trkpt lat="50.72473" lon="-2.82677"></trkpt>
      <trkpt lat="50.72442" lon="-2.82437"></trkpt>
      <trkpt lat="50.72432" lon="-2.82389"></trkpt>
      <trkpt lat="50.72397" lon="-2.82333"></trkpt>
      <trkpt lat="50.72395" lon="-2.82323"></trkpt>
      <trkpt lat="50.72399" lon="-2.82302"></trkpt>
      <trkpt lat="50.72369" lon="-2.82288"></trkpt>
      <trkpt lat="50.72361" lon="-2.82282"></trkpt>
      <trkpt lat="50.72341" lon="-2.82257"></trkpt>
      <trkpt lat="50.72324" lon="-2.82243"></trkpt>
      <trkpt lat="50.72317" lon="-2.82245"></trkpt>
    </trkseg>
  </trk>
</gpx>
