<?xml version="1.0" encoding="UTF-8"?>
<gpx version="1.1" creator="swcp-walk (imported from OS Maps route 33858660)"
     xmlns="http://www.topografix.com/GPX/1/1">
  <metadata>
    <name>SWCP47-Seatown-Abbotsbury</name>
  </metadata>
  <trk>
    <name>SWCP47-Seatown-Abbotsbury</name>
    <trkseg>
      <trkpt lat="50.72326792417343" lon="-2.8222302269236934"></trkpt>
      <trkpt lat="50.72328" lon="-2.82225"></trkpt>
      <trkpt lat="50.72324" lon="-2.82243"></trkpt>
      <trkpt lat="50.72317" lon="-2.82245"></trkpt>
      <trkpt lat="50.72309" lon="-2.8225"></trkpt>
      <trkpt lat="50.72305" lon="-2.82242"></trkpt>
      <trkpt lat="50.72291" lon="-2.82232"></trkpt>
      <trkpt lat="50.72263" lon="-2.82221"></trkpt>
      <trkpt lat="50.72251" lon="-2.82218"></trkpt>
      <trkpt lat="50.72234" lon="-2.8223"></trkpt>
      <trkpt lat="50.72222" lon="-2.82244"></trkpt>
      <trkpt lat="50.72204" lon="-2.82237"></trkpt>
      <trkpt lat="50.72194" lon="-2.82223"></trkpt>
      <trkpt lat="50.72178" lon="-2.8211"></trkpt>
      <trkpt lat="50.72176" lon="-2.82068"></trkpt>
      <trkpt lat="50.7217" lon="-2.82017"></trkpt>
      <trkpt lat="50.72155" lon="-2.81966"></trkpt>
      <trkpt lat="50.72143" lon="-2.81911"></trkpt>
      <trkpt lat="50.72141" lon="-2.81798"></trkpt>
      <trkpt lat="50.72145" lon="-2.81756"></trkpt>
      <trkpt lat="50.7215" lon="-2.81736"></trkpt>
      <trkpt lat="50.7212" lon="-2.81667"></trkpt>
      <trkpt lat="50.72116" lon="-2.81654"></trkpt>
      <trkpt lat="50.72113" lon="-2.8163"></trkpt>
      <trkpt lat="50.72114" lon="-2.81591"></trkpt>
      <trkpt lat="50.72101" lon="-2.81537"></trkpt>
      <trkpt lat="50.72095" lon="-2.81499"></trkpt>
      <trkpt lat="50.72089" lon="-2.81458"></trkpt>
      <trkpt lat="50.72062" lon="-2.81402"></trkpt>
      <trkpt lat="50.72035" lon="-2.81352"></trkpt>
      <trkpt lat="50.72016" lon="-2.81322"></trkpt>
      <trkpt lat="50.72006" lon="-2.81283"></trkpt>
      <trkpt lat="50.71991" lon="-2.81259"></trkpt>
      <trkpt lat="50.71981" lon="-2.81225"></trkpt>
      <trkpt lat="50.71978" lon="-2.81203"></trkpt>
      <trkpt lat="50.71987" lon="-2.81191"></trkpt>
      <trkpt lat="50.71988" lon="-2.81149"></trkpt>
      <trkpt lat="50.7199" lon="-2.81094"></trkpt>
      <trkpt lat="50.7202" lon="-2.80862"></trkpt>
      <trkpt lat="50.72055" lon="-2.80716"></trkpt>
      <trkpt lat="50.72066" lon="-2.80712"></trkpt>
      <trkpt lat="50.7206" lon="-2.807"></trkpt>
      <trkpt lat="50.72061" lon="-2.80675"></trkpt>
      <trkpt lat="50.72062" lon="-2.80668"></trkpt>
      <trkpt lat="50.72066" lon="-2.80664"></trkpt>
      <trkpt lat="50.72072" lon="-2.8065"></trkpt>
      <trkpt lat="50.72078" lon="-2.80628"></trkpt>
      <trkpt lat="50.7208" lon="-2.80603"></trkpt>
      <trkpt lat="50.72075" lon="-2.80541"></trkpt>
      <trkpt lat="50.72054" lon="-2.80429"></trkpt>
      <trkpt lat="50.72045" lon="-2.80363"></trkpt>
      <trkpt lat="50.72042" lon="-2.80342"></trkpt>
      <trkpt lat="50.72004" lon="-2.80177"></trkpt>
      <trkpt lat="50.71994" lon="-2.80105"></trkpt>
      <trkpt lat="50.71983" lon="-2.80066"></trkpt>
      <trkpt lat="50.71966" lon="-2.8004"></trkpt>
      <trkpt lat="50.71953" lon="-2.79988"></trkpt>
      <trkpt lat="50.71951" lon="-2.79954"></trkpt>
      <trkpt lat="50.7197" lon="-2.7979"></trkpt>
      <trkpt lat="50.71974" lon="-2.79765"></trkpt>
      <trkpt lat="50.7199" lon="-2.79703"></trkpt>
      <trkpt lat="50.71989" lon="-2.79669"></trkpt>
      <trkpt lat="50.71975" lon="-2.796"></trkpt>
      <trkpt lat="50.71956" lon="-2.79529"></trkpt>
      <trkpt lat="50.7193" lon="-2.79449"></trkpt>
      <trkpt lat="50.71932" lon="-2.794"></trkpt>
      <trkpt lat="50.71929" lon="-2.79349"></trkpt>
      <trkpt lat="50.71927" lon="-2.79336"></trkpt>
      <trkpt lat="50.71913" lon="-2.7929"></trkpt>
      <trkpt lat="50.71905" lon="-2.79246"></trkpt>
      <trkpt lat="50.71899" lon="-2.79198"></trkpt>
      <trkpt lat="50.71897" lon="-2.79159"></trkpt>
      <trkpt lat="50.71892" lon="-2.79135"></trkpt>
      <trkpt lat="50.71884" lon="-2.79113"></trkpt>
      <trkpt lat="50.71864" lon="-2.7906"></trkpt>
      <trkpt lat="50.71856" lon="-2.79028"></trkpt>
      <trkpt lat="50.71843" lon="-2.78929"></trkpt>
      <trkpt lat="50.71839" lon="-2.78916"></trkpt>
      <trkpt lat="50.71796" lon="-2.78841"></trkpt>
      <trkpt lat="50.71781" lon="-2.78811"></trkpt>
      <trkpt lat="50.71772" lon="-2.78782"></trkpt>
      <trkpt lat="50.71755" lon="-2.78692"></trkpt>
      <trkpt lat="50.71753" lon="-2.78657"></trkpt>
      <trkpt lat="50.71746" lon="-2.78645"></trkpt>
      <trkpt lat="50.7174" lon="-2.78608"></trkpt>
      <trkpt lat="50.71732" lon="-2.78584"></trkpt>
      <trkpt lat="50.7172" lon="-2.78563"></trkpt>
      <trkpt lat="50.71699" lon="-2.78538"></trkpt>
      <trkpt lat="50.71688" lon="-2.7852"></trkpt>
      <trkpt lat="50.71679" lon="-2.7848"></trkpt>
      <trkpt lat="50.71675" lon="-2.78456"></trkpt>
      <trkpt lat="50.71669" lon="-2.78445"></trkpt>
      <trkpt lat="50.71664" lon="-2.78389"></trkpt>
      <trkpt lat="50.71663" lon="-2.78359"></trkpt>
      <trkpt lat="50.7166" lon="-2.78352"></trkpt>
      <trkpt lat="50.71657" lon="-2.78349"></trkpt>
      <trkpt lat="50.71625" lon="-2.78351"></trkpt>
      <trkpt lat="50.71622" lon="-2.78339"></trkpt>
      <trkpt lat="50.71623" lon="-2.78336"></trkpt>
      <trkpt lat="50.71638" lon="-2.78329"></trkpt>
      <trkpt lat="50.71636" lon="-2.78323"></trkpt>
      <trkpt lat="50.71643" lon="-2.78315"></trkpt>
      <trkpt lat="50.71644" lon="-2.78304"></trkpt>
      <trkpt lat="50.7164" lon="-2.78291"></trkpt>
      <trkpt lat="50.7162" lon="-2.78242"></trkpt>
      <trkpt lat="50.71613" lon="-2.78224"></trkpt>
      <trkpt lat="50.71595" lon="-2.7804"></trkpt>
      <trkpt lat="50.71599" lon="-2.78033"></trkpt>
      <trkpt lat="50.71601" lon="-2.77962"></trkpt>
      <trkpt lat="50.7159" lon="-2.77915"></trkpt>
      <trkpt lat="50.71582" lon="-2.77859"></trkpt>
      <trkpt lat="50.71584" lon="-2.77784"></trkpt>
      <trkpt lat="50.71582" lon="-2.77726"></trkpt>
      <trkpt lat="50.71555" lon="-2.7764"></trkpt>
      <trkpt lat="50.71551" lon="-2.77566"></trkpt>
      <trkpt lat="50.71546" lon="-2.77525"></trkpt>
      <trkpt lat="50.71537" lon="-2.77486"></trkpt>
      <trkpt lat="50.71502" lon="-2.77377"></trkpt>
      <trkpt lat="50.71495" lon="-2.77367"></trkpt>
      <trkpt lat="50.71357" lon="-2.77206"></trkpt>
      <trkpt lat="50.7131" lon="-2.77138"></trkpt>
      <trkpt lat="50.71274" lon="-2.77083"></trkpt>
      <trkpt lat="50.71178" lon="-2.76842"></trkpt>
      <trkpt lat="50.71148" lon="-2.76773"></trkpt>
      <trkpt lat="50.71141" lon="-2.76767"></trkpt>
      <trkpt lat="50.71141" lon="-2.76741"></trkpt>
      <trkpt lat="50.71125" lon="-2.76661"></trkpt>
      <trkpt lat="50.71092" lon="-2.76534"></trkpt>
      <trkpt lat="50.71076" lon="-2.76477"></trkpt>
      <trkpt lat="50.71079" lon="-2.76461"></trkpt>
      <trkpt lat="50.71102" lon="-2.76438"></trkpt>
      <trkpt lat="50.71097" lon="-2.76426"></trkpt>
      <trkpt lat="50.71124" lon="-2.76408"></trkpt>
      <trkpt lat="50.71153" lon="-2.76385"></trkpt>
      <trkpt lat="50.71153" lon="-2.76343"></trkpt>
      <trkpt lat="50.71155" lon="-2.76343"></trkpt>
      <trkpt lat="50.71155" lon="-2.76349"></trkpt>
      <trkpt lat="50.71164" lon="-2.76347"></trkpt>
      <trkpt lat="50.71148" lon="-2.76279"></trkpt>
      <trkpt lat="50.71144" lon="-2.76219"></trkpt>
      <trkpt lat="50.71132" lon="-2.76157"></trkpt>
      <trkpt lat="50.71125" lon="-2.76146"></trkpt>
      <trkpt lat="50.71098" lon="-2.76127"></trkpt>
      <trkpt lat="50.71087" lon="-2.76116"></trkpt>
      <trkpt lat="50.71069" lon="-2.76051"></trkpt>
      <trkpt lat="50.71055" lon="-2.7606"></trkpt>
      <trkpt lat="50.71042" lon="-2.76035"></trkpt>
      <trkpt lat="50.70977" lon="-2.76011"></trkpt>
      <trkpt lat="50.70939" lon="-2.76014"></trkpt>
      <trkpt lat="50.70931" lon="-2.76009"></trkpt>
      <trkpt lat="50.70922" lon="-2.75987"></trkpt>
      <trkpt lat="50.70931" lon="-2.76009"></trkpt>
      <trkpt lat="50.70939" lon="-2.76014"></trkpt>
      <trkpt lat="50.70977" lon="-2.76011"></trkpt>
      <trkpt lat="50.70973" lon="-2.7599"></trkpt>
      <trkpt lat="50.71006" lon="-2.7592"></trkpt>
      <trkpt lat="50.71018" lon="-2.75915"></trkpt>
      <trkpt lat="50.71025" lon="-2.75876"></trkpt>
      <trkpt lat="50.71054" lon="-2.75767"></trkpt>
      <trkpt lat="50.71066" lon="-2.75698"></trkpt>
      <trkpt lat="50.71053" lon="-2.75697"></trkpt>
      <trkpt lat="50.71054" lon="-2.75695"></trkpt>
      <trkpt lat="50.71049" lon="-2.75687"></trkpt>
      <trkpt lat="50.71039" lon="-2.75683"></trkpt>
      <trkpt lat="50.71038" lon="-2.75673"></trkpt>
      <trkpt lat="50.71027" lon="-2.75661"></trkpt>
      <trkpt lat="50.70959" lon="-2.7553"></trkpt>
      <trkpt lat="50.70934" lon="-2.75498"></trkpt>
      <trkpt lat="50.70928" lon="-2.75494"></trkpt>
      <trkpt lat="50.70929" lon="-2.75456"></trkpt>
      <trkpt lat="50.70912" lon="-2.75419"></trkpt>
      <trkpt lat="50.70898" lon="-2.75393"></trkpt>
      <trkpt lat="50.70887" lon="-2.75333"></trkpt>
      <trkpt lat="50.70875" lon="-2.75253"></trkpt>
      <trkpt lat="50.70892" lon="-2.75207"></trkpt>
      <trkpt lat="50.70866" lon="-2.75075"></trkpt>
      <trkpt lat="50.70871" lon="-2.75032"></trkpt>
      <trkpt lat="50.70864" lon="-2.74997"></trkpt>
      <trkpt lat="50.70864" lon="-2.74976"></trkpt>
      <trkpt lat="50.70858" lon="-2.74941"></trkpt>
      <trkpt lat="50.70855" lon="-2.7491"></trkpt>
      <trkpt lat="50.70858" lon="-2.74879"></trkpt>
      <trkpt lat="50.70858" lon="-2.74847"></trkpt>
      <trkpt lat="50.70832" lon="-2.74748"></trkpt>
      <trkpt lat="50.70821" lon="-2.74695"></trkpt>
      <trkpt lat="50.70682" lon="-2.74189"></trkpt>
      <trkpt lat="50.7067" lon="-2.74162"></trkpt>
      <trkpt lat="50.70658" lon="-2.74127"></trkpt>
      <trkpt lat="50.70654" lon="-2.74104"></trkpt>
      <trkpt lat="50.70656" lon="-2.74088"></trkpt>
      <trkpt lat="50.70679" lon="-2.74072"></trkpt>
      <trkpt lat="50.70681" lon="-2.74067"></trkpt>
      <trkpt lat="50.70676" lon="-2.74065"></trkpt>
      <trkpt lat="50.7067" lon="-2.74059"></trkpt>
      <trkpt lat="50.70664" lon="-2.74047"></trkpt>
      <trkpt lat="50.70648" lon="-2.74"></trkpt>
      <trkpt lat="50.70638" lon="-2.73978"></trkpt>
      <trkpt lat="50.70631" lon="-2.73968"></trkpt>
      <trkpt lat="50.7062" lon="-2.7396"></trkpt>
      <trkpt lat="50.70599" lon="-2.73951"></trkpt>
      <trkpt lat="50.70585" lon="-2.73937"></trkpt>
      <trkpt lat="50.70579" lon="-2.73927"></trkpt>
      <trkpt lat="50.7057" lon="-2.73897"></trkpt>
      <trkpt lat="50.70565" lon="-2.73893"></trkpt>
      <trkpt lat="50.70546" lon="-2.73906"></trkpt>
      <trkpt lat="50.70539" lon="-2.73908"></trkpt>
      <trkpt lat="50.70525" lon="-2.73901"></trkpt>
      <trkpt lat="50.70531" lon="-2.73847"></trkpt>
      <trkpt lat="50.70528" lon="-2.73841"></trkpt>
      <trkpt lat="50.70406" lon="-2.73767"></trkpt>
      <trkpt lat="50.70389" lon="-2.73757"></trkpt>
      <trkpt lat="50.70389" lon="-2.73742"></trkpt>
      <trkpt lat="50.70399" lon="-2.73727"></trkpt>
      <trkpt lat="50.70396" lon="-2.73703"></trkpt>
      <trkpt lat="50.70395" lon="-2.73649"></trkpt>
      <trkpt lat="50.70391" lon="-2.73632"></trkpt>
      <trkpt lat="50.7037" lon="-2.73575"></trkpt>
      <trkpt lat="50.70369" lon="-2.73568"></trkpt>
      <trkpt lat="50.70371" lon="-2.73561"></trkpt>
      <trkpt lat="50.70384" lon="-2.73541"></trkpt>
      <trkpt lat="50.7037" lon="-2.73512"></trkpt>
      <trkpt lat="50.70331" lon="-2.73472"></trkpt>
      <trkpt lat="50.70316" lon="-2.73481"></trkpt>
      <trkpt lat="50.70319" lon="-2.7349"></trkpt>
      <trkpt lat="50.70319" lon="-2.73502"></trkpt>
      <trkpt lat="50.70327" lon="-2.73536"></trkpt>
      <trkpt lat="50.70352" lon="-2.73611"></trkpt>
      <trkpt lat="50.70358" lon="-2.7364"></trkpt>
      <trkpt lat="50.70361" lon="-2.73668"></trkpt>
      <trkpt lat="50.70359" lon="-2.73719"></trkpt>
      <trkpt lat="50.70355" lon="-2.73757"></trkpt>
      <trkpt lat="50.70325" lon="-2.73917"></trkpt>
      <trkpt lat="50.70305" lon="-2.73911"></trkpt>
      <trkpt lat="50.70278" lon="-2.73886"></trkpt>
      <trkpt lat="50.70255" lon="-2.73853"></trkpt>
      <trkpt lat="50.7024" lon="-2.73817"></trkpt>
      <trkpt lat="50.70204" lon="-2.73711"></trkpt>
      <trkpt lat="50.70181" lon="-2.73675"></trkpt>
      <trkpt lat="50.70073" lon="-2.73492"></trkpt>
      <trkpt lat="50.69877" lon="-2.73014"></trkpt>
      <trkpt lat="50.69814" lon="-2.72784"></trkpt>
      <trkpt lat="50.69813" lon="-2.72766"></trkpt>
      <trkpt lat="50.69811" lon="-2.72747"></trkpt>
      <trkpt lat="50.69811" lon="-2.72714"></trkpt>
      <trkpt lat="50.69803" lon="-2.72712"></trkpt>
      <trkpt lat="50.69796" lon="-2.72707"></trkpt>
      <trkpt lat="50.69787" lon="-2.72689"></trkpt>
      <trkpt lat="50.69777" lon="-2.72663"></trkpt>
      <trkpt lat="50.6972" lon="-2.72395"></trkpt>
      <trkpt lat="50.69712" lon="-2.724"></trkpt>
      <trkpt lat="50.69709" lon="-2.724"></trkpt>
      <trkpt lat="50.69704" lon="-2.72388"></trkpt>
      <trkpt lat="50.69702" lon="-2.72376"></trkpt>
      <trkpt lat="50.69699" lon="-2.72377"></trkpt>
      <trkpt lat="50.69694" lon="-2.72348"></trkpt>
      <trkpt lat="50.69692" lon="-2.72309"></trkpt>
      <trkpt lat="50.69688" lon="-2.72283"></trkpt>
      <trkpt lat="50.69686" lon="-2.72259"></trkpt>
      <trkpt lat="50.69679" lon="-2.72242"></trkpt>
      <trkpt lat="50.69669" lon="-2.72227"></trkpt>
      <trkpt lat="50.69644" lon="-2.72183"></trkpt>
      <trkpt lat="50.69613" lon="-2.72108"></trkpt>
      <trkpt lat="50.69606" lon="-2.72075"></trkpt>
      <trkpt lat="50.69595" lon="-2.71966"></trkpt>
      <trkpt lat="50.69581" lon="-2.71906"></trkpt>
      <trkpt lat="50.69571" lon="-2.71872"></trkpt>
      <trkpt lat="50.69563" lon="-2.71857"></trkpt>
      <trkpt lat="50.69553" lon="-2.7185"></trkpt>
      <trkpt lat="50.69537" lon="-2.71823"></trkpt>
      <trkpt lat="50.69534" lon="-2.71809"></trkpt>
      <trkpt lat="50.69523" lon="-2.71787"></trkpt>
      <trkpt lat="50.69519" lon="-2.71771"></trkpt>
      <trkpt lat="50.69494" lon="-2.71704"></trkpt>
      <trkpt lat="50.69483" lon="-2.7167"></trkpt>
      <trkpt lat="50.69473" lon="-2.71653"></trkpt>
      <trkpt lat="50.69466" lon="-2.7163"></trkpt>
      <trkpt lat="50.69463" lon="-2.71626"></trkpt>
      <trkpt lat="50.69443" lon="-2.71617"></trkpt>
      <trkpt lat="50.69433" lon="-2.71597"></trkpt>
      <trkpt lat="50.69424" lon="-2.71566"></trkpt>
      <trkpt lat="50.69416" lon="-2.7154"></trkpt>
      <trkpt lat="50.694" lon="-2.71513"></trkpt>
      <trkpt lat="50.69388" lon="-2.71487"></trkpt>
      <trkpt lat="50.6937" lon="-2.71417"></trkpt>
      <trkpt lat="50.69361" lon="-2.714"></trkpt>
      <trkpt lat="50.69352" lon="-2.71373"></trkpt>
      <trkpt lat="50.69326" lon="-2.7127"></trkpt>
      <trkpt lat="50.69312" lon="-2.71263"></trkpt>
      <trkpt lat="50.69298" lon="-2.71244"></trkpt>
      <trkpt lat="50.69277" lon="-2.71191"></trkpt>
      <trkpt lat="50.69238" lon="-2.71075"></trkpt>
      <trkpt lat="50.69197" lon="-2.70968"></trkpt>
      <trkpt lat="50.69189" lon="-2.70906"></trkpt>
      <trkpt lat="50.69163" lon="-2.70774"></trkpt>
      <trkpt lat="50.69137" lon="-2.7069"></trkpt>
      <trkpt lat="50.69122" lon="-2.70661"></trkpt>
      <trkpt lat="50.69115" lon="-2.7061"></trkpt>
      <trkpt lat="50.69088" lon="-2.70542"></trkpt>
      <trkpt lat="50.69044" lon="-2.70401"></trkpt>
      <trkpt lat="50.69029" lon="-2.70366"></trkpt>
      <trkpt lat="50.69028" lon="-2.70359"></trkpt>
      <trkpt lat="50.69031" lon="-2.70347"></trkpt>
      <trkpt lat="50.69054" lon="-2.70332"></trkpt>
      <trkpt lat="50.69067" lon="-2.70316"></trkpt>
      <trkpt lat="50.69069" lon="-2.7031"></trkpt>
      <trkpt lat="50.69069" lon="-2.70299"></trkpt>
      <trkpt lat="50.69006" lon="-2.70098"></trkpt>
      <trkpt lat="50.68993" lon="-2.70009"></trkpt>
      <trkpt lat="50.68945" lon="-2.69743"></trkpt>
      <trkpt lat="50.68938" lon="-2.69716"></trkpt>
      <trkpt lat="50.68911" lon="-2.69641"></trkpt>
      <trkpt lat="50.68887" lon="-2.69588"></trkpt>
      <trkpt lat="50.6889" lon="-2.69563"></trkpt>
      <trkpt lat="50.68888" lon="-2.69548"></trkpt>
      <trkpt lat="50.68849" lon="-2.69458"></trkpt>
      <trkpt lat="50.68833" lon="-2.69433"></trkpt>
      <trkpt lat="50.6883" lon="-2.69428"></trkpt>
      <trkpt lat="50.68828" lon="-2.69413"></trkpt>
      <trkpt lat="50.68819" lon="-2.69395"></trkpt>
      <trkpt lat="50.68754" lon="-2.69331"></trkpt>
      <trkpt lat="50.68707" lon="-2.69251"></trkpt>
      <trkpt lat="50.68667" lon="-2.69177"></trkpt>
      <trkpt lat="50.68597" lon="-2.6896"></trkpt>
      <trkpt lat="50.68584" lon="-2.68961"></trkpt>
      <trkpt lat="50.68529" lon="-2.68874"></trkpt>
      <trkpt lat="50.68483" lon="-2.6878"></trkpt>
      <trkpt lat="50.6846" lon="-2.68704"></trkpt>
      <trkpt lat="50.68402" lon="-2.68565"></trkpt>
      <trkpt lat="50.68358" lon="-2.68449"></trkpt>
      <trkpt lat="50.68329" lon="-2.68379"></trkpt>
      <trkpt lat="50.68307" lon="-2.68312"></trkpt>
      <trkpt lat="50.68268" lon="-2.68167"></trkpt>
      <trkpt lat="50.68239" lon="-2.68082"></trkpt>
      <trkpt lat="50.68218" lon="-2.68031"></trkpt>
      <trkpt lat="50.68207" lon="-2.68045"></trkpt>
      <trkpt lat="50.68185" lon="-2.67966"></trkpt>
      <trkpt lat="50.68153" lon="-2.67893"></trkpt>
      <trkpt lat="50.68134" lon="-2.67857"></trkpt>
      <trkpt lat="50.6812" lon="-2.67811"></trkpt>
      <trkpt lat="50.68093" lon="-2.67735"></trkpt>
      <trkpt lat="50.68018" lon="-2.67567"></trkpt>
      <trkpt lat="50.67967" lon="-2.67419"></trkpt>
      <trkpt lat="50.67898" lon="-2.67245"></trkpt>
      <trkpt lat="50.67883" lon="-2.67217"></trkpt>
      <trkpt lat="50.67869" lon="-2.67182"></trkpt>
      <trkpt lat="50.67748" lon="-2.6687"></trkpt>
      <trkpt lat="50.67626" lon="-2.66577"></trkpt>
      <trkpt lat="50.6762" lon="-2.66567"></trkpt>
      <trkpt lat="50.67613" lon="-2.66567"></trkpt>
      <trkpt lat="50.67585" lon="-2.66508"></trkpt>
      <trkpt lat="50.67583" lon="-2.66503"></trkpt>
      <trkpt lat="50.67586" lon="-2.665"></trkpt>
      <trkpt lat="50.67457" lon="-2.66186"></trkpt>
      <trkpt lat="50.67427" lon="-2.66132"></trkpt>
      <trkpt lat="50.67369" lon="-2.65981"></trkpt>
      <trkpt lat="50.67379" lon="-2.65965"></trkpt>
      <trkpt lat="50.6734" lon="-2.65857"></trkpt>
      <trkpt lat="50.6727" lon="-2.65692"></trkpt>
      <trkpt lat="50.6726" lon="-2.65661"></trkpt>
      <trkpt lat="50.67249" lon="-2.65643"></trkpt>
      <trkpt lat="50.67237" lon="-2.65607"></trkpt>
      <trkpt lat="50.67219" lon="-2.6556"></trkpt>
      <trkpt lat="50.67186" lon="-2.65488"></trkpt>
      <trkpt lat="50.67176" lon="-2.6549"></trkpt>
      <trkpt lat="50.67138" lon="-2.65409"></trkpt>
      <trkpt lat="50.67126" lon="-2.65369"></trkpt>
      <trkpt lat="50.6711" lon="-2.65341"></trkpt>
      <trkpt lat="50.67087" lon="-2.65283"></trkpt>
      <trkpt lat="50.6707" lon="-2.65249"></trkpt>
      <trkpt lat="50.67055" lon="-2.65205"></trkpt>
      <trkpt lat="50.67051" lon="-2.65158"></trkpt>
      <trkpt lat="50.67046" lon="-2.65144"></trkpt>
      <trkpt lat="50.67028" lon="-2.65124"></trkpt>
      <trkpt lat="50.67021" lon="-2.65113"></trkpt>
      <trkpt lat="50.67018" lon="-2.65101"></trkpt>
      <trkpt lat="50.67005" lon="-2.65077"></trkpt>
      <trkpt lat="50.66993" lon="-2.65042"></trkpt>
      <trkpt lat="50.66976" lon="-2.65005"></trkpt>
      <trkpt lat="50.66966" lon="-2.64967"></trkpt>
      <trkpt lat="50.66957" lon="-2.6495"></trkpt>
      <trkpt lat="50.66948" lon="-2.64915"></trkpt>
      <trkpt lat="50.66939" lon="-2.64903"></trkpt>
      <trkpt lat="50.66921" lon="-2.64887"></trkpt>
      <trkpt lat="50.669" lon="-2.64839"></trkpt>
      <trkpt lat="50.66897" lon="-2.6482"></trkpt>
      <trkpt lat="50.66892" lon="-2.64809"></trkpt>
      <trkpt lat="50.66873" lon="-2.6478"></trkpt>
      <trkpt lat="50.66868" lon="-2.64768"></trkpt>
      <trkpt lat="50.66864" lon="-2.64743"></trkpt>
      <trkpt lat="50.66814" lon="-2.64598"></trkpt>
      <trkpt lat="50.66807" lon="-2.64582"></trkpt>
      <trkpt lat="50.66792" lon="-2.64561"></trkpt>
      <trkpt lat="50.66785" lon="-2.64546"></trkpt>
      <trkpt lat="50.66777" lon="-2.64524"></trkpt>
      <trkpt lat="50.66771" lon="-2.64499"></trkpt>
      <trkpt lat="50.66763" lon="-2.64477"></trkpt>
      <trkpt lat="50.6675" lon="-2.64455"></trkpt>
      <trkpt lat="50.66725" lon="-2.644"></trkpt>
      <trkpt lat="50.66689" lon="-2.64291"></trkpt>
      <trkpt lat="50.66667" lon="-2.64251"></trkpt>
      <trkpt lat="50.66659" lon="-2.64231"></trkpt>
      <trkpt lat="50.66655" lon="-2.64213"></trkpt>
      <trkpt lat="50.66648" lon="-2.64166"></trkpt>
      <trkpt lat="50.66642" lon="-2.64153"></trkpt>
      <trkpt lat="50.66627" lon="-2.64135"></trkpt>
      <trkpt lat="50.66618" lon="-2.64116"></trkpt>
      <trkpt lat="50.66614" lon="-2.64085"></trkpt>
      <trkpt lat="50.66609" lon="-2.6407"></trkpt>
      <trkpt lat="50.66586" lon="-2.64044"></trkpt>
      <trkpt lat="50.66576" lon="-2.64028"></trkpt>
      <trkpt lat="50.6654" lon="-2.63898"></trkpt>
      <trkpt lat="50.66502" lon="-2.63812"></trkpt>
      <trkpt lat="50.66339" lon="-2.63397"></trkpt>
      <trkpt lat="50.66295" lon="-2.63281"></trkpt>
      <trkpt lat="50.66216" lon="-2.63096"></trkpt>
      <trkpt lat="50.66196" lon="-2.63055"></trkpt>
      <trkpt lat="50.66173" lon="-2.62998"></trkpt>
      <trkpt lat="50.66125" lon="-2.62889"></trkpt>
      <trkpt lat="50.66092" lon="-2.62789"></trkpt>
      <trkpt lat="50.66071" lon="-2.62701"></trkpt>
      <trkpt lat="50.66055" lon="-2.62663"></trkpt>
      <trkpt lat="50.6601" lon="-2.62594"></trkpt>
      <trkpt lat="50.65998" lon="-2.62573"></trkpt>
      <trkpt lat="50.65966" lon="-2.62493"></trkpt>
      <trkpt lat="50.65941" lon="-2.62426"></trkpt>
      <trkpt lat="50.65937" lon="-2.62365"></trkpt>
      <trkpt lat="50.65894" lon="-2.6227"></trkpt>
      <trkpt lat="50.65884" lon="-2.62269"></trkpt>
      <trkpt lat="50.65875" lon="-2.62276"></trkpt>
      <trkpt lat="50.65865" lon="-2.62262"></trkpt>
      <trkpt lat="50.65803" lon="-2.62102"></trkpt>
      <trkpt lat="50.65793" lon="-2.62054"></trkpt>
      <trkpt lat="50.65782" lon="-2.62054"></trkpt>
      <trkpt lat="50.65757" lon="-2.62008"></trkpt>
      <trkpt lat="50.65782" lon="-2.62054"></trkpt>
      <trkpt lat="50.65793" lon="-2.62054"></trkpt>
      <trkpt lat="50.65789" lon="-2.62016"></trkpt>
      <trkpt lat="50.65791" lon="-2.61983"></trkpt>
      <trkpt lat="50.65783" lon="-2.61914"></trkpt>
      <trkpt lat="50.65762" lon="-2.61777"></trkpt>
      <trkpt lat="50.6576" lon="-2.61757"></trkpt>
      <trkpt lat="50.65759" lon="-2.61635"></trkpt>
      <trkpt lat="50.65761" lon="-2.61625"></trkpt>
      <trkpt lat="50.65794" lon="-2.61558"></trkpt>
      <trkpt lat="50.65859" lon="-2.61451"></trkpt>
      <trkpt lat="50.65874" lon="-2.61431"></trkpt>
      <trkpt lat="50.65934" lon="-2.61386"></trkpt>
      <trkpt lat="50.65944" lon="-2.61375"></trkpt>
      <trkpt lat="50.65956" lon="-2.61358"></trkpt>
      <trkpt lat="50.65988" lon="-2.61293"></trkpt>
      <trkpt lat="50.66003" lon="-2.61272"></trkpt>
      <trkpt lat="50.6601" lon="-2.61265"></trkpt>
      <trkpt lat="50.65982" lon="-2.61253"></trkpt>
      <trkpt lat="50.65976" lon="-2.61236"></trkpt>
      <trkpt lat="50.65978" lon="-2.61221"></trkpt>
      <trkpt lat="50.65988" lon="-2.61198"></trkpt>
      <trkpt lat="50.65984" lon="-2.61182"></trkpt>
      <trkpt lat="50.65972" lon="-2.61052"></trkpt>
      <trkpt lat="50.65967" lon="-2.61032"></trkpt>
      <trkpt lat="50.65956" lon="-2.61011"></trkpt>
      <trkpt lat="50.65919" lon="-2.60962"></trkpt>
      <trkpt lat="50.65905" lon="-2.60927"></trkpt>
      <trkpt lat="50.65862" lon="-2.60711"></trkpt>
      <trkpt lat="50.65859" lon="-2.60686"></trkpt>
      <trkpt lat="50.65861" lon="-2.60582"></trkpt>
      <trkpt lat="50.65864" lon="-2.60565"></trkpt>
      <trkpt lat="50.65863" lon="-2.60532"></trkpt>
      <trkpt lat="50.65864" lon="-2.60454"></trkpt>
      <trkpt lat="50.65866" lon="-2.60426"></trkpt>
      <trkpt lat="50.65893" lon="-2.6032"></trkpt>
      <trkpt lat="50.65909" lon="-2.6034"></trkpt>
      <trkpt lat="50.65918" lon="-2.60367"></trkpt>
      <trkpt lat="50.65925" lon="-2.60377"></trkpt>
      <trkpt lat="50.65918" lon="-2.60367"></trkpt>
      <trkpt lat="50.65909" lon="-2.6034"></trkpt>
      <trkpt lat="50.65893" lon="-2.6032"></trkpt>
      <trkpt lat="50.65912" lon="-2.60261"></trkpt>
      <trkpt lat="50.65931" lon="-2.60154"></trkpt>
      <trkpt lat="50.65938" lon="-2.60127"></trkpt>
      <trkpt lat="50.65947" lon="-2.6011"></trkpt>
      <trkpt lat="50.6596" lon="-2.60097"></trkpt>
      <trkpt lat="50.65962" lon="-2.60084"></trkpt>
      <trkpt lat="50.65961" lon="-2.60075"></trkpt>
      <trkpt lat="50.65955" lon="-2.60059"></trkpt>
      <trkpt lat="50.65951" lon="-2.60029"></trkpt>
      <trkpt lat="50.65971" lon="-2.60034"></trkpt>
      <trkpt lat="50.65974" lon="-2.60005"></trkpt>
      <trkpt lat="50.65975" lon="-2.59939"></trkpt>
      <trkpt lat="50.65971" lon="-2.59922"></trkpt>
      <trkpt lat="50.65968" lon="-2.59907"></trkpt>
      <trkpt lat="50.65973" lon="-2.59893"></trkpt>
      <trkpt lat="50.6598" lon="-2.59886"></trkpt>
      <trkpt lat="50.65987" lon="-2.59884"></trkpt>
      <trkpt lat="50.65974" lon="-2.59754"></trkpt>
      <trkpt lat="50.65968" lon="-2.5967"></trkpt>
      <trkpt lat="50.65945" lon="-2.59671"></trkpt>
    </trkseg>
  </trk>
</gpx>
