<?xml version="1.0" encoding="UTF-8"?>
<gpx version="1.1" creator="swcp-walk (imported from OS Maps route 33858724)"
     xmlns="http://www.topografix.com/GPX/1/1">
  <metadata>
    <name>SWCP48-Abbotsbury-FerryBridge</name>
  </metadata>
  <trk>
    <name>SWCP48-Abbotsbury-FerryBridge</name>
    <trkseg>
      <trkpt lat="50.659653841231744" lon="-2.5962900171635397"></trkpt>
      <trkpt lat="50.65961" lon="-2.59638"></trkpt>
      <trkpt lat="50.65965" lon="-2.59642"></trkpt>
      <trkpt lat="50.65968" lon="-2.59653"></trkpt>
      <trkpt lat="50.65972" lon="-2.5963"></trkpt>
      <trkpt lat="50.65974" lon="-2.59627"></trkpt>
      <trkpt lat="50.65974" lon="-2.59623"></trkpt>
      <trkpt lat="50.65993" lon="-2.59558"></trkpt>
      <trkpt lat="50.65999" lon="-2.59555"></trkpt>
      <trkpt lat="50.66002" lon="-2.59549"></trkpt>
      <trkpt lat="50.66001" lon="-2.59544"></trkpt>
      <trkpt lat="50.65993" lon="-2.59534"></trkpt>
      <trkpt lat="50.65992" lon="-2.59525"></trkpt>
      <trkpt lat="50.65996" lon="-2.5952"></trkpt>
      <trkpt lat="50.66" lon="-2.59519"></trkpt>
      <trkpt lat="50.66004" lon="-2.59514"></trkpt>
      <trkpt lat="50.65996" lon="-2.59498"></trkpt>
      <trkpt lat="50.65986" lon="-2.59488"></trkpt>
      <trkpt lat="50.65982" lon="-2.59474"></trkpt>
      <trkpt lat="50.6597" lon="-2.59458"></trkpt>
      <trkpt lat="50.65947" lon="-2.59444"></trkpt>
      <trkpt lat="50.65932" lon="-2.59426"></trkpt>
      <trkpt lat="50.65922" lon="-2.59405"></trkpt>
      <trkpt lat="50.65918" lon="-2.5938"></trkpt>
      <trkpt lat="50.65889" lon="-2.59332"></trkpt>
      <trkpt lat="50.65855" lon="-2.59184"></trkpt>
      <trkpt lat="50.65849" lon="-2.59138"></trkpt>
      <trkpt lat="50.65829" lon="-2.59092"></trkpt>
      <trkpt lat="50.6582" lon="-2.59052"></trkpt>
      <trkpt lat="50.65789" lon="-2.58874"></trkpt>
      <trkpt lat="50.65774" lon="-2.58811"></trkpt>
      <trkpt lat="50.65766" lon="-2.5876"></trkpt>
      <trkpt lat="50.6577" lon="-2.58707"></trkpt>
      <trkpt lat="50.65779" lon="-2.58658"></trkpt>
      <trkpt lat="50.65782" lon="-2.58619"></trkpt>
      <trkpt lat="50.65763" lon="-2.5854"></trkpt>
      <trkpt lat="50.65732" lon="-2.58454"></trkpt>
      <trkpt lat="50.65717" lon="-2.58367"></trkpt>
      <trkpt lat="50.65713" lon="-2.58334"></trkpt>
      <trkpt lat="50.65714" lon="-2.58322"></trkpt>
      <trkpt lat="50.65711" lon="-2.58288"></trkpt>
      <trkpt lat="50.65712" lon="-2.58221"></trkpt>
      <trkpt lat="50.6572" lon="-2.58142"></trkpt>
      <trkpt lat="50.65735" lon="-2.58112"></trkpt>
      <trkpt lat="50.65736" lon="-2.57911"></trkpt>
      <trkpt lat="50.65729" lon="-2.57842"></trkpt>
      <trkpt lat="50.65731" lon="-2.57701"></trkpt>
      <trkpt lat="50.65739" lon="-2.57672"></trkpt>
      <trkpt lat="50.65734" lon="-2.57384"></trkpt>
      <trkpt lat="50.65718" lon="-2.57294"></trkpt>
      <trkpt lat="50.65721" lon="-2.57256"></trkpt>
      <trkpt lat="50.65715" lon="-2.57247"></trkpt>
      <trkpt lat="50.65701" lon="-2.57243"></trkpt>
      <trkpt lat="50.65697" lon="-2.57245"></trkpt>
      <trkpt lat="50.65434" lon="-2.57127"></trkpt>
      <trkpt lat="50.65316" lon="-2.57078"></trkpt>
      <trkpt lat="50.65209" lon="-2.57033"></trkpt>
      <trkpt lat="50.65203" lon="-2.57035"></trkpt>
      <trkpt lat="50.65199" lon="-2.56971"></trkpt>
      <trkpt lat="50.652" lon="-2.5685"></trkpt>
      <trkpt lat="50.65151" lon="-2.56413"></trkpt>
      <trkpt lat="50.65117" lon="-2.56158"></trkpt>
      <trkpt lat="50.65058" lon="-2.56158"></trkpt>
      <trkpt lat="50.65043" lon="-2.56158"></trkpt>
      <trkpt lat="50.65028" lon="-2.56098"></trkpt>
      <trkpt lat="50.65025" lon="-2.56092"></trkpt>
      <trkpt lat="50.6502" lon="-2.5609"></trkpt>
      <trkpt lat="50.64874" lon="-2.56127"></trkpt>
      <trkpt lat="50.64864" lon="-2.56127"></trkpt>
      <trkpt lat="50.64857" lon="-2.56123"></trkpt>
      <trkpt lat="50.64827" lon="-2.56094"></trkpt>
      <trkpt lat="50.64814" lon="-2.56089"></trkpt>
      <trkpt lat="50.64801" lon="-2.5609"></trkpt>
      <trkpt lat="50.64765" lon="-2.56107"></trkpt>
      <trkpt lat="50.64731" lon="-2.56135"></trkpt>
      <trkpt lat="50.64715" lon="-2.5618"></trkpt>
      <trkpt lat="50.64698" lon="-2.56197"></trkpt>
      <trkpt lat="50.64688" lon="-2.562"></trkpt>
      <trkpt lat="50.64654" lon="-2.56156"></trkpt>
      <trkpt lat="50.64633" lon="-2.56108"></trkpt>
      <trkpt lat="50.64594" lon="-2.5604"></trkpt>
      <trkpt lat="50.64547" lon="-2.55981"></trkpt>
      <trkpt lat="50.64474" lon="-2.55939"></trkpt>
      <trkpt lat="50.64443" lon="-2.55934"></trkpt>
      <trkpt lat="50.64338" lon="-2.5589"></trkpt>
      <trkpt lat="50.64327" lon="-2.55886"></trkpt>
      <trkpt lat="50.64219" lon="-2.55859"></trkpt>
      <trkpt lat="50.64167" lon="-2.55863"></trkpt>
      <trkpt lat="50.64161" lon="-2.55845"></trkpt>
      <trkpt lat="50.64133" lon="-2.55867"></trkpt>
      <trkpt lat="50.64105" lon="-2.55885"></trkpt>
      <trkpt lat="50.64052" lon="-2.55887"></trkpt>
      <trkpt lat="50.64024" lon="-2.55891"></trkpt>
      <trkpt lat="50.63952" lon="-2.55947"></trkpt>
      <trkpt lat="50.63909" lon="-2.55961"></trkpt>
      <trkpt lat="50.63819" lon="-2.55966"></trkpt>
      <trkpt lat="50.6364" lon="-2.55952"></trkpt>
      <trkpt lat="50.63636" lon="-2.55999"></trkpt>
      <trkpt lat="50.63591" lon="-2.55981"></trkpt>
      <trkpt lat="50.63543" lon="-2.55964"></trkpt>
      <trkpt lat="50.63539" lon="-2.55966"></trkpt>
      <trkpt lat="50.63526" lon="-2.55997"></trkpt>
      <trkpt lat="50.63515" lon="-2.56003"></trkpt>
      <trkpt lat="50.63476" lon="-2.55982"></trkpt>
      <trkpt lat="50.63468" lon="-2.55962"></trkpt>
      <trkpt lat="50.63465" lon="-2.55941"></trkpt>
      <trkpt lat="50.63415" lon="-2.55927"></trkpt>
      <trkpt lat="50.63403" lon="-2.55929"></trkpt>
      <trkpt lat="50.63393" lon="-2.55926"></trkpt>
      <trkpt lat="50.63295" lon="-2.55824"></trkpt>
      <trkpt lat="50.63278" lon="-2.55814"></trkpt>
      <trkpt lat="50.63241" lon="-2.55817"></trkpt>
      <trkpt lat="50.63203" lon="-2.55816"></trkpt>
      <trkpt lat="50.63135" lon="-2.55824"></trkpt>
      <trkpt lat="50.63114" lon="-2.55819"></trkpt>
      <trkpt lat="50.63102" lon="-2.55808"></trkpt>
      <trkpt lat="50.63094" lon="-2.55793"></trkpt>
      <trkpt lat="50.63092" lon="-2.55784"></trkpt>
      <trkpt lat="50.63095" lon="-2.55753"></trkpt>
      <trkpt lat="50.63081" lon="-2.55765"></trkpt>
      <trkpt lat="50.63081" lon="-2.55766"></trkpt>
      <trkpt lat="50.63095" lon="-2.55753"></trkpt>
      <trkpt lat="50.63088" lon="-2.55734"></trkpt>
      <trkpt lat="50.63076" lon="-2.55738"></trkpt>
      <trkpt lat="50.63072" lon="-2.55735"></trkpt>
      <trkpt lat="50.63064" lon="-2.55716"></trkpt>
      <trkpt lat="50.63057" lon="-2.55694"></trkpt>
      <trkpt lat="50.63052" lon="-2.55666"></trkpt>
      <trkpt lat="50.63048" lon="-2.55631"></trkpt>
      <trkpt lat="50.63045" lon="-2.55531"></trkpt>
      <trkpt lat="50.63047" lon="-2.55516"></trkpt>
      <trkpt lat="50.63069" lon="-2.55471"></trkpt>
      <trkpt lat="50.63069" lon="-2.55465"></trkpt>
      <trkpt lat="50.63048" lon="-2.55375"></trkpt>
      <trkpt lat="50.63048" lon="-2.55357"></trkpt>
      <trkpt lat="50.63051" lon="-2.55347"></trkpt>
      <trkpt lat="50.63058" lon="-2.55341"></trkpt>
      <trkpt lat="50.63078" lon="-2.55335"></trkpt>
      <trkpt lat="50.63082" lon="-2.55328"></trkpt>
      <trkpt lat="50.63083" lon="-2.55319"></trkpt>
      <trkpt lat="50.63073" lon="-2.55281"></trkpt>
      <trkpt lat="50.63073" lon="-2.55275"></trkpt>
      <trkpt lat="50.63088" lon="-2.55259"></trkpt>
      <trkpt lat="50.63099" lon="-2.55232"></trkpt>
      <trkpt lat="50.63099" lon="-2.55215"></trkpt>
      <trkpt lat="50.63096" lon="-2.55195"></trkpt>
      <trkpt lat="50.63086" lon="-2.55169"></trkpt>
      <trkpt lat="50.63077" lon="-2.55138"></trkpt>
      <trkpt lat="50.63073" lon="-2.55113"></trkpt>
      <trkpt lat="50.63065" lon="-2.55097"></trkpt>
      <trkpt lat="50.63051" lon="-2.55078"></trkpt>
      <trkpt lat="50.63045" lon="-2.55062"></trkpt>
      <trkpt lat="50.63029" lon="-2.55"></trkpt>
      <trkpt lat="50.63001" lon="-2.54921"></trkpt>
      <trkpt lat="50.62998" lon="-2.54909"></trkpt>
      <trkpt lat="50.62996" lon="-2.54894"></trkpt>
      <trkpt lat="50.63005" lon="-2.54797"></trkpt>
      <trkpt lat="50.63014" lon="-2.54757"></trkpt>
      <trkpt lat="50.63027" lon="-2.54715"></trkpt>
      <trkpt lat="50.63045" lon="-2.54673"></trkpt>
      <trkpt lat="50.63057" lon="-2.5463"></trkpt>
      <trkpt lat="50.63069" lon="-2.54561"></trkpt>
      <trkpt lat="50.63076" lon="-2.54478"></trkpt>
      <trkpt lat="50.6305" lon="-2.54479"></trkpt>
      <trkpt lat="50.63028" lon="-2.54484"></trkpt>
      <trkpt lat="50.62946" lon="-2.5453"></trkpt>
      <trkpt lat="50.62894" lon="-2.54547"></trkpt>
      <trkpt lat="50.62779" lon="-2.54587"></trkpt>
      <trkpt lat="50.62758" lon="-2.54588"></trkpt>
      <trkpt lat="50.62715" lon="-2.54579"></trkpt>
      <trkpt lat="50.62658" lon="-2.5456"></trkpt>
      <trkpt lat="50.62592" lon="-2.5455"></trkpt>
      <trkpt lat="50.62593" lon="-2.54538"></trkpt>
      <trkpt lat="50.62579" lon="-2.54514"></trkpt>
      <trkpt lat="50.62542" lon="-2.54464"></trkpt>
      <trkpt lat="50.6251" lon="-2.54427"></trkpt>
      <trkpt lat="50.625" lon="-2.54424"></trkpt>
      <trkpt lat="50.6246" lon="-2.54421"></trkpt>
      <trkpt lat="50.62443" lon="-2.54422"></trkpt>
      <trkpt lat="50.62385" lon="-2.54438"></trkpt>
      <trkpt lat="50.62364" lon="-2.5443"></trkpt>
      <trkpt lat="50.62351" lon="-2.54417"></trkpt>
      <trkpt lat="50.62345" lon="-2.54402"></trkpt>
      <trkpt lat="50.62337" lon="-2.54371"></trkpt>
      <trkpt lat="50.62337" lon="-2.54348"></trkpt>
      <trkpt lat="50.62335" lon="-2.54329"></trkpt>
      <trkpt lat="50.62331" lon="-2.54315"></trkpt>
      <trkpt lat="50.62326" lon="-2.54277"></trkpt>
      <trkpt lat="50.62306" lon="-2.54188"></trkpt>
      <trkpt lat="50.62276" lon="-2.54133"></trkpt>
      <trkpt lat="50.62254" lon="-2.54083"></trkpt>
      <trkpt lat="50.62241" lon="-2.54066"></trkpt>
      <trkpt lat="50.62236" lon="-2.54051"></trkpt>
      <trkpt lat="50.62237" lon="-2.54037"></trkpt>
      <trkpt lat="50.62243" lon="-2.54025"></trkpt>
      <trkpt lat="50.62243" lon="-2.54019"></trkpt>
      <trkpt lat="50.6214" lon="-2.53959"></trkpt>
      <trkpt lat="50.62077" lon="-2.53945"></trkpt>
      <trkpt lat="50.62064" lon="-2.53933"></trkpt>
      <trkpt lat="50.62049" lon="-2.53916"></trkpt>
      <trkpt lat="50.62025" lon="-2.53872"></trkpt>
      <trkpt lat="50.61993" lon="-2.53812"></trkpt>
      <trkpt lat="50.61951" lon="-2.53718"></trkpt>
      <trkpt lat="50.61867" lon="-2.53503"></trkpt>
      <trkpt lat="50.61861" lon="-2.53466"></trkpt>
      <trkpt lat="50.61848" lon="-2.5343"></trkpt>
      <trkpt lat="50.61837" lon="-2.5339"></trkpt>
      <trkpt lat="50.61829" lon="-2.53323"></trkpt>
      <trkpt lat="50.61823" lon="-2.533"></trkpt>
      <trkpt lat="50.61775" lon="-2.53201"></trkpt>
      <trkpt lat="50.61751" lon="-2.53133"></trkpt>
      <trkpt lat="50.61745" lon="-2.53105"></trkpt>
      <trkpt lat="50.6174" lon="-2.53032"></trkpt>
      <trkpt lat="50.61727" lon="-2.52966"></trkpt>
      <trkpt lat="50.61719" lon="-2.52885"></trkpt>
      <trkpt lat="50.61706" lon="-2.52675"></trkpt>
      <trkpt lat="50.61693" lon="-2.52523"></trkpt>
      <trkpt lat="50.61693" lon="-2.52493"></trkpt>
      <trkpt lat="50.61696" lon="-2.52475"></trkpt>
      <trkpt lat="50.61701" lon="-2.52464"></trkpt>
      <trkpt lat="50.6171" lon="-2.52458"></trkpt>
      <trkpt lat="50.61751" lon="-2.52447"></trkpt>
      <trkpt lat="50.61785" lon="-2.52432"></trkpt>
      <trkpt lat="50.61797" lon="-2.52417"></trkpt>
      <trkpt lat="50.61803" lon="-2.52399"></trkpt>
      <trkpt lat="50.61804" lon="-2.52368"></trkpt>
      <trkpt lat="50.61798" lon="-2.52348"></trkpt>
      <trkpt lat="50.61798" lon="-2.52328"></trkpt>
      <trkpt lat="50.618" lon="-2.52315"></trkpt>
      <trkpt lat="50.61787" lon="-2.52259"></trkpt>
      <trkpt lat="50.61786" lon="-2.52249"></trkpt>
      <trkpt lat="50.61788" lon="-2.5222"></trkpt>
      <trkpt lat="50.61816" lon="-2.52134"></trkpt>
      <trkpt lat="50.61818" lon="-2.52114"></trkpt>
      <trkpt lat="50.61817" lon="-2.52087"></trkpt>
      <trkpt lat="50.61792" lon="-2.51884"></trkpt>
      <trkpt lat="50.61791" lon="-2.51841"></trkpt>
      <trkpt lat="50.61799" lon="-2.51759"></trkpt>
      <trkpt lat="50.61795" lon="-2.51737"></trkpt>
      <trkpt lat="50.61792" lon="-2.51736"></trkpt>
      <trkpt lat="50.61786" lon="-2.51726"></trkpt>
      <trkpt lat="50.61785" lon="-2.51719"></trkpt>
      <trkpt lat="50.61762" lon="-2.5168"></trkpt>
      <trkpt lat="50.61744" lon="-2.51655"></trkpt>
      <trkpt lat="50.61716" lon="-2.5163"></trkpt>
      <trkpt lat="50.61658" lon="-2.51595"></trkpt>
      <trkpt lat="50.61533" lon="-2.51541"></trkpt>
      <trkpt lat="50.61476" lon="-2.5146"></trkpt>
      <trkpt lat="50.61451" lon="-2.51443"></trkpt>
      <trkpt lat="50.61429" lon="-2.51433"></trkpt>
      <trkpt lat="50.61282" lon="-2.51435"></trkpt>
      <trkpt lat="50.61281" lon="-2.51435"></trkpt>
      <trkpt lat="50.61168" lon="-2.51442"></trkpt>
      <trkpt lat="50.61143" lon="-2.51438"></trkpt>
      <trkpt lat="50.61123" lon="-2.5143"></trkpt>
      <trkpt lat="50.61057" lon="-2.5137"></trkpt>
      <trkpt lat="50.61032" lon="-2.51339"></trkpt>
      <trkpt lat="50.61024" lon="-2.5132"></trkpt>
      <trkpt lat="50.61022" lon="-2.51309"></trkpt>
      <trkpt lat="50.61024" lon="-2.51301"></trkpt>
      <trkpt lat="50.61029" lon="-2.51293"></trkpt>
      <trkpt lat="50.61045" lon="-2.51286"></trkpt>
      <trkpt lat="50.61061" lon="-2.51274"></trkpt>
      <trkpt lat="50.61075" lon="-2.51257"></trkpt>
      <trkpt lat="50.61091" lon="-2.51229"></trkpt>
      <trkpt lat="50.61111" lon="-2.51185"></trkpt>
      <trkpt lat="50.61148" lon="-2.51123"></trkpt>
      <trkpt lat="50.61168" lon="-2.5108"></trkpt>
      <trkpt lat="50.61183" lon="-2.51043"></trkpt>
      <trkpt lat="50.61188" lon="-2.51021"></trkpt>
      <trkpt lat="50.6119" lon="-2.50997"></trkpt>
      <trkpt lat="50.61188" lon="-2.50975"></trkpt>
      <trkpt lat="50.61171" lon="-2.50864"></trkpt>
      <trkpt lat="50.61162" lon="-2.5083"></trkpt>
      <trkpt lat="50.61146" lon="-2.50803"></trkpt>
      <trkpt lat="50.61106" lon="-2.50773"></trkpt>
      <trkpt lat="50.61056" lon="-2.50719"></trkpt>
      <trkpt lat="50.61049" lon="-2.50706"></trkpt>
      <trkpt lat="50.61042" lon="-2.50679"></trkpt>
      <trkpt lat="50.61036" lon="-2.50642"></trkpt>
      <trkpt lat="50.61028" lon="-2.50608"></trkpt>
      <trkpt lat="50.61018" lon="-2.50578"></trkpt>
      <trkpt lat="50.60992" lon="-2.50521"></trkpt>
      <trkpt lat="50.60959" lon="-2.50468"></trkpt>
      <trkpt lat="50.60955" lon="-2.50464"></trkpt>
      <trkpt lat="50.60943" lon="-2.50461"></trkpt>
      <trkpt lat="50.60935" lon="-2.50465"></trkpt>
      <trkpt lat="50.60929" lon="-2.50459"></trkpt>
      <trkpt lat="50.60907" lon="-2.5045"></trkpt>
      <trkpt lat="50.60895" lon="-2.50451"></trkpt>
      <trkpt lat="50.60862" lon="-2.50466"></trkpt>
      <trkpt lat="50.6085" lon="-2.50474"></trkpt>
      <trkpt lat="50.60843" lon="-2.50484"></trkpt>
      <trkpt lat="50.60837" lon="-2.50509"></trkpt>
      <trkpt lat="50.60839" lon="-2.50561"></trkpt>
      <trkpt lat="50.60837" lon="-2.50573"></trkpt>
      <trkpt lat="50.60832" lon="-2.50591"></trkpt>
      <trkpt lat="50.60794" lon="-2.50671"></trkpt>
      <trkpt lat="50.6078" lon="-2.50712"></trkpt>
      <trkpt lat="50.60766" lon="-2.50729"></trkpt>
      <trkpt lat="50.60755" lon="-2.50736"></trkpt>
      <trkpt lat="50.60744" lon="-2.50736"></trkpt>
      <trkpt lat="50.6073" lon="-2.50733"></trkpt>
      <trkpt lat="50.60715" lon="-2.50727"></trkpt>
      <trkpt lat="50.60699" lon="-2.50714"></trkpt>
      <trkpt lat="50.60657" lon="-2.50666"></trkpt>
      <trkpt lat="50.60646" lon="-2.50654"></trkpt>
      <trkpt lat="50.60618" lon="-2.50609"></trkpt>
      <trkpt lat="50.60604" lon="-2.50576"></trkpt>
      <trkpt lat="50.60591" lon="-2.50567"></trkpt>
      <trkpt lat="50.6058" lon="-2.50553"></trkpt>
      <trkpt lat="50.60563" lon="-2.50519"></trkpt>
      <trkpt lat="50.60539" lon="-2.50477"></trkpt>
      <trkpt lat="50.60529" lon="-2.50438"></trkpt>
      <trkpt lat="50.60529" lon="-2.50429"></trkpt>
      <trkpt lat="50.60547" lon="-2.50387"></trkpt>
      <trkpt lat="50.60557" lon="-2.50376"></trkpt>
      <trkpt lat="50.60614" lon="-2.50332"></trkpt>
      <trkpt lat="50.60627" lon="-2.50315"></trkpt>
      <trkpt lat="50.60658" lon="-2.50272"></trkpt>
      <trkpt lat="50.60666" lon="-2.50241"></trkpt>
      <trkpt lat="50.6067" lon="-2.50233"></trkpt>
      <trkpt lat="50.60685" lon="-2.50213"></trkpt>
      <trkpt lat="50.607" lon="-2.50199"></trkpt>
      <trkpt lat="50.6072" lon="-2.50196"></trkpt>
      <trkpt lat="50.60738" lon="-2.50176"></trkpt>
      <trkpt lat="50.60751" lon="-2.50169"></trkpt>
      <trkpt lat="50.60761" lon="-2.50156"></trkpt>
      <trkpt lat="50.6078" lon="-2.50138"></trkpt>
      <trkpt lat="50.60792" lon="-2.50123"></trkpt>
      <trkpt lat="50.60796" lon="-2.50114"></trkpt>
      <trkpt lat="50.60796" lon="-2.50093"></trkpt>
      <trkpt lat="50.60789" lon="-2.50087"></trkpt>
      <trkpt lat="50.6077" lon="-2.50105"></trkpt>
      <trkpt lat="50.60764" lon="-2.50106"></trkpt>
      <trkpt lat="50.6076" lon="-2.50102"></trkpt>
      <trkpt lat="50.60755" lon="-2.50101"></trkpt>
      <trkpt lat="50.60706" lon="-2.50106"></trkpt>
      <trkpt lat="50.60699" lon="-2.50104"></trkpt>
      <trkpt lat="50.60694" lon="-2.50108"></trkpt>
      <trkpt lat="50.60661" lon="-2.50095"></trkpt>
      <trkpt lat="50.60633" lon="-2.5009"></trkpt>
      <trkpt lat="50.60621" lon="-2.50092"></trkpt>
      <trkpt lat="50.60613" lon="-2.50099"></trkpt>
      <trkpt lat="50.60611" lon="-2.50103"></trkpt>
      <trkpt lat="50.60604" lon="-2.50106"></trkpt>
      <trkpt lat="50.6057" lon="-2.50114"></trkpt>
      <trkpt lat="50.60555" lon="-2.50125"></trkpt>
      <trkpt lat="50.60536" lon="-2.50117"></trkpt>
      <trkpt lat="50.60532" lon="-2.50108"></trkpt>
      <trkpt lat="50.60527" lon="-2.50103"></trkpt>
      <trkpt lat="50.60522" lon="-2.50103"></trkpt>
      <trkpt lat="50.60502" lon="-2.50096"></trkpt>
      <trkpt lat="50.60497" lon="-2.50089"></trkpt>
      <trkpt lat="50.60488" lon="-2.50086"></trkpt>
      <trkpt lat="50.60481" lon="-2.50078"></trkpt>
      <trkpt lat="50.60469" lon="-2.50069"></trkpt>
      <trkpt lat="50.60461" lon="-2.50065"></trkpt>
      <trkpt lat="50.60451" lon="-2.50066"></trkpt>
      <trkpt lat="50.6044" lon="-2.50057"></trkpt>
      <trkpt lat="50.60426" lon="-2.5004"></trkpt>
      <trkpt lat="50.60419" lon="-2.50027"></trkpt>
      <trkpt lat="50.60404" lon="-2.49968"></trkpt>
      <trkpt lat="50.60399" lon="-2.49933"></trkpt>
      <trkpt lat="50.60385" lon="-2.49768"></trkpt>
      <trkpt lat="50.60383" lon="-2.49759"></trkpt>
      <trkpt lat="50.60373" lon="-2.49714"></trkpt>
      <trkpt lat="50.60336" lon="-2.49609"></trkpt>
      <trkpt lat="50.6032" lon="-2.49582"></trkpt>
      <trkpt lat="50.60301" lon="-2.49554"></trkpt>
      <trkpt lat="50.60298" lon="-2.49533"></trkpt>
      <trkpt lat="50.60295" lon="-2.49522"></trkpt>
      <trkpt lat="50.60288" lon="-2.49514"></trkpt>
      <trkpt lat="50.60239" lon="-2.49498"></trkpt>
      <trkpt lat="50.60182" lon="-2.4954"></trkpt>
      <trkpt lat="50.60168" lon="-2.4954"></trkpt>
      <trkpt lat="50.60044" lon="-2.49603"></trkpt>
      <trkpt lat="50.60043" lon="-2.49621"></trkpt>
      <trkpt lat="50.60039" lon="-2.4964"></trkpt>
      <trkpt lat="50.60031" lon="-2.49661"></trkpt>
      <trkpt lat="50.60028" lon="-2.4968"></trkpt>
      <trkpt lat="50.60018" lon="-2.49697"></trkpt>
      <trkpt lat="50.60012" lon="-2.49721"></trkpt>
      <trkpt lat="50.60006" lon="-2.49733"></trkpt>
      <trkpt lat="50.60006" lon="-2.49734"></trkpt>
      <trkpt lat="50.60003" lon="-2.4974"></trkpt>
      <trkpt lat="50.5999" lon="-2.49752"></trkpt>
      <trkpt lat="50.59983" lon="-2.49763"></trkpt>
      <trkpt lat="50.59975" lon="-2.49784"></trkpt>
      <trkpt lat="50.59962" lon="-2.49803"></trkpt>
      <trkpt lat="50.59947" lon="-2.49835"></trkpt>
      <trkpt lat="50.59937" lon="-2.49844"></trkpt>
      <trkpt lat="50.59929" lon="-2.49848"></trkpt>
      <trkpt lat="50.59922" lon="-2.49847"></trkpt>
      <trkpt lat="50.59916" lon="-2.49844"></trkpt>
      <trkpt lat="50.59919" lon="-2.4981"></trkpt>
      <trkpt lat="50.59864" lon="-2.49835"></trkpt>
      <trkpt lat="50.59854" lon="-2.49833"></trkpt>
      <trkpt lat="50.59776" lon="-2.49822"></trkpt>
      <trkpt lat="50.59762" lon="-2.49809"></trkpt>
      <trkpt lat="50.59755" lon="-2.49807"></trkpt>
      <trkpt lat="50.59732" lon="-2.49817"></trkpt>
      <trkpt lat="50.59709" lon="-2.49819"></trkpt>
      <trkpt lat="50.59677" lon="-2.49812"></trkpt>
      <trkpt lat="50.59636" lon="-2.4979"></trkpt>
      <trkpt lat="50.59593" lon="-2.49737"></trkpt>
      <trkpt lat="50.597" lon="-2.49588"></trkpt>
      <trkpt lat="50.59611" lon="-2.49447"></trkpt>
      <trkpt lat="50.59575" lon="-2.49371"></trkpt>
      <trkpt lat="50.59548" lon="-2.49386"></trkpt>
      <trkpt lat="50.59542" lon="-2.49373"></trkpt>
      <trkpt lat="50.59522" lon="-2.49247"></trkpt>
      <trkpt lat="50.59502" lon="-2.49122"></trkpt>
      <trkpt lat="50.59493" lon="-2.49098"></trkpt>
      <trkpt lat="50.59401" lon="-2.49232"></trkpt>
      <trkpt lat="50.59399" lon="-2.49242"></trkpt>
      <trkpt lat="50.59392" lon="-2.4925"></trkpt>
      <trkpt lat="50.59371" lon="-2.49284"></trkpt>
      <trkpt lat="50.59363" lon="-2.49293"></trkpt>
      <trkpt lat="50.59362" lon="-2.49293"></trkpt>
      <trkpt lat="50.59371" lon="-2.49284"></trkpt>
      <trkpt lat="50.59392" lon="-2.4925"></trkpt>
      <trkpt lat="50.59399" lon="-2.49242"></trkpt>
      <trkpt lat="50.59401" lon="-2.49232"></trkpt>
      <trkpt lat="50.59383" lon="-2.49217"></trkpt>
      <trkpt lat="50.5936" lon="-2.4919"></trkpt>
      <trkpt lat="50.59331" lon="-2.49168"></trkpt>
      <trkpt lat="50.59274" lon="-2.49112"></trkpt>
      <trkpt lat="50.59226" lon="-2.49043"></trkpt>
      <trkpt lat="50.59194" lon="-2.48978"></trkpt>
      <trkpt lat="50.59182" lon="-2.48944"></trkpt>
      <trkpt lat="50.59157" lon="-2.48875"></trkpt>
      <trkpt lat="50.59132" lon="-2.48822"></trkpt>
      <trkpt lat="50.59122" lon="-2.48771"></trkpt>
      <trkpt lat="50.59123" lon="-2.48742"></trkpt>
      <trkpt lat="50.5913" lon="-2.48674"></trkpt>
      <trkpt lat="50.59138" lon="-2.48653"></trkpt>
      <trkpt lat="50.59166" lon="-2.48591"></trkpt>
      <trkpt lat="50.59167" lon="-2.48565"></trkpt>
      <trkpt lat="50.59166" lon="-2.48533"></trkpt>
      <trkpt lat="50.59158" lon="-2.48492"></trkpt>
      <trkpt lat="50.59146" lon="-2.48451"></trkpt>
      <trkpt lat="50.59131" lon="-2.48424"></trkpt>
      <trkpt lat="50.59114" lon="-2.48401"></trkpt>
      <trkpt lat="50.59115" lon="-2.48393"></trkpt>
      <trkpt lat="50.5911" lon="-2.48385"></trkpt>
      <trkpt lat="50.59099" lon="-2.48375"></trkpt>
      <trkpt lat="50.59087" lon="-2.48368"></trkpt>
      <trkpt lat="50.59076" lon="-2.48365"></trkpt>
      <trkpt lat="50.59019" lon="-2.48391"></trkpt>
      <trkpt lat="50.58993" lon="-2.48388"></trkpt>
      <trkpt lat="50.5894" lon="-2.48365"></trkpt>
      <trkpt lat="50.5892" lon="-2.48359"></trkpt>
      <trkpt lat="50.58916" lon="-2.48353"></trkpt>
      <trkpt lat="50.58913" lon="-2.48343"></trkpt>
      <trkpt lat="50.58898" lon="-2.48255"></trkpt>
      <trkpt lat="50.58888" lon="-2.48223"></trkpt>
      <trkpt lat="50.58887" lon="-2.48215"></trkpt>
      <trkpt lat="50.58893" lon="-2.48163"></trkpt>
      <trkpt lat="50.58893" lon="-2.48145"></trkpt>
      <trkpt lat="50.58891" lon="-2.48124"></trkpt>
      <trkpt lat="50.58884" lon="-2.48102"></trkpt>
      <trkpt lat="50.5887" lon="-2.48066"></trkpt>
      <trkpt lat="50.58856" lon="-2.48042"></trkpt>
      <trkpt lat="50.58814" lon="-2.47983"></trkpt>
      <trkpt lat="50.58808" lon="-2.47963"></trkpt>
      <trkpt lat="50.58796" lon="-2.47948"></trkpt>
      <trkpt lat="50.58772" lon="-2.47925"></trkpt>
      <trkpt lat="50.58761" lon="-2.4791"></trkpt>
      <trkpt lat="50.58676" lon="-2.47791"></trkpt>
      <trkpt lat="50.58666" lon="-2.4779"></trkpt>
      <trkpt lat="50.58655" lon="-2.47767"></trkpt>
      <trkpt lat="50.58639" lon="-2.47745"></trkpt>
      <trkpt lat="50.58593" lon="-2.47697"></trkpt>
      <trkpt lat="50.58587" lon="-2.47683"></trkpt>
      <trkpt lat="50.58583" lon="-2.47653"></trkpt>
      <trkpt lat="50.58587" lon="-2.47574"></trkpt>
      <trkpt lat="50.58585" lon="-2.47554"></trkpt>
      <trkpt lat="50.58581" lon="-2.47547"></trkpt>
      <trkpt lat="50.58572" lon="-2.47542"></trkpt>
      <trkpt lat="50.58569" lon="-2.4752"></trkpt>
      <trkpt lat="50.58542" lon="-2.47417"></trkpt>
      <trkpt lat="50.58549" lon="-2.47401"></trkpt>
      <trkpt lat="50.58536" lon="-2.47354"></trkpt>
      <trkpt lat="50.58532" lon="-2.47332"></trkpt>
      <trkpt lat="50.58531" lon="-2.47322"></trkpt>
      <trkpt lat="50.58534" lon="-2.47299"></trkpt>
      <trkpt lat="50.58521" lon="-2.47304"></trkpt>
      <trkpt lat="50.58509" lon="-2.47314"></trkpt>
      <trkpt lat="50.58481" lon="-2.47258"></trkpt>
      <trkpt lat="50.58465" lon="-2.47231"></trkpt>
      <trkpt lat="50.5844" lon="-2.47201"></trkpt>
      <trkpt lat="50.58428" lon="-2.47177"></trkpt>
      <trkpt lat="50.58331" lon="-2.47142"></trkpt>
    </trkseg>
  </trk>
</gpx>
