<?xml version="1.0" encoding="UTF-8"?>
<gpx version="1.1" creator="swcp-walk (imported from OS Maps route 33858785)"
     xmlns="http://www.topografix.com/GPX/1/1">
  <metadata>
    <name>SWCP49-IsleOfPortlandCircuit</name>
  </metadata>
  <trk>
    <name>SWCP49-IsleOfPortlandCircuit</name>
    <trkseg>
      <trkpt lat="50.58330536519367" lon="-2.4715265688769534"></trkpt>
      <trkpt lat="50.58332" lon="-2.47142"></trkpt>
      <trkpt lat="50.58268" lon="-2.47119"></trkpt>
      <trkpt lat="50.5826" lon="-2.47118"></trkpt>
      <trkpt lat="50.58244" lon="-2.4713"></trkpt>
      <trkpt lat="50.58222" lon="-2.47121"></trkpt>
      <trkpt lat="50.5817" lon="-2.47089"></trkpt>
      <trkpt lat="50.58171" lon="-2.47075"></trkpt>
      <trkpt lat="50.58174" lon="-2.47064"></trkpt>
      <trkpt lat="50.58163" lon="-2.4706"></trkpt>
      <trkpt lat="50.58146" lon="-2.4705"></trkpt>
      <trkpt lat="50.58135" lon="-2.47034"></trkpt>
      <trkpt lat="50.58087" lon="-2.47009"></trkpt>
      <trkpt lat="50.58084" lon="-2.47011"></trkpt>
      <trkpt lat="50.5808" lon="-2.47009"></trkpt>
      <trkpt lat="50.58056" lon="-2.4699"></trkpt>
      <trkpt lat="50.57988" lon="-2.46944"></trkpt>
      <trkpt lat="50.57975" lon="-2.46951"></trkpt>
      <trkpt lat="50.57965" lon="-2.46969"></trkpt>
      <trkpt lat="50.57953" lon="-2.46959"></trkpt>
      <trkpt lat="50.57948" lon="-2.46955"></trkpt>
      <trkpt lat="50.57942" lon="-2.46965"></trkpt>
      <trkpt lat="50.57933" lon="-2.46968"></trkpt>
      <trkpt lat="50.57919" lon="-2.46963"></trkpt>
      <trkpt lat="50.57912" lon="-2.46953"></trkpt>
      <trkpt lat="50.57899" lon="-2.46951"></trkpt>
      <trkpt lat="50.57889" lon="-2.46945"></trkpt>
      <trkpt lat="50.57879" lon="-2.46951"></trkpt>
      <trkpt lat="50.57864" lon="-2.46937"></trkpt>
      <trkpt lat="50.57867" lon="-2.46928"></trkpt>
      <trkpt lat="50.57846" lon="-2.46912"></trkpt>
      <trkpt lat="50.57796" lon="-2.46863"></trkpt>
      <trkpt lat="50.57692" lon="-2.46769"></trkpt>
      <trkpt lat="50.57683" lon="-2.46761"></trkpt>
      <trkpt lat="50.57687" lon="-2.4675"></trkpt>
      <trkpt lat="50.57525" lon="-2.46602"></trkpt>
      <trkpt lat="50.57459" lon="-2.46538"></trkpt>
      <trkpt lat="50.57411" lon="-2.46495"></trkpt>
      <trkpt lat="50.57404" lon="-2.46492"></trkpt>
      <trkpt lat="50.57366" lon="-2.46458"></trkpt>
      <trkpt lat="50.57366" lon="-2.46443"></trkpt>
      <trkpt lat="50.57275" lon="-2.4636"></trkpt>
      <trkpt lat="50.57233" lon="-2.46318"></trkpt>
      <trkpt lat="50.572" lon="-2.46274"></trkpt>
      <trkpt lat="50.57171" lon="-2.4623"></trkpt>
      <trkpt lat="50.57141" lon="-2.46179"></trkpt>
      <trkpt lat="50.57058" lon="-2.46011"></trkpt>
      <trkpt lat="50.57051" lon="-2.46008"></trkpt>
      <trkpt lat="50.57028" lon="-2.45961"></trkpt>
      <trkpt lat="50.5703" lon="-2.45954"></trkpt>
      <trkpt lat="50.56987" lon="-2.45877"></trkpt>
      <trkpt lat="50.56944" lon="-2.4581"></trkpt>
      <trkpt lat="50.56882" lon="-2.45731"></trkpt>
      <trkpt lat="50.56722" lon="-2.45514"></trkpt>
      <trkpt lat="50.56622" lon="-2.45379"></trkpt>
      <trkpt lat="50.56593" lon="-2.4533"></trkpt>
      <trkpt lat="50.56476" lon="-2.45214"></trkpt>
      <trkpt lat="50.56461" lon="-2.4524"></trkpt>
      <trkpt lat="50.56452" lon="-2.45244"></trkpt>
      <trkpt lat="50.56446" lon="-2.45243"></trkpt>
      <trkpt lat="50.56439" lon="-2.45238"></trkpt>
      <trkpt lat="50.56374" lon="-2.45153"></trkpt>
      <trkpt lat="50.56373" lon="-2.45156"></trkpt>
      <trkpt lat="50.56269" lon="-2.45034"></trkpt>
      <trkpt lat="50.56233" lon="-2.45"></trkpt>
      <trkpt lat="50.56087" lon="-2.44892"></trkpt>
      <trkpt lat="50.56086" lon="-2.44886"></trkpt>
      <trkpt lat="50.56065" lon="-2.44871"></trkpt>
      <trkpt lat="50.5604" lon="-2.44859"></trkpt>
      <trkpt lat="50.56042" lon="-2.44853"></trkpt>
      <trkpt lat="50.55991" lon="-2.44824"></trkpt>
      <trkpt lat="50.5596" lon="-2.44801"></trkpt>
      <trkpt lat="50.55924" lon="-2.44783"></trkpt>
      <trkpt lat="50.55894" lon="-2.44776"></trkpt>
      <trkpt lat="50.55888" lon="-2.44781"></trkpt>
      <trkpt lat="50.55885" lon="-2.44781"></trkpt>
      <trkpt lat="50.55868" lon="-2.44776"></trkpt>
      <trkpt lat="50.55863" lon="-2.44771"></trkpt>
      <trkpt lat="50.55884" lon="-2.44769"></trkpt>
      <trkpt lat="50.55845" lon="-2.44749"></trkpt>
      <trkpt lat="50.55837" lon="-2.4474"></trkpt>
      <trkpt lat="50.55822" lon="-2.44697"></trkpt>
      <trkpt lat="50.55808" lon="-2.44666"></trkpt>
      <trkpt lat="50.55772" lon="-2.44607"></trkpt>
      <trkpt lat="50.55766" lon="-2.44585"></trkpt>
      <trkpt lat="50.55759" lon="-2.44569"></trkpt>
      <trkpt lat="50.55744" lon="-2.44551"></trkpt>
      <trkpt lat="50.55728" lon="-2.44537"></trkpt>
      <trkpt lat="50.55711" lon="-2.44533"></trkpt>
      <trkpt lat="50.55701" lon="-2.44526"></trkpt>
      <trkpt lat="50.5569" lon="-2.44504"></trkpt>
      <trkpt lat="50.55661" lon="-2.44483"></trkpt>
      <trkpt lat="50.55652" lon="-2.44482"></trkpt>
      <trkpt lat="50.55642" lon="-2.44477"></trkpt>
      <trkpt lat="50.55637" lon="-2.44469"></trkpt>
      <trkpt lat="50.5563" lon="-2.44465"></trkpt>
      <trkpt lat="50.55626" lon="-2.44465"></trkpt>
      <trkpt lat="50.55619" lon="-2.4446"></trkpt>
      <trkpt lat="50.55614" lon="-2.4446"></trkpt>
      <trkpt lat="50.55609" lon="-2.44455"></trkpt>
      <trkpt lat="50.55593" lon="-2.44455"></trkpt>
      <trkpt lat="50.5559" lon="-2.44442"></trkpt>
      <trkpt lat="50.55579" lon="-2.44453"></trkpt>
      <trkpt lat="50.55571" lon="-2.4445"></trkpt>
      <trkpt lat="50.55562" lon="-2.44458"></trkpt>
      <trkpt lat="50.55537" lon="-2.44482"></trkpt>
      <trkpt lat="50.55529" lon="-2.44485"></trkpt>
      <trkpt lat="50.55521" lon="-2.4448"></trkpt>
      <trkpt lat="50.55507" lon="-2.44493"></trkpt>
      <trkpt lat="50.55496" lon="-2.44495"></trkpt>
      <trkpt lat="50.55488" lon="-2.44504"></trkpt>
      <trkpt lat="50.55335640308044" lon="-2.4472912183308324"></trkpt>
      <trkpt lat="50.552796157657696" lon="-2.447958653598363"></trkpt>
      <trkpt lat="50.550616469218795" lon="-2.449036957196654"></trkpt>
      <trkpt lat="50.55062" lon="-2.4491"></trkpt>
      <trkpt lat="50.55047" lon="-2.44909"></trkpt>
      <trkpt lat="50.55034" lon="-2.44915"></trkpt>
      <trkpt lat="50.55012" lon="-2.44921"></trkpt>
      <trkpt lat="50.54997" lon="-2.44916"></trkpt>
      <trkpt lat="50.54962" lon="-2.4492"></trkpt>
      <trkpt lat="50.54941" lon="-2.44927"></trkpt>
      <trkpt lat="50.54908" lon="-2.44947"></trkpt>
      <trkpt lat="50.54864" lon="-2.44978"></trkpt>
      <trkpt lat="50.54855" lon="-2.44984"></trkpt>
      <trkpt lat="50.54756" lon="-2.45006"></trkpt>
      <trkpt lat="50.54705" lon="-2.45036"></trkpt>
      <trkpt lat="50.54686" lon="-2.4506"></trkpt>
      <trkpt lat="50.54672" lon="-2.45074"></trkpt>
      <trkpt lat="50.54654" lon="-2.45101"></trkpt>
      <trkpt lat="50.54641" lon="-2.45102"></trkpt>
      <trkpt lat="50.54612" lon="-2.45096"></trkpt>
      <trkpt lat="50.54585" lon="-2.45099"></trkpt>
      <trkpt lat="50.54574" lon="-2.45113"></trkpt>
      <trkpt lat="50.54572" lon="-2.45125"></trkpt>
      <trkpt lat="50.54573" lon="-2.45148"></trkpt>
      <trkpt lat="50.54571" lon="-2.45152"></trkpt>
      <trkpt lat="50.54539" lon="-2.45155"></trkpt>
      <trkpt lat="50.54534" lon="-2.45159"></trkpt>
      <trkpt lat="50.5453" lon="-2.45176"></trkpt>
      <trkpt lat="50.54526" lon="-2.45186"></trkpt>
      <trkpt lat="50.5453" lon="-2.45233"></trkpt>
      <trkpt lat="50.54534" lon="-2.45246"></trkpt>
      <trkpt lat="50.54538" lon="-2.45261"></trkpt>
      <trkpt lat="50.54498" lon="-2.45321"></trkpt>
      <trkpt lat="50.54488" lon="-2.45331"></trkpt>
      <trkpt lat="50.54476" lon="-2.45338"></trkpt>
      <trkpt lat="50.5446" lon="-2.45363"></trkpt>
      <trkpt lat="50.54441" lon="-2.45375"></trkpt>
      <trkpt lat="50.54422" lon="-2.45387"></trkpt>
      <trkpt lat="50.54407" lon="-2.45388"></trkpt>
      <trkpt lat="50.54401" lon="-2.45394"></trkpt>
      <trkpt lat="50.5439" lon="-2.4542"></trkpt>
      <trkpt lat="50.54383" lon="-2.4543"></trkpt>
      <trkpt lat="50.54358" lon="-2.45439"></trkpt>
      <trkpt lat="50.54346" lon="-2.45459"></trkpt>
      <trkpt lat="50.5433" lon="-2.45463"></trkpt>
      <trkpt lat="50.54324" lon="-2.45459"></trkpt>
      <trkpt lat="50.54278" lon="-2.45476"></trkpt>
      <trkpt lat="50.54262" lon="-2.45473"></trkpt>
      <trkpt lat="50.5421" lon="-2.45455"></trkpt>
      <trkpt lat="50.54154" lon="-2.45428"></trkpt>
      <trkpt lat="50.54141" lon="-2.45417"></trkpt>
      <trkpt lat="50.54079" lon="-2.45345"></trkpt>
      <trkpt lat="50.54054" lon="-2.45297"></trkpt>
      <trkpt lat="50.54031" lon="-2.45279"></trkpt>
      <trkpt lat="50.53981" lon="-2.45258"></trkpt>
      <trkpt lat="50.53942" lon="-2.45263"></trkpt>
      <trkpt lat="50.53919" lon="-2.45263"></trkpt>
      <trkpt lat="50.53864" lon="-2.45253"></trkpt>
      <trkpt lat="50.53786" lon="-2.45254"></trkpt>
      <trkpt lat="50.53754" lon="-2.45257"></trkpt>
      <trkpt lat="50.53742" lon="-2.45265"></trkpt>
      <trkpt lat="50.5372" lon="-2.45263"></trkpt>
      <trkpt lat="50.53695" lon="-2.45275"></trkpt>
      <trkpt lat="50.53668" lon="-2.45276"></trkpt>
      <trkpt lat="50.53616" lon="-2.45285"></trkpt>
      <trkpt lat="50.5356" lon="-2.45303"></trkpt>
      <trkpt lat="50.53559" lon="-2.45303"></trkpt>
      <trkpt lat="50.5346" lon="-2.45346"></trkpt>
      <trkpt lat="50.53386" lon="-2.45372"></trkpt>
      <trkpt lat="50.53317" lon="-2.45402"></trkpt>
      <trkpt lat="50.53302" lon="-2.45415"></trkpt>
      <trkpt lat="50.53287" lon="-2.45415"></trkpt>
      <trkpt lat="50.53275" lon="-2.45427"></trkpt>
      <trkpt lat="50.53248" lon="-2.45438"></trkpt>
      <trkpt lat="50.53169" lon="-2.45442"></trkpt>
      <trkpt lat="50.53148" lon="-2.45453"></trkpt>
      <trkpt lat="50.53065" lon="-2.45469"></trkpt>
      <trkpt lat="50.53001" lon="-2.45479"></trkpt>
      <trkpt lat="50.5283" lon="-2.4549"></trkpt>
      <trkpt lat="50.52655" lon="-2.45478"></trkpt>
      <trkpt lat="50.52573" lon="-2.45481"></trkpt>
      <trkpt lat="50.52558" lon="-2.45486"></trkpt>
      <trkpt lat="50.52557" lon="-2.45486"></trkpt>
      <trkpt lat="50.52447" lon="-2.45533"></trkpt>
      <trkpt lat="50.52376" lon="-2.45571"></trkpt>
      <trkpt lat="50.52366" lon="-2.45592"></trkpt>
      <trkpt lat="50.52353" lon="-2.45604"></trkpt>
      <trkpt lat="50.52339" lon="-2.45622"></trkpt>
      <trkpt lat="50.52302" lon="-2.45648"></trkpt>
      <trkpt lat="50.52263" lon="-2.45703"></trkpt>
      <trkpt lat="50.52253" lon="-2.45705"></trkpt>
      <trkpt lat="50.52236" lon="-2.45716"></trkpt>
      <trkpt lat="50.52228" lon="-2.45716"></trkpt>
      <trkpt lat="50.52179" lon="-2.45765"></trkpt>
      <trkpt lat="50.52174" lon="-2.45774"></trkpt>
      <trkpt lat="50.52159" lon="-2.4578"></trkpt>
      <trkpt lat="50.52152" lon="-2.45787"></trkpt>
      <trkpt lat="50.52112" lon="-2.45815"></trkpt>
      <trkpt lat="50.52091" lon="-2.45837"></trkpt>
      <trkpt lat="50.52075" lon="-2.45864"></trkpt>
      <trkpt lat="50.52054" lon="-2.45875"></trkpt>
      <trkpt lat="50.52041" lon="-2.45877"></trkpt>
      <trkpt lat="50.52027" lon="-2.45876"></trkpt>
      <trkpt lat="50.51963" lon="-2.4584"></trkpt>
      <trkpt lat="50.51931" lon="-2.45826"></trkpt>
      <trkpt lat="50.519" lon="-2.45827"></trkpt>
      <trkpt lat="50.51814" lon="-2.45771"></trkpt>
      <trkpt lat="50.51802" lon="-2.45766"></trkpt>
      <trkpt lat="50.51757" lon="-2.45758"></trkpt>
      <trkpt lat="50.5174" lon="-2.45771"></trkpt>
      <trkpt lat="50.51636" lon="-2.45722"></trkpt>
      <trkpt lat="50.51582" lon="-2.45722"></trkpt>
      <trkpt lat="50.51571" lon="-2.45719"></trkpt>
      <trkpt lat="50.51559" lon="-2.45729"></trkpt>
      <trkpt lat="50.51543" lon="-2.45747"></trkpt>
      <trkpt lat="50.51522" lon="-2.45756"></trkpt>
      <trkpt lat="50.51496" lon="-2.45756"></trkpt>
      <trkpt lat="50.51482" lon="-2.45781"></trkpt>
      <trkpt lat="50.51468" lon="-2.45794"></trkpt>
      <trkpt lat="50.51467" lon="-2.45738"></trkpt>
      <trkpt lat="50.5145" lon="-2.45768"></trkpt>
      <trkpt lat="50.5145" lon="-2.45749"></trkpt>
      <trkpt lat="50.51448" lon="-2.45741"></trkpt>
      <trkpt lat="50.51446" lon="-2.45734"></trkpt>
      <trkpt lat="50.51448" lon="-2.4571"></trkpt>
      <trkpt lat="50.51438" lon="-2.45721"></trkpt>
      <trkpt lat="50.51426" lon="-2.45728"></trkpt>
      <trkpt lat="50.51407" lon="-2.45728"></trkpt>
      <trkpt lat="50.5137" lon="-2.45721"></trkpt>
      <trkpt lat="50.51363" lon="-2.45708"></trkpt>
      <trkpt lat="50.51349" lon="-2.45692"></trkpt>
      <trkpt lat="50.51343" lon="-2.45666"></trkpt>
      <trkpt lat="50.51333" lon="-2.45672"></trkpt>
      <trkpt lat="50.5137" lon="-2.45652"></trkpt>
      <trkpt lat="50.5139" lon="-2.45631"></trkpt>
      <trkpt lat="50.51404" lon="-2.45611"></trkpt>
      <trkpt lat="50.51407" lon="-2.45604"></trkpt>
      <trkpt lat="50.51449" lon="-2.45584"></trkpt>
      <trkpt lat="50.51467" lon="-2.45562"></trkpt>
      <trkpt lat="50.5151" lon="-2.45496"></trkpt>
      <trkpt lat="50.51528" lon="-2.45449"></trkpt>
      <trkpt lat="50.51536" lon="-2.45399"></trkpt>
      <trkpt lat="50.5154" lon="-2.45395"></trkpt>
      <trkpt lat="50.51558" lon="-2.45372"></trkpt>
      <trkpt lat="50.51557" lon="-2.45359"></trkpt>
      <trkpt lat="50.51559" lon="-2.45347"></trkpt>
      <trkpt lat="50.5157" lon="-2.45321"></trkpt>
      <trkpt lat="50.51632" lon="-2.45275"></trkpt>
      <trkpt lat="50.51636" lon="-2.45268"></trkpt>
      <trkpt lat="50.51641" lon="-2.45253"></trkpt>
      <trkpt lat="50.51648" lon="-2.45244"></trkpt>
      <trkpt lat="50.51656" lon="-2.45239"></trkpt>
      <trkpt lat="50.51658" lon="-2.4523"></trkpt>
      <trkpt lat="50.51664" lon="-2.45218"></trkpt>
      <trkpt lat="50.51684" lon="-2.45206"></trkpt>
      <trkpt lat="50.5169" lon="-2.45199"></trkpt>
      <trkpt lat="50.51696" lon="-2.45188"></trkpt>
      <trkpt lat="50.51698" lon="-2.4518"></trkpt>
      <trkpt lat="50.51698" lon="-2.4516"></trkpt>
      <trkpt lat="50.51704" lon="-2.45129"></trkpt>
      <trkpt lat="50.51706" lon="-2.45087"></trkpt>
      <trkpt lat="50.51713" lon="-2.4506"></trkpt>
      <trkpt lat="50.51779" lon="-2.44987"></trkpt>
      <trkpt lat="50.51799" lon="-2.44963"></trkpt>
      <trkpt lat="50.51818" lon="-2.44947"></trkpt>
      <trkpt lat="50.51845" lon="-2.44906"></trkpt>
      <trkpt lat="50.51845" lon="-2.44877"></trkpt>
      <trkpt lat="50.51848" lon="-2.44863"></trkpt>
      <trkpt lat="50.51853" lon="-2.44853"></trkpt>
      <trkpt lat="50.51881" lon="-2.44827"></trkpt>
      <trkpt lat="50.51888" lon="-2.44814"></trkpt>
      <trkpt lat="50.5192" lon="-2.44778"></trkpt>
      <trkpt lat="50.5193" lon="-2.44767"></trkpt>
      <trkpt lat="50.51945" lon="-2.44761"></trkpt>
      <trkpt lat="50.51959" lon="-2.44735"></trkpt>
      <trkpt lat="50.51959" lon="-2.44714"></trkpt>
      <trkpt lat="50.51935" lon="-2.44661"></trkpt>
      <trkpt lat="50.51936" lon="-2.44632"></trkpt>
      <trkpt lat="50.51945" lon="-2.44611"></trkpt>
      <trkpt lat="50.51983" lon="-2.44543"></trkpt>
      <trkpt lat="50.52041" lon="-2.44432"></trkpt>
      <trkpt lat="50.5209" lon="-2.44319"></trkpt>
      <trkpt lat="50.52098" lon="-2.44314"></trkpt>
      <trkpt lat="50.52183" lon="-2.44306"></trkpt>
      <trkpt lat="50.52191" lon="-2.44302"></trkpt>
      <trkpt lat="50.52205" lon="-2.44281"></trkpt>
      <trkpt lat="50.52214" lon="-2.44277"></trkpt>
      <trkpt lat="50.52231" lon="-2.44265"></trkpt>
      <trkpt lat="50.5224" lon="-2.44264"></trkpt>
      <trkpt lat="50.52257" lon="-2.44256"></trkpt>
      <trkpt lat="50.52267" lon="-2.44255"></trkpt>
      <trkpt lat="50.52282" lon="-2.44243"></trkpt>
      <trkpt lat="50.52281" lon="-2.44243"></trkpt>
      <trkpt lat="50.52288" lon="-2.44238"></trkpt>
      <trkpt lat="50.52299" lon="-2.44211"></trkpt>
      <trkpt lat="50.52303" lon="-2.44208"></trkpt>
      <trkpt lat="50.52322" lon="-2.44206"></trkpt>
      <trkpt lat="50.52343" lon="-2.44201"></trkpt>
      <trkpt lat="50.52356" lon="-2.4419"></trkpt>
      <trkpt lat="50.52383" lon="-2.44178"></trkpt>
      <trkpt lat="50.52416" lon="-2.44115"></trkpt>
      <trkpt lat="50.52419" lon="-2.44105"></trkpt>
      <trkpt lat="50.5242" lon="-2.44092"></trkpt>
      <trkpt lat="50.52429" lon="-2.44067"></trkpt>
      <trkpt lat="50.52433" lon="-2.44063"></trkpt>
      <trkpt lat="50.52447" lon="-2.44064"></trkpt>
      <trkpt lat="50.52453" lon="-2.44059"></trkpt>
      <trkpt lat="50.52467" lon="-2.44039"></trkpt>
      <trkpt lat="50.52476" lon="-2.44015"></trkpt>
      <trkpt lat="50.52476" lon="-2.44"></trkpt>
      <trkpt lat="50.52486" lon="-2.43959"></trkpt>
      <trkpt lat="50.52504" lon="-2.43947"></trkpt>
      <trkpt lat="50.52513" lon="-2.43945"></trkpt>
      <trkpt lat="50.52518" lon="-2.43948"></trkpt>
      <trkpt lat="50.52523" lon="-2.43956"></trkpt>
      <trkpt lat="50.52533" lon="-2.43937"></trkpt>
      <trkpt lat="50.52552" lon="-2.43913"></trkpt>
      <trkpt lat="50.52563" lon="-2.43909"></trkpt>
      <trkpt lat="50.52569" lon="-2.43898"></trkpt>
      <trkpt lat="50.52576" lon="-2.43874"></trkpt>
      <trkpt lat="50.5258" lon="-2.43871"></trkpt>
      <trkpt lat="50.52587" lon="-2.43873"></trkpt>
      <trkpt lat="50.526" lon="-2.43866"></trkpt>
      <trkpt lat="50.52613" lon="-2.43851"></trkpt>
      <trkpt lat="50.52612" lon="-2.43851"></trkpt>
      <trkpt lat="50.52633" lon="-2.43818"></trkpt>
      <trkpt lat="50.52642" lon="-2.43813"></trkpt>
      <trkpt lat="50.52676" lon="-2.43813"></trkpt>
      <trkpt lat="50.52723" lon="-2.43801"></trkpt>
      <trkpt lat="50.52748" lon="-2.438"></trkpt>
      <trkpt lat="50.52765" lon="-2.43807"></trkpt>
      <trkpt lat="50.52791" lon="-2.43824"></trkpt>
      <trkpt lat="50.52817" lon="-2.43818"></trkpt>
      <trkpt lat="50.52845" lon="-2.43804"></trkpt>
      <trkpt lat="50.52912" lon="-2.43793"></trkpt>
      <trkpt lat="50.52938" lon="-2.43796"></trkpt>
      <trkpt lat="50.52957" lon="-2.43801"></trkpt>
      <trkpt lat="50.5299" lon="-2.43809"></trkpt>
      <trkpt lat="50.53007" lon="-2.4381"></trkpt>
      <trkpt lat="50.53053" lon="-2.43783"></trkpt>
      <trkpt lat="50.53065" lon="-2.43779"></trkpt>
      <trkpt lat="50.53104" lon="-2.43786"></trkpt>
      <trkpt lat="50.53127" lon="-2.43788"></trkpt>
      <trkpt lat="50.53157" lon="-2.43785"></trkpt>
      <trkpt lat="50.5316" lon="-2.43793"></trkpt>
      <trkpt lat="50.53202" lon="-2.43762"></trkpt>
      <trkpt lat="50.53218" lon="-2.43745"></trkpt>
      <trkpt lat="50.53235" lon="-2.43724"></trkpt>
      <trkpt lat="50.53267" lon="-2.43677"></trkpt>
      <trkpt lat="50.53295" lon="-2.43632"></trkpt>
      <trkpt lat="50.53323" lon="-2.43583"></trkpt>
      <trkpt lat="50.53376" lon="-2.43466"></trkpt>
      <trkpt lat="50.53332" lon="-2.43426"></trkpt>
      <trkpt lat="50.53348" lon="-2.43384"></trkpt>
      <trkpt lat="50.5335" lon="-2.43363"></trkpt>
      <trkpt lat="50.5336" lon="-2.43348"></trkpt>
      <trkpt lat="50.53365" lon="-2.43335"></trkpt>
      <trkpt lat="50.53373" lon="-2.43332"></trkpt>
      <trkpt lat="50.53378" lon="-2.43323"></trkpt>
      <trkpt lat="50.53382" lon="-2.43323"></trkpt>
      <trkpt lat="50.53386" lon="-2.43317"></trkpt>
      <trkpt lat="50.53394" lon="-2.43316"></trkpt>
      <trkpt lat="50.53413" lon="-2.43301"></trkpt>
      <trkpt lat="50.53413" lon="-2.43293"></trkpt>
      <trkpt lat="50.53417" lon="-2.4329"></trkpt>
      <trkpt lat="50.5342" lon="-2.4328"></trkpt>
      <trkpt lat="50.5344" lon="-2.43261"></trkpt>
      <trkpt lat="50.53445" lon="-2.43257"></trkpt>
      <trkpt lat="50.53444" lon="-2.43252"></trkpt>
      <trkpt lat="50.53448" lon="-2.43241"></trkpt>
      <trkpt lat="50.53465" lon="-2.43227"></trkpt>
      <trkpt lat="50.53467" lon="-2.43221"></trkpt>
      <trkpt lat="50.53478" lon="-2.43213"></trkpt>
      <trkpt lat="50.53497" lon="-2.43191"></trkpt>
      <trkpt lat="50.53496" lon="-2.43177"></trkpt>
      <trkpt lat="50.53499" lon="-2.43157"></trkpt>
      <trkpt lat="50.53494" lon="-2.43161"></trkpt>
      <trkpt lat="50.53487" lon="-2.43159"></trkpt>
      <trkpt lat="50.53486" lon="-2.43152"></trkpt>
      <trkpt lat="50.53488" lon="-2.43147"></trkpt>
      <trkpt lat="50.53496" lon="-2.43137"></trkpt>
      <trkpt lat="50.53503" lon="-2.43125"></trkpt>
      <trkpt lat="50.53542" lon="-2.43086"></trkpt>
      <trkpt lat="50.5354" lon="-2.43081"></trkpt>
      <trkpt lat="50.53544" lon="-2.43069"></trkpt>
      <trkpt lat="50.53548" lon="-2.4307"></trkpt>
      <trkpt lat="50.53554" lon="-2.43066"></trkpt>
      <trkpt lat="50.53564" lon="-2.43045"></trkpt>
      <trkpt lat="50.53568" lon="-2.43028"></trkpt>
      <trkpt lat="50.53574" lon="-2.43016"></trkpt>
      <trkpt lat="50.53591" lon="-2.43001"></trkpt>
      <trkpt lat="50.53595" lon="-2.42999"></trkpt>
      <trkpt lat="50.53602" lon="-2.43001"></trkpt>
      <trkpt lat="50.53606" lon="-2.42998"></trkpt>
      <trkpt lat="50.53611" lon="-2.42986"></trkpt>
      <trkpt lat="50.5361" lon="-2.42971"></trkpt>
      <trkpt lat="50.53612" lon="-2.42968"></trkpt>
      <trkpt lat="50.53624" lon="-2.42962"></trkpt>
      <trkpt lat="50.53634" lon="-2.42953"></trkpt>
      <trkpt lat="50.53638" lon="-2.42952"></trkpt>
      <trkpt lat="50.53648" lon="-2.42952"></trkpt>
      <trkpt lat="50.53657" lon="-2.42962"></trkpt>
      <trkpt lat="50.53666" lon="-2.42947"></trkpt>
      <trkpt lat="50.53675" lon="-2.42939"></trkpt>
      <trkpt lat="50.5368" lon="-2.42929"></trkpt>
      <trkpt lat="50.53688" lon="-2.42926"></trkpt>
      <trkpt lat="50.53705" lon="-2.42925"></trkpt>
      <trkpt lat="50.53714" lon="-2.42929"></trkpt>
      <trkpt lat="50.53719" lon="-2.42927"></trkpt>
      <trkpt lat="50.53728" lon="-2.42912"></trkpt>
      <trkpt lat="50.53737" lon="-2.42917"></trkpt>
      <trkpt lat="50.53744" lon="-2.42912"></trkpt>
      <trkpt lat="50.53766" lon="-2.42915"></trkpt>
      <trkpt lat="50.53784" lon="-2.42908"></trkpt>
      <trkpt lat="50.53796" lon="-2.42909"></trkpt>
      <trkpt lat="50.53825" lon="-2.4289"></trkpt>
      <trkpt lat="50.53843" lon="-2.42881"></trkpt>
      <trkpt lat="50.53862" lon="-2.42879"></trkpt>
      <trkpt lat="50.53862" lon="-2.42875"></trkpt>
      <trkpt lat="50.53862" lon="-2.42879"></trkpt>
      <trkpt lat="50.53886" lon="-2.42858"></trkpt>
      <trkpt lat="50.53895" lon="-2.42848"></trkpt>
      <trkpt lat="50.539" lon="-2.4285"></trkpt>
      <trkpt lat="50.53903" lon="-2.42844"></trkpt>
      <trkpt lat="50.53941" lon="-2.42813"></trkpt>
      <trkpt lat="50.53968" lon="-2.42783"></trkpt>
      <trkpt lat="50.53975" lon="-2.42763"></trkpt>
      <trkpt lat="50.53981" lon="-2.42754"></trkpt>
      <trkpt lat="50.53997" lon="-2.42749"></trkpt>
      <trkpt lat="50.54006" lon="-2.42743"></trkpt>
      <trkpt lat="50.54011" lon="-2.42735"></trkpt>
      <trkpt lat="50.54024" lon="-2.42725"></trkpt>
      <trkpt lat="50.54034" lon="-2.42724"></trkpt>
      <trkpt lat="50.54042" lon="-2.42718"></trkpt>
      <trkpt lat="50.54054" lon="-2.42719"></trkpt>
      <trkpt lat="50.54057" lon="-2.42722"></trkpt>
      <trkpt lat="50.54062" lon="-2.42718"></trkpt>
      <trkpt lat="50.54063" lon="-2.42713"></trkpt>
      <trkpt lat="50.54068" lon="-2.4271"></trkpt>
      <trkpt lat="50.54081" lon="-2.42686"></trkpt>
      <trkpt lat="50.54084" lon="-2.42672"></trkpt>
      <trkpt lat="50.54119" lon="-2.4262"></trkpt>
      <trkpt lat="50.54129" lon="-2.42618"></trkpt>
      <trkpt lat="50.54136" lon="-2.42612"></trkpt>
      <trkpt lat="50.54142" lon="-2.42597"></trkpt>
      <trkpt lat="50.54145" lon="-2.42582"></trkpt>
      <trkpt lat="50.54148" lon="-2.42579"></trkpt>
      <trkpt lat="50.54157" lon="-2.42586"></trkpt>
      <trkpt lat="50.54158" lon="-2.42592"></trkpt>
      <trkpt lat="50.54161" lon="-2.42595"></trkpt>
      <trkpt lat="50.54172" lon="-2.42549"></trkpt>
      <trkpt lat="50.54196" lon="-2.42489"></trkpt>
      <trkpt lat="50.54202" lon="-2.42459"></trkpt>
      <trkpt lat="50.54224" lon="-2.42431"></trkpt>
      <trkpt lat="50.54255" lon="-2.42373"></trkpt>
      <trkpt lat="50.54299" lon="-2.42272"></trkpt>
      <trkpt lat="50.54285" lon="-2.42268"></trkpt>
      <trkpt lat="50.54284" lon="-2.42264"></trkpt>
      <trkpt lat="50.54285" lon="-2.42268"></trkpt>
      <trkpt lat="50.54299" lon="-2.42272"></trkpt>
      <trkpt lat="50.54311" lon="-2.42256"></trkpt>
      <trkpt lat="50.54347" lon="-2.42187"></trkpt>
      <trkpt lat="50.54388" lon="-2.42118"></trkpt>
      <trkpt lat="50.54433" lon="-2.42052"></trkpt>
      <trkpt lat="50.54474" lon="-2.4201"></trkpt>
      <trkpt lat="50.54514" lon="-2.41977"></trkpt>
      <trkpt lat="50.54544" lon="-2.41961"></trkpt>
      <trkpt lat="50.54638" lon="-2.41941"></trkpt>
      <trkpt lat="50.5472" lon="-2.41924"></trkpt>
      <trkpt lat="50.54768" lon="-2.41909"></trkpt>
      <trkpt lat="50.54847" lon="-2.41867"></trkpt>
      <trkpt lat="50.54928" lon="-2.41829"></trkpt>
      <trkpt lat="50.54936" lon="-2.41812"></trkpt>
      <trkpt lat="50.54972" lon="-2.41798"></trkpt>
      <trkpt lat="50.54978" lon="-2.41796"></trkpt>
      <trkpt lat="50.54983" lon="-2.41805"></trkpt>
      <trkpt lat="50.54991" lon="-2.41813"></trkpt>
      <trkpt lat="50.54997" lon="-2.41836"></trkpt>
      <trkpt lat="50.55027" lon="-2.41896"></trkpt>
      <trkpt lat="50.55048" lon="-2.41899"></trkpt>
      <trkpt lat="50.55075" lon="-2.41892"></trkpt>
      <trkpt lat="50.55087" lon="-2.41894"></trkpt>
      <trkpt lat="50.5509" lon="-2.41897"></trkpt>
      <trkpt lat="50.55102" lon="-2.41899"></trkpt>
      <trkpt lat="50.55109" lon="-2.41909"></trkpt>
      <trkpt lat="50.55113" lon="-2.41908"></trkpt>
      <trkpt lat="50.55126" lon="-2.41921"></trkpt>
      <trkpt lat="50.55125" lon="-2.4194"></trkpt>
      <trkpt lat="50.55128" lon="-2.41966"></trkpt>
      <trkpt lat="50.55145" lon="-2.42026"></trkpt>
      <trkpt lat="50.55182" lon="-2.42089"></trkpt>
      <trkpt lat="50.55184" lon="-2.42095"></trkpt>
      <trkpt lat="50.55177" lon="-2.42095"></trkpt>
      <trkpt lat="50.55153" lon="-2.42088"></trkpt>
      <trkpt lat="50.55146" lon="-2.42082"></trkpt>
      <trkpt lat="50.55141" lon="-2.42082"></trkpt>
      <trkpt lat="50.55136" lon="-2.42075"></trkpt>
      <trkpt lat="50.55107" lon="-2.42074"></trkpt>
      <trkpt lat="50.55086" lon="-2.42057"></trkpt>
      <trkpt lat="50.55074" lon="-2.42057"></trkpt>
      <trkpt lat="50.55068" lon="-2.42048"></trkpt>
      <trkpt lat="50.5506" lon="-2.42041"></trkpt>
      <trkpt lat="50.55055" lon="-2.42046"></trkpt>
      <trkpt lat="50.55044" lon="-2.42043"></trkpt>
      <trkpt lat="50.55038" lon="-2.42036"></trkpt>
      <trkpt lat="50.55031" lon="-2.42033"></trkpt>
      <trkpt lat="50.55025" lon="-2.42035"></trkpt>
      <trkpt lat="50.55071" lon="-2.4207"></trkpt>
      <trkpt lat="50.55117" lon="-2.42101"></trkpt>
      <trkpt lat="50.55136" lon="-2.42129"></trkpt>
      <trkpt lat="50.55261" lon="-2.42259"></trkpt>
      <trkpt lat="50.55319" lon="-2.42322"></trkpt>
      <trkpt lat="50.55323" lon="-2.4233"></trkpt>
      <trkpt lat="50.55324" lon="-2.42342"></trkpt>
      <trkpt lat="50.5532" lon="-2.42375"></trkpt>
      <trkpt lat="50.55321" lon="-2.42436"></trkpt>
      <trkpt lat="50.55328" lon="-2.42438"></trkpt>
      <trkpt lat="50.55336" lon="-2.42448"></trkpt>
      <trkpt lat="50.55338" lon="-2.4246"></trkpt>
      <trkpt lat="50.55348" lon="-2.42466"></trkpt>
      <trkpt lat="50.55376" lon="-2.42502"></trkpt>
      <trkpt lat="50.55376" lon="-2.42511"></trkpt>
      <trkpt lat="50.55401" lon="-2.42509"></trkpt>
      <trkpt lat="50.55419" lon="-2.42512"></trkpt>
      <trkpt lat="50.55434" lon="-2.42546"></trkpt>
      <trkpt lat="50.55466" lon="-2.42574"></trkpt>
      <trkpt lat="50.55475" lon="-2.42573"></trkpt>
      <trkpt lat="50.55524" lon="-2.42652"></trkpt>
      <trkpt lat="50.5554" lon="-2.42711"></trkpt>
      <trkpt lat="50.55581" lon="-2.42785"></trkpt>
      <trkpt lat="50.55593" lon="-2.42812"></trkpt>
      <trkpt lat="50.55612" lon="-2.42864"></trkpt>
      <trkpt lat="50.55625" lon="-2.4292"></trkpt>
      <trkpt lat="50.55632" lon="-2.42933"></trkpt>
      <trkpt lat="50.55663" lon="-2.42978"></trkpt>
      <trkpt lat="50.55674" lon="-2.43019"></trkpt>
      <trkpt lat="50.55687" lon="-2.43052"></trkpt>
      <trkpt lat="50.557" lon="-2.43063"></trkpt>
      <trkpt lat="50.55745" lon="-2.43101"></trkpt>
      <trkpt lat="50.55798" lon="-2.43153"></trkpt>
      <trkpt lat="50.55855" lon="-2.43205"></trkpt>
      <trkpt lat="50.55895" lon="-2.43247"></trkpt>
      <trkpt lat="50.55916" lon="-2.43279"></trkpt>
      <trkpt lat="50.55957" lon="-2.43334"></trkpt>
      <trkpt lat="50.55961" lon="-2.43342"></trkpt>
      <trkpt lat="50.55962" lon="-2.43351"></trkpt>
      <trkpt lat="50.55961" lon="-2.4336"></trkpt>
      <trkpt lat="50.55949" lon="-2.43408"></trkpt>
      <trkpt lat="50.55949" lon="-2.43415"></trkpt>
      <trkpt lat="50.5594" lon="-2.43443"></trkpt>
      <trkpt lat="50.55954" lon="-2.43455"></trkpt>
      <trkpt lat="50.55959" lon="-2.43489"></trkpt>
      <trkpt lat="50.55965" lon="-2.43528"></trkpt>
      <trkpt lat="50.55986" lon="-2.43579"></trkpt>
      <trkpt lat="50.55989" lon="-2.43749"></trkpt>
      <trkpt lat="50.55994" lon="-2.43877"></trkpt>
      <trkpt lat="50.56004" lon="-2.4394"></trkpt>
      <trkpt lat="50.56024" lon="-2.44005"></trkpt>
      <trkpt lat="50.56042" lon="-2.44034"></trkpt>
      <trkpt lat="50.56064" lon="-2.44074"></trkpt>
      <trkpt lat="50.56073" lon="-2.44083"></trkpt>
      <trkpt lat="50.56114" lon="-2.4409"></trkpt>
      <trkpt lat="50.56195" lon="-2.44088"></trkpt>
      <trkpt lat="50.5621" lon="-2.44083"></trkpt>
      <trkpt lat="50.56235" lon="-2.44084"></trkpt>
      <trkpt lat="50.56273" lon="-2.44093"></trkpt>
      <trkpt lat="50.56301" lon="-2.441"></trkpt>
      <trkpt lat="50.56453" lon="-2.44229"></trkpt>
      <trkpt lat="50.56599" lon="-2.44357"></trkpt>
      <trkpt lat="50.5677" lon="-2.44492"></trkpt>
      <trkpt lat="50.56768" lon="-2.44501"></trkpt>
      <trkpt lat="50.56775" lon="-2.44504"></trkpt>
      <trkpt lat="50.56774" lon="-2.44516"></trkpt>
      <trkpt lat="50.56778" lon="-2.4452"></trkpt>
      <trkpt lat="50.56782" lon="-2.44519"></trkpt>
      <trkpt lat="50.56795" lon="-2.44538"></trkpt>
      <trkpt lat="50.56788" lon="-2.44566"></trkpt>
      <trkpt lat="50.56733" lon="-2.44604"></trkpt>
      <trkpt lat="50.5673" lon="-2.4461"></trkpt>
      <trkpt lat="50.56731" lon="-2.44617"></trkpt>
      <trkpt lat="50.56778" lon="-2.44752"></trkpt>
      <trkpt lat="50.56786" lon="-2.44761"></trkpt>
      <trkpt lat="50.56813" lon="-2.44763"></trkpt>
      <trkpt lat="50.56823" lon="-2.44767"></trkpt>
      <trkpt lat="50.56835" lon="-2.44761"></trkpt>
      <trkpt lat="50.56836" lon="-2.44768"></trkpt>
      <trkpt lat="50.56845" lon="-2.44767"></trkpt>
      <trkpt lat="50.5686" lon="-2.44781"></trkpt>
      <trkpt lat="50.56865" lon="-2.44789"></trkpt>
      <trkpt lat="50.56908" lon="-2.44879"></trkpt>
      <trkpt lat="50.56921" lon="-2.44923"></trkpt>
      <trkpt lat="50.56952" lon="-2.45022"></trkpt>
      <trkpt lat="50.56957" lon="-2.45051"></trkpt>
      <trkpt lat="50.56966" lon="-2.45066"></trkpt>
      <trkpt lat="50.56983" lon="-2.45115"></trkpt>
      <trkpt lat="50.5699" lon="-2.45124"></trkpt>
      <trkpt lat="50.56999" lon="-2.45131"></trkpt>
      <trkpt lat="50.57009" lon="-2.45135"></trkpt>
      <trkpt lat="50.5703" lon="-2.45137"></trkpt>
      <trkpt lat="50.57042" lon="-2.45141"></trkpt>
      <trkpt lat="50.57051" lon="-2.45147"></trkpt>
      <trkpt lat="50.57066" lon="-2.45165"></trkpt>
      <trkpt lat="50.57064" lon="-2.45169"></trkpt>
      <trkpt lat="50.57056" lon="-2.45156"></trkpt>
      <trkpt lat="50.57064" lon="-2.45169"></trkpt>
      <trkpt lat="50.5706" lon="-2.45178"></trkpt>
      <trkpt lat="50.57055" lon="-2.45176"></trkpt>
      <trkpt lat="50.57047" lon="-2.45204"></trkpt>
      <trkpt lat="50.57042" lon="-2.4521"></trkpt>
      <trkpt lat="50.57046" lon="-2.45215"></trkpt>
      <trkpt lat="50.57048" lon="-2.45227"></trkpt>
      <trkpt lat="50.57046" lon="-2.45232"></trkpt>
      <trkpt lat="50.57041" lon="-2.45233"></trkpt>
      <trkpt lat="50.5704" lon="-2.45247"></trkpt>
      <trkpt lat="50.57028" lon="-2.45243"></trkpt>
      <trkpt lat="50.57012" lon="-2.45264"></trkpt>
      <trkpt lat="50.57003" lon="-2.45284"></trkpt>
      <trkpt lat="50.57001" lon="-2.45321"></trkpt>
      <trkpt lat="50.56996" lon="-2.45318"></trkpt>
      <trkpt lat="50.56995" lon="-2.4533"></trkpt>
      <trkpt lat="50.56989" lon="-2.45348"></trkpt>
      <trkpt lat="50.56995" lon="-2.45354"></trkpt>
      <trkpt lat="50.56967" lon="-2.4538"></trkpt>
      <trkpt lat="50.56943" lon="-2.45423"></trkpt>
      <trkpt lat="50.56938" lon="-2.45442"></trkpt>
      <trkpt lat="50.56938" lon="-2.45464"></trkpt>
      <trkpt lat="50.56941" lon="-2.45476"></trkpt>
      <trkpt lat="50.56945" lon="-2.45484"></trkpt>
      <trkpt lat="50.5699" lon="-2.45549"></trkpt>
      <trkpt lat="50.57037" lon="-2.45618"></trkpt>
      <trkpt lat="50.57078" lon="-2.45826"></trkpt>
      <trkpt lat="50.57097" lon="-2.45878"></trkpt>
      <trkpt lat="50.57099" lon="-2.45902"></trkpt>
      <trkpt lat="50.57097" lon="-2.4592"></trkpt>
      <trkpt lat="50.57092" lon="-2.45938"></trkpt>
      <trkpt lat="50.57093" lon="-2.45953"></trkpt>
      <trkpt lat="50.57091" lon="-2.45975"></trkpt>
      <trkpt lat="50.57086" lon="-2.46001"></trkpt>
      <trkpt lat="50.57088" lon="-2.4602"></trkpt>
      <trkpt lat="50.57098" lon="-2.46052"></trkpt>
      <trkpt lat="50.57109" lon="-2.46069"></trkpt>
      <trkpt lat="50.57117" lon="-2.46075"></trkpt>
      <trkpt lat="50.57177" lon="-2.46172"></trkpt>
      <trkpt lat="50.57229" lon="-2.46249"></trkpt>
      <trkpt lat="50.5725" lon="-2.46276"></trkpt>
      <trkpt lat="50.57339" lon="-2.46376"></trkpt>
      <trkpt lat="50.57412" lon="-2.46443"></trkpt>
      <trkpt lat="50.57522" lon="-2.46531"></trkpt>
      <trkpt lat="50.57547" lon="-2.46531"></trkpt>
      <trkpt lat="50.57654" lon="-2.46601"></trkpt>
      <trkpt lat="50.57667" lon="-2.46616"></trkpt>
      <trkpt lat="50.57717" lon="-2.46649"></trkpt>
      <trkpt lat="50.57736" lon="-2.46657"></trkpt>
      <trkpt lat="50.57753" lon="-2.46669"></trkpt>
      <trkpt lat="50.5787" lon="-2.46772"></trkpt>
      <trkpt lat="50.57931" lon="-2.46849"></trkpt>
      <trkpt lat="50.5794" lon="-2.46868"></trkpt>
      <trkpt lat="50.58016" lon="-2.46928"></trkpt>
      <trkpt lat="50.58061" lon="-2.46961"></trkpt>
      <trkpt lat="50.58112" lon="-2.46994"></trkpt>
      <trkpt lat="50.58115" lon="-2.47003"></trkpt>
      <trkpt lat="50.58119" lon="-2.4701"></trkpt>
      <trkpt lat="50.58127" lon="-2.47015"></trkpt>
      <trkpt lat="50.58135" lon="-2.47034"></trkpt>
      <trkpt lat="50.58146" lon="-2.4705"></trkpt>
      <trkpt lat="50.58163" lon="-2.4706"></trkpt>
      <trkpt lat="50.58174" lon="-2.47064"></trkpt>
      <trkpt lat="50.58177" lon="-2.4707"></trkpt>
      <trkpt lat="50.58319" lon="-2.47122"></trkpt>
    </trkseg>
  </trk>
</gpx>
