<?xml version="1.0" encoding="UTF-8"?>
<gpx version="1.1" creator="swcp-walk (imported from OS Maps route 33858836)"
     xmlns="http://www.topografix.com/GPX/1/1">
  <metadata>
    <name>SWCP50-FerryBridge-LulworthCove</name>
  </metadata>
  <trk>
    <name>SWCP50-FerryBridge-LulworthCove</name>
    <trkseg>
      <trkpt lat="50.58328755099899" lon="-2.4712521974266224"></trkpt>
      <trkpt lat="50.58328" lon="-2.47125"></trkpt>
      <trkpt lat="50.58417" lon="-2.47155"></trkpt>
      <trkpt lat="50.58433" lon="-2.47148"></trkpt>
      <trkpt lat="50.58524" lon="-2.47183"></trkpt>
      <trkpt lat="50.58536" lon="-2.4701"></trkpt>
      <trkpt lat="50.58555" lon="-2.47007"></trkpt>
      <trkpt lat="50.58622" lon="-2.46972"></trkpt>
      <trkpt lat="50.58692" lon="-2.46936"></trkpt>
      <trkpt lat="50.58717" lon="-2.4691"></trkpt>
      <trkpt lat="50.58797" lon="-2.46873"></trkpt>
      <trkpt lat="50.5906" lon="-2.46741"></trkpt>
      <trkpt lat="50.59189" lon="-2.46683"></trkpt>
      <trkpt lat="50.59235" lon="-2.46652"></trkpt>
      <trkpt lat="50.59282" lon="-2.46615"></trkpt>
      <trkpt lat="50.59353" lon="-2.46542"></trkpt>
      <trkpt lat="50.59389" lon="-2.46501"></trkpt>
      <trkpt lat="50.5942" lon="-2.46462"></trkpt>
      <trkpt lat="50.5945" lon="-2.46418"></trkpt>
      <trkpt lat="50.59521" lon="-2.46304"></trkpt>
      <trkpt lat="50.59556" lon="-2.46256"></trkpt>
      <trkpt lat="50.59583" lon="-2.46225"></trkpt>
      <trkpt lat="50.59569" lon="-2.46203"></trkpt>
      <trkpt lat="50.59615" lon="-2.46138"></trkpt>
      <trkpt lat="50.59626" lon="-2.46125"></trkpt>
      <trkpt lat="50.59638" lon="-2.46116"></trkpt>
      <trkpt lat="50.59708" lon="-2.46062"></trkpt>
      <trkpt lat="50.59742" lon="-2.46049"></trkpt>
      <trkpt lat="50.59803" lon="-2.46031"></trkpt>
      <trkpt lat="50.59822" lon="-2.4602"></trkpt>
      <trkpt lat="50.59885" lon="-2.45967"></trkpt>
      <trkpt lat="50.5991" lon="-2.4595"></trkpt>
      <trkpt lat="50.59953" lon="-2.45908"></trkpt>
      <trkpt lat="50.59945" lon="-2.45897"></trkpt>
      <trkpt lat="50.59936" lon="-2.45875"></trkpt>
      <trkpt lat="50.59934" lon="-2.45853"></trkpt>
      <trkpt lat="50.59936" lon="-2.45804"></trkpt>
      <trkpt lat="50.59939" lon="-2.45788"></trkpt>
      <trkpt lat="50.59948" lon="-2.45744"></trkpt>
      <trkpt lat="50.59972" lon="-2.45687"></trkpt>
      <trkpt lat="50.59995" lon="-2.45656"></trkpt>
      <trkpt lat="50.60013" lon="-2.45637"></trkpt>
      <trkpt lat="50.60044" lon="-2.4563"></trkpt>
      <trkpt lat="50.60053" lon="-2.45623"></trkpt>
      <trkpt lat="50.60061" lon="-2.45608"></trkpt>
      <trkpt lat="50.60086" lon="-2.45516"></trkpt>
      <trkpt lat="50.60123" lon="-2.45363"></trkpt>
      <trkpt lat="50.60131" lon="-2.4535"></trkpt>
      <trkpt lat="50.60158" lon="-2.45356"></trkpt>
      <trkpt lat="50.60182" lon="-2.45364"></trkpt>
      <trkpt lat="50.60187" lon="-2.45358"></trkpt>
      <trkpt lat="50.6019" lon="-2.45348"></trkpt>
      <trkpt lat="50.60207" lon="-2.45236"></trkpt>
      <trkpt lat="50.60249" lon="-2.45137"></trkpt>
      <trkpt lat="50.60268" lon="-2.45095"></trkpt>
      <trkpt lat="50.60273" lon="-2.45092"></trkpt>
      <trkpt lat="50.60287" lon="-2.45093"></trkpt>
      <trkpt lat="50.60309" lon="-2.45109"></trkpt>
      <trkpt lat="50.60322" lon="-2.45123"></trkpt>
      <trkpt lat="50.60359" lon="-2.45149"></trkpt>
      <trkpt lat="50.6036" lon="-2.45152"></trkpt>
      <trkpt lat="50.60394" lon="-2.45147"></trkpt>
      <trkpt lat="50.60413" lon="-2.45125"></trkpt>
      <trkpt lat="50.60418" lon="-2.4513"></trkpt>
      <trkpt lat="50.6042" lon="-2.45127"></trkpt>
      <trkpt lat="50.60417" lon="-2.45116"></trkpt>
      <trkpt lat="50.60421" lon="-2.45109"></trkpt>
      <trkpt lat="50.60442" lon="-2.45097"></trkpt>
      <trkpt lat="50.60439" lon="-2.45084"></trkpt>
      <trkpt lat="50.60433" lon="-2.45091"></trkpt>
      <trkpt lat="50.60433" lon="-2.45092"></trkpt>
      <trkpt lat="50.60439" lon="-2.45084"></trkpt>
      <trkpt lat="50.60442" lon="-2.45097"></trkpt>
      <trkpt lat="50.60477" lon="-2.45073"></trkpt>
      <trkpt lat="50.60494" lon="-2.45053"></trkpt>
      <trkpt lat="50.60527" lon="-2.44982"></trkpt>
      <trkpt lat="50.60533" lon="-2.44965"></trkpt>
      <trkpt lat="50.60527" lon="-2.44936"></trkpt>
      <trkpt lat="50.60547" lon="-2.449"></trkpt>
      <trkpt lat="50.60545" lon="-2.44893"></trkpt>
      <trkpt lat="50.60546" lon="-2.44878"></trkpt>
      <trkpt lat="50.6056" lon="-2.44855"></trkpt>
      <trkpt lat="50.60566" lon="-2.44804"></trkpt>
      <trkpt lat="50.60572" lon="-2.44787"></trkpt>
      <trkpt lat="50.60573" lon="-2.44766"></trkpt>
      <trkpt lat="50.60575" lon="-2.44759"></trkpt>
      <trkpt lat="50.60586" lon="-2.44751"></trkpt>
      <trkpt lat="50.60606" lon="-2.44752"></trkpt>
      <trkpt lat="50.60618" lon="-2.44737"></trkpt>
      <trkpt lat="50.60631" lon="-2.44715"></trkpt>
      <trkpt lat="50.60637" lon="-2.44705"></trkpt>
      <trkpt lat="50.60639" lon="-2.4467"></trkpt>
      <trkpt lat="50.60633" lon="-2.44648"></trkpt>
      <trkpt lat="50.60637" lon="-2.44631"></trkpt>
      <trkpt lat="50.60657" lon="-2.44571"></trkpt>
      <trkpt lat="50.60663" lon="-2.44557"></trkpt>
      <trkpt lat="50.60683" lon="-2.44535"></trkpt>
      <trkpt lat="50.60688" lon="-2.4456"></trkpt>
      <trkpt lat="50.60691" lon="-2.44569"></trkpt>
      <trkpt lat="50.60701" lon="-2.44573"></trkpt>
      <trkpt lat="50.60706" lon="-2.44591"></trkpt>
      <trkpt lat="50.60723" lon="-2.44615"></trkpt>
      <trkpt lat="50.60728" lon="-2.4459"></trkpt>
      <trkpt lat="50.60719" lon="-2.44648"></trkpt>
      <trkpt lat="50.60717" lon="-2.44685"></trkpt>
      <trkpt lat="50.60732" lon="-2.44692"></trkpt>
      <trkpt lat="50.60739" lon="-2.44774"></trkpt>
      <trkpt lat="50.60738" lon="-2.44822"></trkpt>
      <trkpt lat="50.60729" lon="-2.44897"></trkpt>
      <trkpt lat="50.60733" lon="-2.44899"></trkpt>
      <trkpt lat="50.60736" lon="-2.44886"></trkpt>
      <trkpt lat="50.6074" lon="-2.44888"></trkpt>
      <trkpt lat="50.60735" lon="-2.44926"></trkpt>
      <trkpt lat="50.60747" lon="-2.44932"></trkpt>
      <trkpt lat="50.6073" lon="-2.4502"></trkpt>
      <trkpt lat="50.60719" lon="-2.45068"></trkpt>
      <trkpt lat="50.607" lon="-2.45118"></trkpt>
      <trkpt lat="50.60689" lon="-2.45138"></trkpt>
      <trkpt lat="50.60673" lon="-2.45153"></trkpt>
      <trkpt lat="50.6064" lon="-2.45179"></trkpt>
      <trkpt lat="50.60635" lon="-2.45278"></trkpt>
      <trkpt lat="50.60654" lon="-2.45336"></trkpt>
      <trkpt lat="50.60669" lon="-2.45397"></trkpt>
      <trkpt lat="50.60691" lon="-2.4551"></trkpt>
      <trkpt lat="50.60697" lon="-2.45556"></trkpt>
      <trkpt lat="50.60708" lon="-2.4555"></trkpt>
      <trkpt lat="50.60753" lon="-2.45542"></trkpt>
      <trkpt lat="50.60753" lon="-2.45525"></trkpt>
      <trkpt lat="50.60745" lon="-2.45475"></trkpt>
      <trkpt lat="50.6074" lon="-2.45471"></trkpt>
      <trkpt lat="50.60736" lon="-2.45464"></trkpt>
      <trkpt lat="50.60731" lon="-2.45467"></trkpt>
      <trkpt lat="50.60708" lon="-2.45349"></trkpt>
      <trkpt lat="50.60716" lon="-2.45304"></trkpt>
      <trkpt lat="50.60734" lon="-2.45223"></trkpt>
      <trkpt lat="50.6073" lon="-2.45239"></trkpt>
      <trkpt lat="50.60728" lon="-2.45239"></trkpt>
      <trkpt lat="50.6073" lon="-2.45239"></trkpt>
      <trkpt lat="50.6074" lon="-2.45198"></trkpt>
      <trkpt lat="50.6082" lon="-2.44997"></trkpt>
      <trkpt lat="50.60822" lon="-2.44999"></trkpt>
      <trkpt lat="50.60828" lon="-2.44992"></trkpt>
      <trkpt lat="50.60833" lon="-2.44973"></trkpt>
      <trkpt lat="50.60839" lon="-2.44971"></trkpt>
      <trkpt lat="50.60843" lon="-2.44972"></trkpt>
      <trkpt lat="50.60852" lon="-2.44979"></trkpt>
      <trkpt lat="50.60869" lon="-2.44999"></trkpt>
      <trkpt lat="50.60862" lon="-2.45015"></trkpt>
      <trkpt lat="50.60864" lon="-2.45016"></trkpt>
      <trkpt lat="50.60862" lon="-2.45039"></trkpt>
      <trkpt lat="50.60862" lon="-2.45035"></trkpt>
      <trkpt lat="50.6086" lon="-2.45031"></trkpt>
      <trkpt lat="50.60859" lon="-2.45052"></trkpt>
      <trkpt lat="50.60863" lon="-2.45079"></trkpt>
      <trkpt lat="50.60875" lon="-2.45131"></trkpt>
      <trkpt lat="50.60881" lon="-2.45147"></trkpt>
      <trkpt lat="50.60877" lon="-2.45149"></trkpt>
      <trkpt lat="50.60898" lon="-2.45196"></trkpt>
      <trkpt lat="50.60908" lon="-2.45215"></trkpt>
      <trkpt lat="50.60933" lon="-2.45245"></trkpt>
      <trkpt lat="50.60953" lon="-2.45261"></trkpt>
      <trkpt lat="50.61169" lon="-2.45334"></trkpt>
      <trkpt lat="50.61176" lon="-2.45332"></trkpt>
      <trkpt lat="50.61218" lon="-2.45348"></trkpt>
      <trkpt lat="50.61225" lon="-2.45345"></trkpt>
      <trkpt lat="50.6123" lon="-2.45349"></trkpt>
      <trkpt lat="50.6123" lon="-2.45358"></trkpt>
      <trkpt lat="50.61252" lon="-2.45355"></trkpt>
      <trkpt lat="50.61263" lon="-2.45356"></trkpt>
      <trkpt lat="50.61293" lon="-2.45347"></trkpt>
      <trkpt lat="50.61335" lon="-2.45329"></trkpt>
      <trkpt lat="50.61397" lon="-2.45293"></trkpt>
      <trkpt lat="50.61397" lon="-2.45294"></trkpt>
      <trkpt lat="50.61424" lon="-2.45275"></trkpt>
      <trkpt lat="50.61423" lon="-2.45271"></trkpt>
      <trkpt lat="50.61439" lon="-2.45265"></trkpt>
      <trkpt lat="50.61458" lon="-2.45249"></trkpt>
      <trkpt lat="50.61468" lon="-2.45245"></trkpt>
      <trkpt lat="50.61512" lon="-2.4524"></trkpt>
      <trkpt lat="50.61564" lon="-2.45219"></trkpt>
      <trkpt lat="50.61669" lon="-2.45159"></trkpt>
      <trkpt lat="50.61692" lon="-2.45141"></trkpt>
      <trkpt lat="50.61702" lon="-2.4514"></trkpt>
      <trkpt lat="50.61709" lon="-2.45128"></trkpt>
      <trkpt lat="50.61745" lon="-2.45093"></trkpt>
      <trkpt lat="50.61843" lon="-2.45006"></trkpt>
      <trkpt lat="50.61846" lon="-2.45004"></trkpt>
      <trkpt lat="50.61849" lon="-2.45006"></trkpt>
      <trkpt lat="50.6185" lon="-2.45014"></trkpt>
      <trkpt lat="50.62102" lon="-2.44769"></trkpt>
      <trkpt lat="50.62266" lon="-2.44594"></trkpt>
      <trkpt lat="50.62337" lon="-2.44514"></trkpt>
      <trkpt lat="50.62407" lon="-2.44429"></trkpt>
      <trkpt lat="50.6243" lon="-2.44408"></trkpt>
      <trkpt lat="50.62427" lon="-2.44403"></trkpt>
      <trkpt lat="50.62414" lon="-2.44413"></trkpt>
      <trkpt lat="50.62331" lon="-2.4451"></trkpt>
      <trkpt lat="50.62331" lon="-2.44511"></trkpt>
      <trkpt lat="50.62414" lon="-2.44413"></trkpt>
      <trkpt lat="50.62427" lon="-2.44403"></trkpt>
      <trkpt lat="50.62429" lon="-2.44406"></trkpt>
      <trkpt lat="50.62498" lon="-2.44346"></trkpt>
      <trkpt lat="50.62509" lon="-2.44339"></trkpt>
      <trkpt lat="50.62514" lon="-2.44346"></trkpt>
      <trkpt lat="50.62521" lon="-2.44337"></trkpt>
      <trkpt lat="50.62523" lon="-2.4434"></trkpt>
      <trkpt lat="50.62526" lon="-2.44336"></trkpt>
      <trkpt lat="50.62533" lon="-2.44337"></trkpt>
      <trkpt lat="50.62564" lon="-2.44291"></trkpt>
      <trkpt lat="50.62569" lon="-2.44293"></trkpt>
      <trkpt lat="50.62573" lon="-2.44291"></trkpt>
      <trkpt lat="50.62664" lon="-2.44175"></trkpt>
      <trkpt lat="50.62661" lon="-2.44173"></trkpt>
      <trkpt lat="50.62651" lon="-2.44152"></trkpt>
      <trkpt lat="50.62655" lon="-2.44138"></trkpt>
      <trkpt lat="50.62828" lon="-2.43912"></trkpt>
      <trkpt lat="50.62828" lon="-2.43913"></trkpt>
      <trkpt lat="50.62902" lon="-2.43809"></trkpt>
      <trkpt lat="50.63118" lon="-2.43448"></trkpt>
      <trkpt lat="50.63254" lon="-2.43209"></trkpt>
      <trkpt lat="50.63306" lon="-2.43119"></trkpt>
      <trkpt lat="50.6331" lon="-2.43115"></trkpt>
      <trkpt lat="50.63325" lon="-2.43116"></trkpt>
      <trkpt lat="50.63334" lon="-2.43101"></trkpt>
      <trkpt lat="50.63359" lon="-2.43086"></trkpt>
      <trkpt lat="50.63541" lon="-2.42989"></trkpt>
      <trkpt lat="50.63536" lon="-2.42938"></trkpt>
      <trkpt lat="50.63528" lon="-2.4288"></trkpt>
      <trkpt lat="50.63528" lon="-2.42859"></trkpt>
      <trkpt lat="50.6353" lon="-2.42848"></trkpt>
      <trkpt lat="50.63542" lon="-2.42804"></trkpt>
      <trkpt lat="50.63579" lon="-2.427"></trkpt>
      <trkpt lat="50.63607" lon="-2.4263"></trkpt>
      <trkpt lat="50.63615" lon="-2.42591"></trkpt>
      <trkpt lat="50.63628" lon="-2.42503"></trkpt>
      <trkpt lat="50.63634" lon="-2.4247"></trkpt>
      <trkpt lat="50.63646" lon="-2.42428"></trkpt>
      <trkpt lat="50.63665" lon="-2.42373"></trkpt>
      <trkpt lat="50.63677" lon="-2.42344"></trkpt>
      <trkpt lat="50.63681" lon="-2.42326"></trkpt>
      <trkpt lat="50.63681" lon="-2.42308"></trkpt>
      <trkpt lat="50.63686" lon="-2.42283"></trkpt>
      <trkpt lat="50.63696" lon="-2.42249"></trkpt>
      <trkpt lat="50.63699" lon="-2.42211"></trkpt>
      <trkpt lat="50.63705" lon="-2.42186"></trkpt>
      <trkpt lat="50.63705" lon="-2.42172"></trkpt>
      <trkpt lat="50.63711" lon="-2.42152"></trkpt>
      <trkpt lat="50.6371" lon="-2.42142"></trkpt>
      <trkpt lat="50.63733" lon="-2.42123"></trkpt>
      <trkpt lat="50.63716" lon="-2.42082"></trkpt>
      <trkpt lat="50.63684" lon="-2.42018"></trkpt>
      <trkpt lat="50.63668" lon="-2.41965"></trkpt>
      <trkpt lat="50.63664" lon="-2.41943"></trkpt>
      <trkpt lat="50.6366" lon="-2.41934"></trkpt>
      <trkpt lat="50.63646" lon="-2.41916"></trkpt>
      <trkpt lat="50.63622" lon="-2.419"></trkpt>
      <trkpt lat="50.63615" lon="-2.41908"></trkpt>
      <trkpt lat="50.63605" lon="-2.41902"></trkpt>
      <trkpt lat="50.63587" lon="-2.41883"></trkpt>
      <trkpt lat="50.63584" lon="-2.41865"></trkpt>
      <trkpt lat="50.6357" lon="-2.41717"></trkpt>
      <trkpt lat="50.63574" lon="-2.4171"></trkpt>
      <trkpt lat="50.63633" lon="-2.41697"></trkpt>
      <trkpt lat="50.63633" lon="-2.4165"></trkpt>
      <trkpt lat="50.6364" lon="-2.41581"></trkpt>
      <trkpt lat="50.63647" lon="-2.41487"></trkpt>
      <trkpt lat="50.63646" lon="-2.41432"></trkpt>
      <trkpt lat="50.63633" lon="-2.4134"></trkpt>
      <trkpt lat="50.63625" lon="-2.41304"></trkpt>
      <trkpt lat="50.63575" lon="-2.41208"></trkpt>
      <trkpt lat="50.63523" lon="-2.41046"></trkpt>
      <trkpt lat="50.63518" lon="-2.41036"></trkpt>
      <trkpt lat="50.63516" lon="-2.41028"></trkpt>
      <trkpt lat="50.63514" lon="-2.40992"></trkpt>
      <trkpt lat="50.63499" lon="-2.40912"></trkpt>
      <trkpt lat="50.63502" lon="-2.40886"></trkpt>
      <trkpt lat="50.63504" lon="-2.4088"></trkpt>
      <trkpt lat="50.63511" lon="-2.40863"></trkpt>
      <trkpt lat="50.63525" lon="-2.40817"></trkpt>
      <trkpt lat="50.63543" lon="-2.40721"></trkpt>
      <trkpt lat="50.63547" lon="-2.40677"></trkpt>
      <trkpt lat="50.63546" lon="-2.40654"></trkpt>
      <trkpt lat="50.63555" lon="-2.40574"></trkpt>
      <trkpt lat="50.63558" lon="-2.40563"></trkpt>
      <trkpt lat="50.63562" lon="-2.4056"></trkpt>
      <trkpt lat="50.63593" lon="-2.40555"></trkpt>
      <trkpt lat="50.63601" lon="-2.4055"></trkpt>
      <trkpt lat="50.63606" lon="-2.40542"></trkpt>
      <trkpt lat="50.6361" lon="-2.40528"></trkpt>
      <trkpt lat="50.63613" lon="-2.40469"></trkpt>
      <trkpt lat="50.63608" lon="-2.4038"></trkpt>
      <trkpt lat="50.63613" lon="-2.40323"></trkpt>
      <trkpt lat="50.63634" lon="-2.40183"></trkpt>
      <trkpt lat="50.63646" lon="-2.40127"></trkpt>
      <trkpt lat="50.63651" lon="-2.4011"></trkpt>
      <trkpt lat="50.63666" lon="-2.40061"></trkpt>
      <trkpt lat="50.63668" lon="-2.40049"></trkpt>
      <trkpt lat="50.63675" lon="-2.4004"></trkpt>
      <trkpt lat="50.6368" lon="-2.40021"></trkpt>
      <trkpt lat="50.63681" lon="-2.40005"></trkpt>
      <trkpt lat="50.63678" lon="-2.39993"></trkpt>
      <trkpt lat="50.637" lon="-2.39865"></trkpt>
      <trkpt lat="50.63707" lon="-2.39846"></trkpt>
      <trkpt lat="50.63708" lon="-2.39816"></trkpt>
      <trkpt lat="50.63705" lon="-2.39805"></trkpt>
      <trkpt lat="50.63703" lon="-2.39775"></trkpt>
      <trkpt lat="50.63704" lon="-2.39759"></trkpt>
      <trkpt lat="50.63706" lon="-2.39748"></trkpt>
      <trkpt lat="50.6371" lon="-2.3974"></trkpt>
      <trkpt lat="50.63718" lon="-2.39732"></trkpt>
      <trkpt lat="50.63722" lon="-2.39722"></trkpt>
      <trkpt lat="50.63723" lon="-2.39709"></trkpt>
      <trkpt lat="50.6372" lon="-2.39698"></trkpt>
      <trkpt lat="50.63713" lon="-2.39689"></trkpt>
      <trkpt lat="50.6371" lon="-2.3968"></trkpt>
      <trkpt lat="50.63713" lon="-2.39653"></trkpt>
      <trkpt lat="50.63711" lon="-2.39645"></trkpt>
      <trkpt lat="50.63722" lon="-2.39614"></trkpt>
      <trkpt lat="50.63724" lon="-2.39601"></trkpt>
      <trkpt lat="50.63721" lon="-2.39587"></trkpt>
      <trkpt lat="50.63721" lon="-2.39567"></trkpt>
      <trkpt lat="50.63725" lon="-2.39514"></trkpt>
      <trkpt lat="50.63735" lon="-2.39478"></trkpt>
      <trkpt lat="50.63737" lon="-2.39456"></trkpt>
      <trkpt lat="50.63736" lon="-2.39441"></trkpt>
      <trkpt lat="50.63739" lon="-2.39406"></trkpt>
      <trkpt lat="50.63748" lon="-2.39387"></trkpt>
      <trkpt lat="50.63777" lon="-2.39356"></trkpt>
      <trkpt lat="50.63779" lon="-2.3935"></trkpt>
      <trkpt lat="50.63779" lon="-2.39337"></trkpt>
      <trkpt lat="50.63783" lon="-2.3933"></trkpt>
      <trkpt lat="50.63811" lon="-2.39309"></trkpt>
      <trkpt lat="50.63812" lon="-2.39231"></trkpt>
      <trkpt lat="50.63821" lon="-2.39162"></trkpt>
      <trkpt lat="50.63823" lon="-2.39129"></trkpt>
      <trkpt lat="50.63817" lon="-2.39086"></trkpt>
      <trkpt lat="50.63796" lon="-2.39002"></trkpt>
      <trkpt lat="50.63789" lon="-2.38953"></trkpt>
      <trkpt lat="50.63787" lon="-2.38924"></trkpt>
      <trkpt lat="50.63791" lon="-2.38903"></trkpt>
      <trkpt lat="50.63813" lon="-2.3886"></trkpt>
      <trkpt lat="50.63821" lon="-2.38829"></trkpt>
      <trkpt lat="50.63842" lon="-2.38741"></trkpt>
      <trkpt lat="50.63863" lon="-2.38705"></trkpt>
      <trkpt lat="50.63875" lon="-2.38696"></trkpt>
      <trkpt lat="50.63879" lon="-2.38685"></trkpt>
      <trkpt lat="50.63898" lon="-2.38535"></trkpt>
      <trkpt lat="50.63896" lon="-2.38525"></trkpt>
      <trkpt lat="50.63872" lon="-2.38471"></trkpt>
      <trkpt lat="50.63848" lon="-2.38423"></trkpt>
      <trkpt lat="50.63843" lon="-2.38407"></trkpt>
      <trkpt lat="50.63827" lon="-2.38388"></trkpt>
      <trkpt lat="50.63825" lon="-2.3838"></trkpt>
      <trkpt lat="50.63821" lon="-2.38377"></trkpt>
      <trkpt lat="50.63819" lon="-2.38369"></trkpt>
      <trkpt lat="50.63812" lon="-2.38363"></trkpt>
      <trkpt lat="50.63806" lon="-2.38339"></trkpt>
      <trkpt lat="50.63801" lon="-2.38303"></trkpt>
      <trkpt lat="50.63794" lon="-2.38217"></trkpt>
      <trkpt lat="50.63799" lon="-2.3819"></trkpt>
      <trkpt lat="50.63811" lon="-2.38148"></trkpt>
      <trkpt lat="50.63809" lon="-2.38138"></trkpt>
      <trkpt lat="50.63799" lon="-2.38123"></trkpt>
      <trkpt lat="50.63796" lon="-2.38115"></trkpt>
      <trkpt lat="50.6379" lon="-2.38106"></trkpt>
      <trkpt lat="50.63744" lon="-2.37986"></trkpt>
      <trkpt lat="50.63739" lon="-2.37974"></trkpt>
      <trkpt lat="50.63733" lon="-2.37946"></trkpt>
      <trkpt lat="50.63734" lon="-2.37866"></trkpt>
      <trkpt lat="50.63736" lon="-2.37859"></trkpt>
      <trkpt lat="50.63739" lon="-2.37857"></trkpt>
      <trkpt lat="50.63746" lon="-2.37788"></trkpt>
      <trkpt lat="50.63767" lon="-2.37624"></trkpt>
      <trkpt lat="50.63772" lon="-2.37607"></trkpt>
      <trkpt lat="50.63784" lon="-2.37591"></trkpt>
      <trkpt lat="50.63783" lon="-2.37583"></trkpt>
      <trkpt lat="50.63752" lon="-2.37517"></trkpt>
      <trkpt lat="50.63749" lon="-2.37519"></trkpt>
      <trkpt lat="50.63665" lon="-2.37518"></trkpt>
      <trkpt lat="50.63597" lon="-2.37524"></trkpt>
      <trkpt lat="50.63529" lon="-2.37548"></trkpt>
      <trkpt lat="50.63496" lon="-2.37569"></trkpt>
      <trkpt lat="50.63496" lon="-2.37571"></trkpt>
      <trkpt lat="50.63496" lon="-2.37572"></trkpt>
      <trkpt lat="50.63496" lon="-2.37569"></trkpt>
      <trkpt lat="50.63486" lon="-2.3757"></trkpt>
      <trkpt lat="50.6348" lon="-2.37523"></trkpt>
      <trkpt lat="50.63492" lon="-2.37521"></trkpt>
      <trkpt lat="50.63491" lon="-2.37506"></trkpt>
      <trkpt lat="50.63497" lon="-2.37494"></trkpt>
      <trkpt lat="50.63493" lon="-2.3746"></trkpt>
      <trkpt lat="50.63487" lon="-2.37449"></trkpt>
      <trkpt lat="50.63484" lon="-2.37449"></trkpt>
      <trkpt lat="50.63469" lon="-2.37402"></trkpt>
      <trkpt lat="50.63435" lon="-2.37332"></trkpt>
      <trkpt lat="50.63431" lon="-2.37319"></trkpt>
      <trkpt lat="50.63427" lon="-2.37293"></trkpt>
      <trkpt lat="50.63418" lon="-2.3727"></trkpt>
      <trkpt lat="50.63402" lon="-2.37241"></trkpt>
      <trkpt lat="50.63401" lon="-2.37231"></trkpt>
      <trkpt lat="50.63391" lon="-2.3719"></trkpt>
      <trkpt lat="50.63387" lon="-2.37179"></trkpt>
      <trkpt lat="50.63375" lon="-2.37165"></trkpt>
      <trkpt lat="50.63356" lon="-2.37119"></trkpt>
      <trkpt lat="50.63351" lon="-2.37117"></trkpt>
      <trkpt lat="50.63341" lon="-2.37107"></trkpt>
      <trkpt lat="50.63333" lon="-2.37106"></trkpt>
      <trkpt lat="50.63326" lon="-2.37095"></trkpt>
      <trkpt lat="50.63312" lon="-2.37083"></trkpt>
      <trkpt lat="50.63268" lon="-2.37024"></trkpt>
      <trkpt lat="50.63263" lon="-2.37015"></trkpt>
      <trkpt lat="50.63244" lon="-2.36916"></trkpt>
      <trkpt lat="50.63234" lon="-2.36845"></trkpt>
      <trkpt lat="50.6321" lon="-2.3672"></trkpt>
      <trkpt lat="50.63202" lon="-2.3671"></trkpt>
      <trkpt lat="50.63182" lon="-2.36641"></trkpt>
      <trkpt lat="50.63175" lon="-2.36609"></trkpt>
      <trkpt lat="50.63147" lon="-2.36565"></trkpt>
      <trkpt lat="50.63143" lon="-2.36556"></trkpt>
      <trkpt lat="50.63143" lon="-2.36477"></trkpt>
      <trkpt lat="50.63153" lon="-2.36422"></trkpt>
      <trkpt lat="50.6316" lon="-2.36407"></trkpt>
      <trkpt lat="50.63167" lon="-2.36376"></trkpt>
      <trkpt lat="50.63164" lon="-2.3637"></trkpt>
      <trkpt lat="50.63165" lon="-2.36351"></trkpt>
      <trkpt lat="50.63169" lon="-2.3634"></trkpt>
      <trkpt lat="50.63172" lon="-2.36295"></trkpt>
      <trkpt lat="50.63168" lon="-2.36286"></trkpt>
      <trkpt lat="50.63174" lon="-2.3622"></trkpt>
      <trkpt lat="50.63178" lon="-2.36135"></trkpt>
      <trkpt lat="50.63184" lon="-2.36073"></trkpt>
      <trkpt lat="50.63199" lon="-2.36029"></trkpt>
      <trkpt lat="50.63201" lon="-2.3601"></trkpt>
      <trkpt lat="50.63199" lon="-2.35942"></trkpt>
      <trkpt lat="50.63206" lon="-2.35856"></trkpt>
      <trkpt lat="50.63205" lon="-2.35811"></trkpt>
      <trkpt lat="50.63202" lon="-2.35785"></trkpt>
      <trkpt lat="50.63187" lon="-2.35715"></trkpt>
      <trkpt lat="50.63195" lon="-2.35704"></trkpt>
      <trkpt lat="50.63191" lon="-2.35686"></trkpt>
      <trkpt lat="50.63189" lon="-2.35665"></trkpt>
      <trkpt lat="50.63181" lon="-2.35649"></trkpt>
      <trkpt lat="50.63144" lon="-2.35537"></trkpt>
      <trkpt lat="50.63132" lon="-2.3546"></trkpt>
      <trkpt lat="50.63132" lon="-2.3543"></trkpt>
      <trkpt lat="50.63135" lon="-2.35399"></trkpt>
      <trkpt lat="50.63125" lon="-2.35395"></trkpt>
      <trkpt lat="50.63118" lon="-2.35371"></trkpt>
      <trkpt lat="50.63117" lon="-2.35351"></trkpt>
      <trkpt lat="50.6313" lon="-2.35287"></trkpt>
      <trkpt lat="50.63136" lon="-2.35176"></trkpt>
      <trkpt lat="50.63125" lon="-2.35109"></trkpt>
      <trkpt lat="50.63107" lon="-2.35016"></trkpt>
      <trkpt lat="50.63111" lon="-2.34993"></trkpt>
      <trkpt lat="50.63113" lon="-2.34972"></trkpt>
      <trkpt lat="50.63124" lon="-2.34975"></trkpt>
      <trkpt lat="50.63146" lon="-2.34964"></trkpt>
      <trkpt lat="50.6318" lon="-2.34899"></trkpt>
      <trkpt lat="50.63179" lon="-2.3489"></trkpt>
      <trkpt lat="50.63244" lon="-2.34702"></trkpt>
      <trkpt lat="50.63244" lon="-2.34703"></trkpt>
      <trkpt lat="50.63321" lon="-2.34452"></trkpt>
      <trkpt lat="50.63358" lon="-2.34418"></trkpt>
      <trkpt lat="50.63405" lon="-2.34357"></trkpt>
      <trkpt lat="50.63415" lon="-2.34337"></trkpt>
      <trkpt lat="50.63433" lon="-2.3428"></trkpt>
      <trkpt lat="50.63437" lon="-2.34244"></trkpt>
      <trkpt lat="50.63438" lon="-2.34212"></trkpt>
      <trkpt lat="50.63441" lon="-2.34203"></trkpt>
      <trkpt lat="50.6344" lon="-2.34197"></trkpt>
      <trkpt lat="50.63431" lon="-2.3419"></trkpt>
      <trkpt lat="50.6342" lon="-2.34167"></trkpt>
      <trkpt lat="50.63419" lon="-2.34159"></trkpt>
      <trkpt lat="50.63412" lon="-2.34151"></trkpt>
      <trkpt lat="50.63401" lon="-2.34127"></trkpt>
      <trkpt lat="50.63397" lon="-2.34124"></trkpt>
      <trkpt lat="50.63398" lon="-2.34111"></trkpt>
      <trkpt lat="50.63391" lon="-2.34076"></trkpt>
      <trkpt lat="50.63391" lon="-2.34069"></trkpt>
      <trkpt lat="50.63394" lon="-2.34059"></trkpt>
      <trkpt lat="50.634" lon="-2.33988"></trkpt>
      <trkpt lat="50.63405" lon="-2.33964"></trkpt>
      <trkpt lat="50.63408" lon="-2.33924"></trkpt>
      <trkpt lat="50.63413" lon="-2.33897"></trkpt>
      <trkpt lat="50.63422" lon="-2.33871"></trkpt>
      <trkpt lat="50.63422" lon="-2.33829"></trkpt>
      <trkpt lat="50.63425" lon="-2.33794"></trkpt>
      <trkpt lat="50.63424" lon="-2.33762"></trkpt>
      <trkpt lat="50.6343" lon="-2.33734"></trkpt>
      <trkpt lat="50.6343" lon="-2.33703"></trkpt>
      <trkpt lat="50.63432" lon="-2.33686"></trkpt>
      <trkpt lat="50.63438" lon="-2.33667"></trkpt>
      <trkpt lat="50.63444" lon="-2.33658"></trkpt>
      <trkpt lat="50.63441" lon="-2.33643"></trkpt>
      <trkpt lat="50.63447" lon="-2.33582"></trkpt>
      <trkpt lat="50.63458" lon="-2.33512"></trkpt>
      <trkpt lat="50.63447" lon="-2.33511"></trkpt>
      <trkpt lat="50.63442" lon="-2.33504"></trkpt>
      <trkpt lat="50.63436" lon="-2.33486"></trkpt>
      <trkpt lat="50.63414" lon="-2.3345"></trkpt>
      <trkpt lat="50.63398" lon="-2.33421"></trkpt>
      <trkpt lat="50.63389" lon="-2.33403"></trkpt>
      <trkpt lat="50.63366" lon="-2.33337"></trkpt>
      <trkpt lat="50.63323" lon="-2.33192"></trkpt>
      <trkpt lat="50.63304" lon="-2.33139"></trkpt>
      <trkpt lat="50.63295" lon="-2.33122"></trkpt>
      <trkpt lat="50.63257" lon="-2.33076"></trkpt>
      <trkpt lat="50.63219" lon="-2.33053"></trkpt>
      <trkpt lat="50.63211" lon="-2.33046"></trkpt>
      <trkpt lat="50.63203" lon="-2.33033"></trkpt>
      <trkpt lat="50.63194" lon="-2.33026"></trkpt>
      <trkpt lat="50.63171" lon="-2.33015"></trkpt>
      <trkpt lat="50.63138" lon="-2.32988"></trkpt>
      <trkpt lat="50.63127" lon="-2.32972"></trkpt>
      <trkpt lat="50.63122" lon="-2.3296"></trkpt>
      <trkpt lat="50.63103" lon="-2.32894"></trkpt>
      <trkpt lat="50.63093" lon="-2.3287"></trkpt>
      <trkpt lat="50.63077" lon="-2.32807"></trkpt>
      <trkpt lat="50.63041" lon="-2.32733"></trkpt>
      <trkpt lat="50.63029" lon="-2.32698"></trkpt>
      <trkpt lat="50.6302" lon="-2.32676"></trkpt>
      <trkpt lat="50.62992" lon="-2.32631"></trkpt>
      <trkpt lat="50.62953" lon="-2.32579"></trkpt>
      <trkpt lat="50.62948" lon="-2.32568"></trkpt>
      <trkpt lat="50.62924" lon="-2.32527"></trkpt>
      <trkpt lat="50.62915" lon="-2.32519"></trkpt>
      <trkpt lat="50.62911" lon="-2.32509"></trkpt>
      <trkpt lat="50.629" lon="-2.32494"></trkpt>
      <trkpt lat="50.62893" lon="-2.32469"></trkpt>
      <trkpt lat="50.62874" lon="-2.32441"></trkpt>
      <trkpt lat="50.62868" lon="-2.32428"></trkpt>
      <trkpt lat="50.62838" lon="-2.32396"></trkpt>
      <trkpt lat="50.62816" lon="-2.32385"></trkpt>
      <trkpt lat="50.62805" lon="-2.32373"></trkpt>
      <trkpt lat="50.62802" lon="-2.32366"></trkpt>
      <trkpt lat="50.62775" lon="-2.32341"></trkpt>
      <trkpt lat="50.62771" lon="-2.32333"></trkpt>
      <trkpt lat="50.62768" lon="-2.32312"></trkpt>
      <trkpt lat="50.62755" lon="-2.32266"></trkpt>
      <trkpt lat="50.62718" lon="-2.32177"></trkpt>
      <trkpt lat="50.62704" lon="-2.32125"></trkpt>
      <trkpt lat="50.62708" lon="-2.3211"></trkpt>
      <trkpt lat="50.62723" lon="-2.32089"></trkpt>
      <trkpt lat="50.62732" lon="-2.32068"></trkpt>
      <trkpt lat="50.62737" lon="-2.32051"></trkpt>
      <trkpt lat="50.62738" lon="-2.32036"></trkpt>
      <trkpt lat="50.62732" lon="-2.31991"></trkpt>
      <trkpt lat="50.62723" lon="-2.31968"></trkpt>
      <trkpt lat="50.62715" lon="-2.31937"></trkpt>
      <trkpt lat="50.62714" lon="-2.31893"></trkpt>
      <trkpt lat="50.62717" lon="-2.31854"></trkpt>
      <trkpt lat="50.62704" lon="-2.31775"></trkpt>
      <trkpt lat="50.627" lon="-2.31736"></trkpt>
      <trkpt lat="50.62701" lon="-2.31676"></trkpt>
      <trkpt lat="50.62697" lon="-2.31645"></trkpt>
      <trkpt lat="50.62695" lon="-2.31586"></trkpt>
      <trkpt lat="50.6269" lon="-2.31545"></trkpt>
      <trkpt lat="50.62683" lon="-2.31503"></trkpt>
      <trkpt lat="50.62679" lon="-2.31487"></trkpt>
      <trkpt lat="50.62685" lon="-2.31483"></trkpt>
      <trkpt lat="50.62679" lon="-2.31487"></trkpt>
      <trkpt lat="50.6268" lon="-2.31469"></trkpt>
      <trkpt lat="50.62717" lon="-2.31376"></trkpt>
      <trkpt lat="50.62719" lon="-2.31362"></trkpt>
      <trkpt lat="50.62768" lon="-2.31206"></trkpt>
      <trkpt lat="50.62772" lon="-2.31177"></trkpt>
      <trkpt lat="50.6277" lon="-2.31135"></trkpt>
      <trkpt lat="50.62776" lon="-2.31112"></trkpt>
      <trkpt lat="50.6276" lon="-2.31083"></trkpt>
      <trkpt lat="50.62745" lon="-2.30985"></trkpt>
      <trkpt lat="50.62736" lon="-2.30959"></trkpt>
      <trkpt lat="50.62725" lon="-2.30942"></trkpt>
      <trkpt lat="50.62715" lon="-2.30916"></trkpt>
      <trkpt lat="50.62691" lon="-2.30813"></trkpt>
      <trkpt lat="50.62664" lon="-2.30733"></trkpt>
      <trkpt lat="50.62656" lon="-2.307"></trkpt>
      <trkpt lat="50.62644" lon="-2.30668"></trkpt>
      <trkpt lat="50.62633" lon="-2.30578"></trkpt>
      <trkpt lat="50.62626" lon="-2.30554"></trkpt>
      <trkpt lat="50.62621" lon="-2.3053"></trkpt>
      <trkpt lat="50.62611" lon="-2.30471"></trkpt>
      <trkpt lat="50.62609" lon="-2.30434"></trkpt>
      <trkpt lat="50.6261" lon="-2.30423"></trkpt>
      <trkpt lat="50.62609" lon="-2.30368"></trkpt>
      <trkpt lat="50.62604" lon="-2.30312"></trkpt>
      <trkpt lat="50.62598" lon="-2.30267"></trkpt>
      <trkpt lat="50.62568" lon="-2.30203"></trkpt>
      <trkpt lat="50.62548" lon="-2.30179"></trkpt>
      <trkpt lat="50.62541" lon="-2.30178"></trkpt>
      <trkpt lat="50.62531" lon="-2.30166"></trkpt>
      <trkpt lat="50.62515" lon="-2.30125"></trkpt>
      <trkpt lat="50.6249" lon="-2.30077"></trkpt>
      <trkpt lat="50.62481" lon="-2.30042"></trkpt>
      <trkpt lat="50.62476" lon="-2.3001"></trkpt>
      <trkpt lat="50.62473" lon="-2.29955"></trkpt>
      <trkpt lat="50.62469" lon="-2.29925"></trkpt>
      <trkpt lat="50.62458" lon="-2.29829"></trkpt>
      <trkpt lat="50.62432" lon="-2.2955"></trkpt>
      <trkpt lat="50.62428" lon="-2.29534"></trkpt>
      <trkpt lat="50.6242" lon="-2.29477"></trkpt>
      <trkpt lat="50.624" lon="-2.29424"></trkpt>
      <trkpt lat="50.62383" lon="-2.29386"></trkpt>
      <trkpt lat="50.62365" lon="-2.29352"></trkpt>
      <trkpt lat="50.62351" lon="-2.29314"></trkpt>
      <trkpt lat="50.62331" lon="-2.29205"></trkpt>
      <trkpt lat="50.62314" lon="-2.29153"></trkpt>
      <trkpt lat="50.62307" lon="-2.29123"></trkpt>
      <trkpt lat="50.62317" lon="-2.29043"></trkpt>
      <trkpt lat="50.62313" lon="-2.29019"></trkpt>
      <trkpt lat="50.62314" lon="-2.28984"></trkpt>
      <trkpt lat="50.62318" lon="-2.28945"></trkpt>
      <trkpt lat="50.62328" lon="-2.289"></trkpt>
      <trkpt lat="50.62331" lon="-2.28861"></trkpt>
      <trkpt lat="50.62335" lon="-2.28809"></trkpt>
      <trkpt lat="50.62338" lon="-2.28691"></trkpt>
      <trkpt lat="50.62335" lon="-2.28643"></trkpt>
      <trkpt lat="50.62324" lon="-2.28549"></trkpt>
      <trkpt lat="50.62314" lon="-2.28481"></trkpt>
      <trkpt lat="50.62308" lon="-2.28448"></trkpt>
      <trkpt lat="50.62309" lon="-2.28407"></trkpt>
      <trkpt lat="50.62313" lon="-2.28358"></trkpt>
      <trkpt lat="50.62314" lon="-2.28278"></trkpt>
      <trkpt lat="50.62308" lon="-2.28213"></trkpt>
      <trkpt lat="50.62298" lon="-2.28166"></trkpt>
      <trkpt lat="50.62302" lon="-2.28088"></trkpt>
      <trkpt lat="50.62306" lon="-2.28071"></trkpt>
      <trkpt lat="50.62295" lon="-2.28026"></trkpt>
      <trkpt lat="50.62281" lon="-2.27978"></trkpt>
      <trkpt lat="50.62275" lon="-2.27952"></trkpt>
      <trkpt lat="50.6227" lon="-2.27915"></trkpt>
      <trkpt lat="50.62265" lon="-2.279"></trkpt>
      <trkpt lat="50.62262" lon="-2.27876"></trkpt>
      <trkpt lat="50.62261" lon="-2.27849"></trkpt>
      <trkpt lat="50.62256" lon="-2.27825"></trkpt>
      <trkpt lat="50.62258" lon="-2.27809"></trkpt>
      <trkpt lat="50.62258" lon="-2.2781"></trkpt>
      <trkpt lat="50.6226" lon="-2.27765"></trkpt>
      <trkpt lat="50.62253" lon="-2.27727"></trkpt>
      <trkpt lat="50.62248" lon="-2.27715"></trkpt>
      <trkpt lat="50.62235" lon="-2.2766"></trkpt>
      <trkpt lat="50.62232" lon="-2.27633"></trkpt>
      <trkpt lat="50.62232" lon="-2.2759"></trkpt>
      <trkpt lat="50.62224" lon="-2.27534"></trkpt>
      <trkpt lat="50.62247" lon="-2.27441"></trkpt>
      <trkpt lat="50.62256" lon="-2.27394"></trkpt>
      <trkpt lat="50.62248" lon="-2.27249"></trkpt>
      <trkpt lat="50.62248" lon="-2.27207"></trkpt>
      <trkpt lat="50.62241" lon="-2.27133"></trkpt>
      <trkpt lat="50.62244" lon="-2.27038"></trkpt>
      <trkpt lat="50.62241" lon="-2.26992"></trkpt>
      <trkpt lat="50.62227" lon="-2.26943"></trkpt>
      <trkpt lat="50.62221" lon="-2.2693"></trkpt>
      <trkpt lat="50.62147873190659" lon="-2.263980468150095"></trkpt>
      <trkpt lat="50.62171" lon="-2.26387"></trkpt>
      <trkpt lat="50.62163" lon="-2.26358"></trkpt>
      <trkpt lat="50.62138" lon="-2.26331"></trkpt>
      <trkpt lat="50.62135" lon="-2.26321"></trkpt>
      <trkpt lat="50.6213" lon="-2.26289"></trkpt>
      <trkpt lat="50.62126" lon="-2.26197"></trkpt>
      <trkpt lat="50.62128" lon="-2.26168"></trkpt>
      <trkpt lat="50.62138" lon="-2.26144"></trkpt>
      <trkpt lat="50.62143" lon="-2.2607"></trkpt>
      <trkpt lat="50.62143" lon="-2.2599"></trkpt>
      <trkpt lat="50.62137" lon="-2.25874"></trkpt>
      <trkpt lat="50.62136" lon="-2.25817"></trkpt>
      <trkpt lat="50.62112" lon="-2.25682"></trkpt>
      <trkpt lat="50.62103" lon="-2.25646"></trkpt>
      <trkpt lat="50.62089" lon="-2.25613"></trkpt>
      <trkpt lat="50.62082" lon="-2.25583"></trkpt>
      <trkpt lat="50.62059" lon="-2.25522"></trkpt>
      <trkpt lat="50.62035" lon="-2.25439"></trkpt>
      <trkpt lat="50.62014" lon="-2.25383"></trkpt>
      <trkpt lat="50.62004" lon="-2.2535"></trkpt>
      <trkpt lat="50.61996" lon="-2.25343"></trkpt>
      <trkpt lat="50.6199" lon="-2.25327"></trkpt>
      <trkpt lat="50.61979" lon="-2.25281"></trkpt>
      <trkpt lat="50.61979" lon="-2.25246"></trkpt>
      <trkpt lat="50.61983" lon="-2.25229"></trkpt>
      <trkpt lat="50.61968" lon="-2.25184"></trkpt>
      <trkpt lat="50.6196" lon="-2.25129"></trkpt>
      <trkpt lat="50.61945" lon="-2.25131"></trkpt>
      <trkpt lat="50.61898" lon="-2.2517"></trkpt>
      <trkpt lat="50.61896" lon="-2.25179"></trkpt>
      <trkpt lat="50.61833" lon="-2.25153"></trkpt>
      <trkpt lat="50.61824" lon="-2.25146"></trkpt>
      <trkpt lat="50.61791" lon="-2.25128"></trkpt>
      <trkpt lat="50.61787" lon="-2.25122"></trkpt>
      <trkpt lat="50.61767" lon="-2.25139"></trkpt>
      <trkpt lat="50.61787" lon="-2.25122"></trkpt>
      <trkpt lat="50.61788" lon="-2.25114"></trkpt>
      <trkpt lat="50.61801" lon="-2.25109"></trkpt>
      <trkpt lat="50.61806" lon="-2.25104"></trkpt>
      <trkpt lat="50.6182" lon="-2.2508"></trkpt>
      <trkpt lat="50.61835" lon="-2.25067"></trkpt>
      <trkpt lat="50.61844" lon="-2.25053"></trkpt>
      <trkpt lat="50.61846" lon="-2.25045"></trkpt>
      <trkpt lat="50.61859" lon="-2.25031"></trkpt>
      <trkpt lat="50.61869" lon="-2.25015"></trkpt>
      <trkpt lat="50.61866" lon="-2.25008"></trkpt>
      <trkpt lat="50.61864" lon="-2.24998"></trkpt>
      <trkpt lat="50.61864" lon="-2.24982"></trkpt>
      <trkpt lat="50.61868" lon="-2.2498"></trkpt>
      <trkpt lat="50.61868" lon="-2.2497"></trkpt>
    </trkseg>
  </trk>
</gpx>
