<?xml version="1.0" encoding="UTF-8"?>
<gpx version="1.1" creator="swcp-walk (imported from OS Maps route 33858885)"
     xmlns="http://www.topografix.com/GPX/1/1">
  <metadata>
    <name>SWCP51-LulworthCove-WorthMatravers</name>
  </metadata>
  <trk>
    <name>SWCP51-LulworthCove-WorthMatravers</name>
    <trkseg>
      <trkpt lat="50.6186733976466" lon="-2.2498076993941822"></trkpt>
      <trkpt lat="50.61867" lon="-2.24971"></trkpt>
      <trkpt lat="50.61899" lon="-2.24931"></trkpt>
      <trkpt lat="50.61921" lon="-2.24885"></trkpt>
      <trkpt lat="50.61939" lon="-2.24818"></trkpt>
      <trkpt lat="50.61939" lon="-2.24819"></trkpt>
      <trkpt lat="50.61947" lon="-2.24771"></trkpt>
      <trkpt lat="50.61949" lon="-2.24706"></trkpt>
      <trkpt lat="50.61946" lon="-2.24631"></trkpt>
      <trkpt lat="50.61935" lon="-2.24575"></trkpt>
      <trkpt lat="50.61919" lon="-2.24525"></trkpt>
      <trkpt lat="50.61898" lon="-2.24468"></trkpt>
      <trkpt lat="50.61872" lon="-2.24416"></trkpt>
      <trkpt lat="50.61841" lon="-2.24383"></trkpt>
      <trkpt lat="50.61807" lon="-2.24364"></trkpt>
      <trkpt lat="50.61799" lon="-2.24363"></trkpt>
      <trkpt lat="50.61807" lon="-2.24326"></trkpt>
      <trkpt lat="50.61801" lon="-2.24316"></trkpt>
      <trkpt lat="50.61803" lon="-2.2431"></trkpt>
      <trkpt lat="50.61801" lon="-2.24296"></trkpt>
      <trkpt lat="50.61796" lon="-2.2428"></trkpt>
      <trkpt lat="50.61809" lon="-2.24258"></trkpt>
      <trkpt lat="50.61808" lon="-2.24258"></trkpt>
      <trkpt lat="50.61796" lon="-2.2428"></trkpt>
      <trkpt lat="50.61778" lon="-2.24283"></trkpt>
      <trkpt lat="50.61757" lon="-2.24301"></trkpt>
      <trkpt lat="50.61728" lon="-2.24305"></trkpt>
      <trkpt lat="50.61724" lon="-2.2431"></trkpt>
      <trkpt lat="50.6172" lon="-2.24322"></trkpt>
      <trkpt lat="50.61716" lon="-2.24328"></trkpt>
      <trkpt lat="50.6171" lon="-2.24332"></trkpt>
      <trkpt lat="50.61701" lon="-2.24329"></trkpt>
      <trkpt lat="50.61687" lon="-2.2431"></trkpt>
      <trkpt lat="50.6169" lon="-2.24289"></trkpt>
      <trkpt lat="50.61689" lon="-2.24263"></trkpt>
      <trkpt lat="50.61681" lon="-2.24214"></trkpt>
      <trkpt lat="50.61682" lon="-2.24195"></trkpt>
      <trkpt lat="50.61676" lon="-2.24171"></trkpt>
      <trkpt lat="50.6167" lon="-2.24081"></trkpt>
      <trkpt lat="50.61658" lon="-2.23964"></trkpt>
      <trkpt lat="50.61651" lon="-2.23905"></trkpt>
      <trkpt lat="50.61651" lon="-2.23868"></trkpt>
      <trkpt lat="50.61658" lon="-2.23774"></trkpt>
      <trkpt lat="50.61657" lon="-2.23757"></trkpt>
      <trkpt lat="50.6164" lon="-2.23646"></trkpt>
      <trkpt lat="50.61637" lon="-2.23617"></trkpt>
      <trkpt lat="50.61639" lon="-2.23607"></trkpt>
      <trkpt lat="50.61657" lon="-2.23564"></trkpt>
      <trkpt lat="50.61657" lon="-2.23555"></trkpt>
      <trkpt lat="50.61656" lon="-2.23544"></trkpt>
      <trkpt lat="50.61652" lon="-2.23533"></trkpt>
      <trkpt lat="50.61639" lon="-2.23509"></trkpt>
      <trkpt lat="50.61633" lon="-2.23492"></trkpt>
      <trkpt lat="50.61629" lon="-2.23473"></trkpt>
      <trkpt lat="50.61621" lon="-2.23384"></trkpt>
      <trkpt lat="50.6162" lon="-2.23359"></trkpt>
      <trkpt lat="50.61622" lon="-2.2334"></trkpt>
      <trkpt lat="50.61624" lon="-2.2328"></trkpt>
      <trkpt lat="50.61629" lon="-2.23274"></trkpt>
      <trkpt lat="50.61647" lon="-2.23273"></trkpt>
      <trkpt lat="50.61657" lon="-2.23227"></trkpt>
      <trkpt lat="50.61661" lon="-2.23216"></trkpt>
      <trkpt lat="50.61673" lon="-2.2321"></trkpt>
      <trkpt lat="50.61676" lon="-2.23183"></trkpt>
      <trkpt lat="50.61675" lon="-2.23142"></trkpt>
      <trkpt lat="50.61673" lon="-2.23136"></trkpt>
      <trkpt lat="50.61652" lon="-2.2313"></trkpt>
      <trkpt lat="50.61635" lon="-2.23121"></trkpt>
      <trkpt lat="50.6163" lon="-2.23113"></trkpt>
      <trkpt lat="50.61621" lon="-2.23076"></trkpt>
      <trkpt lat="50.61625" lon="-2.23045"></trkpt>
      <trkpt lat="50.61629" lon="-2.22974"></trkpt>
      <trkpt lat="50.61637" lon="-2.22927"></trkpt>
      <trkpt lat="50.61647" lon="-2.22906"></trkpt>
      <trkpt lat="50.61656" lon="-2.22892"></trkpt>
      <trkpt lat="50.61664" lon="-2.22893"></trkpt>
      <trkpt lat="50.61677" lon="-2.22899"></trkpt>
      <trkpt lat="50.61687" lon="-2.22907"></trkpt>
      <trkpt lat="50.61696" lon="-2.22911"></trkpt>
      <trkpt lat="50.61717" lon="-2.22911"></trkpt>
      <trkpt lat="50.61729" lon="-2.22908"></trkpt>
      <trkpt lat="50.61745" lon="-2.22898"></trkpt>
      <trkpt lat="50.61778" lon="-2.22885"></trkpt>
      <trkpt lat="50.61786" lon="-2.22878"></trkpt>
      <trkpt lat="50.61796" lon="-2.2286"></trkpt>
      <trkpt lat="50.618" lon="-2.22846"></trkpt>
      <trkpt lat="50.61804" lon="-2.22824"></trkpt>
      <trkpt lat="50.6181" lon="-2.22758"></trkpt>
      <trkpt lat="50.61809" lon="-2.22731"></trkpt>
      <trkpt lat="50.61803" lon="-2.22707"></trkpt>
      <trkpt lat="50.61755" lon="-2.2263"></trkpt>
      <trkpt lat="50.61743" lon="-2.22611"></trkpt>
      <trkpt lat="50.61739" lon="-2.22599"></trkpt>
      <trkpt lat="50.61736" lon="-2.22576"></trkpt>
      <trkpt lat="50.61734" lon="-2.22502"></trkpt>
      <trkpt lat="50.61734" lon="-2.22486"></trkpt>
      <trkpt lat="50.61739" lon="-2.22471"></trkpt>
      <trkpt lat="50.61743" lon="-2.22469"></trkpt>
      <trkpt lat="50.61761" lon="-2.22478"></trkpt>
      <trkpt lat="50.61772" lon="-2.22486"></trkpt>
      <trkpt lat="50.61789" lon="-2.22494"></trkpt>
      <trkpt lat="50.61798" lon="-2.22496"></trkpt>
      <trkpt lat="50.61813" lon="-2.22492"></trkpt>
      <trkpt lat="50.6182" lon="-2.22482"></trkpt>
      <trkpt lat="50.61828" lon="-2.22457"></trkpt>
      <trkpt lat="50.61843" lon="-2.22433"></trkpt>
      <trkpt lat="50.61876" lon="-2.224"></trkpt>
      <trkpt lat="50.61875" lon="-2.224"></trkpt>
      <trkpt lat="50.61908" lon="-2.22372"></trkpt>
      <trkpt lat="50.61914" lon="-2.22371"></trkpt>
      <trkpt lat="50.61935" lon="-2.22376"></trkpt>
      <trkpt lat="50.61976" lon="-2.22393"></trkpt>
      <trkpt lat="50.61984" lon="-2.22394"></trkpt>
      <trkpt lat="50.62008" lon="-2.22384"></trkpt>
      <trkpt lat="50.62015" lon="-2.22379"></trkpt>
      <trkpt lat="50.62078" lon="-2.22258"></trkpt>
      <trkpt lat="50.62084" lon="-2.22251"></trkpt>
      <trkpt lat="50.62089" lon="-2.22263"></trkpt>
      <trkpt lat="50.62094" lon="-2.2227"></trkpt>
      <trkpt lat="50.62095" lon="-2.22276"></trkpt>
      <trkpt lat="50.62098" lon="-2.2228"></trkpt>
      <trkpt lat="50.62101" lon="-2.22277"></trkpt>
      <trkpt lat="50.62108" lon="-2.22261"></trkpt>
      <trkpt lat="50.6211" lon="-2.22234"></trkpt>
      <trkpt lat="50.62119" lon="-2.22209"></trkpt>
      <trkpt lat="50.62131" lon="-2.22187"></trkpt>
      <trkpt lat="50.62149" lon="-2.22167"></trkpt>
      <trkpt lat="50.62143" lon="-2.21998"></trkpt>
      <trkpt lat="50.62143" lon="-2.21955"></trkpt>
      <trkpt lat="50.62144" lon="-2.21932"></trkpt>
      <trkpt lat="50.62145" lon="-2.21915"></trkpt>
      <trkpt lat="50.62154" lon="-2.21868"></trkpt>
      <trkpt lat="50.62149" lon="-2.21782"></trkpt>
      <trkpt lat="50.62149" lon="-2.2175"></trkpt>
      <trkpt lat="50.62144" lon="-2.21712"></trkpt>
      <trkpt lat="50.62143" lon="-2.21696"></trkpt>
      <trkpt lat="50.62149" lon="-2.21664"></trkpt>
      <trkpt lat="50.62149" lon="-2.21531"></trkpt>
      <trkpt lat="50.62149" lon="-2.21323"></trkpt>
      <trkpt lat="50.62159" lon="-2.21222"></trkpt>
      <trkpt lat="50.62163" lon="-2.21124"></trkpt>
      <trkpt lat="50.62169" lon="-2.21079"></trkpt>
      <trkpt lat="50.62186" lon="-2.21014"></trkpt>
      <trkpt lat="50.62198" lon="-2.20982"></trkpt>
      <trkpt lat="50.62241" lon="-2.20922"></trkpt>
      <trkpt lat="50.62256" lon="-2.20886"></trkpt>
      <trkpt lat="50.62299" lon="-2.20774"></trkpt>
      <trkpt lat="50.62303" lon="-2.20754"></trkpt>
      <trkpt lat="50.62304" lon="-2.20736"></trkpt>
      <trkpt lat="50.62296" lon="-2.20686"></trkpt>
      <trkpt lat="50.62297" lon="-2.20672"></trkpt>
      <trkpt lat="50.62305" lon="-2.20651"></trkpt>
      <trkpt lat="50.62347" lon="-2.205"></trkpt>
      <trkpt lat="50.62362" lon="-2.2043"></trkpt>
      <trkpt lat="50.62372" lon="-2.20399"></trkpt>
      <trkpt lat="50.62417" lon="-2.20318"></trkpt>
      <trkpt lat="50.6245" lon="-2.20234"></trkpt>
      <trkpt lat="50.62476" lon="-2.20135"></trkpt>
      <trkpt lat="50.6248" lon="-2.20107"></trkpt>
      <trkpt lat="50.62479" lon="-2.20047"></trkpt>
      <trkpt lat="50.62473" lon="-2.19984"></trkpt>
      <trkpt lat="50.6244" lon="-2.19858"></trkpt>
      <trkpt lat="50.62438" lon="-2.19828"></trkpt>
      <trkpt lat="50.6244" lon="-2.19796"></trkpt>
      <trkpt lat="50.62444" lon="-2.19773"></trkpt>
      <trkpt lat="50.62462" lon="-2.19748"></trkpt>
      <trkpt lat="50.62464" lon="-2.19741"></trkpt>
      <trkpt lat="50.62457" lon="-2.19722"></trkpt>
      <trkpt lat="50.62457" lon="-2.19714"></trkpt>
      <trkpt lat="50.62467" lon="-2.19682"></trkpt>
      <trkpt lat="50.62469" lon="-2.19671"></trkpt>
      <trkpt lat="50.62469" lon="-2.19633"></trkpt>
      <trkpt lat="50.62466" lon="-2.19594"></trkpt>
      <trkpt lat="50.62452" lon="-2.19557"></trkpt>
      <trkpt lat="50.62449" lon="-2.19545"></trkpt>
      <trkpt lat="50.62449" lon="-2.19537"></trkpt>
      <trkpt lat="50.62449" lon="-2.19529"></trkpt>
      <trkpt lat="50.62461" lon="-2.19439"></trkpt>
      <trkpt lat="50.62463" lon="-2.19361"></trkpt>
      <trkpt lat="50.62458" lon="-2.19282"></trkpt>
      <trkpt lat="50.62439" lon="-2.19221"></trkpt>
      <trkpt lat="50.6243" lon="-2.19168"></trkpt>
      <trkpt lat="50.62432" lon="-2.19147"></trkpt>
      <trkpt lat="50.62448" lon="-2.19116"></trkpt>
      <trkpt lat="50.6243" lon="-2.19074"></trkpt>
      <trkpt lat="50.62382" lon="-2.1906"></trkpt>
      <trkpt lat="50.62318" lon="-2.19026"></trkpt>
      <trkpt lat="50.62234" lon="-2.18934"></trkpt>
      <trkpt lat="50.6217" lon="-2.18831"></trkpt>
      <trkpt lat="50.62153" lon="-2.18776"></trkpt>
      <trkpt lat="50.62125" lon="-2.18718"></trkpt>
      <trkpt lat="50.62097" lon="-2.18695"></trkpt>
      <trkpt lat="50.62063" lon="-2.18675"></trkpt>
      <trkpt lat="50.62044" lon="-2.18658"></trkpt>
      <trkpt lat="50.6202" lon="-2.18632"></trkpt>
      <trkpt lat="50.61969" lon="-2.18546"></trkpt>
      <trkpt lat="50.61913" lon="-2.18458"></trkpt>
      <trkpt lat="50.61877" lon="-2.18422"></trkpt>
      <trkpt lat="50.61851" lon="-2.18413"></trkpt>
      <trkpt lat="50.61842" lon="-2.18404"></trkpt>
      <trkpt lat="50.61833" lon="-2.18398"></trkpt>
      <trkpt lat="50.61828" lon="-2.18364"></trkpt>
      <trkpt lat="50.61825" lon="-2.1836"></trkpt>
      <trkpt lat="50.61804" lon="-2.18367"></trkpt>
      <trkpt lat="50.61784" lon="-2.18394"></trkpt>
      <trkpt lat="50.61774" lon="-2.18403"></trkpt>
      <trkpt lat="50.61764" lon="-2.18399"></trkpt>
      <trkpt lat="50.61746" lon="-2.18397"></trkpt>
      <trkpt lat="50.6174" lon="-2.18403"></trkpt>
      <trkpt lat="50.61732" lon="-2.18402"></trkpt>
      <trkpt lat="50.61726" lon="-2.18398"></trkpt>
      <trkpt lat="50.61725" lon="-2.18389"></trkpt>
      <trkpt lat="50.61727" lon="-2.18363"></trkpt>
      <trkpt lat="50.61708" lon="-2.18361"></trkpt>
      <trkpt lat="50.61695" lon="-2.1837"></trkpt>
      <trkpt lat="50.61666" lon="-2.18352"></trkpt>
      <trkpt lat="50.61662" lon="-2.18336"></trkpt>
      <trkpt lat="50.61651" lon="-2.1833"></trkpt>
      <trkpt lat="50.61642" lon="-2.18308"></trkpt>
      <trkpt lat="50.6164" lon="-2.18264"></trkpt>
      <trkpt lat="50.6161" lon="-2.18115"></trkpt>
      <trkpt lat="50.61585" lon="-2.18036"></trkpt>
      <trkpt lat="50.61575" lon="-2.17992"></trkpt>
      <trkpt lat="50.61567" lon="-2.17951"></trkpt>
      <trkpt lat="50.61566" lon="-2.17925"></trkpt>
      <trkpt lat="50.61569" lon="-2.17791"></trkpt>
      <trkpt lat="50.61574" lon="-2.17742"></trkpt>
      <trkpt lat="50.61587" lon="-2.17671"></trkpt>
      <trkpt lat="50.61597" lon="-2.17515"></trkpt>
      <trkpt lat="50.61607" lon="-2.17398"></trkpt>
      <trkpt lat="50.61606" lon="-2.17319"></trkpt>
      <trkpt lat="50.61601" lon="-2.17259"></trkpt>
      <trkpt lat="50.61598" lon="-2.17209"></trkpt>
      <trkpt lat="50.61598" lon="-2.17065"></trkpt>
      <trkpt lat="50.61596" lon="-2.16993"></trkpt>
      <trkpt lat="50.61599" lon="-2.16923"></trkpt>
      <trkpt lat="50.61623" lon="-2.16828"></trkpt>
      <trkpt lat="50.61632" lon="-2.1676"></trkpt>
      <trkpt lat="50.61625" lon="-2.16732"></trkpt>
      <trkpt lat="50.61657" lon="-2.16521"></trkpt>
      <trkpt lat="50.61657" lon="-2.16522"></trkpt>
      <trkpt lat="50.61664" lon="-2.1647"></trkpt>
      <trkpt lat="50.6167" lon="-2.16436"></trkpt>
      <trkpt lat="50.61679" lon="-2.16407"></trkpt>
      <trkpt lat="50.61683" lon="-2.16379"></trkpt>
      <trkpt lat="50.61686" lon="-2.16297"></trkpt>
      <trkpt lat="50.61708" lon="-2.1617"></trkpt>
      <trkpt lat="50.6172" lon="-2.15977"></trkpt>
      <trkpt lat="50.61725" lon="-2.15931"></trkpt>
      <trkpt lat="50.61733" lon="-2.15893"></trkpt>
      <trkpt lat="50.61749" lon="-2.15835"></trkpt>
      <trkpt lat="50.6175" lon="-2.15799"></trkpt>
      <trkpt lat="50.61741" lon="-2.1572"></trkpt>
      <trkpt lat="50.61731" lon="-2.1565"></trkpt>
      <trkpt lat="50.61723" lon="-2.15614"></trkpt>
      <trkpt lat="50.61715" lon="-2.15594"></trkpt>
      <trkpt lat="50.61696" lon="-2.15567"></trkpt>
      <trkpt lat="50.61673" lon="-2.15543"></trkpt>
      <trkpt lat="50.61653" lon="-2.155"></trkpt>
      <trkpt lat="50.61634" lon="-2.15448"></trkpt>
      <trkpt lat="50.61621" lon="-2.1541"></trkpt>
      <trkpt lat="50.61613" lon="-2.15333"></trkpt>
      <trkpt lat="50.61604" lon="-2.15295"></trkpt>
      <trkpt lat="50.61597" lon="-2.15291"></trkpt>
      <trkpt lat="50.6159" lon="-2.15336"></trkpt>
      <trkpt lat="50.61588" lon="-2.1542"></trkpt>
      <trkpt lat="50.61584" lon="-2.15427"></trkpt>
      <trkpt lat="50.61493" lon="-2.15419"></trkpt>
      <trkpt lat="50.61488" lon="-2.15416"></trkpt>
      <trkpt lat="50.61462" lon="-2.15388"></trkpt>
      <trkpt lat="50.61437" lon="-2.15353"></trkpt>
      <trkpt lat="50.61423" lon="-2.15327"></trkpt>
      <trkpt lat="50.61399" lon="-2.15307"></trkpt>
      <trkpt lat="50.61294" lon="-2.15185"></trkpt>
      <trkpt lat="50.61287" lon="-2.15172"></trkpt>
      <trkpt lat="50.6125" lon="-2.15121"></trkpt>
      <trkpt lat="50.61246" lon="-2.15117"></trkpt>
      <trkpt lat="50.6124" lon="-2.15118"></trkpt>
      <trkpt lat="50.61234" lon="-2.15113"></trkpt>
      <trkpt lat="50.61183" lon="-2.15059"></trkpt>
      <trkpt lat="50.61177" lon="-2.15047"></trkpt>
      <trkpt lat="50.61174" lon="-2.15034"></trkpt>
      <trkpt lat="50.61153" lon="-2.14889"></trkpt>
      <trkpt lat="50.61125" lon="-2.14802"></trkpt>
      <trkpt lat="50.61104" lon="-2.14747"></trkpt>
      <trkpt lat="50.61049" lon="-2.14642"></trkpt>
      <trkpt lat="50.61042" lon="-2.14635"></trkpt>
      <trkpt lat="50.60988" lon="-2.14617"></trkpt>
      <trkpt lat="50.60986" lon="-2.14614"></trkpt>
      <trkpt lat="50.60984" lon="-2.14602"></trkpt>
      <trkpt lat="50.60989" lon="-2.14566"></trkpt>
      <trkpt lat="50.60995" lon="-2.14539"></trkpt>
      <trkpt lat="50.61009" lon="-2.14517"></trkpt>
      <trkpt lat="50.61033" lon="-2.14489"></trkpt>
      <trkpt lat="50.61036" lon="-2.14481"></trkpt>
      <trkpt lat="50.61057" lon="-2.14422"></trkpt>
      <trkpt lat="50.61065" lon="-2.14406"></trkpt>
      <trkpt lat="50.61103" lon="-2.1435"></trkpt>
      <trkpt lat="50.61112" lon="-2.14332"></trkpt>
      <trkpt lat="50.61115" lon="-2.1432"></trkpt>
      <trkpt lat="50.61134" lon="-2.14154"></trkpt>
      <trkpt lat="50.61133" lon="-2.14139"></trkpt>
      <trkpt lat="50.61129" lon="-2.1413"></trkpt>
      <trkpt lat="50.61117" lon="-2.14111"></trkpt>
      <trkpt lat="50.61113" lon="-2.141"></trkpt>
      <trkpt lat="50.6111" lon="-2.14086"></trkpt>
      <trkpt lat="50.61108" lon="-2.13992"></trkpt>
      <trkpt lat="50.61112" lon="-2.13947"></trkpt>
      <trkpt lat="50.61117" lon="-2.13922"></trkpt>
      <trkpt lat="50.61124" lon="-2.1391"></trkpt>
      <trkpt lat="50.61162" lon="-2.13873"></trkpt>
      <trkpt lat="50.61203" lon="-2.13842"></trkpt>
      <trkpt lat="50.61237" lon="-2.1381"></trkpt>
      <trkpt lat="50.61255" lon="-2.13775"></trkpt>
      <trkpt lat="50.61278" lon="-2.13716"></trkpt>
      <trkpt lat="50.61282" lon="-2.13653"></trkpt>
      <trkpt lat="50.61286" lon="-2.1362"></trkpt>
      <trkpt lat="50.61294" lon="-2.13569"></trkpt>
      <trkpt lat="50.61308" lon="-2.13499"></trkpt>
      <trkpt lat="50.61308" lon="-2.13477"></trkpt>
      <trkpt lat="50.61305" lon="-2.13457"></trkpt>
      <trkpt lat="50.61261" lon="-2.13312"></trkpt>
      <trkpt lat="50.6124" lon="-2.13286"></trkpt>
      <trkpt lat="50.61228" lon="-2.13246"></trkpt>
      <trkpt lat="50.6122" lon="-2.13231"></trkpt>
      <trkpt lat="50.61211" lon="-2.132"></trkpt>
      <trkpt lat="50.61203" lon="-2.13149"></trkpt>
      <trkpt lat="50.61207" lon="-2.13141"></trkpt>
      <trkpt lat="50.61206" lon="-2.13133"></trkpt>
      <trkpt lat="50.61192" lon="-2.13116"></trkpt>
      <trkpt lat="50.61188" lon="-2.13107"></trkpt>
      <trkpt lat="50.61179" lon="-2.13101"></trkpt>
      <trkpt lat="50.61176" lon="-2.13097"></trkpt>
      <trkpt lat="50.61174" lon="-2.13088"></trkpt>
      <trkpt lat="50.61164" lon="-2.13092"></trkpt>
      <trkpt lat="50.61148" lon="-2.13069"></trkpt>
      <trkpt lat="50.6113" lon="-2.13037"></trkpt>
      <trkpt lat="50.61107" lon="-2.13004"></trkpt>
      <trkpt lat="50.61069" lon="-2.12967"></trkpt>
      <trkpt lat="50.61023" lon="-2.12914"></trkpt>
      <trkpt lat="50.61023" lon="-2.12906"></trkpt>
      <trkpt lat="50.60987" lon="-2.12876"></trkpt>
      <trkpt lat="50.60918" lon="-2.12836"></trkpt>
      <trkpt lat="50.60906" lon="-2.12846"></trkpt>
      <trkpt lat="50.60898" lon="-2.12845"></trkpt>
      <trkpt lat="50.60883" lon="-2.12831"></trkpt>
      <trkpt lat="50.60868" lon="-2.12824"></trkpt>
      <trkpt lat="50.60861" lon="-2.12825"></trkpt>
      <trkpt lat="50.60856" lon="-2.1283"></trkpt>
      <trkpt lat="50.60848" lon="-2.12854"></trkpt>
      <trkpt lat="50.60853" lon="-2.12896"></trkpt>
      <trkpt lat="50.60861" lon="-2.12927"></trkpt>
      <trkpt lat="50.60865" lon="-2.12956"></trkpt>
      <trkpt lat="50.60768" lon="-2.13034"></trkpt>
      <trkpt lat="50.60736" lon="-2.13008"></trkpt>
      <trkpt lat="50.60723" lon="-2.13001"></trkpt>
      <trkpt lat="50.60709" lon="-2.13003"></trkpt>
      <trkpt lat="50.60691" lon="-2.12986"></trkpt>
      <trkpt lat="50.6067" lon="-2.12973"></trkpt>
      <trkpt lat="50.60649" lon="-2.12966"></trkpt>
      <trkpt lat="50.60632" lon="-2.12945"></trkpt>
      <trkpt lat="50.60568" lon="-2.12865"></trkpt>
      <trkpt lat="50.60539" lon="-2.12826"></trkpt>
      <trkpt lat="50.60509" lon="-2.12779"></trkpt>
      <trkpt lat="50.6045" lon="-2.12671"></trkpt>
      <trkpt lat="50.60443" lon="-2.12651"></trkpt>
      <trkpt lat="50.60388" lon="-2.12364"></trkpt>
      <trkpt lat="50.60387" lon="-2.12335"></trkpt>
      <trkpt lat="50.60375" lon="-2.12285"></trkpt>
      <trkpt lat="50.60373" lon="-2.12257"></trkpt>
      <trkpt lat="50.60379" lon="-2.12215"></trkpt>
      <trkpt lat="50.60374" lon="-2.12195"></trkpt>
      <trkpt lat="50.60373" lon="-2.12184"></trkpt>
      <trkpt lat="50.60376" lon="-2.12168"></trkpt>
      <trkpt lat="50.60358" lon="-2.12193"></trkpt>
      <trkpt lat="50.60345" lon="-2.12202"></trkpt>
      <trkpt lat="50.60341" lon="-2.12203"></trkpt>
      <trkpt lat="50.60316" lon="-2.12149"></trkpt>
      <trkpt lat="50.6031" lon="-2.12117"></trkpt>
      <trkpt lat="50.6028" lon="-2.12035"></trkpt>
      <trkpt lat="50.60268" lon="-2.11994"></trkpt>
      <trkpt lat="50.60254" lon="-2.11962"></trkpt>
      <trkpt lat="50.60217" lon="-2.119"></trkpt>
      <trkpt lat="50.60202" lon="-2.11858"></trkpt>
      <trkpt lat="50.60155" lon="-2.1181"></trkpt>
      <trkpt lat="50.60116" lon="-2.11754"></trkpt>
      <trkpt lat="50.60095" lon="-2.11749"></trkpt>
      <trkpt lat="50.60042" lon="-2.11653"></trkpt>
      <trkpt lat="50.60033" lon="-2.11625"></trkpt>
      <trkpt lat="50.5999" lon="-2.11567"></trkpt>
      <trkpt lat="50.59986" lon="-2.11557"></trkpt>
      <trkpt lat="50.59964" lon="-2.11463"></trkpt>
      <trkpt lat="50.59965" lon="-2.11452"></trkpt>
      <trkpt lat="50.59967" lon="-2.11431"></trkpt>
      <trkpt lat="50.59973" lon="-2.11414"></trkpt>
      <trkpt lat="50.59975" lon="-2.11389"></trkpt>
      <trkpt lat="50.59957" lon="-2.11383"></trkpt>
      <trkpt lat="50.59949" lon="-2.1128"></trkpt>
      <trkpt lat="50.5995" lon="-2.11253"></trkpt>
      <trkpt lat="50.59949" lon="-2.11242"></trkpt>
      <trkpt lat="50.59923" lon="-2.11179"></trkpt>
      <trkpt lat="50.59877" lon="-2.11041"></trkpt>
      <trkpt lat="50.59866" lon="-2.11002"></trkpt>
      <trkpt lat="50.59852" lon="-2.10903"></trkpt>
      <trkpt lat="50.59834" lon="-2.10848"></trkpt>
      <trkpt lat="50.59805" lon="-2.10745"></trkpt>
      <trkpt lat="50.59776" lon="-2.10663"></trkpt>
      <trkpt lat="50.59761" lon="-2.10594"></trkpt>
      <trkpt lat="50.59741" lon="-2.10537"></trkpt>
      <trkpt lat="50.5974" lon="-2.10518"></trkpt>
      <trkpt lat="50.59757" lon="-2.10452"></trkpt>
      <trkpt lat="50.5976" lon="-2.10431"></trkpt>
      <trkpt lat="50.59757" lon="-2.10391"></trkpt>
      <trkpt lat="50.59757" lon="-2.10358"></trkpt>
      <trkpt lat="50.59765" lon="-2.10315"></trkpt>
      <trkpt lat="50.59769" lon="-2.10295"></trkpt>
      <trkpt lat="50.59778" lon="-2.10259"></trkpt>
      <trkpt lat="50.59783" lon="-2.10213"></trkpt>
      <trkpt lat="50.5979" lon="-2.10192"></trkpt>
      <trkpt lat="50.59816" lon="-2.10155"></trkpt>
      <trkpt lat="50.59826" lon="-2.1013"></trkpt>
      <trkpt lat="50.59837" lon="-2.10123"></trkpt>
      <trkpt lat="50.59836" lon="-2.1011"></trkpt>
      <trkpt lat="50.59829" lon="-2.10094"></trkpt>
      <trkpt lat="50.59833" lon="-2.10057"></trkpt>
      <trkpt lat="50.59835" lon="-2.10051"></trkpt>
      <trkpt lat="50.59843" lon="-2.1004"></trkpt>
      <trkpt lat="50.59853" lon="-2.1003"></trkpt>
      <trkpt lat="50.59854" lon="-2.10026"></trkpt>
      <trkpt lat="50.5985" lon="-2.09979"></trkpt>
      <trkpt lat="50.5986" lon="-2.09833"></trkpt>
      <trkpt lat="50.59863" lon="-2.09807"></trkpt>
      <trkpt lat="50.59863" lon="-2.09789"></trkpt>
      <trkpt lat="50.59857" lon="-2.09772"></trkpt>
      <trkpt lat="50.59849" lon="-2.09724"></trkpt>
      <trkpt lat="50.59857" lon="-2.09712"></trkpt>
      <trkpt lat="50.59857" lon="-2.09706"></trkpt>
      <trkpt lat="50.59853" lon="-2.09697"></trkpt>
      <trkpt lat="50.59845" lon="-2.09689"></trkpt>
      <trkpt lat="50.59834" lon="-2.09663"></trkpt>
      <trkpt lat="50.59834" lon="-2.09655"></trkpt>
      <trkpt lat="50.59837" lon="-2.09649"></trkpt>
      <trkpt lat="50.59837" lon="-2.09645"></trkpt>
      <trkpt lat="50.59834" lon="-2.09643"></trkpt>
      <trkpt lat="50.59833" lon="-2.09638"></trkpt>
      <trkpt lat="50.59835" lon="-2.09631"></trkpt>
      <trkpt lat="50.59834" lon="-2.09615"></trkpt>
      <trkpt lat="50.59827" lon="-2.09567"></trkpt>
      <trkpt lat="50.59828" lon="-2.09559"></trkpt>
      <trkpt lat="50.59825" lon="-2.09553"></trkpt>
      <trkpt lat="50.59828" lon="-2.0954"></trkpt>
      <trkpt lat="50.59818" lon="-2.09451"></trkpt>
      <trkpt lat="50.59812" lon="-2.0942"></trkpt>
      <trkpt lat="50.59813" lon="-2.09407"></trkpt>
      <trkpt lat="50.59821" lon="-2.09382"></trkpt>
      <trkpt lat="50.59822" lon="-2.09357"></trkpt>
      <trkpt lat="50.59816" lon="-2.09343"></trkpt>
      <trkpt lat="50.59797" lon="-2.09323"></trkpt>
      <trkpt lat="50.59795" lon="-2.09314"></trkpt>
      <trkpt lat="50.59793" lon="-2.09271"></trkpt>
      <trkpt lat="50.59794" lon="-2.09234"></trkpt>
      <trkpt lat="50.59792" lon="-2.0921"></trkpt>
      <trkpt lat="50.59794" lon="-2.09193"></trkpt>
      <trkpt lat="50.59798" lon="-2.09176"></trkpt>
      <trkpt lat="50.59794" lon="-2.09161"></trkpt>
      <trkpt lat="50.59789" lon="-2.09152"></trkpt>
      <trkpt lat="50.59777" lon="-2.09092"></trkpt>
      <trkpt lat="50.59771" lon="-2.09078"></trkpt>
      <trkpt lat="50.5977" lon="-2.09067"></trkpt>
      <trkpt lat="50.59767" lon="-2.09057"></trkpt>
      <trkpt lat="50.59767" lon="-2.09039"></trkpt>
      <trkpt lat="50.59764" lon="-2.0903"></trkpt>
      <trkpt lat="50.59763" lon="-2.09015"></trkpt>
      <trkpt lat="50.5976" lon="-2.09003"></trkpt>
      <trkpt lat="50.59761" lon="-2.08996"></trkpt>
      <trkpt lat="50.59758" lon="-2.08965"></trkpt>
      <trkpt lat="50.59754" lon="-2.08955"></trkpt>
      <trkpt lat="50.59754" lon="-2.08946"></trkpt>
      <trkpt lat="50.59759" lon="-2.08931"></trkpt>
      <trkpt lat="50.59758" lon="-2.08916"></trkpt>
      <trkpt lat="50.59676" lon="-2.0869"></trkpt>
      <trkpt lat="50.59634" lon="-2.08583"></trkpt>
      <trkpt lat="50.59628" lon="-2.08569"></trkpt>
      <trkpt lat="50.59604" lon="-2.08526"></trkpt>
      <trkpt lat="50.59579" lon="-2.08466"></trkpt>
      <trkpt lat="50.59554" lon="-2.08413"></trkpt>
      <trkpt lat="50.5955" lon="-2.08401"></trkpt>
      <trkpt lat="50.59546" lon="-2.08371"></trkpt>
      <trkpt lat="50.5954" lon="-2.08319"></trkpt>
      <trkpt lat="50.59536" lon="-2.08247"></trkpt>
      <trkpt lat="50.59529" lon="-2.08206"></trkpt>
      <trkpt lat="50.5953" lon="-2.08195"></trkpt>
      <trkpt lat="50.59544" lon="-2.0816"></trkpt>
      <trkpt lat="50.59552" lon="-2.08145"></trkpt>
      <trkpt lat="50.59551" lon="-2.08129"></trkpt>
      <trkpt lat="50.59553" lon="-2.08117"></trkpt>
      <trkpt lat="50.5956" lon="-2.08087"></trkpt>
      <trkpt lat="50.59566" lon="-2.08076"></trkpt>
      <trkpt lat="50.59565" lon="-2.08067"></trkpt>
      <trkpt lat="50.59586" lon="-2.08029"></trkpt>
      <trkpt lat="50.59595" lon="-2.0802"></trkpt>
      <trkpt lat="50.59595" lon="-2.08016"></trkpt>
      <trkpt lat="50.59579" lon="-2.07998"></trkpt>
      <trkpt lat="50.59574" lon="-2.07984"></trkpt>
      <trkpt lat="50.59579" lon="-2.07958"></trkpt>
      <trkpt lat="50.59589" lon="-2.07939"></trkpt>
      <trkpt lat="50.59605" lon="-2.07921"></trkpt>
      <trkpt lat="50.59621" lon="-2.0789"></trkpt>
      <trkpt lat="50.59633" lon="-2.07858"></trkpt>
      <trkpt lat="50.59668" lon="-2.07741"></trkpt>
      <trkpt lat="50.59676" lon="-2.07675"></trkpt>
      <trkpt lat="50.59681" lon="-2.0765"></trkpt>
      <trkpt lat="50.59681" lon="-2.07639"></trkpt>
      <trkpt lat="50.59685" lon="-2.07629"></trkpt>
      <trkpt lat="50.59684" lon="-2.07622"></trkpt>
      <trkpt lat="50.59675" lon="-2.07617"></trkpt>
      <trkpt lat="50.59671" lon="-2.07606"></trkpt>
      <trkpt lat="50.59643" lon="-2.07585"></trkpt>
      <trkpt lat="50.59603" lon="-2.07277"></trkpt>
      <trkpt lat="50.59592" lon="-2.07252"></trkpt>
      <trkpt lat="50.59583" lon="-2.07244"></trkpt>
      <trkpt lat="50.59562" lon="-2.07209"></trkpt>
      <trkpt lat="50.59536" lon="-2.07183"></trkpt>
      <trkpt lat="50.59526" lon="-2.07169"></trkpt>
      <trkpt lat="50.59514" lon="-2.07144"></trkpt>
      <trkpt lat="50.59488" lon="-2.07107"></trkpt>
      <trkpt lat="50.59472" lon="-2.0704"></trkpt>
      <trkpt lat="50.5948" lon="-2.06976"></trkpt>
      <trkpt lat="50.59491" lon="-2.06965"></trkpt>
      <trkpt lat="50.59501" lon="-2.0696"></trkpt>
      <trkpt lat="50.59522" lon="-2.06964"></trkpt>
      <trkpt lat="50.59551" lon="-2.06985"></trkpt>
      <trkpt lat="50.59579" lon="-2.06987"></trkpt>
      <trkpt lat="50.59617" lon="-2.06981"></trkpt>
      <trkpt lat="50.59646" lon="-2.06973"></trkpt>
      <trkpt lat="50.59662" lon="-2.06964"></trkpt>
      <trkpt lat="50.59715" lon="-2.0692"></trkpt>
      <trkpt lat="50.5974" lon="-2.06895"></trkpt>
      <trkpt lat="50.59742" lon="-2.06889"></trkpt>
      <trkpt lat="50.59738" lon="-2.06878"></trkpt>
      <trkpt lat="50.59749" lon="-2.06709"></trkpt>
      <trkpt lat="50.59749" lon="-2.06667"></trkpt>
      <trkpt lat="50.59728" lon="-2.06598"></trkpt>
      <trkpt lat="50.59716" lon="-2.0659"></trkpt>
      <trkpt lat="50.59695" lon="-2.06569"></trkpt>
      <trkpt lat="50.59674" lon="-2.06541"></trkpt>
      <trkpt lat="50.5966" lon="-2.06508"></trkpt>
      <trkpt lat="50.59658" lon="-2.06495"></trkpt>
      <trkpt lat="50.5966" lon="-2.06442"></trkpt>
      <trkpt lat="50.59663" lon="-2.06401"></trkpt>
      <trkpt lat="50.59669" lon="-2.0636"></trkpt>
      <trkpt lat="50.59695" lon="-2.06248"></trkpt>
      <trkpt lat="50.59706" lon="-2.06223"></trkpt>
      <trkpt lat="50.59718" lon="-2.06206"></trkpt>
      <trkpt lat="50.5977" lon="-2.06149"></trkpt>
      <trkpt lat="50.59802" lon="-2.06108"></trkpt>
      <trkpt lat="50.59832" lon="-2.06055"></trkpt>
      <trkpt lat="50.599" lon="-2.05963"></trkpt>
      <trkpt lat="50.59907" lon="-2.05948"></trkpt>
      <trkpt lat="50.59926" lon="-2.05887"></trkpt>
      <trkpt lat="50.59943" lon="-2.05781"></trkpt>
      <trkpt lat="50.59945" lon="-2.05775"></trkpt>
      <trkpt lat="50.59945" lon="-2.05767"></trkpt>
      <trkpt lat="50.59949" lon="-2.05731"></trkpt>
      <trkpt lat="50.59955" lon="-2.05633"></trkpt>
      <trkpt lat="50.59968" lon="-2.05599"></trkpt>
      <trkpt lat="50.59973" lon="-2.05579"></trkpt>
      <trkpt lat="50.59974" lon="-2.05566"></trkpt>
      <trkpt lat="50.59967" lon="-2.05566"></trkpt>
    </trkseg>
  </trk>
</gpx>
