<?xml version="1.0" encoding="UTF-8"?>
<gpx version="1.1" creator="swcp-walk (imported from OS Maps route 33858925)"
     xmlns="http://www.topografix.com/GPX/1/1">
  <metadata>
    <name>SWCP52-WorthMatravers-SouthHavenPoint</name>
  </metadata>
  <trk>
    <name>SWCP52-WorthMatravers-SouthHavenPoint</name>
    <trkseg>
      <trkpt lat="50.59972" lon="-2.05582"></trkpt>
      <trkpt lat="50.59974" lon="-2.05566"></trkpt>
      <trkpt lat="50.59966" lon="-2.05566"></trkpt>
      <trkpt lat="50.59957" lon="-2.05562"></trkpt>
      <trkpt lat="50.59947" lon="-2.05546"></trkpt>
      <trkpt lat="50.59936" lon="-2.05497"></trkpt>
      <trkpt lat="50.59937" lon="-2.0547"></trkpt>
      <trkpt lat="50.59939" lon="-2.05458"></trkpt>
      <trkpt lat="50.5994" lon="-2.05458"></trkpt>
      <trkpt lat="50.59937" lon="-2.0547"></trkpt>
      <trkpt lat="50.59922" lon="-2.05483"></trkpt>
      <trkpt lat="50.59912" lon="-2.05497"></trkpt>
      <trkpt lat="50.59903" lon="-2.05522"></trkpt>
      <trkpt lat="50.59852" lon="-2.05574"></trkpt>
      <trkpt lat="50.5983" lon="-2.0559"></trkpt>
      <trkpt lat="50.59756" lon="-2.05618"></trkpt>
      <trkpt lat="50.59712" lon="-2.05625"></trkpt>
      <trkpt lat="50.5969" lon="-2.05644"></trkpt>
      <trkpt lat="50.5967" lon="-2.05686"></trkpt>
      <trkpt lat="50.59657" lon="-2.05751"></trkpt>
      <trkpt lat="50.59649" lon="-2.05773"></trkpt>
      <trkpt lat="50.59637" lon="-2.05782"></trkpt>
      <trkpt lat="50.59536" lon="-2.05822"></trkpt>
      <trkpt lat="50.59485" lon="-2.05831"></trkpt>
      <trkpt lat="50.59435" lon="-2.05846"></trkpt>
      <trkpt lat="50.59292" lon="-2.05903"></trkpt>
      <trkpt lat="50.59224" lon="-2.05927"></trkpt>
      <trkpt lat="50.59124" lon="-2.0594"></trkpt>
      <trkpt lat="50.59118" lon="-2.05951"></trkpt>
      <trkpt lat="50.5911" lon="-2.05953"></trkpt>
      <trkpt lat="50.59102" lon="-2.05943"></trkpt>
      <trkpt lat="50.58875" lon="-2.06005"></trkpt>
      <trkpt lat="50.58738" lon="-2.06066"></trkpt>
      <trkpt lat="50.5872" lon="-2.06068"></trkpt>
      <trkpt lat="50.58695" lon="-2.06065"></trkpt>
      <trkpt lat="50.58681" lon="-2.06057"></trkpt>
      <trkpt lat="50.58581" lon="-2.05982"></trkpt>
      <trkpt lat="50.58537" lon="-2.05938"></trkpt>
      <trkpt lat="50.58465" lon="-2.05895"></trkpt>
      <trkpt lat="50.58454" lon="-2.05882"></trkpt>
      <trkpt lat="50.58377" lon="-2.05907"></trkpt>
      <trkpt lat="50.58294" lon="-2.05927"></trkpt>
      <trkpt lat="50.58279" lon="-2.05927"></trkpt>
      <trkpt lat="50.58161" lon="-2.05909"></trkpt>
      <trkpt lat="50.58058" lon="-2.05854"></trkpt>
      <trkpt lat="50.57997" lon="-2.05797"></trkpt>
      <trkpt lat="50.57933" lon="-2.05714"></trkpt>
      <trkpt lat="50.57923" lon="-2.05695"></trkpt>
      <trkpt lat="50.57923" lon="-2.05685"></trkpt>
      <trkpt lat="50.57923" lon="-2.05679"></trkpt>
      <trkpt lat="50.5792" lon="-2.05674"></trkpt>
      <trkpt lat="50.57902" lon="-2.05673"></trkpt>
      <trkpt lat="50.57895" lon="-2.05642"></trkpt>
      <trkpt lat="50.57887" lon="-2.05586"></trkpt>
      <trkpt lat="50.57884" lon="-2.05537"></trkpt>
      <trkpt lat="50.57877" lon="-2.05492"></trkpt>
      <trkpt lat="50.57861" lon="-2.055"></trkpt>
      <trkpt lat="50.57864" lon="-2.05476"></trkpt>
      <trkpt lat="50.57861" lon="-2.05455"></trkpt>
      <trkpt lat="50.57858" lon="-2.05415"></trkpt>
      <trkpt lat="50.57865" lon="-2.05375"></trkpt>
      <trkpt lat="50.57876" lon="-2.05347"></trkpt>
      <trkpt lat="50.57886" lon="-2.05337"></trkpt>
      <trkpt lat="50.57871" lon="-2.05311"></trkpt>
      <trkpt lat="50.57867" lon="-2.05299"></trkpt>
      <trkpt lat="50.57864" lon="-2.05284"></trkpt>
      <trkpt lat="50.57854" lon="-2.05261"></trkpt>
      <trkpt lat="50.57849" lon="-2.05244"></trkpt>
      <trkpt lat="50.57834" lon="-2.05153"></trkpt>
      <trkpt lat="50.57845" lon="-2.05069"></trkpt>
      <trkpt lat="50.57878" lon="-2.04949"></trkpt>
      <trkpt lat="50.57882" lon="-2.04918"></trkpt>
      <trkpt lat="50.57884" lon="-2.04863"></trkpt>
      <trkpt lat="50.57904" lon="-2.04765"></trkpt>
      <trkpt lat="50.57905" lon="-2.04748"></trkpt>
      <trkpt lat="50.57904" lon="-2.04716"></trkpt>
      <trkpt lat="50.579" lon="-2.04693"></trkpt>
      <trkpt lat="50.57896" lon="-2.04682"></trkpt>
      <trkpt lat="50.57883" lon="-2.04665"></trkpt>
      <trkpt lat="50.57881" lon="-2.04656"></trkpt>
      <trkpt lat="50.57898" lon="-2.04512"></trkpt>
      <trkpt lat="50.57908" lon="-2.04442"></trkpt>
      <trkpt lat="50.57916" lon="-2.04444"></trkpt>
      <trkpt lat="50.5794" lon="-2.04302"></trkpt>
      <trkpt lat="50.57953" lon="-2.04232"></trkpt>
      <trkpt lat="50.57966" lon="-2.04193"></trkpt>
      <trkpt lat="50.58002" lon="-2.04107"></trkpt>
      <trkpt lat="50.58024" lon="-2.0405"></trkpt>
      <trkpt lat="50.58039" lon="-2.0399"></trkpt>
      <trkpt lat="50.58034" lon="-2.03986"></trkpt>
      <trkpt lat="50.58036" lon="-2.03979"></trkpt>
      <trkpt lat="50.5804" lon="-2.03972"></trkpt>
      <trkpt lat="50.58068" lon="-2.03957"></trkpt>
      <trkpt lat="50.58085" lon="-2.03943"></trkpt>
      <trkpt lat="50.58114" lon="-2.03908"></trkpt>
      <trkpt lat="50.58132" lon="-2.03891"></trkpt>
      <trkpt lat="50.58143" lon="-2.03886"></trkpt>
      <trkpt lat="50.58153" lon="-2.03878"></trkpt>
      <trkpt lat="50.58159" lon="-2.03865"></trkpt>
      <trkpt lat="50.58164" lon="-2.03872"></trkpt>
      <trkpt lat="50.58349" lon="-2.03529"></trkpt>
      <trkpt lat="50.58365" lon="-2.0354"></trkpt>
      <trkpt lat="50.58418" lon="-2.03516"></trkpt>
      <trkpt lat="50.58431" lon="-2.03512"></trkpt>
      <trkpt lat="50.58434" lon="-2.03515"></trkpt>
      <trkpt lat="50.58435" lon="-2.03511"></trkpt>
      <trkpt lat="50.58452" lon="-2.03522"></trkpt>
      <trkpt lat="50.58461" lon="-2.03524"></trkpt>
      <trkpt lat="50.58467" lon="-2.03518"></trkpt>
      <trkpt lat="50.58456" lon="-2.03493"></trkpt>
      <trkpt lat="50.58459" lon="-2.0347"></trkpt>
      <trkpt lat="50.58462" lon="-2.03464"></trkpt>
      <trkpt lat="50.58464" lon="-2.03455"></trkpt>
      <trkpt lat="50.58467" lon="-2.0346"></trkpt>
      <trkpt lat="50.58473495890726" lon="-2.0345063335577436"></trkpt>
      <trkpt lat="50.58467" lon="-2.0346"></trkpt>
      <trkpt lat="50.58462" lon="-2.03445"></trkpt>
      <trkpt lat="50.58468" lon="-2.03433"></trkpt>
      <trkpt lat="50.58476" lon="-2.03426"></trkpt>
      <trkpt lat="50.58487" lon="-2.03429"></trkpt>
      <trkpt lat="50.58499" lon="-2.03421"></trkpt>
      <trkpt lat="50.58503" lon="-2.0342"></trkpt>
      <trkpt lat="50.5851" lon="-2.03424"></trkpt>
      <trkpt lat="50.58529" lon="-2.03397"></trkpt>
      <trkpt lat="50.58526" lon="-2.03359"></trkpt>
      <trkpt lat="50.58527" lon="-2.03352"></trkpt>
      <trkpt lat="50.58515" lon="-2.03311"></trkpt>
      <trkpt lat="50.58513" lon="-2.03288"></trkpt>
      <trkpt lat="50.58514" lon="-2.03267"></trkpt>
      <trkpt lat="50.58518" lon="-2.03247"></trkpt>
      <trkpt lat="50.58562" lon="-2.03138"></trkpt>
      <trkpt lat="50.58613" lon="-2.03081"></trkpt>
      <trkpt lat="50.58647" lon="-2.03061"></trkpt>
      <trkpt lat="50.58769" lon="-2.0289"></trkpt>
      <trkpt lat="50.58808" lon="-2.02853"></trkpt>
      <trkpt lat="50.58806" lon="-2.02848"></trkpt>
      <trkpt lat="50.5885" lon="-2.02794"></trkpt>
      <trkpt lat="50.58863" lon="-2.0278"></trkpt>
      <trkpt lat="50.58888" lon="-2.02716"></trkpt>
      <trkpt lat="50.58903" lon="-2.02688"></trkpt>
      <trkpt lat="50.58912" lon="-2.02678"></trkpt>
      <trkpt lat="50.58916" lon="-2.02668"></trkpt>
      <trkpt lat="50.58915" lon="-2.02668"></trkpt>
      <trkpt lat="50.58945" lon="-2.02552"></trkpt>
      <trkpt lat="50.5898" lon="-2.02467"></trkpt>
      <trkpt lat="50.58991" lon="-2.02451"></trkpt>
      <trkpt lat="50.58998" lon="-2.02444"></trkpt>
      <trkpt lat="50.59048" lon="-2.02423"></trkpt>
      <trkpt lat="50.59096" lon="-2.02438"></trkpt>
      <trkpt lat="50.59103" lon="-2.02445"></trkpt>
      <trkpt lat="50.59123" lon="-2.02475"></trkpt>
      <trkpt lat="50.59135" lon="-2.02466"></trkpt>
      <trkpt lat="50.59144" lon="-2.02471"></trkpt>
      <trkpt lat="50.59161" lon="-2.02454"></trkpt>
      <trkpt lat="50.5916" lon="-2.02417"></trkpt>
      <trkpt lat="50.59098" lon="-2.02333"></trkpt>
      <trkpt lat="50.59083" lon="-2.02322"></trkpt>
      <trkpt lat="50.59066" lon="-2.02315"></trkpt>
      <trkpt lat="50.59047" lon="-2.02316"></trkpt>
      <trkpt lat="50.59028" lon="-2.02305"></trkpt>
      <trkpt lat="50.58943" lon="-2.02234"></trkpt>
      <trkpt lat="50.5893" lon="-2.02199"></trkpt>
      <trkpt lat="50.58931" lon="-2.02147"></trkpt>
      <trkpt lat="50.5899" lon="-2.019"></trkpt>
      <trkpt lat="50.5899" lon="-2.01901"></trkpt>
      <trkpt lat="50.59002" lon="-2.01846"></trkpt>
      <trkpt lat="50.59005" lon="-2.01827"></trkpt>
      <trkpt lat="50.59004" lon="-2.01775"></trkpt>
      <trkpt lat="50.59013" lon="-2.01723"></trkpt>
      <trkpt lat="50.59029" lon="-2.01643"></trkpt>
      <trkpt lat="50.59037" lon="-2.01577"></trkpt>
      <trkpt lat="50.59063" lon="-2.01527"></trkpt>
      <trkpt lat="50.59113" lon="-2.01373"></trkpt>
      <trkpt lat="50.59132" lon="-2.01336"></trkpt>
      <trkpt lat="50.59145" lon="-2.01317"></trkpt>
      <trkpt lat="50.59172" lon="-2.01286"></trkpt>
      <trkpt lat="50.59168" lon="-2.01247"></trkpt>
      <trkpt lat="50.59123" lon="-2.01139"></trkpt>
      <trkpt lat="50.59114" lon="-2.01085"></trkpt>
      <trkpt lat="50.59111" lon="-2.0105"></trkpt>
      <trkpt lat="50.59116" lon="-2.00999"></trkpt>
      <trkpt lat="50.59123" lon="-2.0095"></trkpt>
      <trkpt lat="50.59123" lon="-2.00951"></trkpt>
      <trkpt lat="50.59126" lon="-2.00923"></trkpt>
      <trkpt lat="50.59127" lon="-2.00901"></trkpt>
      <trkpt lat="50.59124" lon="-2.00861"></trkpt>
      <trkpt lat="50.59129" lon="-2.00818"></trkpt>
      <trkpt lat="50.59154" lon="-2.00713"></trkpt>
      <trkpt lat="50.59165" lon="-2.00688"></trkpt>
      <trkpt lat="50.59189" lon="-2.00642"></trkpt>
      <trkpt lat="50.59228" lon="-2.00582"></trkpt>
      <trkpt lat="50.59236" lon="-2.00567"></trkpt>
      <trkpt lat="50.59242" lon="-2.00534"></trkpt>
      <trkpt lat="50.59232" lon="-2.00441"></trkpt>
      <trkpt lat="50.59227" lon="-2.0042"></trkpt>
      <trkpt lat="50.59199" lon="-2.00335"></trkpt>
      <trkpt lat="50.59192" lon="-2.00303"></trkpt>
      <trkpt lat="50.59192" lon="-2.0028"></trkpt>
      <trkpt lat="50.59194" lon="-2.00272"></trkpt>
      <trkpt lat="50.59193" lon="-2.00267"></trkpt>
      <trkpt lat="50.59196" lon="-2.00246"></trkpt>
      <trkpt lat="50.59187" lon="-2.00216"></trkpt>
      <trkpt lat="50.59178" lon="-2.00192"></trkpt>
      <trkpt lat="50.59165" lon="-2.00126"></trkpt>
      <trkpt lat="50.59168" lon="-2.00101"></trkpt>
      <trkpt lat="50.59188" lon="-2.00023"></trkpt>
      <trkpt lat="50.59184" lon="-2.0001"></trkpt>
      <trkpt lat="50.59172" lon="-2.00019"></trkpt>
      <trkpt lat="50.59161" lon="-2.0002"></trkpt>
      <trkpt lat="50.59157" lon="-2.00016"></trkpt>
      <trkpt lat="50.59153" lon="-1.99979"></trkpt>
      <trkpt lat="50.59157" lon="-2.00016"></trkpt>
      <trkpt lat="50.59161" lon="-2.0002"></trkpt>
      <trkpt lat="50.59172" lon="-2.00019"></trkpt>
      <trkpt lat="50.59184" lon="-2.0001"></trkpt>
      <trkpt lat="50.59179" lon="-1.99996"></trkpt>
      <trkpt lat="50.59172" lon="-1.99961"></trkpt>
      <trkpt lat="50.59156" lon="-1.99913"></trkpt>
      <trkpt lat="50.59155" lon="-1.99849"></trkpt>
      <trkpt lat="50.59151" lon="-1.99813"></trkpt>
      <trkpt lat="50.59154" lon="-1.99762"></trkpt>
      <trkpt lat="50.59153" lon="-1.99748"></trkpt>
      <trkpt lat="50.59159" lon="-1.99714"></trkpt>
      <trkpt lat="50.59156" lon="-1.9967"></trkpt>
      <trkpt lat="50.59155" lon="-1.99616"></trkpt>
      <trkpt lat="50.59151" lon="-1.99595"></trkpt>
      <trkpt lat="50.59151" lon="-1.99478"></trkpt>
      <trkpt lat="50.59154" lon="-1.99442"></trkpt>
      <trkpt lat="50.59162" lon="-1.99416"></trkpt>
      <trkpt lat="50.59166" lon="-1.9941"></trkpt>
      <trkpt lat="50.59167" lon="-1.99398"></trkpt>
      <trkpt lat="50.5917" lon="-1.99389"></trkpt>
      <trkpt lat="50.59178" lon="-1.99378"></trkpt>
      <trkpt lat="50.59183" lon="-1.99337"></trkpt>
      <trkpt lat="50.59182" lon="-1.99328"></trkpt>
      <trkpt lat="50.59188" lon="-1.99284"></trkpt>
      <trkpt lat="50.59187" lon="-1.99265"></trkpt>
      <trkpt lat="50.59189" lon="-1.99253"></trkpt>
      <trkpt lat="50.59177" lon="-1.99226"></trkpt>
      <trkpt lat="50.59164" lon="-1.9921"></trkpt>
      <trkpt lat="50.59154" lon="-1.99189"></trkpt>
      <trkpt lat="50.59141" lon="-1.99176"></trkpt>
      <trkpt lat="50.59133" lon="-1.99145"></trkpt>
      <trkpt lat="50.5913" lon="-1.99116"></trkpt>
      <trkpt lat="50.59132" lon="-1.99081"></trkpt>
      <trkpt lat="50.59122" lon="-1.99044"></trkpt>
      <trkpt lat="50.59118" lon="-1.9901"></trkpt>
      <trkpt lat="50.59122" lon="-1.98991"></trkpt>
      <trkpt lat="50.59121" lon="-1.98964"></trkpt>
      <trkpt lat="50.59123" lon="-1.98934"></trkpt>
      <trkpt lat="50.59128" lon="-1.98927"></trkpt>
      <trkpt lat="50.59124" lon="-1.98909"></trkpt>
      <trkpt lat="50.59125" lon="-1.98863"></trkpt>
      <trkpt lat="50.59128" lon="-1.98843"></trkpt>
      <trkpt lat="50.59124" lon="-1.98803"></trkpt>
      <trkpt lat="50.59126" lon="-1.9876"></trkpt>
      <trkpt lat="50.59133" lon="-1.98744"></trkpt>
      <trkpt lat="50.59148" lon="-1.98723"></trkpt>
      <trkpt lat="50.5915" lon="-1.98712"></trkpt>
      <trkpt lat="50.59148" lon="-1.98703"></trkpt>
      <trkpt lat="50.59151" lon="-1.98693"></trkpt>
      <trkpt lat="50.59151" lon="-1.98663"></trkpt>
      <trkpt lat="50.59143" lon="-1.98605"></trkpt>
      <trkpt lat="50.59116" lon="-1.98501"></trkpt>
      <trkpt lat="50.59099" lon="-1.98454"></trkpt>
      <trkpt lat="50.59087" lon="-1.98385"></trkpt>
      <trkpt lat="50.59087" lon="-1.98344"></trkpt>
      <trkpt lat="50.59109" lon="-1.9828"></trkpt>
      <trkpt lat="50.59114" lon="-1.98273"></trkpt>
      <trkpt lat="50.59116" lon="-1.98261"></trkpt>
      <trkpt lat="50.59118" lon="-1.98213"></trkpt>
      <trkpt lat="50.59114" lon="-1.98202"></trkpt>
      <trkpt lat="50.59122" lon="-1.98164"></trkpt>
      <trkpt lat="50.59116" lon="-1.98126"></trkpt>
      <trkpt lat="50.59119" lon="-1.98067"></trkpt>
      <trkpt lat="50.59134" lon="-1.98026"></trkpt>
      <trkpt lat="50.59155" lon="-1.97953"></trkpt>
      <trkpt lat="50.5916" lon="-1.97919"></trkpt>
      <trkpt lat="50.59163" lon="-1.97848"></trkpt>
      <trkpt lat="50.5916" lon="-1.97802"></trkpt>
      <trkpt lat="50.59162" lon="-1.97779"></trkpt>
      <trkpt lat="50.59154" lon="-1.97751"></trkpt>
      <trkpt lat="50.59156" lon="-1.97726"></trkpt>
      <trkpt lat="50.59154" lon="-1.97706"></trkpt>
      <trkpt lat="50.5914" lon="-1.97608"></trkpt>
      <trkpt lat="50.5913" lon="-1.97583"></trkpt>
      <trkpt lat="50.59139" lon="-1.97522"></trkpt>
      <trkpt lat="50.59134" lon="-1.97464"></trkpt>
      <trkpt lat="50.59134" lon="-1.97429"></trkpt>
      <trkpt lat="50.59136" lon="-1.9728"></trkpt>
      <trkpt lat="50.59163" lon="-1.97244"></trkpt>
      <trkpt lat="50.59162" lon="-1.97219"></trkpt>
      <trkpt lat="50.59162" lon="-1.97127"></trkpt>
      <trkpt lat="50.59165" lon="-1.97041"></trkpt>
      <trkpt lat="50.59166" lon="-1.96973"></trkpt>
      <trkpt lat="50.59171" lon="-1.96896"></trkpt>
      <trkpt lat="50.59169" lon="-1.96793"></trkpt>
      <trkpt lat="50.59173" lon="-1.96754"></trkpt>
      <trkpt lat="50.59173" lon="-1.96487"></trkpt>
      <trkpt lat="50.59167" lon="-1.96283"></trkpt>
      <trkpt lat="50.59158" lon="-1.96085"></trkpt>
      <trkpt lat="50.59159" lon="-1.96044"></trkpt>
      <trkpt lat="50.59144" lon="-1.96007"></trkpt>
      <trkpt lat="50.59143" lon="-1.95989"></trkpt>
      <trkpt lat="50.59144" lon="-1.95971"></trkpt>
      <trkpt lat="50.59148" lon="-1.9595"></trkpt>
      <trkpt lat="50.59161" lon="-1.95916"></trkpt>
      <trkpt lat="50.59173" lon="-1.959"></trkpt>
      <trkpt lat="50.59192" lon="-1.95887"></trkpt>
      <trkpt lat="50.59212" lon="-1.95867"></trkpt>
      <trkpt lat="50.59218" lon="-1.95864"></trkpt>
      <trkpt lat="50.59226" lon="-1.95866"></trkpt>
      <trkpt lat="50.59233" lon="-1.95861"></trkpt>
      <trkpt lat="50.59244" lon="-1.95871"></trkpt>
      <trkpt lat="50.59243" lon="-1.95854"></trkpt>
      <trkpt lat="50.59237" lon="-1.95837"></trkpt>
      <trkpt lat="50.59236" lon="-1.95813"></trkpt>
      <trkpt lat="50.5923" lon="-1.95789"></trkpt>
      <trkpt lat="50.59255" lon="-1.95753"></trkpt>
      <trkpt lat="50.59256" lon="-1.95745"></trkpt>
      <trkpt lat="50.59259" lon="-1.95738"></trkpt>
      <trkpt lat="50.59271" lon="-1.95717"></trkpt>
      <trkpt lat="50.59279" lon="-1.9568"></trkpt>
      <trkpt lat="50.5929" lon="-1.95661"></trkpt>
      <trkpt lat="50.59308" lon="-1.95637"></trkpt>
      <trkpt lat="50.59316" lon="-1.95623"></trkpt>
      <trkpt lat="50.59322" lon="-1.95605"></trkpt>
      <trkpt lat="50.59331" lon="-1.95592"></trkpt>
      <trkpt lat="50.59344" lon="-1.95565"></trkpt>
      <trkpt lat="50.5935" lon="-1.9556"></trkpt>
      <trkpt lat="50.59353" lon="-1.95553"></trkpt>
      <trkpt lat="50.59357" lon="-1.95532"></trkpt>
      <trkpt lat="50.59365" lon="-1.9552"></trkpt>
      <trkpt lat="50.59366" lon="-1.95509"></trkpt>
      <trkpt lat="50.5937" lon="-1.95496"></trkpt>
      <trkpt lat="50.59382" lon="-1.95484"></trkpt>
      <trkpt lat="50.59384" lon="-1.95471"></trkpt>
      <trkpt lat="50.59385" lon="-1.95448"></trkpt>
      <trkpt lat="50.59391" lon="-1.95439"></trkpt>
      <trkpt lat="50.59412" lon="-1.95417"></trkpt>
      <trkpt lat="50.5942" lon="-1.95404"></trkpt>
      <trkpt lat="50.5943" lon="-1.954"></trkpt>
      <trkpt lat="50.59435" lon="-1.95392"></trkpt>
      <trkpt lat="50.59441" lon="-1.95374"></trkpt>
      <trkpt lat="50.59435" lon="-1.95362"></trkpt>
      <trkpt lat="50.59434" lon="-1.95351"></trkpt>
      <trkpt lat="50.59435" lon="-1.95344"></trkpt>
      <trkpt lat="50.59445" lon="-1.95328"></trkpt>
      <trkpt lat="50.59451" lon="-1.95314"></trkpt>
      <trkpt lat="50.59456" lon="-1.95291"></trkpt>
      <trkpt lat="50.5946" lon="-1.95255"></trkpt>
      <trkpt lat="50.59458" lon="-1.95223"></trkpt>
      <trkpt lat="50.59469" lon="-1.95164"></trkpt>
      <trkpt lat="50.59473" lon="-1.95154"></trkpt>
      <trkpt lat="50.59492" lon="-1.95129"></trkpt>
      <trkpt lat="50.59491" lon="-1.95129"></trkpt>
      <trkpt lat="50.59503" lon="-1.9512"></trkpt>
      <trkpt lat="50.59508" lon="-1.95121"></trkpt>
      <trkpt lat="50.59511" lon="-1.95126"></trkpt>
      <trkpt lat="50.59512" lon="-1.95158"></trkpt>
      <trkpt lat="50.59515" lon="-1.95166"></trkpt>
      <trkpt lat="50.59528" lon="-1.95181"></trkpt>
      <trkpt lat="50.59534" lon="-1.95197"></trkpt>
      <trkpt lat="50.59536" lon="-1.95206"></trkpt>
      <trkpt lat="50.59536" lon="-1.95224"></trkpt>
      <trkpt lat="50.59542" lon="-1.95266"></trkpt>
      <trkpt lat="50.59542" lon="-1.95276"></trkpt>
      <trkpt lat="50.59525" lon="-1.95352"></trkpt>
      <trkpt lat="50.59518" lon="-1.95363"></trkpt>
      <trkpt lat="50.59515" lon="-1.95378"></trkpt>
      <trkpt lat="50.59523" lon="-1.95392"></trkpt>
      <trkpt lat="50.59551" lon="-1.95399"></trkpt>
      <trkpt lat="50.59592" lon="-1.95398"></trkpt>
      <trkpt lat="50.59612" lon="-1.95401"></trkpt>
      <trkpt lat="50.59633" lon="-1.95408"></trkpt>
      <trkpt lat="50.59713" lon="-1.95453"></trkpt>
      <trkpt lat="50.5974" lon="-1.95462"></trkpt>
      <trkpt lat="50.5977" lon="-1.95462"></trkpt>
      <trkpt lat="50.59865" lon="-1.95447"></trkpt>
      <trkpt lat="50.59873" lon="-1.95448"></trkpt>
      <trkpt lat="50.59881" lon="-1.95452"></trkpt>
      <trkpt lat="50.59926" lon="-1.95444"></trkpt>
      <trkpt lat="50.59984" lon="-1.9544"></trkpt>
      <trkpt lat="50.60019" lon="-1.95445"></trkpt>
      <trkpt lat="50.6003" lon="-1.95449"></trkpt>
      <trkpt lat="50.60038" lon="-1.95456"></trkpt>
      <trkpt lat="50.60045" lon="-1.95457"></trkpt>
      <trkpt lat="50.60052" lon="-1.95453"></trkpt>
      <trkpt lat="50.60059" lon="-1.9544"></trkpt>
      <trkpt lat="50.6006" lon="-1.95414"></trkpt>
      <trkpt lat="50.60073" lon="-1.95394"></trkpt>
      <trkpt lat="50.60083" lon="-1.95387"></trkpt>
      <trkpt lat="50.60093" lon="-1.95388"></trkpt>
      <trkpt lat="50.60105" lon="-1.95399"></trkpt>
      <trkpt lat="50.60112" lon="-1.95418"></trkpt>
      <trkpt lat="50.60119" lon="-1.95426"></trkpt>
      <trkpt lat="50.60144" lon="-1.95425"></trkpt>
      <trkpt lat="50.60157" lon="-1.95411"></trkpt>
      <trkpt lat="50.60171" lon="-1.95407"></trkpt>
      <trkpt lat="50.60182" lon="-1.95396"></trkpt>
      <trkpt lat="50.60187" lon="-1.9538"></trkpt>
      <trkpt lat="50.60192" lon="-1.95357"></trkpt>
      <trkpt lat="50.60189" lon="-1.95337"></trkpt>
      <trkpt lat="50.6019" lon="-1.95325"></trkpt>
      <trkpt lat="50.60196" lon="-1.95311"></trkpt>
      <trkpt lat="50.60195" lon="-1.95299"></trkpt>
      <trkpt lat="50.60196" lon="-1.95294"></trkpt>
      <trkpt lat="50.60221" lon="-1.95271"></trkpt>
      <trkpt lat="50.60231" lon="-1.95276"></trkpt>
      <trkpt lat="50.60238" lon="-1.95284"></trkpt>
      <trkpt lat="50.60241" lon="-1.9529"></trkpt>
      <trkpt lat="50.60239" lon="-1.9531"></trkpt>
      <trkpt lat="50.60242" lon="-1.95314"></trkpt>
      <trkpt lat="50.60255" lon="-1.95315"></trkpt>
      <trkpt lat="50.60262" lon="-1.95299"></trkpt>
      <trkpt lat="50.60266" lon="-1.95297"></trkpt>
      <trkpt lat="50.60273" lon="-1.95301"></trkpt>
      <trkpt lat="50.60284" lon="-1.95312"></trkpt>
      <trkpt lat="50.60287" lon="-1.95301"></trkpt>
      <trkpt lat="50.60293" lon="-1.9529"></trkpt>
      <trkpt lat="50.60306" lon="-1.95277"></trkpt>
      <trkpt lat="50.60318" lon="-1.95272"></trkpt>
      <trkpt lat="50.60323" lon="-1.95272"></trkpt>
      <trkpt lat="50.60332" lon="-1.95278"></trkpt>
      <trkpt lat="50.60341" lon="-1.95267"></trkpt>
      <trkpt lat="50.60343" lon="-1.95252"></trkpt>
      <trkpt lat="50.60361" lon="-1.95229"></trkpt>
      <trkpt lat="50.60373" lon="-1.95206"></trkpt>
      <trkpt lat="50.60407" lon="-1.95164"></trkpt>
      <trkpt lat="50.60503" lon="-1.95053"></trkpt>
      <trkpt lat="50.60533" lon="-1.95006"></trkpt>
      <trkpt lat="50.60562" lon="-1.94945"></trkpt>
      <trkpt lat="50.60605" lon="-1.94843"></trkpt>
      <trkpt lat="50.60626" lon="-1.94777"></trkpt>
      <trkpt lat="50.60647" lon="-1.94696"></trkpt>
      <trkpt lat="50.60659" lon="-1.94676"></trkpt>
      <trkpt lat="50.60662" lon="-1.94667"></trkpt>
      <trkpt lat="50.60674" lon="-1.94641"></trkpt>
      <trkpt lat="50.60674" lon="-1.94642"></trkpt>
      <trkpt lat="50.60677" lon="-1.9461"></trkpt>
      <trkpt lat="50.60676" lon="-1.94581"></trkpt>
      <trkpt lat="50.60681" lon="-1.94547"></trkpt>
      <trkpt lat="50.60687" lon="-1.94525"></trkpt>
      <trkpt lat="50.60698" lon="-1.94505"></trkpt>
      <trkpt lat="50.60732" lon="-1.9446"></trkpt>
      <trkpt lat="50.60723" lon="-1.9447"></trkpt>
      <trkpt lat="50.6073" lon="-1.94482"></trkpt>
      <trkpt lat="50.60735" lon="-1.94505"></trkpt>
      <trkpt lat="50.60739" lon="-1.94507"></trkpt>
      <trkpt lat="50.60742" lon="-1.94512"></trkpt>
      <trkpt lat="50.60741" lon="-1.94512"></trkpt>
      <trkpt lat="50.60743" lon="-1.94512"></trkpt>
      <trkpt lat="50.60744" lon="-1.94518"></trkpt>
      <trkpt lat="50.60745" lon="-1.94518"></trkpt>
      <trkpt lat="50.6074" lon="-1.94565"></trkpt>
      <trkpt lat="50.60732" lon="-1.94565"></trkpt>
      <trkpt lat="50.60731" lon="-1.94646"></trkpt>
      <trkpt lat="50.60738" lon="-1.94685"></trkpt>
      <trkpt lat="50.60739" lon="-1.94684"></trkpt>
      <trkpt lat="50.60733" lon="-1.94687"></trkpt>
      <trkpt lat="50.60738" lon="-1.94715"></trkpt>
      <trkpt lat="50.60747" lon="-1.94711"></trkpt>
      <trkpt lat="50.60759" lon="-1.94778"></trkpt>
      <trkpt lat="50.60762" lon="-1.94806"></trkpt>
      <trkpt lat="50.60762" lon="-1.94828"></trkpt>
      <trkpt lat="50.60757" lon="-1.94866"></trkpt>
      <trkpt lat="50.60748" lon="-1.94933"></trkpt>
      <trkpt lat="50.60744" lon="-1.94932"></trkpt>
      <trkpt lat="50.60742" lon="-1.94946"></trkpt>
      <trkpt lat="50.6074" lon="-1.94946"></trkpt>
      <trkpt lat="50.6074" lon="-1.95003"></trkpt>
      <trkpt lat="50.60746" lon="-1.95077"></trkpt>
      <trkpt lat="50.60751" lon="-1.9509"></trkpt>
      <trkpt lat="50.6074" lon="-1.95141"></trkpt>
      <trkpt lat="50.60725" lon="-1.95181"></trkpt>
      <trkpt lat="50.60722" lon="-1.95209"></trkpt>
      <trkpt lat="50.60722" lon="-1.95244"></trkpt>
      <trkpt lat="50.60728" lon="-1.95268"></trkpt>
      <trkpt lat="50.60732" lon="-1.95272"></trkpt>
      <trkpt lat="50.60736" lon="-1.95287"></trkpt>
      <trkpt lat="50.60738" lon="-1.95286"></trkpt>
      <trkpt lat="50.60749" lon="-1.95313"></trkpt>
      <trkpt lat="50.60783" lon="-1.9538"></trkpt>
      <trkpt lat="50.60787" lon="-1.95376"></trkpt>
      <trkpt lat="50.60795" lon="-1.9539"></trkpt>
      <trkpt lat="50.60801" lon="-1.95407"></trkpt>
      <trkpt lat="50.60808" lon="-1.9545"></trkpt>
      <trkpt lat="50.6081" lon="-1.9545"></trkpt>
      <trkpt lat="50.60816" lon="-1.955"></trkpt>
      <trkpt lat="50.60819" lon="-1.95503"></trkpt>
      <trkpt lat="50.60817" lon="-1.95507"></trkpt>
      <trkpt lat="50.60822" lon="-1.95532"></trkpt>
      <trkpt lat="50.60829" lon="-1.95557"></trkpt>
      <trkpt lat="50.60837" lon="-1.95564"></trkpt>
      <trkpt lat="50.6084" lon="-1.9557"></trkpt>
      <trkpt lat="50.60834" lon="-1.95576"></trkpt>
      <trkpt lat="50.60835" lon="-1.9558"></trkpt>
      <trkpt lat="50.60844" lon="-1.95595"></trkpt>
      <trkpt lat="50.60924" lon="-1.95655"></trkpt>
      <trkpt lat="50.60925" lon="-1.95649"></trkpt>
      <trkpt lat="50.60929" lon="-1.95652"></trkpt>
      <trkpt lat="50.60928" lon="-1.95658"></trkpt>
      <trkpt lat="50.60951" lon="-1.95671"></trkpt>
      <trkpt lat="50.60946" lon="-1.95692"></trkpt>
      <trkpt lat="50.60949" lon="-1.95694"></trkpt>
      <trkpt lat="50.60944" lon="-1.95717"></trkpt>
      <trkpt lat="50.60946" lon="-1.95723"></trkpt>
      <trkpt lat="50.61003" lon="-1.95737"></trkpt>
      <trkpt lat="50.61182" lon="-1.95796"></trkpt>
      <trkpt lat="50.61189" lon="-1.958"></trkpt>
      <trkpt lat="50.61191" lon="-1.95812"></trkpt>
      <trkpt lat="50.61202" lon="-1.95814"></trkpt>
      <trkpt lat="50.61204" lon="-1.95807"></trkpt>
      <trkpt lat="50.61207" lon="-1.95802"></trkpt>
      <trkpt lat="50.61266" lon="-1.95809"></trkpt>
      <trkpt lat="50.61323" lon="-1.95813"></trkpt>
      <trkpt lat="50.61323" lon="-1.95798"></trkpt>
      <trkpt lat="50.61379" lon="-1.95797"></trkpt>
      <trkpt lat="50.61512" lon="-1.95779"></trkpt>
      <trkpt lat="50.61511" lon="-1.95779"></trkpt>
      <trkpt lat="50.61549" lon="-1.95776"></trkpt>
      <trkpt lat="50.61575" lon="-1.9577"></trkpt>
      <trkpt lat="50.61576" lon="-1.95779"></trkpt>
      <trkpt lat="50.61638" lon="-1.95761"></trkpt>
      <trkpt lat="50.61653" lon="-1.95762"></trkpt>
      <trkpt lat="50.61676" lon="-1.95773"></trkpt>
      <trkpt lat="50.61717" lon="-1.95796"></trkpt>
      <trkpt lat="50.61796" lon="-1.95824"></trkpt>
      <trkpt lat="50.61869" lon="-1.95837"></trkpt>
      <trkpt lat="50.61957" lon="-1.95874"></trkpt>
      <trkpt lat="50.61969" lon="-1.95877"></trkpt>
      <trkpt lat="50.62071" lon="-1.9589"></trkpt>
      <trkpt lat="50.62091" lon="-1.95887"></trkpt>
      <trkpt lat="50.62126" lon="-1.9587"></trkpt>
      <trkpt lat="50.62141" lon="-1.95869"></trkpt>
      <trkpt lat="50.62157" lon="-1.95876"></trkpt>
      <trkpt lat="50.62172" lon="-1.95888"></trkpt>
      <trkpt lat="50.62181" lon="-1.95902"></trkpt>
      <trkpt lat="50.62193" lon="-1.95933"></trkpt>
      <trkpt lat="50.62197" lon="-1.95923"></trkpt>
      <trkpt lat="50.62198" lon="-1.95911"></trkpt>
      <trkpt lat="50.62201" lon="-1.95868"></trkpt>
      <trkpt lat="50.62214" lon="-1.95668"></trkpt>
      <trkpt lat="50.6218" lon="-1.95568"></trkpt>
      <trkpt lat="50.62179" lon="-1.95566"></trkpt>
      <trkpt lat="50.62258" lon="-1.95531"></trkpt>
      <trkpt lat="50.62242" lon="-1.95432"></trkpt>
      <trkpt lat="50.62249" lon="-1.95412"></trkpt>
      <trkpt lat="50.62274" lon="-1.95384"></trkpt>
      <trkpt lat="50.62273" lon="-1.95384"></trkpt>
      <trkpt lat="50.62327" lon="-1.95336"></trkpt>
      <trkpt lat="50.62348" lon="-1.95328"></trkpt>
      <trkpt lat="50.6235" lon="-1.95332"></trkpt>
      <trkpt lat="50.62357" lon="-1.95328"></trkpt>
      <trkpt lat="50.62362" lon="-1.95329"></trkpt>
      <trkpt lat="50.62363" lon="-1.95334"></trkpt>
      <trkpt lat="50.62365" lon="-1.95337"></trkpt>
      <trkpt lat="50.62367" lon="-1.95336"></trkpt>
      <trkpt lat="50.62386" lon="-1.95293"></trkpt>
      <trkpt lat="50.62391" lon="-1.95286"></trkpt>
      <trkpt lat="50.62434" lon="-1.95262"></trkpt>
      <trkpt lat="50.62458" lon="-1.95237"></trkpt>
      <trkpt lat="50.6248" lon="-1.95224"></trkpt>
      <trkpt lat="50.62491" lon="-1.95205"></trkpt>
      <trkpt lat="50.6252" lon="-1.95193"></trkpt>
      <trkpt lat="50.6254" lon="-1.95175"></trkpt>
      <trkpt lat="50.62543" lon="-1.95169"></trkpt>
      <trkpt lat="50.62549" lon="-1.95147"></trkpt>
      <trkpt lat="50.62552" lon="-1.95121"></trkpt>
      <trkpt lat="50.62554" lon="-1.95114"></trkpt>
      <trkpt lat="50.62559" lon="-1.95111"></trkpt>
      <trkpt lat="50.62567" lon="-1.95115"></trkpt>
      <trkpt lat="50.62579" lon="-1.95125"></trkpt>
      <trkpt lat="50.6259" lon="-1.95129"></trkpt>
      <trkpt lat="50.62602" lon="-1.95131"></trkpt>
      <trkpt lat="50.6261" lon="-1.9513"></trkpt>
      <trkpt lat="50.62615" lon="-1.95125"></trkpt>
      <trkpt lat="50.62628" lon="-1.951"></trkpt>
      <trkpt lat="50.62638" lon="-1.95071"></trkpt>
      <trkpt lat="50.62649" lon="-1.95044"></trkpt>
      <trkpt lat="50.62654" lon="-1.95041"></trkpt>
      <trkpt lat="50.62677" lon="-1.9505"></trkpt>
      <trkpt lat="50.62709" lon="-1.95056"></trkpt>
      <trkpt lat="50.62717" lon="-1.95053"></trkpt>
      <trkpt lat="50.62722" lon="-1.95049"></trkpt>
      <trkpt lat="50.62725" lon="-1.9504"></trkpt>
      <trkpt lat="50.62738" lon="-1.9493"></trkpt>
      <trkpt lat="50.62743" lon="-1.94921"></trkpt>
      <trkpt lat="50.62766" lon="-1.94899"></trkpt>
      <trkpt lat="50.62776" lon="-1.94887"></trkpt>
      <trkpt lat="50.62803" lon="-1.94835"></trkpt>
      <trkpt lat="50.62809" lon="-1.94828"></trkpt>
      <trkpt lat="50.62832" lon="-1.94825"></trkpt>
      <trkpt lat="50.62842" lon="-1.94826"></trkpt>
      <trkpt lat="50.62863" lon="-1.94807"></trkpt>
      <trkpt lat="50.62868" lon="-1.9481"></trkpt>
      <trkpt lat="50.62879" lon="-1.948"></trkpt>
      <trkpt lat="50.62888" lon="-1.94787"></trkpt>
      <trkpt lat="50.62886" lon="-1.94781"></trkpt>
      <trkpt lat="50.62899" lon="-1.94754"></trkpt>
      <trkpt lat="50.62909" lon="-1.94746"></trkpt>
      <trkpt lat="50.62918" lon="-1.94738"></trkpt>
      <trkpt lat="50.62924" lon="-1.94737"></trkpt>
      <trkpt lat="50.62944" lon="-1.94753"></trkpt>
      <trkpt lat="50.62959" lon="-1.94758"></trkpt>
      <trkpt lat="50.62964" lon="-1.94757"></trkpt>
      <trkpt lat="50.62969" lon="-1.94751"></trkpt>
      <trkpt lat="50.63016" lon="-1.94652"></trkpt>
      <trkpt lat="50.63036" lon="-1.94601"></trkpt>
      <trkpt lat="50.63043" lon="-1.94579"></trkpt>
      <trkpt lat="50.63049" lon="-1.94551"></trkpt>
      <trkpt lat="50.63055" lon="-1.94535"></trkpt>
      <trkpt lat="50.63062" lon="-1.94526"></trkpt>
      <trkpt lat="50.63062" lon="-1.94451"></trkpt>
      <trkpt lat="50.63066" lon="-1.94368"></trkpt>
      <trkpt lat="50.63064" lon="-1.94333"></trkpt>
      <trkpt lat="50.63067" lon="-1.94305"></trkpt>
      <trkpt lat="50.63083" lon="-1.94196"></trkpt>
      <trkpt lat="50.63091" lon="-1.94179"></trkpt>
      <trkpt lat="50.63107" lon="-1.94073"></trkpt>
      <trkpt lat="50.63111" lon="-1.94031"></trkpt>
      <trkpt lat="50.63116" lon="-1.94018"></trkpt>
      <trkpt lat="50.63124" lon="-1.93986"></trkpt>
      <trkpt lat="50.63129" lon="-1.93945"></trkpt>
      <trkpt lat="50.6313" lon="-1.93845"></trkpt>
      <trkpt lat="50.63136" lon="-1.93826"></trkpt>
      <trkpt lat="50.63148" lon="-1.93708"></trkpt>
      <trkpt lat="50.63154" lon="-1.93665"></trkpt>
      <trkpt lat="50.63156" lon="-1.93598"></trkpt>
      <trkpt lat="50.63146" lon="-1.93506"></trkpt>
      <trkpt lat="50.63148" lon="-1.93481"></trkpt>
      <trkpt lat="50.63189" lon="-1.93367"></trkpt>
      <trkpt lat="50.63197" lon="-1.93352"></trkpt>
      <trkpt lat="50.632" lon="-1.93341"></trkpt>
      <trkpt lat="50.63226" lon="-1.93306"></trkpt>
      <trkpt lat="50.63301" lon="-1.93245"></trkpt>
      <trkpt lat="50.63352" lon="-1.93212"></trkpt>
      <trkpt lat="50.63375" lon="-1.93192"></trkpt>
      <trkpt lat="50.6338" lon="-1.93188"></trkpt>
      <trkpt lat="50.63464" lon="-1.93141"></trkpt>
      <trkpt lat="50.63559" lon="-1.93051"></trkpt>
      <trkpt lat="50.63672" lon="-1.92954"></trkpt>
      <trkpt lat="50.63718" lon="-1.92902"></trkpt>
      <trkpt lat="50.63744" lon="-1.92855"></trkpt>
      <trkpt lat="50.63768" lon="-1.92824"></trkpt>
      <trkpt lat="50.63795" lon="-1.92804"></trkpt>
      <trkpt lat="50.63823" lon="-1.92788"></trkpt>
      <trkpt lat="50.63855" lon="-1.92762"></trkpt>
      <trkpt lat="50.639" lon="-1.92708"></trkpt>
      <trkpt lat="50.63938" lon="-1.92655"></trkpt>
      <trkpt lat="50.63937" lon="-1.92655"></trkpt>
      <trkpt lat="50.63968" lon="-1.92637"></trkpt>
      <trkpt lat="50.63996" lon="-1.92629"></trkpt>
      <trkpt lat="50.64052" lon="-1.92592"></trkpt>
      <trkpt lat="50.641" lon="-1.92554"></trkpt>
      <trkpt lat="50.64139" lon="-1.925"></trkpt>
      <trkpt lat="50.64166" lon="-1.92473"></trkpt>
      <trkpt lat="50.64178" lon="-1.92454"></trkpt>
      <trkpt lat="50.64181" lon="-1.92493"></trkpt>
      <trkpt lat="50.64178" lon="-1.92535"></trkpt>
      <trkpt lat="50.64165" lon="-1.92563"></trkpt>
      <trkpt lat="50.6416" lon="-1.92607"></trkpt>
      <trkpt lat="50.64159" lon="-1.92676"></trkpt>
      <trkpt lat="50.64154" lon="-1.92741"></trkpt>
      <trkpt lat="50.64156" lon="-1.92814"></trkpt>
      <trkpt lat="50.6417" lon="-1.92868"></trkpt>
      <trkpt lat="50.64171" lon="-1.92887"></trkpt>
      <trkpt lat="50.64162" lon="-1.92973"></trkpt>
      <trkpt lat="50.64149" lon="-1.93062"></trkpt>
      <trkpt lat="50.64147" lon="-1.9311"></trkpt>
      <trkpt lat="50.64158" lon="-1.93176"></trkpt>
      <trkpt lat="50.64164" lon="-1.93223"></trkpt>
      <trkpt lat="50.64161" lon="-1.93267"></trkpt>
      <trkpt lat="50.64135" lon="-1.93443"></trkpt>
      <trkpt lat="50.64123" lon="-1.93498"></trkpt>
      <trkpt lat="50.64103" lon="-1.93635"></trkpt>
      <trkpt lat="50.64099" lon="-1.93671"></trkpt>
      <trkpt lat="50.64098" lon="-1.93693"></trkpt>
      <trkpt lat="50.64098" lon="-1.93724"></trkpt>
      <trkpt lat="50.64094" lon="-1.93774"></trkpt>
      <trkpt lat="50.64089" lon="-1.93809"></trkpt>
      <trkpt lat="50.64086" lon="-1.93862"></trkpt>
      <trkpt lat="50.6408" lon="-1.93912"></trkpt>
      <trkpt lat="50.64076" lon="-1.93929"></trkpt>
      <trkpt lat="50.64063" lon="-1.93945"></trkpt>
      <trkpt lat="50.64054" lon="-1.93947"></trkpt>
      <trkpt lat="50.64044" lon="-1.94028"></trkpt>
      <trkpt lat="50.64041" lon="-1.94076"></trkpt>
      <trkpt lat="50.64047" lon="-1.94141"></trkpt>
      <trkpt lat="50.6409" lon="-1.94256"></trkpt>
      <trkpt lat="50.64093" lon="-1.94272"></trkpt>
      <trkpt lat="50.64105" lon="-1.94364"></trkpt>
      <trkpt lat="50.64122" lon="-1.94461"></trkpt>
      <trkpt lat="50.64127" lon="-1.9449"></trkpt>
      <trkpt lat="50.64134" lon="-1.94513"></trkpt>
      <trkpt lat="50.64149" lon="-1.94621"></trkpt>
      <trkpt lat="50.64148" lon="-1.9467"></trkpt>
      <trkpt lat="50.64152" lon="-1.94667"></trkpt>
      <trkpt lat="50.64157" lon="-1.94666"></trkpt>
      <trkpt lat="50.64174" lon="-1.94669"></trkpt>
      <trkpt lat="50.64186" lon="-1.94682"></trkpt>
      <trkpt lat="50.64203" lon="-1.94709"></trkpt>
      <trkpt lat="50.64234" lon="-1.94763"></trkpt>
      <trkpt lat="50.64264" lon="-1.94796"></trkpt>
      <trkpt lat="50.64305" lon="-1.94707"></trkpt>
      <trkpt lat="50.64305" lon="-1.94708"></trkpt>
      <trkpt lat="50.64344" lon="-1.94611"></trkpt>
      <trkpt lat="50.64376" lon="-1.94633"></trkpt>
      <trkpt lat="50.6441" lon="-1.94661"></trkpt>
      <trkpt lat="50.64428" lon="-1.94678"></trkpt>
      <trkpt lat="50.64474" lon="-1.94731"></trkpt>
      <trkpt lat="50.6449" lon="-1.94744"></trkpt>
      <trkpt lat="50.64501" lon="-1.94763"></trkpt>
      <trkpt lat="50.64502" lon="-1.94775"></trkpt>
      <trkpt lat="50.64509" lon="-1.94892"></trkpt>
      <trkpt lat="50.64507" lon="-1.94911"></trkpt>
      <trkpt lat="50.6449" lon="-1.95011"></trkpt>
      <trkpt lat="50.64491" lon="-1.95023"></trkpt>
      <trkpt lat="50.64493" lon="-1.9503"></trkpt>
      <trkpt lat="50.64506" lon="-1.95036"></trkpt>
      <trkpt lat="50.64508" lon="-1.95025"></trkpt>
      <trkpt lat="50.64518" lon="-1.95012"></trkpt>
      <trkpt lat="50.64523" lon="-1.95008"></trkpt>
      <trkpt lat="50.64532" lon="-1.95006"></trkpt>
      <trkpt lat="50.64545" lon="-1.95007"></trkpt>
      <trkpt lat="50.64567" lon="-1.95016"></trkpt>
      <trkpt lat="50.64577" lon="-1.95005"></trkpt>
      <trkpt lat="50.64621" lon="-1.95056"></trkpt>
      <trkpt lat="50.64622" lon="-1.9505"></trkpt>
      <trkpt lat="50.64634" lon="-1.95059"></trkpt>
      <trkpt lat="50.64648" lon="-1.95061"></trkpt>
      <trkpt lat="50.6466" lon="-1.95068"></trkpt>
      <trkpt lat="50.64675" lon="-1.95067"></trkpt>
      <trkpt lat="50.64673" lon="-1.95066"></trkpt>
      <trkpt lat="50.64679" lon="-1.95062"></trkpt>
      <trkpt lat="50.64695" lon="-1.95068"></trkpt>
      <trkpt lat="50.64713" lon="-1.9506"></trkpt>
      <trkpt lat="50.64732" lon="-1.95067"></trkpt>
      <trkpt lat="50.64763" lon="-1.95087"></trkpt>
      <trkpt lat="50.64778" lon="-1.95108"></trkpt>
      <trkpt lat="50.64797" lon="-1.95121"></trkpt>
      <trkpt lat="50.64812" lon="-1.95125"></trkpt>
      <trkpt lat="50.64837" lon="-1.95145"></trkpt>
      <trkpt lat="50.64837" lon="-1.95132"></trkpt>
      <trkpt lat="50.64842" lon="-1.95113"></trkpt>
      <trkpt lat="50.6486" lon="-1.95126"></trkpt>
      <trkpt lat="50.6493" lon="-1.95172"></trkpt>
      <trkpt lat="50.64947" lon="-1.95179"></trkpt>
      <trkpt lat="50.64959" lon="-1.9518"></trkpt>
      <trkpt lat="50.64967" lon="-1.95185"></trkpt>
      <trkpt lat="50.64974" lon="-1.95193"></trkpt>
      <trkpt lat="50.64981" lon="-1.9521"></trkpt>
      <trkpt lat="50.65023" lon="-1.95245"></trkpt>
      <trkpt lat="50.65039" lon="-1.95259"></trkpt>
      <trkpt lat="50.65078" lon="-1.95282"></trkpt>
      <trkpt lat="50.65109" lon="-1.95294"></trkpt>
      <trkpt lat="50.65181" lon="-1.953"></trkpt>
      <trkpt lat="50.65225" lon="-1.953"></trkpt>
      <trkpt lat="50.65245" lon="-1.95302"></trkpt>
      <trkpt lat="50.65275" lon="-1.95297"></trkpt>
      <trkpt lat="50.6536" lon="-1.95293"></trkpt>
      <trkpt lat="50.65385" lon="-1.95292"></trkpt>
      <trkpt lat="50.65437" lon="-1.95284"></trkpt>
      <trkpt lat="50.65539" lon="-1.95264"></trkpt>
      <trkpt lat="50.65566" lon="-1.95259"></trkpt>
      <trkpt lat="50.65645" lon="-1.95233"></trkpt>
      <trkpt lat="50.65714" lon="-1.952"></trkpt>
      <trkpt lat="50.65844" lon="-1.95129"></trkpt>
      <trkpt lat="50.65852" lon="-1.95147"></trkpt>
      <trkpt lat="50.65844" lon="-1.95129"></trkpt>
      <trkpt lat="50.65906" lon="-1.95092"></trkpt>
      <trkpt lat="50.66087" lon="-1.95005"></trkpt>
      <trkpt lat="50.6617" lon="-1.94952"></trkpt>
      <trkpt lat="50.66184" lon="-1.94941"></trkpt>
      <trkpt lat="50.66231" lon="-1.94901"></trkpt>
      <trkpt lat="50.66284" lon="-1.94863"></trkpt>
      <trkpt lat="50.66327" lon="-1.94836"></trkpt>
      <trkpt lat="50.66472" lon="-1.94725"></trkpt>
      <trkpt lat="50.66536" lon="-1.94679"></trkpt>
      <trkpt lat="50.66679" lon="-1.94564"></trkpt>
      <trkpt lat="50.66725" lon="-1.94519"></trkpt>
      <trkpt lat="50.66743" lon="-1.94501"></trkpt>
      <trkpt lat="50.66859" lon="-1.94398"></trkpt>
      <trkpt lat="50.66909" lon="-1.94347"></trkpt>
      <trkpt lat="50.66983" lon="-1.94282"></trkpt>
      <trkpt lat="50.67057" lon="-1.94227"></trkpt>
      <trkpt lat="50.67095" lon="-1.94204"></trkpt>
      <trkpt lat="50.67144" lon="-1.9419"></trkpt>
      <trkpt lat="50.67211" lon="-1.94176"></trkpt>
      <trkpt lat="50.67257" lon="-1.9417"></trkpt>
      <trkpt lat="50.67268" lon="-1.94168"></trkpt>
      <trkpt lat="50.67304" lon="-1.94171"></trkpt>
      <trkpt lat="50.67336" lon="-1.94184"></trkpt>
      <trkpt lat="50.67344" lon="-1.94189"></trkpt>
      <trkpt lat="50.67344" lon="-1.94227"></trkpt>
      <trkpt lat="50.6735" lon="-1.9428"></trkpt>
      <trkpt lat="50.67357" lon="-1.94282"></trkpt>
      <trkpt lat="50.67357" lon="-1.94292"></trkpt>
      <trkpt lat="50.67382" lon="-1.94307"></trkpt>
      <trkpt lat="50.67384" lon="-1.94338"></trkpt>
      <trkpt lat="50.67388" lon="-1.94366"></trkpt>
      <trkpt lat="50.6741" lon="-1.94431"></trkpt>
      <trkpt lat="50.67426" lon="-1.94464"></trkpt>
      <trkpt lat="50.67477" lon="-1.94541"></trkpt>
      <trkpt lat="50.6752" lon="-1.94592"></trkpt>
      <trkpt lat="50.67565" lon="-1.94654"></trkpt>
      <trkpt lat="50.67625" lon="-1.94744"></trkpt>
      <trkpt lat="50.67659" lon="-1.94773"></trkpt>
      <trkpt lat="50.67683" lon="-1.94808"></trkpt>
      <trkpt lat="50.67773" lon="-1.94894"></trkpt>
      <trkpt lat="50.67876" lon="-1.94953"></trkpt>
      <trkpt lat="50.67898" lon="-1.94969"></trkpt>
      <trkpt lat="50.67943" lon="-1.94988"></trkpt>
      <trkpt lat="50.67947" lon="-1.9502"></trkpt>
      <trkpt lat="50.67993" lon="-1.95004"></trkpt>
    </trkseg>
  </trk>
</gpx>
